scientificName,kingdom,family,vernacularName,previousIdentifications,individualCount,longitudeDecimal,latitudeDecimal,continent,country,countryCode,stateProvince,locality,eventDate,eventTime
Tyto alba,Animalia,BARN_OWLS_TYTONIDAE,Western Barn Owl,,1,1.03594779881,35.3445982035,Africa,Algeria,DZ,,Algeria - Tiaret,2014-05-10,10:55
Tyto alba,Animalia,BARN_OWLS_TYTONIDAE,Western Barn Owl,,1,1.03,35.34,Africa,Algeria,DZ,,Algeria - Tiaret,2014-05-10,10:55
Hyles livornica,Animalia,Sphingidae,Striped Hawk-moth,,1,2.55007266998,36.5739742613,Africa,Algeria,DZ,,Algeria - Tipaza,2014-04-20,
Pieris brassicae,Animalia,WHITES_PIERIDAE,Large White,,10,2.55116701126,36.5752322165,Africa,Algeria,DZ,,Algeria - Tipaza,2014-04-20,
Lycaena phlaeas,Animalia,GOSSAMERWINGED_BUTTERFLIES_LYCAENIDAE,Small Copper,,2,2.55041599274,36.5740431909,Africa,Algeria,DZ,,Algeria - Tipaza,2014-04-20,
Ficedula hypoleuca,Animalia,OLD_WORLD_FLYCATCHERS_MUSCICAPIDAE,European Pied Flycatcher,,1,2.55073785782,36.5757147145,Africa,Algeria,DZ,,Algeria - Tipaza,2014-04-20,
Iphiclides feisthamelii,Animalia,SWALLOWTAILS_PAPILIONIDAE,Iberian scarce swallowtail,,1,2.54990101,36.57390533,Africa,Algeria,DZ,,Algeria - Tipaza,2014-04-20,
Orthetrum chrysostigma,Animalia,SKIMMERS_LIBELLULIDAE,Epaulet Skimmer,,1,2.54990100861,36.5739053317,Africa,Algeria,DZ,,Algeria - Tipaza,2014-04-20,
Iphiclides feisthamelii,Animalia,SWALLOWTAILS_PAPILIONIDAE,Iberian scarce swallowtail,,1,2.45851278,36.59452978,Africa,Algeria,DZ,,Algeria - Tipaza Chenoua NP,2014-04-18,
Euchloe belemia,Animalia,WHITES_PIERIDAE,Green-striped White,,6,-0.133209228516,35.7654577982,Africa,Algeria,DZ,,Algeria - Oran,2014-04-12,
Himantopus himantopus,Animalia,STILTS_AND_AVOCETS_RECURVIROSTRIDAE,Black-winged Stilt,,120,-0.129089355469,35.7643434797,Africa,Algeria,DZ,,Algeria - Oran,2014-04-12,
Accipiter nisus,Animalia,HAWKS_AND_EAGLES_ACCIPITRIDAE,Eurasian Sparrowhawk,,1,2.44012356,36.59520166,Africa,Algeria,DZ,,Algeria - Tipaza Chenoua NP,2014-04-19,
Danaus chrysippus,Animalia,BRUSHFOOTED_BUTTERFLIES_NYMPHALIDAE,African Monarch,,1,2.76739597321,36.3595477575,Africa,Algeria,DZ,,Algeria - Chrea NP,2014-04-15,
Anthocharis belia,Animalia,WHITES_PIERIDAE,Moroccan Orange-tip,,1,2.71611213684,36.2960692493,Africa,Algeria,DZ,,Algeria - Chrea NP,2014-04-15,
Pieris brassicae,Animalia,WHITES_PIERIDAE,Large White,,1,2.71611213684,36.2960692493,Africa,Algeria,DZ,,Algeria - Chrea NP,2014-04-15,
Coenonympha pamphilus,Animalia,BRUSHFOOTED_BUTTERFLIES_NYMPHALIDAE,Small Heath,,1,2.71611213684,36.2960692493,Africa,Algeria,DZ,,Algeria - Chrea NP,2014-04-15,
Lasiommata megera,Animalia,BRUSHFOOTED_BUTTERFLIES_NYMPHALIDAE,Wall Brown,,1,2.3558807373,36.5767658603,Africa,Algeria,DZ,,Algeria - Tipaza,2014-04-17,
Vanessa atalanta,Animalia,BRUSHFOOTED_BUTTERFLIES_NYMPHALIDAE,Red Admiral,,1,2.37090110779,36.5721476049,Africa,Algeria,DZ,,Algeria - Tipaza,2014-04-17,
Lycaena phlaeas,Animalia,GOSSAMERWINGED_BUTTERFLIES_LYCAENIDAE,Small Copper,,2,2.3700428009,36.5749048055,Africa,Algeria,DZ,,Algeria - Tipaza,2014-04-17,
Polyommatus celina,Animalia,GOSSAMERWINGED_BUTTERFLIES_LYCAENIDAE,Southern Common Blue,,6,2.3700428009,36.5749048055,Africa,Algeria,DZ,,Algeria - Tipaza,2014-04-17,
Anthocharis belia,Animalia,WHITES_PIERIDAE,Moroccan Orange-tip,,5,2.3700428009,36.5749048055,Africa,Algeria,DZ,,Algeria - Tipaza,2014-04-17,
Pieris rapae,Animalia,WHITES_PIERIDAE,Small White,,20,2.3700428009,36.5749048055,Africa,Algeria,DZ,,Algeria - Tipaza,2014-04-17,
Pieris brassicae,Animalia,WHITES_PIERIDAE,Large White,,10,2.3700428009,36.5749048055,Africa,Algeria,DZ,,Algeria - Tipaza,2014-04-17,
Monticola solitarius,Animalia,OLD_WORLD_FLYCATCHERS_MUSCICAPIDAE,Blue Rock Thrush,,1,2.40643501282,36.619316626,Africa,Algeria,DZ,,Algeria - Tipaza,2014-04-17,
Sympecma fusca,Animalia,SPREADWINGS_LESTIDAE,Common Winter Damsel,,3,-0.127029418945,35.7682435263,Africa,Algeria,DZ,,Algeria - Oran,2014-04-12,
Crocothemis erythraea,Animalia,SKIMMERS_LIBELLULIDAE,Broad Scarlet,,50,-0.127029418945,35.7682435263,Africa,Algeria,DZ,,Algeria - Oran,2014-04-12,
Anax ephippiger,Animalia,DARNERS_AESHNIDAE,Vagrant Emperor,,50,-0.12393951416,35.7768786634,Africa,Algeria,DZ,,Algeria - Oran,2014-04-12,
Sympetrum fonscolombii,Animalia,SKIMMERS_LIBELLULIDAE,Red-veined Darter,,40,-0.123596191406,35.7766001252,Africa,Algeria,DZ,,Algeria - Oran,2014-04-12,
Lanius excubitor algeriensis,Animalia,SHRIKES_LANIIDAE,Dark Desert Grey Shrike,,1,-0.128746032715,35.7760430459,Africa,Algeria,DZ,,Algeria - Oran,2014-04-12,
Lanius senator,Animalia,SHRIKES_LANIIDAE,Woodchat Shrike,,1,-0.131149291992,35.7643434797,Africa,Algeria,DZ,,Algeria - Oran,2014-04-12,
Oenanthe hispanica,Animalia,OLD_WORLD_FLYCATCHERS_MUSCICAPIDAE,Western Black-eared Wheatear,,1,-0.137329101562,35.7565079866,Africa,Algeria,DZ,,Algeria - Oran,2014-04-12,
Athene noctua,Animalia,OWLS_STRIGIDAE,Little Owl,,1,-0.126428604126,35.7742325114,Africa,Algeria,DZ,,Algeria - Oran,2014-04-12,
Tachybaptus ruficollis,Animalia,GREBES_PODICIPEDIDAE,Little Grebe,,10,-0.126857757568,35.7802210453,Africa,Algeria,DZ,,Algeria - Oran,2014-04-12,
Burhinus oedicnemus,Animalia,THICKKNEES_BURHINIDAE,Eurasian Stone-curlew,,2,-0.13011932373,35.7664328142,Africa,Algeria,DZ,,Algeria - Oran,2014-04-12,
Marmaronetta angustirostris,Animalia,DUCKS_GEESE_AND_SWANS_ANATIDAE,Marbled Duck,,19,-0.124626159668,35.7803603082,Africa,Algeria,DZ,,Algeria - Oran,2014-04-12,
Plegadis falcinellus,Animalia,IBISSES_AND_SPOONBILLS_THRESKIORNITHIDAE,Glossy Ibis,,1,-0.124626159668,35.7715862713,Africa,Algeria,DZ,,Algeria - Oran,2014-04-12,
Bubulcus ibis,Animalia,HERONS_ARDEIDAE,Western Cattle Egret,,25,-0.132522583008,35.7623933846,Africa,Algeria,DZ,,Algeria - Oran,2014-04-12,
Ardea cinerea,Animalia,HERONS_ARDEIDAE,Grey Heron,,7,-0.124282836914,35.7754859628,Africa,Algeria,DZ,,Algeria - Oran,2014-04-12,
Phoenicopterus roseus,Animalia,FLAMINGOS_PHOENICOPTERIDAE,Greater Flamingo,,350,-0.123767852783,35.7644827703,Africa,Algeria,DZ,,Algeria - Oran,2014-04-12,
Aythya nyroca,Animalia,DUCKS_GEESE_AND_SWANS_ANATIDAE,Ferruginous Duck,,8,-0.126857757568,35.7819618136,Africa,Algeria,DZ,,Algeria - Oran,2014-04-12,
Oxyura leucocephala,Animalia,DUCKS_GEESE_AND_SWANS_ANATIDAE,White-headed Duck,,2,-0.126857757568,35.7819618136,Africa,Algeria,DZ,,Algeria - Oran,2014-04-12,
Lycaena phlaeas,Animalia,GOSSAMERWINGED_BUTTERFLIES_LYCAENIDAE,Small Copper,,1,-0.663031339645,35.7096007889,Africa,Algeria,DZ,,Algeria - Oran,2014-04-11,
Lasiommata megera,Animalia,BRUSHFOOTED_BUTTERFLIES_NYMPHALIDAE,Wall Brown,,1,-0.66303133964493,35.7096007889,Africa,Algeria,DZ,,Algeria - Oran,2014-04-11,
Papilio machaon,Animalia,SWALLOWTAILS_PAPILIONIDAE,Swallowtail,,1,-0.663031339645,35.7096007889,Africa,Algeria,DZ,,Algeria - Oran,2014-04-11,
Pararge aegeria,Animalia,BRUSHFOOTED_BUTTERFLIES_NYMPHALIDAE,Speckled Wood,,12,-0.889720916748,35.6263261306,Africa,Algeria,DZ,,Algeria - Oran,2014-04-10,
Colias crocea,Animalia,WHITES_PIERIDAE,Clouded Yellow,,5,-0.89075088501,35.6291167232,Africa,Algeria,DZ,,Algeria - Oran,2014-04-10,
Zerynthia rumina,Animalia,SWALLOWTAILS_PAPILIONIDAE,Spanish Festoon,,2,-0.885772705078,35.6277214391,Africa,Algeria,DZ,,Algeria - Oran,2014-04-10,
Pycnonotus barbatus,Animalia,BULBULS_PYCNONOTIDAE,Common Bulbul,,3,-0.885772705078,35.6277214391,Africa,Algeria,DZ,,Algeria - Oran,2014-04-10,
Lanius senator,Animalia,SHRIKES_LANIIDAE,Woodchat Shrike,,2,-0.889549255371,35.6280004978,Africa,Algeria,DZ,,Algeria - Oran,2014-04-10,
Emberiza calandra,Animalia,BUNTINGS_EMBERIZIDAE,Corn Bunting,,10,-0.888948440552,35.6258726501,Africa,Algeria,DZ,,Algeria - Oran,2014-04-10,
Scaeva pyrastri,Animalia,HOVER_FLIES_OR_FLOWER_FLIES_SYRPHIDAE,Pied hoverfly,,1,2.29099273682,36.5237427132,Africa,Algeria,DZ,,Algeria - Tipaza,2014-04-09,
Anthocharis belia,Animalia,WHITES_PIERIDAE,Moroccan Orange-tip,,1,2.29064941406,36.5242600196,Africa,Algeria,DZ,,Algeria - Tipaza,2014-04-09,
Euchloe crameri,Animalia,WHITES_PIERIDAE,Western Dappled White,,2,2.29064941406,36.5242600196,Africa,Algeria,DZ,,Algeria - Tipaza,2014-04-09,
Elanus caeruleus,Animalia,HAWKS_AND_EAGLES_ACCIPITRIDAE,Black-winged Kite,,1,2.35227584839,36.5463285395,Africa,Algeria,DZ,,Algeria - Tipaza,2014-04-09,
Circaetus gallicus,Animalia,HAWKS_AND_EAGLES_ACCIPITRIDAE,Short-toed Snake Eagle,,1,2.36703872681,36.5848643724,Africa,Algeria,DZ,,Algeria - Tipaza,2014-04-09,
Aquila fasciata,Animalia,HAWKS_AND_EAGLES_ACCIPITRIDAE,Bonelli's Eagle,,1,2.36703872681,36.5848643724,Africa,Algeria,DZ,,Algeria - Tipaza,2014-04-09,
Anthocharis belia,Animalia,WHITES_PIERIDAE,Moroccan Orange-tip,,20,2.36703872681,36.5848643724,Africa,Algeria,DZ,,Algeria - Tipaza,2014-04-09,
Iphiclides feisthamelii,Animalia,SWALLOWTAILS_PAPILIONIDAE,Iberian scarce swallowtail,,1,2.36703873,36.58486437,Africa,Algeria,DZ,,Algeria - Tipaza,2014-04-09,
Euchloe crameri,Animalia,WHITES_PIERIDAE,Western Dappled White,,5,2.36665248871,36.5843474715,Africa,Algeria,DZ,,Algeria - Tipaza,2014-04-09,
Callophrys rubi,Animalia,GOSSAMERWINGED_BUTTERFLIES_LYCAENIDAE,Green Hairstreak,,1,2.36993551254,36.5718718795,Africa,Algeria,DZ,,Algeria - Tipaza,2014-04-09,
Episyrphus balteatus,Animalia,HOVER_FLIES_OR_FLOWER_FLIES_SYRPHIDAE,Marmalade hoverfly,,1,2.4728679657,36.5909290847,Africa,Algeria,DZ,,Algeria - Tipaza Chenoua NP,2014-04-15,
Pieris brassicae,Animalia,WHITES_PIERIDAE,Large White,,1,2.45656013489,36.5942369088,Africa,Algeria,DZ,,Algeria - Tipaza Chenoua NP,2014-04-15,
Papilio machaon,Animalia,SWALLOWTAILS_PAPILIONIDAE,Swallowtail,,1,2.45862007141,36.5943058202,Africa,Algeria,DZ,,Algeria - Tipaza Chenoua NP,2014-04-15,
Charaxes jasius,Animalia,BRUSHFOOTED_BUTTERFLIES_NYMPHALIDAE,Two-tailed Pasha,,1,2.45741844177,36.594443643,Africa,Algeria,DZ,,Algeria - Tipaza Chenoua NP,2014-04-15,
Pararge aegeria,Animalia,BRUSHFOOTED_BUTTERFLIES_NYMPHALIDAE,Speckled Wood,,10,2.47226715088,36.5914803986,Africa,Algeria,DZ,,Algeria - Tipaza Chenoua NP,2014-04-15,
Pieris rapae,Animalia,WHITES_PIERIDAE,Small White,,8,2.47226715088,36.5914803986,Africa,Algeria,DZ,,Algeria - Tipaza Chenoua NP,2014-04-15,
Sylvia melanocephala,Animalia,OLD_WORLD_WARBLERS_SYLVIIDAE,Sardinian Warbler,,1,2.47080802917,36.5940301739,Africa,Algeria,DZ,,Algeria - Tipaza Chenoua NP,2014-04-15,
Streptopelia turtur,Animalia,PIGEONS_AND_DOVES_COLUMBIDAE,European Turtle Dove,,1,2.47252464294,36.5912047421,Africa,Algeria,DZ,,Algeria - Tipaza Chenoua NP,2014-04-15,
Monticola solitarius,Animalia,OLD_WORLD_FLYCATCHERS_MUSCICAPIDAE,Blue Rock Thrush,,1,2.47080802917,36.5939612622,Africa,Algeria,DZ,,Algeria - Tipaza Chenoua NP,2014-04-15,
Ophrys speculum,Plantae,ORCHIDACEAE,Mirror Bee Orchid,,30,2.55,36.57,Africa,Algeria,DZ,,Algeria - Tipaza,2014-04-15,
Pistacia lentiscus,Plantae,ANACARDIACEAE,Mastic tree,,4,2.55278706551,36.5754303857,Africa,Algeria,DZ,,Algeria - Tipaza,2014-04-15,
Fringilla coelebs africana,Animalia,FINCHES_FRINGILLIDAE,Atlas Chaffinch,,1,2.55303382874,36.5743964541,Africa,Algeria,DZ,,Algeria - Tipaza,2014-04-15,
Sylvia melanocephala,Animalia,OLD_WORLD_WARBLERS_SYLVIIDAE,Sardinian Warbler,,4,2.55303382874,36.5743964541,Africa,Algeria,DZ,,Algeria - Tipaza,2014-04-15,
Papilio machaon,Animalia,SWALLOWTAILS_PAPILIONIDAE,Swallowtail,,4,2.55227208138,36.5754045376,Africa,Algeria,DZ,,Algeria - Tipaza,2014-04-15,
Eucalyptus spec.,Plantae,MYRTACEAE,,,1,6.47066116311,35.4862119895,Africa,Algeria,DZ,,Algeria - Batna,1982-10-30,
Citrullus colocynthis,Plantae,CUCURBITACEAE,Colocynth,,1,8.52722165175,26.5594184804,Africa,Algeria,DZ,,Algeria - Illizi,1982-10-20,
Cerastes vipera,Animalia,Viperidae,Sahara Sand Viper,,1,6.76734925713,33.2752344909,Africa,Algeria,DZ,,Algeria - El Oued,1982-10-15,
Phoenix dactylifera,Plantae,Arecaceae,Date Palm,,1,6.89037323697,33.4101360704,Africa,Algeria,DZ,,Algeria - El Oued,1982-10-15,
Gypaetus barbatus,Animalia,HAWKS_AND_EAGLES_ACCIPITRIDAE,Bearded Vulture,,1,-0.117988362908,35.7795943594,Africa,Algeria,DZ,,Algeria - Oran,2013-10-25,16:16
Calidris canutus,Animalia,SANDPIPERS_AND_ALLIES_SCOLOPACIDAE,Red Knot,,1,-0.611048284918,35.6600160227,Africa,Algeria,DZ,,Algeria - Oran,2013-09-12,16:35
Oxyura leucocephala,Animalia,DUCKS_GEESE_AND_SWANS_ANATIDAE,White-headed Duck,,2,3.3391007781,36.7687985183,Africa,Algeria,DZ,,Algeria - Boumerdès,2013-10-17,17:52
Phoenicopterus roseus,Animalia,FLAMINGOS_PHOENICOPTERIDAE,Greater Flamingo,,50,-0.137441754341,35.7492986514,Africa,Algeria,DZ,,Algeria - Oran,2013-10-10,18:44
Platalea leucorodia,Animalia,IBISSES_AND_SPOONBILLS_THRESKIORNITHIDAE,Eurasian Spoonbill,,20,-0.113438665867,35.7704720386,Africa,Algeria,DZ,,Algeria - Oran,2013-10-10,18:31
Haematopus ostralegus,Animalia,OYSTERCATCHERS_HAEMATOPODIDAE,Eurasian Oystercatcher,,4,-0.125116081908,35.7779101166,Africa,Algeria,DZ,,Algeria - Oran,2013-10-10,18:03
Circus aeruginosus,Animalia,HAWKS_AND_EAGLES_ACCIPITRIDAE,Western Marsh Harrier,,3,-0.125738270581,35.7782452272,Africa,Algeria,DZ,,Algeria - Oran,2013-10-10,16:02
Ardea cinerea,Animalia,HERONS_ARDEIDAE,Grey Heron,,50,-0.123932138085,35.7786195049,Africa,Algeria,DZ,,Algeria - Oran,2013-10-07,18:26
Ciconia ciconia,Animalia,STORKS_CICONIIDAE,White Stork,,10,-0.12310937047,35.7753118735,Africa,Algeria,DZ,,Algeria - Oran,2013-10-07,18:13
Bubulcus ibis,Animalia,HERONS_ARDEIDAE,Western Cattle Egret,,100,-0.124897733331,35.7784628307,Africa,Algeria,DZ,,Algeria - Oran,2013-10-07,18:08
Circus aeruginosus,Animalia,HAWKS_AND_EAGLES_ACCIPITRIDAE,Western Marsh Harrier,,3,-0.125541631132,35.7782974521,Africa,Algeria,DZ,,Algeria - Oran,2013-10-07,17:37
Limosa lapponica,Animalia,SANDPIPERS_AND_ALLIES_SCOLOPACIDAE,Bar-tailed Godwit,,3,-0.119590647519,35.7863744904,Africa,Algeria,DZ,,Algeria - Oran,2013-09-21,18:58
Himantopus himantopus,Animalia,STILTS_AND_AVOCETS_RECURVIROSTRIDAE,Black-winged Stilt,,50,-0.126025350764,35.7777664973,Africa,Algeria,DZ,,Algeria - Oran,2013-09-21,18:17
Tachybaptus ruficollis,Animalia,GREBES_PODICIPEDIDAE,Little Grebe,,1,-0.130327614024,35.7816027833,Africa,Algeria,DZ,,Algeria - Oran,2013-09-21,
Chroicocephalus ridibundus,Animalia,GULLS_TERNS_AND_SKIMMERS_LARIDAE,Black-headed Gull,,1,-0.610646875575,35.6597828406,Africa,Algeria,DZ,,Algeria - Oran,2013-09-17,18:15
Phoenicopterus roseus,Animalia,FLAMINGOS_PHOENICOPTERIDAE,Greater Flamingo,,100,-0.610695155337,35.6598220675,Africa,Algeria,DZ,,Algeria - Oran,2013-09-17,17:57
Fulica atra,Animalia,RAILS_RALLIDAE,Eurasian Coot,,2,-0.610775621608,35.6598961628,Africa,Algeria,DZ,,Algeria - Oran,2013-09-17,17:53
Recurvirostra avosetta,Animalia,STILTS_AND_AVOCETS_RECURVIROSTRIDAE,Pied Avocet,,1,-0.610915096477,35.6600269191,Africa,Algeria,DZ,,Algeria - Oran,2013-09-19,17:44
Himantopus himantopus,Animalia,STILTS_AND_AVOCETS_RECURVIROSTRIDAE,Black-winged Stilt,,10,-0.610713930801,35.6597806613,Africa,Algeria,DZ,,Algeria - Oran,2013-09-17,16:26
Spatula clypeata,Animalia,DUCKS_GEESE_AND_SWANS_ANATIDAE,Northern Shoveler,,5,-0.610695155337,35.6597654064,Africa,Algeria,DZ,,Algeria - Oran,2013-09-17,16:13
Spatula clypeata,Animalia,DUCKS_GEESE_AND_SWANS_ANATIDAE,Northern Shoveler,,10,-0.610646875575,35.6598198882,Africa,Algeria,DZ,,Algeria - Oran,2013-09-13,18:08
Himantopus himantopus,Animalia,STILTS_AND_AVOCETS_RECURVIROSTRIDAE,Black-winged Stilt,,1,-0.610565487295,35.6598198882,Africa,Algeria,DZ,,Algeria - Oran,2013-09-13,17:49
Himantopus himantopus,Animalia,STILTS_AND_AVOCETS_RECURVIROSTRIDAE,Black-winged Stilt,,100,-0.610565487295,35.6598198882,Africa,Algeria,DZ,,Algeria - Oran,2013-09-13,
Phoenicopterus roseus,Animalia,FLAMINGOS_PHOENICOPTERIDAE,Greater Flamingo,,100,-0.610726419836,35.6599114177,Africa,Algeria,DZ,,Algeria - Oran,2013-09-13,17:08
Plegadis falcinellus,Animalia,IBISSES_AND_SPOONBILLS_THRESKIORNITHIDAE,Glossy Ibis,,11,-0.125378938392,35.7780363272,Africa,Algeria,DZ,,Algeria - Oran,2013-10-07,17:22
Anax parthenope,Animalia,DARNERS_AESHNIDAE,Lesser Emperor,,1,3.33904445171,36.7683172296,Africa,Algeria,DZ,,Algeria - Boumerdès,2013-09-27,16:00
Danaus chrysippus chrysippus,Animalia,BRUSHFOOTED_BUTTERFLIES_NYMPHALIDAE,,,2,3.33798497915,36.7619226787,Africa,Algeria,DZ,,Algeria - Boumerdès,2013-09-27,16:30
Pandion haliaetus,Animalia,OSPREY_PANDIONIDAE,Western Osprey,,1,6.51618003845,35.529013153,Africa,Algeria,DZ,,Algeria - Batna,2012-04-22,16:25
Strix mauritanica,Animalia,OWLS_STRIGIDAE,Maghreb Owl,,1,4.105389,36.703337,Africa,Algeria,DZ,,Algeria - Tizi Ouzou,2013-06-22,23:17
Sitta ledanti,Animalia,NUTHATCHES_SITTIDAE,Algerian Nuthatch,,2,5.44111,36.51198,Africa,Algeria,DZ,,Algeria - Béjaïa,1981-07-01,
Lanius excubitor algeriensis,Animalia,SHRIKES_LANIIDAE,Dark Desert Grey Shrike,,1,-0.707437,35.608727,Africa,Algeria,DZ,,Algeria - Oran,2013-04-15,12:44
Emberiza calandra,Animalia,BUNTINGS_EMBERIZIDAE,Corn Bunting,,1,-0.850045,35.658885,Africa,Algeria,DZ,,Algeria - Oran,2013-04-15,13:22
Emberiza calandra,Animalia,BUNTINGS_EMBERIZIDAE,Corn Bunting,,2,-0.837364,35.665558,Africa,Algeria,DZ,,Algeria - Oran,2013-04-15,13:25
Tadorna ferruginea,Animalia,DUCKS_GEESE_AND_SWANS_ANATIDAE,Ruddy Shelduck,,2,-0.579185,32.742058,Africa,Algeria,DZ,,Algeria - Naama,2013-04-17,14:35
Ictonyx libycus,Animalia,WEASELS_AND_RELATIVES_MUSTELIDAE,Libyan Striped Weasel,,1,0.10763099999997,34.018102,Africa,Algeria,DZ,,Algeria - El Bayadh,2013-04-19,18:58
Pandion haliaetus,Animalia,OSPREY_PANDIONIDAE,Western Osprey,,1,-0.99881172180176,35.661759419295,Africa,Algeria,DZ,,Algeria - Oran,2007-06-21,
Pandion haliaetus,Animalia,OSPREY_PANDIONIDAE,Western Osprey,,1,-0.99881172180176,35.661759419295,Africa,Algeria,DZ,,Algeria - Oran,2007-06-21,
Pandion haliaetus,Animalia,OSPREY_PANDIONIDAE,Western Osprey,,1,-0.99881172180176,35.661759419295,Africa,Algeria,DZ,,Algeria - Oran,2007-06-21,
Phoenicurus moussieri,Animalia,OLD_WORLD_FLYCATCHERS_MUSCICAPIDAE,Moussier's Redstart,,1,7.7783203125,36.009117161173,Africa,Algeria,DZ,,Algeria - Souk Ahras,2013-04-02,
Emberiza calandra,Animalia,BUNTINGS_EMBERIZIDAE,Corn Bunting,,1,8.5137176513672,36.89664534785,Africa,Algeria,DZ,,Algeria - El Kala NP,2012-04-30,10:00
Ardeola ralloides,Animalia,HERONS_ARDEIDAE,Squacco Heron,,5,8.5061645507812,36.843361734384,Africa,Algeria,DZ,,Algeria - El Kala NP,2012-04-30,10:00
Neophron percnopterus,Animalia,HAWKS_AND_EAGLES_ACCIPITRIDAE,Egyptian Vulture,,15,7.8806638415817165,36.122294727395015,Africa,Algeria,DZ,,Algeria - Souk Ahras,2013-04-01,
Milvus migrans,Animalia,HAWKS_AND_EAGLES_ACCIPITRIDAE,Black Kite,,10,39.0,36.16504,Africa,Algeria,DZ,,Algeria - Souk Ahras,2012-04-28,16:00
Falco peregrinus brookei,Animalia,CARACAS_AND_FALCONS_FALCONIDAE,Peregrine Falcon ssp brookei,,1,3.0748522281647,36.746733483403,Africa,Algeria,DZ,,Algeria - Alger,2013-01-09,09:15
Bubulcus ibis,Animalia,HERONS_ARDEIDAE,Western Cattle Egret,,26,4.2062727356097,36.773413907103,Africa,Algeria,DZ,,Algeria - Tizi Ouzou,2012-10-20,09:00
Charadrius dubius,Animalia,PLOVERS_CHARADRIIDAE,Little Ringed Plover,,7,4.2075743076566,36.772857695746,Africa,Algeria,DZ,,Algeria - Tizi Ouzou,2012-10-20,
Oenanthe leucopyga,Animalia,OLD_WORLD_FLYCATCHERS_MUSCICAPIDAE,White-crowned Wheatear,,2,6.4860534667969,21.823257624834,Africa,Algeria,DZ,,Algeria - Tamanghasset,2004-12-28,13:41
Trithemis kirbyi,Animalia,SKIMMERS_LIBELLULIDAE,Orange-winged Dropwing,,1,5.71444053078,23.5070169607,Africa,Algeria,DZ,,Algeria - Tamanghasset,2011-01-02,
Trithemis arteriosa,Animalia,SKIMMERS_LIBELLULIDAE,Red-veined Dropwing,,1,6.40520591164,22.3967470191,Africa,Algeria,DZ,,Algeria - Tamanghasset,2010-12-31,
Procavia capensis,Animalia,HYRAXES_PROCAVIIDAE,Common Rock Hyrax,,20,5.20494956398,22.96693038,Africa,Algeria,DZ,,Algeria - Tamanghasset,2011-01-07,
Neophron percnopterus,Animalia,HAWKS_AND_EAGLES_ACCIPITRIDAE,Egyptian Vulture,,3,5.05388755226,24.1226304557,Africa,Algeria,DZ,,Algeria - Tamanghasset,2011-01-07,
Pterocles coronatus,Animalia,SANDGROUSE_PTEROCLIDAE,Crowned Sandgrouse,,150,5.05388755226,24.1226304557,Africa,Algeria,DZ,,Algeria - Tamanghasset,2011-01-07,
Sylvia deserticola,Animalia,OLD_WORLD_WARBLERS_SYLVIIDAE,Tristram's Warbler,,1,5.51531333351,25.0566800136,Africa,Algeria,DZ,,Algeria - Tamanghasset,2011-01-06,
Argya fulva,Animalia,Leiothrichidae,Fulvous Babbler,,9,5.68010825539,24.7776969469,Africa,Algeria,DZ,,Algeria - Tamanghasset,2011-01-05,
Pontia glauconome,Animalia,WHITES_PIERIDAE,Desert White,,1,5.66362876,24.20783089,Africa,Algeria,DZ,,Algeria - Tamanghasset,2011-01-05,
Neophron percnopterus,Animalia,HAWKS_AND_EAGLES_ACCIPITRIDAE,Egyptian Vulture,,1,5.6636287632,24.2078308914,Africa,Algeria,DZ,,Algeria - Tamanghasset,2011-01-04,
Ammotragus lervia,Animalia,BOVIDS_BOVIDAE,Aoudad,,1,5.66,24.2,Africa,Algeria,DZ,,Algeria - Tamanghasset,2011-01-04,
Ammotragus lervia,Animalia,BOVIDS_BOVIDAE,Aoudad,,1,5.66,24.2,Africa,Algeria,DZ,,Algeria - Tamanghasset,2011-01-04,
Oenanthe leucopyga leucopyga,Animalia,OLD_WORLD_FLYCATCHERS_MUSCICAPIDAE,White-crowned Wheatear ssp leucopyga,,1,6.99846763039,22.559173509,Africa,Algeria,DZ,,Algeria - Tamanghasset,2011-01-01,
Ammomanes deserti,Animalia,LARKS_ALAUDIDAE,Desert Lark,,1,6.35027427101,22.4526026081,Africa,Algeria,DZ,,Algeria - Tamanghasset,2010-12-31,
Pterocles lichtensteinii,Animalia,SANDGROUSE_PTEROCLIDAE,Lichtenstein's Sandgrouse,,6,6.35027427101,22.4526026081,Africa,Algeria,DZ,,Algeria - Tamanghasset,2010-12-31,
Lanius excubitor elegans,Animalia,SHRIKES_LANIIDAE,Desert Grey Shrike,,1,6.66338462257,22.3459497294,Africa,Algeria,DZ,,Algeria - Tamanghasset,2010-12-31,
Corvus ruficollis,Animalia,CROWS_AND_JAYS_CORVIDAE,Brown-necked Raven,,2,6.66338462257,22.3459497294,Africa,Algeria,DZ,,Algeria - Tamanghasset,2010-12-31,
Oenanthe leucopyga leucopyga,Animalia,OLD_WORLD_FLYCATCHERS_MUSCICAPIDAE,White-crowned Wheatear ssp leucopyga,,1,6.66338462257,22.3459497294,Africa,Algeria,DZ,,Algeria - Tamanghasset,2010-12-31,
Hyles livornica,Animalia,Sphingidae,Striped Hawk-moth,,3,6.66338462257,22.3459497294,Africa,Algeria,DZ,,Algeria - Tamanghasset,2010-12-31,
Ptyonoprogne obsoleta,Animalia,SWALLOWS_HIRUNDINIDAE,Pale Crag Martin,,1,5.50432700539,22.7923265843,Africa,Algeria,DZ,,Algeria - Tamanghasset,2010-12-31,
Oenanthe isabellina,Animalia,OLD_WORLD_FLYCATCHERS_MUSCICAPIDAE,Isabelline Wheatear,,1,-5.6929779052734,29.83528331071,Africa,Algeria,DZ,,Algeria / Algerije,2007-03-04,
Alaemon alaudipes,Animalia,LARKS_ALAUDIDAE,Greater Hoopoe-Lark,,1,-5.6661987304688,29.860892417729,Africa,Algeria,DZ,,Algeria / Algerije,2007-03-05,
Sitta europaea,Animalia,NUTHATCHES_SITTIDAE,Eurasian Nuthatch,,2,1.834109032026235,35.7859306227855,Africa,Algeria,DZ,,Algeria - Tissemsilt,2020-03-02,09:30
Oenanthe leucopyga,Animalia,OLD_WORLD_FLYCATCHERS_MUSCICAPIDAE,White-crowned Wheatear,,1,-8.3379000602,27.6609061053,Africa,Algeria,DZ,,Algeria - Tindouf,2010-03-30,
Oenanthe leucopyga,Animalia,OLD_WORLD_FLYCATCHERS_MUSCICAPIDAE,White-crowned Wheatear,,1,-8.341483632,27.6568699479,Africa,Algeria,DZ,,Algeria - Tindouf,2010-03-30,
Anthus spinoletta,Animalia,PIPITS_EN_WAGTAILS_MOTACILLIDAE,Water Pipit,,1,-0.12473345,35.7788197,Africa,Algeria,DZ,,Algeria - Oran,2020-01-02,
Cornu aspersum,Animalia,Helicidae,Garden Snail,,1,4.03171166666667,36.8030983333333,Africa,Algeria,DZ,,Algeria - Boumerdès,2019-08-27,21:24
Sitta europaea hispaniensis,Animalia,NUTHATCHES_SITTIDAE,Eurasian Nuthatch ssp hispaniensis,,1,1.8572918614473966,35.75134944490746,Africa,Algeria,DZ,,Algeria - Tissemsilt,2019-06-05,09:00
Rhodopechys alienus,Animalia,FINCHES_FRINGILLIDAE,African Crimson-winged Finch,,2,2.85,36.21,Africa,Algeria,DZ,,Algeria - Médéa,2019-01-05,10:00
Rhodopechys alienus,Animalia,FINCHES_FRINGILLIDAE,African Crimson-winged Finch,,2,2.85161081,36.21822605,Africa,Algeria,DZ,,Algeria - Médéa,2019-01-05,10:00
Phoenicurus moussieri,Animalia,OLD_WORLD_FLYCATCHERS_MUSCICAPIDAE,Moussier's Redstart,,2,2.97766356,36.1623786,Africa,Algeria,DZ,,Algeria - Médéa,2019-05-30,14:00
Motacilla cinerea,Animalia,PIPITS_EN_WAGTAILS_MOTACILLIDAE,Grey Wagtail,,2,3.06944143,36.23988886,Africa,Algeria,DZ,,Algeria - Médéa,2019-05-30,11:00
Motacilla cinerea,Animalia,PIPITS_EN_WAGTAILS_MOTACILLIDAE,Grey Wagtail,,2,3.06944143,36.23988886,Africa,Algeria,DZ,,Algeria - Médéa,2019-05-30,11:00
Pycnonotus barbatus barbatus,Animalia,BULBULS_PYCNONOTIDAE,Common Bulbul ssp barbatus,,1,6.08305168151855,36.4992561340332,Africa,Algeria,DZ,,Algeria - Mila,2019-06-01,07:15
Phoenicurus moussieri,Animalia,OLD_WORLD_FLYCATCHERS_MUSCICAPIDAE,Moussier's Redstart,,1,5.90223455429077,36.5707588195801,Africa,Algeria,DZ,,Algeria - Jijel,2019-06-01,08:15
Ficedula speculigera,Animalia,OLD_WORLD_FLYCATCHERS_MUSCICAPIDAE,Atlas Pied Flycatcher,,1,5.89618301391602,36.5675468444824,Africa,Algeria,DZ,,Algeria - Jijel,2019-06-01,08:47
Certhia brachydactyla mauritanica,Animalia,TREECREEPERS_CERTHIIDAE,Short-toed Treecreeper ssp mauritanica,,1,5.89555644989014,36.5671043395996,Africa,Algeria,DZ,,Algeria - Jijel,2019-06-01,08:58
Sitta ledanti,Animalia,NUTHATCHES_SITTIDAE,Algerian Nuthatch,,1,5.89509248733521,36.5646705627441,Africa,Algeria,DZ,,Algeria - Jijel,2019-06-01,09:25
Hieraaetus pennatus,Animalia,HAWKS_AND_EAGLES_ACCIPITRIDAE,Booted Eagle,,1,5.89587259292603,36.5645790100098,Africa,Algeria,DZ,,Algeria - Jijel,2019-06-01,10:50
Garrulus glandarius cervicalis,Animalia,CROWS_AND_JAYS_CORVIDAE,Eurasian Jay ssp cervicalis,,1,5.8955249786377,36.5621871948242,Africa,Algeria,DZ,,Algeria - Jijel,2019-06-01,11:52
Parus major excelsus,Animalia,TITS_PARIDAE,Great Tit ssp excelsus,,1,5.8954815864563,36.5621757507324,Africa,Algeria,DZ,,Algeria - Jijel,2019-06-01,11:52
Lanius senator senator,Animalia,SHRIKES_LANIIDAE,Woodchat Shrike ssp senator,,1,6.10487604141235,36.495964050293,Africa,Algeria,DZ,,Algeria - Mila,2019-06-01,14:46
Egretta garzetta,Animalia,HERONS_ARDEIDAE,Little Egret,,1,6.10487174987793,36.4959678649902,Africa,Algeria,DZ,,Algeria - Mila,2019-06-01,14:47
Passer hispaniolensis,Animalia,OLD_WORLD_SPARROWS_PASSERIDAE,Spanish Sparrow,,1,6.42162609100342,36.3808326721191,Africa,Algeria,DZ,,Algeria - Constantine,2019-06-01,17:23
Coloeus monedula cirtensis,Animalia,CROWS_AND_JAYS_CORVIDAE,Western Jackdaw ssp cirtensis,,10,6.61397171020508,36.3734321594238,Africa,Algeria,DZ,,Algeria - Constantine,2019-06-01,18:06
Falco peregrinus brookei,Animalia,CARACAS_AND_FALCONS_FALCONIDAE,Peregrine Falcon ssp brookei,,1,6.61431360244751,36.3707962036133,Africa,Algeria,DZ,,Algeria - Constantine,2019-06-01,18:40
Monticola solitarius,Animalia,OLD_WORLD_FLYCATCHERS_MUSCICAPIDAE,Blue Rock Thrush,,1,6.61329650878906,36.3751602172852,Africa,Algeria,DZ,,Algeria - Constantine,2019-06-01,18:56
Oxyura leucocephala,Animalia,DUCKS_GEESE_AND_SWANS_ANATIDAE,White-headed Duck,,1,6.62591826170683,36.2163273401729,Africa,Algeria,DZ,,Algeria - Constantine,2019-06-02,06:05
Anas platyrhynchos,Animalia,DUCKS_GEESE_AND_SWANS_ANATIDAE,Mallard,,1,6.62591826170683,36.2163273401729,Africa,Algeria,DZ,,Algeria - Constantine,2019-06-02,06:06
Serinus serinus,Animalia,FINCHES_FRINGILLIDAE,European Serin,,1,6.65838670730591,36.3969078063965,Africa,Algeria,DZ,,Algeria - Constantine,2019-06-02,07:12
Emberiza cirlus,Animalia,BUNTINGS_EMBERIZIDAE,Cirl Bunting,,1,6.66025495529175,36.4021263122559,Africa,Algeria,DZ,,Algeria - Constantine,2019-06-02,08:21
Otus scops scops,Animalia,OWLS_STRIGIDAE,Eurasian Scops Owl ssp scops,,1,6.66510629653931,36.399169921875,Africa,Algeria,DZ,,Algeria - Constantine,2019-06-02,09:45
Pycnonotus barbatus barbatus,Animalia,BULBULS_PYCNONOTIDAE,Common Bulbul ssp barbatus,,1,6.08305168151855,36.4992561340332,Africa,Algeria,DZ,,Algeria - Mila,2019-06-01,07:15
Phoenicurus moussieri,Animalia,OLD_WORLD_FLYCATCHERS_MUSCICAPIDAE,Moussier's Redstart,,1,5.90223455429077,36.5707588195801,Africa,Algeria,DZ,,Algeria - Jijel,2019-06-01,08:15
Ficedula speculigera,Animalia,OLD_WORLD_FLYCATCHERS_MUSCICAPIDAE,Atlas Pied Flycatcher,,1,5.89618301391602,36.5675468444824,Africa,Algeria,DZ,,Algeria - Jijel,2019-06-01,08:47
Certhia brachydactyla mauritanica,Animalia,TREECREEPERS_CERTHIIDAE,Short-toed Treecreeper ssp mauritanica,,1,5.89555644989014,36.5671043395996,Africa,Algeria,DZ,,Algeria - Jijel,2019-06-01,08:58
Sitta ledanti,Animalia,NUTHATCHES_SITTIDAE,Algerian Nuthatch,,1,5.89509248733521,36.5646705627441,Africa,Algeria,DZ,,Algeria - Jijel,2019-06-01,09:25
Hieraaetus pennatus,Animalia,HAWKS_AND_EAGLES_ACCIPITRIDAE,Booted Eagle,,1,5.89587259292603,36.5645790100098,Africa,Algeria,DZ,,Algeria - Jijel,2019-06-01,10:50
Garrulus glandarius cervicalis,Animalia,CROWS_AND_JAYS_CORVIDAE,Eurasian Jay ssp cervicalis,,1,5.8955249786377,36.5621871948242,Africa,Algeria,DZ,,Algeria - Jijel,2019-06-01,11:52
Parus major excelsus,Animalia,TITS_PARIDAE,Great Tit ssp excelsus,,1,5.8954815864563,36.5621757507324,Africa,Algeria,DZ,,Algeria - Jijel,2019-06-01,11:52
Lanius senator senator,Animalia,SHRIKES_LANIIDAE,Woodchat Shrike ssp senator,,1,6.10487604141235,36.495964050293,Africa,Algeria,DZ,,Algeria - Mila,2019-06-01,14:46
Egretta garzetta,Animalia,HERONS_ARDEIDAE,Little Egret,,1,6.10487174987793,36.4959678649902,Africa,Algeria,DZ,,Algeria - Mila,2019-06-01,14:47
Passer hispaniolensis,Animalia,OLD_WORLD_SPARROWS_PASSERIDAE,Spanish Sparrow,,1,6.42162609100342,36.3808326721191,Africa,Algeria,DZ,,Algeria - Constantine,2019-06-01,17:23
Coloeus monedula cirtensis,Animalia,CROWS_AND_JAYS_CORVIDAE,Western Jackdaw ssp cirtensis,,10,6.61397171020508,36.3734321594238,Africa,Algeria,DZ,,Algeria - Constantine,2019-06-01,18:06
Falco peregrinus brookei,Animalia,CARACAS_AND_FALCONS_FALCONIDAE,Peregrine Falcon ssp brookei,,1,6.61431360244751,36.3707962036133,Africa,Algeria,DZ,,Algeria - Constantine,2019-06-01,18:40
Monticola solitarius,Animalia,OLD_WORLD_FLYCATCHERS_MUSCICAPIDAE,Blue Rock Thrush,,1,6.61329650878906,36.3751602172852,Africa,Algeria,DZ,,Algeria - Constantine,2019-06-01,18:56
Oxyura leucocephala,Animalia,DUCKS_GEESE_AND_SWANS_ANATIDAE,White-headed Duck,,1,6.62591826170683,36.2163273401729,Africa,Algeria,DZ,,Algeria - Constantine,2019-06-02,06:05
Anas platyrhynchos,Animalia,DUCKS_GEESE_AND_SWANS_ANATIDAE,Mallard,,1,6.62591826170683,36.2163273401729,Africa,Algeria,DZ,,Algeria - Constantine,2019-06-02,06:06
Serinus serinus,Animalia,FINCHES_FRINGILLIDAE,European Serin,,1,6.65838670730591,36.3969078063965,Africa,Algeria,DZ,,Algeria - Constantine,2019-06-02,07:12
Emberiza cirlus,Animalia,BUNTINGS_EMBERIZIDAE,Cirl Bunting,,1,6.66025495529175,36.4021263122559,Africa,Algeria,DZ,,Algeria - Constantine,2019-06-02,08:21
Otus scops scops,Animalia,OWLS_STRIGIDAE,Eurasian Scops Owl ssp scops,,1,6.66510629653931,36.399169921875,Africa,Algeria,DZ,,Algeria - Constantine,2019-06-02,09:45
Ficedula speculigera,Animalia,OLD_WORLD_FLYCATCHERS_MUSCICAPIDAE,Atlas Pied Flycatcher,,10,5.895961852726538,36.56577159313698,Africa,Algeria,DZ,,Algeria - Jijel,2019-05-31,09:38
Sitta ledanti,Animalia,NUTHATCHES_SITTIDAE,Algerian Nuthatch,,8,5.895726911165415,36.56573363085501,Africa,Algeria,DZ,,Algeria - Jijel,2019-05-31,09:36
Hieraaetus pennatus,Animalia,HAWKS_AND_EAGLES_ACCIPITRIDAE,Booted Eagle,,1,5.90701717941993,36.57717591830445,Africa,Algeria,DZ,,Algeria - Jijel,2019-05-31,08:25
Phoenicurus moussieri,Animalia,OLD_WORLD_FLYCATCHERS_MUSCICAPIDAE,Moussier's Redstart,,2,5.946579904459834,36.56899372709252,Africa,Algeria,DZ,,Algeria - Jijel,2019-05-31,08:09
Parus major excelsus,Animalia,TITS_PARIDAE,Great Tit ssp excelsus,,10,5.89717245,36.56447983,Africa,Algeria,DZ,,Algeria - Jijel,2019-05-25,11:27
Fulica atra atra,Animalia,RAILS_RALLIDAE,Eurasian Coot ssp atra,,18,6.47596707,36.40375937,Africa,Algeria,DZ,,Algeria - Constantine,2019-05-25,16:45
Falco peregrinus brookei,Animalia,CARACAS_AND_FALCONS_FALCONIDAE,Peregrine Falcon ssp brookei,,1,6.61515379,36.36603165,Africa,Algeria,DZ,,Algeria - Constantine,2019-05-25,18:55
Periparus ater ledouci,Animalia,TITS_PARIDAE,Coal Tit ssp ledouci,,1,5.89717245,36.56447983,Africa,Algeria,DZ,,Algeria - Jijel,2019-05-25,11:27
Sitta ledanti,Animalia,NUTHATCHES_SITTIDAE,Algerian Nuthatch,,1,5.89717245,36.56447983,Africa,Algeria,DZ,,Algeria - Jijel,2019-05-25,11:27
Ficedula speculigera,Animalia,OLD_WORLD_FLYCATCHERS_MUSCICAPIDAE,Atlas Pied Flycatcher,,1,5.89717245,36.56447983,Africa,Algeria,DZ,,Algeria - Jijel,2019-05-25,11:27
Ficedula speculigera,Animalia,OLD_WORLD_FLYCATCHERS_MUSCICAPIDAE,Atlas Pied Flycatcher,,1,5.89741755,36.56451035,Africa,Algeria,DZ,,Algeria - Jijel,2019-05-25,11:15
Luscinia megarhynchos megarhynchos,Animalia,OLD_WORLD_FLYCATCHERS_MUSCICAPIDAE,Common Nightingale ssp megarhynchos,,1,5.8989973,36.5706604,Africa,Algeria,DZ,,Algeria - Jijel,2019-05-25,12:49
Luscinia megarhynchos megarhynchos,Animalia,OLD_WORLD_FLYCATCHERS_MUSCICAPIDAE,Common Nightingale ssp megarhynchos,,1,5.89933681,36.57086563,Africa,Algeria,DZ,,Algeria - Jijel,2019-05-25,12:46
Phoenicurus moussieri,Animalia,OLD_WORLD_FLYCATCHERS_MUSCICAPIDAE,Moussier's Redstart,,1,5.90386105,36.57202911,Africa,Algeria,DZ,,Algeria - Jijel,2019-05-25,13:14
Ardeola ralloides,Animalia,HERONS_ARDEIDAE,Squacco Heron,,1,6.10458851,36.49576569,Africa,Algeria,DZ,,Algeria - Mila,2019-05-25,14:15
Sitta ledanti,Animalia,NUTHATCHES_SITTIDAE,Algerian Nuthatch,,3,5.89645481,36.56249237,Africa,Algeria,DZ,,Algeria - Jijel,2019-05-25,08:47
Luscinia megarhynchos megarhynchos,Animalia,OLD_WORLD_FLYCATCHERS_MUSCICAPIDAE,Common Nightingale ssp megarhynchos,,1,5.89911699,36.57026291,Africa,Algeria,DZ,,Algeria - Jijel,2019-05-25,07:49
Certhia brachydactyla mauritanica,Animalia,TREECREEPERS_CERTHIIDAE,Short-toed Treecreeper ssp mauritanica,,2,5.89622498,36.56650925,Africa,Algeria,DZ,,Algeria - Jijel,2019-05-25,08:10
Ficedula speculigera,Animalia,OLD_WORLD_FLYCATCHERS_MUSCICAPIDAE,Atlas Pied Flycatcher,,1,5.89648008346558,36.5624961853027,Africa,Algeria,DZ,,Algeria - Jijel,2019-05-25,08:34
Sitta ledanti,Animalia,NUTHATCHES_SITTIDAE,Algerian Nuthatch,,1,5.89645481,36.56249237,Africa,Algeria,DZ,,Algeria - Jijel,2019-05-25,08:47
Periparus ater ledouci,Animalia,TITS_PARIDAE,Coal Tit ssp ledouci,,1,5.89614868,36.5627861,Africa,Algeria,DZ,,Algeria - Jijel,2019-05-25,09:06
Certhia brachydactyla mauritanica,Animalia,TREECREEPERS_CERTHIIDAE,Short-toed Treecreeper ssp mauritanica,,2,5.89660168,36.56229782,Africa,Algeria,DZ,,Algeria - Jijel,2019-05-25,10:15
Garrulus glandarius cervicalis,Animalia,CROWS_AND_JAYS_CORVIDAE,Eurasian Jay ssp cervicalis,,2,5.89740181,36.56201553,Africa,Algeria,DZ,,Algeria - Jijel,2019-05-25,10:32
Strix mauritanica,Animalia,OWLS_STRIGIDAE,Maghreb Owl,,1,5.89821624755859,36.5632667541504,Africa,Algeria,DZ,,Algeria - Jijel,2019-05-25,11:02
Dryobates minor ledouci,Animalia,WOODPECKERS_PICIDAE,Lesser Spotted Woodpecker ssp ledouci,,1,5.89741755,36.56451035,Africa,Algeria,DZ,,Algeria - Jijel,2019-05-25,11:15
Sitta ledanti,Animalia,NUTHATCHES_SITTIDAE,Algerian Nuthatch,,1,5.89740228652954,36.5645751953125,Africa,Algeria,DZ,,Algeria - Jijel,2019-05-25,11:24
Sylvia melanocephala melanocephala,Animalia,OLD_WORLD_WARBLERS_SYLVIIDAE,Sardinian Warbler ssp melanocephala,,1,5.89833212,36.56780624,Africa,Algeria,DZ,,Algeria - Jijel,2019-05-25,12:22
Luscinia megarhynchos megarhynchos,Animalia,OLD_WORLD_FLYCATCHERS_MUSCICAPIDAE,Common Nightingale ssp megarhynchos,,1,5.89832211,36.56781769,Africa,Algeria,DZ,,Algeria - Jijel,2019-05-25,12:23
Sylvia communis communis,Animalia,OLD_WORLD_WARBLERS_SYLVIIDAE,Common Whitethroat ssp communis,,1,5.89831638,36.56783676,Africa,Algeria,DZ,,Algeria - Jijel,2019-05-25,12:27
Lanius senator senator,Animalia,SHRIKES_LANIIDAE,Woodchat Shrike ssp senator,,1,5.89943314,36.57079697,Africa,Algeria,DZ,,Algeria - Jijel,2019-05-25,12:46
Passer hispaniolensis hispaniolensis,Animalia,OLD_WORLD_SPARROWS_PASSERIDAE,Spanish Sparrow ssp hispaniolensis,,1,5.89933681,36.57086563,Africa,Algeria,DZ,,Algeria - Jijel,2019-05-25,12:46
Hieraaetus pennatus,Animalia,HAWKS_AND_EAGLES_ACCIPITRIDAE,Booted Eagle,,1,5.89933634,36.57086182,Africa,Algeria,DZ,,Algeria - Jijel,2019-05-25,12:47
Phoenicurus moussieri,Animalia,OLD_WORLD_FLYCATCHERS_MUSCICAPIDAE,Moussier's Redstart,,1,5.90386105,36.57202911,Africa,Algeria,DZ,,Algeria - Jijel,2019-05-25,13:14
Nycticorax nycticorax,Animalia,HERONS_ARDEIDAE,Black-crowned Night Heron,,2,6.10458851,36.49576569,Africa,Algeria,DZ,,Algeria - Mila,2019-05-25,14:15
Charadrius dubius curonicus,Animalia,PLOVERS_CHARADRIIDAE,Little Ringed Plover ssp curonicus,,1,6.10459757,36.49571228,Africa,Algeria,DZ,,Algeria - Mila,2019-05-25,14:15
Egretta garzetta,Animalia,HERONS_ARDEIDAE,Little Egret,,1,6.10459804534912,36.4957160949707,Africa,Algeria,DZ,,Algeria - Mila,2019-05-25,14:15
Pycnonotus barbatus barbatus,Animalia,BULBULS_PYCNONOTIDAE,Common Bulbul ssp barbatus,,1,6.10460901,36.49571609,Africa,Algeria,DZ,,Algeria - Mila,2019-05-25,14:16
Pycnonotus barbatus barbatus,Animalia,BULBULS_PYCNONOTIDAE,Common Bulbul ssp barbatus,,1,6.10808897,36.4966507,Africa,Algeria,DZ,,Algeria - Mila,2019-05-25,15:33
Fulica atra atra,Animalia,RAILS_RALLIDAE,Eurasian Coot ssp atra,,2,6.47847509,36.40714264,Africa,Algeria,DZ,,Algeria - Constantine,2019-05-25,16:45
Circus aeruginosus harterti,Animalia,HAWKS_AND_EAGLES_ACCIPITRIDAE,Western Marsh Harrier ssp harterti,,1,6.47829628,36.40720749,Africa,Algeria,DZ,,Algeria - Constantine,2019-05-25,16:53
Milvus migrans migrans,Animalia,HAWKS_AND_EAGLES_ACCIPITRIDAE,Black Kite ssp migrans,,1,6.47822618,36.40793991,Africa,Algeria,DZ,,Algeria - Constantine,2019-05-25,16:59
Passer hispaniolensis,Animalia,OLD_WORLD_SPARROWS_PASSERIDAE,Spanish Sparrow,,2,6.51322651,36.41527176,Africa,Algeria,DZ,,Algeria - Constantine,2019-05-25,17:20
Ciconia ciconia,Animalia,STORKS_CICONIIDAE,White Stork,,1,6.51321506500244,36.4153366088867,Africa,Algeria,DZ,,Algeria - Constantine,2019-05-25,17:21
Ciconia ciconia,Animalia,STORKS_CICONIIDAE,White Stork,,49,6.57188749313355,36.3993186950684,Africa,Algeria,DZ,,Algeria - Constantine,2019-05-25,17:34
Ciconia ciconia,Animalia,STORKS_CICONIIDAE,White Stork,,11,6.57954978942871,36.3965110778809,Africa,Algeria,DZ,,Algeria - Constantine,2019-05-25,17:35
Coloeus monedula cirtensis,Animalia,CROWS_AND_JAYS_CORVIDAE,Western Jackdaw ssp cirtensis,,200,6.61412477,36.37332916,Africa,Algeria,DZ,,Algeria - Constantine,2019-05-25,18:03
Monticola solitarius solitarius,Animalia,OLD_WORLD_FLYCATCHERS_MUSCICAPIDAE,Blue Rock Thrush ssp solitarius,,1,6.6136198,36.37530899,Africa,Algeria,DZ,,Algeria - Constantine,2019-05-25,18:26
Cyanistes teneriffae ultramarinus,Animalia,TITS_PARIDAE,Ultramarine Blue Tit,,1,6.61332369,36.37520599,Africa,Algeria,DZ,,Algeria - Constantine,2019-05-25,18:28
Serinus serinus,Animalia,FINCHES_FRINGILLIDAE,European Serin,,1,6.61384010314941,36.3752059936523,Africa,Algeria,DZ,,Algeria - Constantine,2019-05-25,18:33
Monticola solitarius solitarius,Animalia,OLD_WORLD_FLYCATCHERS_MUSCICAPIDAE,Blue Rock Thrush ssp solitarius,,1,6.61384296,36.37521744,Africa,Algeria,DZ,,Algeria - Constantine,2019-05-25,18:33
Coloeus monedula cirtensis,Animalia,CROWS_AND_JAYS_CORVIDAE,Western Jackdaw ssp cirtensis,,25,6.61489725,36.36632156,Africa,Algeria,DZ,,Algeria - Constantine,2019-05-25,18:49
Falco peregrinus brookei,Animalia,CARACAS_AND_FALCONS_FALCONIDAE,Peregrine Falcon ssp brookei,,4,6.61515379,36.36603165,Africa,Algeria,DZ,,Algeria - Constantine,2019-05-25,18:55
Troglodytes troglodytes kabylorum,Animalia,WRENS_TROGLODYTIDAE,Eurasian Wren ssp kabylorum,,1,6.66393661,36.40017319,Africa,Algeria,DZ,,Algeria - Constantine,2019-05-26,06:27
Cyanistes teneriffae ultramarinus,Animalia,TITS_PARIDAE,Ultramarine Blue Tit,,2,6.66539383,36.40341949,Africa,Algeria,DZ,,Algeria - Constantine,2019-05-26,07:02
Troglodytes troglodytes kabylorum,Animalia,WRENS_TROGLODYTIDAE,Eurasian Wren ssp kabylorum,,1,6.66976023,36.40406799,Africa,Algeria,DZ,,Algeria - Constantine,2019-05-26,07:28
Muscicapa striata striata,Animalia,OLD_WORLD_FLYCATCHERS_MUSCICAPIDAE,Spotted Flycatcher ssp striata,,1,6.67074537,36.40538406,Africa,Algeria,DZ,,Algeria - Constantine,2019-05-26,07:32
Emberiza cirlus,Animalia,BUNTINGS_EMBERIZIDAE,Cirl Bunting,,1,6.67075490951538,36.4058265686035,Africa,Algeria,DZ,,Algeria - Constantine,2019-05-26,07:34
Hippolais polyglotta,Animalia,Acrocephalidae,Melodious Warbler,,1,6.67128801345825,36.4065322875977,Africa,Algeria,DZ,,Algeria - Constantine,2019-05-26,07:43
Serinus serinus,Animalia,FINCHES_FRINGILLIDAE,European Serin,,1,6.67128896713257,36.4065322875977,Africa,Algeria,DZ,,Algeria - Constantine,2019-05-26,07:43
Oxyura leucocephala,Animalia,DUCKS_GEESE_AND_SWANS_ANATIDAE,White-headed Duck,,2,6.62605333,36.21508408,Africa,Algeria,DZ,,Algeria - Constantine,2019-05-26,09:32
Anas platyrhynchos,Animalia,DUCKS_GEESE_AND_SWANS_ANATIDAE,Mallard,,7,6.62602997,36.21509171,Africa,Algeria,DZ,,Algeria - Constantine,2019-05-26,09:36
Serinus serinus,Animalia,FINCHES_FRINGILLIDAE,European Serin,,1,6.66575956344605,36.4000854492187,Africa,Algeria,DZ,,Algeria - Constantine,2019-05-26,06:14
Emberiza cirlus,Animalia,BUNTINGS_EMBERIZIDAE,Cirl Bunting,,1,6.67045640945435,36.4061164855957,Africa,Algeria,DZ,,Algeria - Constantine,2019-05-26,07:34
Oxyura leucocephala,Animalia,DUCKS_GEESE_AND_SWANS_ANATIDAE,White-headed Duck,,2,6.62588500976563,36.2149696350098,Africa,Algeria,DZ,,Algeria - Constantine,2019-05-26,09:33
Garrulus glandarius,Animalia,CROWS_AND_JAYS_CORVIDAE,Eurasian Jay,,1,6.66521310806274,36.4029846191406,Africa,Algeria,DZ,,Algeria - Constantine,2019-05-26,06:46
Emberiza cirlus,Animalia,BUNTINGS_EMBERIZIDAE,Cirl Bunting,,1,6.6710901260376,36.4064636230469,Africa,Algeria,DZ,,Algeria - Constantine,2019-05-26,07:38
Hippolais polyglotta,Animalia,Acrocephalidae,Melodious Warbler,,1,6.67128038406372,36.4065055847168,Africa,Algeria,DZ,,Algeria - Constantine,2019-05-26,07:42
Oxyura leucocephala,Animalia,DUCKS_GEESE_AND_SWANS_ANATIDAE,White-headed Duck,,2,6.62609958648682,36.2150230407715,Africa,Algeria,DZ,,Algeria - Constantine,2019-05-26,09:32
Ficedula speculigera,Animalia,OLD_WORLD_FLYCATCHERS_MUSCICAPIDAE,Atlas Pied Flycatcher,,2,5.89614343643189,36.5626335144043,Africa,Algeria,DZ,,Algeria - Jijel,2019-05-25,08:47
Sitta ledanti,Animalia,NUTHATCHES_SITTIDAE,Algerian Nuthatch,,1,5.89616107940674,36.562614440918,Africa,Algeria,DZ,,Algeria - Jijel,2019-05-25,08:47
Ficedula speculigera,Animalia,OLD_WORLD_FLYCATCHERS_MUSCICAPIDAE,Atlas Pied Flycatcher,,1,5.89675951004028,36.562328338623,Africa,Algeria,DZ,,Algeria - Jijel,2019-05-25,10:11
Sitta ledanti,Animalia,NUTHATCHES_SITTIDAE,Algerian Nuthatch,,1,5.89724826812744,36.5646820068359,Africa,Algeria,DZ,,Algeria - Jijel,2019-05-25,11:20
Ficedula speculigera,Animalia,OLD_WORLD_FLYCATCHERS_MUSCICAPIDAE,Atlas Pied Flycatcher,,1,5.89708042144775,36.5647010803223,Africa,Algeria,DZ,,Algeria - Jijel,2019-05-25,11:32
Periparus ater ledouci,Animalia,TITS_PARIDAE,Coal Tit ssp ledouci,,4,5.89640760421753,36.565055847168,Africa,Algeria,DZ,,Algeria - Jijel,2019-05-25,11:34
Ficedula speculigera,Animalia,OLD_WORLD_FLYCATCHERS_MUSCICAPIDAE,Atlas Pied Flycatcher,,2,5.89647245407105,36.5675468444824,Africa,Algeria,DZ,,Algeria - Jijel,2019-05-25,12:11
Phoenicurus moussieri,Animalia,OLD_WORLD_FLYCATCHERS_MUSCICAPIDAE,Moussier's Redstart,,1,5.90362071990967,36.571231842041,Africa,Algeria,DZ,,Algeria - Jijel,2019-05-25,13:11
Nycticorax nycticorax,Animalia,HERONS_ARDEIDAE,Black-crowned Night Heron,,1,6.10563802719116,36.4959526062012,Africa,Algeria,DZ,,Algeria - Mila,2019-05-25,14:24
Ardeola ralloides,Animalia,HERONS_ARDEIDAE,Squacco Heron,,1,6.10586547851563,36.4959564208984,Africa,Algeria,DZ,,Algeria - Mila,2019-05-25,14:25
Egretta garzetta,Animalia,HERONS_ARDEIDAE,Little Egret,,2,6.10595035552979,36.495979309082,Africa,Algeria,DZ,,Algeria - Mila,2019-05-25,14:25
Sitta ledanti,Animalia,NUTHATCHES_SITTIDAE,Algerian Nuthatch,,1,5.89620018005371,36.5627670288086,Africa,Algeria,DZ,,Algeria - Jijel,2019-05-25,08:51
Ficedula speculigera,Animalia,OLD_WORLD_FLYCATCHERS_MUSCICAPIDAE,Atlas Pied Flycatcher,,1,5.89618635177612,36.5627708435059,Africa,Algeria,DZ,,Algeria - Jijel,2019-05-25,08:52
Certhia brachydactyla mauritanica,Animalia,TREECREEPERS_CERTHIIDAE,Short-toed Treecreeper ssp mauritanica,,1,5.89628076553345,36.5626640319824,Africa,Algeria,DZ,,Algeria - Jijel,2019-05-25,09:12
Sitta ledanti,Animalia,NUTHATCHES_SITTIDAE,Algerian Nuthatch,,1,5.89729833602905,36.5646553039551,Africa,Algeria,DZ,,Algeria - Jijel,2019-05-25,11:27
Phoenicurus moussieri,Animalia,OLD_WORLD_FLYCATCHERS_MUSCICAPIDAE,Moussier's Redstart,,1,5.90364742279053,36.5713310241699,Africa,Algeria,DZ,,Algeria - Jijel,2019-05-25,13:12
Egretta garzetta,Animalia,HERONS_ARDEIDAE,Little Egret,,1,6.10529041290283,36.4959526062012,Africa,Algeria,DZ,,Algeria - Mila,2019-05-25,14:20
Nycticorax nycticorax,Animalia,HERONS_ARDEIDAE,Black-crowned Night Heron,,1,6.10554981231689,36.4959411621094,Africa,Algeria,DZ,,Algeria - Mila,2019-05-25,14:23
Sclerophrys mauritanicus,Animalia,Bufonidae,,,1,5.9,36.563,Africa,Algeria,DZ,,Algeria - Jijel,2019-05-09,10:30
Pieris brassicae,Animalia,WHITES_PIERIDAE,Large White,,1,5.9,36.563,Africa,Algeria,DZ,,Algeria - Jijel,2019-05-09,09:00
Oxythyrea funesta,Animalia,Scarabaeidae,White Spotted Rose Chafer beetle,,1,5.9,36.563,Africa,Algeria,DZ,,Algeria - Jijel,2019-05-09,09:00
Lasiommata megera,Animalia,BRUSHFOOTED_BUTTERFLIES_NYMPHALIDAE,Wall Brown,,1,6.58442546,36.35960648,Africa,Algeria,DZ,,Algeria - Constantine,2019-05-11,09:25
Coenonympha arcanioides,Animalia,BRUSHFOOTED_BUTTERFLIES_NYMPHALIDAE,Moroccan Pearly Heath,,1,5.639,36.692,Africa,Algeria,DZ,,Algeria - Jijel,2019-05-10,11:00
Umbilicus rupestris,Plantae,CRASSULACEAE,Navelwort,,1,5.636,36.692,Africa,Algeria,DZ,,Algeria - Jijel,2019-05-10,11:43
Galerida cristata,Animalia,LARKS_ALAUDIDAE,Crested Lark,,1,5.629,36.775,Africa,Algeria,DZ,,Algeria - Jijel,2019-05-10,16:40
Chrysotoxum spec.,Animalia,HOVER_FLIES_OR_FLOWER_FLIES_SYRPHIDAE,,,1,5.525,36.692,Africa,Algeria,DZ,,Algeria - Jijel,2019-05-10,09:53
Pararge aegeria,Animalia,BRUSHFOOTED_BUTTERFLIES_NYMPHALIDAE,Speckled Wood,,1,5.525,36.692,Africa,Algeria,DZ,,Algeria - Jijel,2019-05-10,09:53
Danaus chrysippus,Animalia,BRUSHFOOTED_BUTTERFLIES_NYMPHALIDAE,African Monarch,,1,5.525,36.692,Africa,Algeria,DZ,,Algeria - Jijel,2019-05-10,09:10
Colias crocea,Animalia,WHITES_PIERIDAE,Clouded Yellow,,1,5.644,36.6961,Africa,Algeria,DZ,,Algeria - Jijel,2019-05-10,15:44
Sitta ledanti,Animalia,NUTHATCHES_SITTIDAE,Algerian Nuthatch,,1,5.6364,36.6918,Africa,Algeria,DZ,,Algeria - Jijel,2019-05-10,12:01
Strix mauritanica,Animalia,OWLS_STRIGIDAE,Maghreb Owl,,1,5.8959,36.5657,Africa,Algeria,DZ,,Algeria - Jijel,2019-05-09,11:21
Ficedula speculigera,Animalia,OLD_WORLD_FLYCATCHERS_MUSCICAPIDAE,Atlas Pied Flycatcher,,1,5.9032,36.5663,Africa,Algeria,DZ,,Algeria - Jijel,2019-05-09,08:33
Sitta ledanti,Animalia,NUTHATCHES_SITTIDAE,Algerian Nuthatch,,1,5.8986,36.5652,Africa,Algeria,DZ,,Algeria - Jijel,2019-05-09,08:32
Sitta ledanti,Animalia,NUTHATCHES_SITTIDAE,Algerian Nuthatch,,1,5.63689981,36.69224742,Africa,Algeria,DZ,,Algeria - Jijel,2019-05-10,12:09
Strix mauritanica,Animalia,OWLS_STRIGIDAE,Maghreb Owl,,1,5.89570054,36.56600739,Africa,Algeria,DZ,,Algeria - Jijel,2019-05-09,11:21
Sitta ledanti,Animalia,NUTHATCHES_SITTIDAE,Algerian Nuthatch,,7,5.90060072,36.56260211,Africa,Algeria,DZ,,Algeria - Jijel,2019-05-09,09:20
Ficedula speculigera,Animalia,OLD_WORLD_FLYCATCHERS_MUSCICAPIDAE,Atlas Pied Flycatcher,,17,5.90339907,36.56644966,Africa,Algeria,DZ,,Algeria - Jijel,2019-05-09,08:29
Passer simplex,Animalia,OLD_WORLD_SPARROWS_PASSERIDAE,Desert Sparrow,,5,-5.5516436,29.32462048,Africa,Algeria,DZ,,Algeria - Tindouf,2018-12-26,13:40
Corvus ruficollis,Animalia,CROWS_AND_JAYS_CORVIDAE,Brown-necked Raven,,1,-5.5516436,29.32462048,Africa,Algeria,DZ,,Algeria - Tindouf,2018-12-26,13:40
Lanius excubitor,Animalia,SHRIKES_LANIIDAE,Great Grey Shrike,,1,-5.5516436,29.32462048,Africa,Algeria,DZ,,Algeria - Tindouf,2018-12-26,13:40
Pycnonotus barbatus,Animalia,BULBULS_PYCNONOTIDAE,Common Bulbul,,1,-5.5516436,29.32462048,Africa,Algeria,DZ,,Algeria - Tindouf,2018-12-26,13:40
Oenanthe deserti,Animalia,OLD_WORLD_FLYCATCHERS_MUSCICAPIDAE,Desert Wheatear,,1,-5.5516436,29.32462048,Africa,Algeria,DZ,,Algeria - Tindouf,2018-12-26,13:40
Pernis apivorus,Animalia,HAWKS_AND_EAGLES_ACCIPITRIDAE,European Honey Buzzard,,1,-0.88195674,35.61193441,Africa,Algeria,DZ,,Algeria - Oran,2018-09-24,11:00
Lanius excubitor elegans,Animalia,SHRIKES_LANIIDAE,Desert Grey Shrike,,1,3.77487659,32.43481562,Africa,Algeria,DZ,,Algeria - Ghardaïa,2018-01-05,11:00
Lanius excubitor algeriensis,Animalia,SHRIKES_LANIIDAE,Dark Desert Grey Shrike,,1,-0.91604039,35.62701274,Africa,Algeria,DZ,,Algeria - Oran,2017-02-15,11:00
Oenanthe isabellina,Animalia,OLD_WORLD_FLYCATCHERS_MUSCICAPIDAE,Isabelline Wheatear,,1,-0.8041888144486856,33.19405553459093,Africa,Algeria,DZ,,Algeria - Naama,2016-11-30,11:30
Oxyura leucocephala,Animalia,DUCKS_GEESE_AND_SWANS_ANATIDAE,White-headed Duck,,1,-0.645270834629935,35.60547108790365,Africa,Algeria,DZ,,Algeria - Oran,2018-04-10,10:00
Coronella girondica,Animalia,Colubridae,Southern Smooth Snake,,1,5.90022479,36.5627579,Africa,Algeria,DZ,,Algeria - Jijel,2018-06-02,08:59
Serinus serinus,Animalia,FINCHES_FRINGILLIDAE,European Serin,,1,6.66320700198412,36.4009872637689,Africa,Algeria,DZ,,Algeria - Constantine,2018-06-01,15:57
Cyanistes teneriffae ultramarinus,Animalia,TITS_PARIDAE,Ultramarine Blue Tit,,1,6.66077742,36.40066205,Africa,Algeria,DZ,,Algeria - Constantine,2018-06-01,16:10
Serinus serinus,Animalia,FINCHES_FRINGILLIDAE,European Serin,,1,6.66447761468589,36.3995463727042,Africa,Algeria,DZ,,Algeria - Constantine,2018-06-01,18:01
Muscicapa striata striata,Animalia,OLD_WORLD_FLYCATCHERS_MUSCICAPIDAE,Spotted Flycatcher ssp striata,,1,6.66402793,36.3995773,Africa,Algeria,DZ,,Algeria - Constantine,2018-06-01,18:10
Coloeus monedula cirtensis,Animalia,CROWS_AND_JAYS_CORVIDAE,Western Jackdaw ssp cirtensis,,10,6.6149265691638,36.36634754017,Africa,Algeria,DZ,,Algeria - Constantine,2018-06-01,18:48
Falco peregrinus brookei,Animalia,CARACAS_AND_FALCONS_FALCONIDAE,Peregrine Falcon ssp brookei,,2,6.61507098935545,36.3663186645135,Africa,Algeria,DZ,,Algeria - Constantine,2018-06-01,18:57
Sylvia communis communis,Animalia,OLD_WORLD_WARBLERS_SYLVIIDAE,Common Whitethroat ssp communis,,1,5.8990744,36.57025921,Africa,Algeria,DZ,,Algeria - Jijel,2018-06-02,07:07
Sitta ledanti,Animalia,NUTHATCHES_SITTIDAE,Algerian Nuthatch,,2,5.9,36.56,Africa,Algeria,DZ,,Algeria - Jijel,2018-06-02,08:17
Garrulus glandarius cervicalis,Animalia,CROWS_AND_JAYS_CORVIDAE,Eurasian Jay ssp cervicalis,,1,5.90013656,36.56277279,Africa,Algeria,DZ,,Algeria - Jijel,2018-06-02,08:27
Sitta ledanti,Animalia,NUTHATCHES_SITTIDAE,Algerian Nuthatch,,3,5.89542903,36.56475377,Africa,Algeria,DZ,,Algeria - Jijel,2018-06-02,10:02
Periparus ater ledouci,Animalia,TITS_PARIDAE,Coal Tit ssp ledouci,,1,5.89407929,36.56553207,Africa,Algeria,DZ,,Algeria - Jijel,2018-06-02,10:13
Serinus serinus,Animalia,FINCHES_FRINGILLIDAE,European Serin,,20,6.66338272,36.40036312,Africa,Algeria,DZ,,Algeria - Constantine,2018-06-01,15:52
Cyanistes teneriffae ultramarinus,Animalia,TITS_PARIDAE,Ultramarine Blue Tit,,5,6.66338438,36.40076902,Africa,Algeria,DZ,,Algeria - Constantine,2018-06-01,15:56
Emberiza cirlus,Animalia,BUNTINGS_EMBERIZIDAE,Cirl Bunting,,5,6.66654727,36.40148555,Africa,Algeria,DZ,,Algeria - Constantine,2018-06-01,17:09
Coloeus monedula cirtensis,Animalia,CROWS_AND_JAYS_CORVIDAE,Western Jackdaw ssp cirtensis,,20,6.61501432,36.36632384,Africa,Algeria,DZ,,Algeria - Constantine,2018-06-01,18:55
Monticola solitarius,Animalia,OLD_WORLD_FLYCATCHERS_MUSCICAPIDAE,Blue Rock Thrush,,1,6.61485106,36.37287087,Africa,Algeria,DZ,,Algeria - Constantine,2018-06-01,19:30
Sitta ledanti,Animalia,NUTHATCHES_SITTIDAE,Algerian Nuthatch,,2,5.90005106,36.56300831,Africa,Algeria,DZ,,Algeria - Jijel,2018-06-02,08:10
Garrulus glandarius cervicalis,Animalia,CROWS_AND_JAYS_CORVIDAE,Eurasian Jay ssp cervicalis,,2,5.89988351,36.56290233,Africa,Algeria,DZ,,Algeria - Jijel,2018-06-02,08:27
Coronella girondica,Animalia,Colubridae,Southern Smooth Snake,,1,5.90022479,36.5627579,Africa,Algeria,DZ,,Algeria - Jijel,2018-06-02,08:59
Ficedula speculigera,Animalia,OLD_WORLD_FLYCATCHERS_MUSCICAPIDAE,Atlas Pied Flycatcher,,15,5.89623652,36.56499339,Africa,Algeria,DZ,,Algeria - Jijel,2018-06-02,09:40
Sitta ledanti,Animalia,NUTHATCHES_SITTIDAE,Algerian Nuthatch,,3,5.89494288,36.564399,Africa,Algeria,DZ,,Algeria - Jijel,2018-06-02,10:22
Calidris canutus,Animalia,SANDPIPERS_AND_ALLIES_SCOLOPACIDAE,Red Knot,,8,-0.38780913,35.73156125,Africa,Algeria,DZ,,Algeria - Oran,2018-05-10,10:00
Acrocephalus melanopogon,Animalia,Acrocephalidae,Moustached Warbler,,1,-2.197631401748022,30.362578920222,Africa,Algeria,DZ,,Algeria - Béchar,2018-05-29,
Cyanistes teneriffae ultramarinus,Animalia,TITS_PARIDAE,Ultramarine Blue Tit,,1,2.47175217,36.59285813,Africa,Algeria,DZ,,Algeria - Tipaza Chenoua NP,2014-04-15,
Episyrphus balteatus,Animalia,HOVER_FLIES_OR_FLOWER_FLIES_SYRPHIDAE,Marmalade hoverfly,,1,2.54518032,36.57366354,Africa,Algeria,DZ,,Algeria - Tipaza,2014-04-20,
Trifolium stellatum,Plantae,Fabaceae,Starry Clover,,200,2.54518032,36.57366354,Africa,Algeria,DZ,,Algeria - Tipaza,2014-04-20,
Ophrys speculum,Plantae,ORCHIDACEAE,Mirror Bee Orchid,,1,2.54,36.57,Africa,Algeria,DZ,,Algeria - Tipaza,2014-04-20,
Eucera spec.,Animalia,Apidae,,,1,2.54910707,36.57592123,Africa,Algeria,DZ,,Algeria - Tipaza,2014-04-20,
Berberomeloe majalis,Animalia,BLISTER_BEETLES_MELOIDAE,Red-striped Oil Beetle,,1,2.54910707,36.57592123,Africa,Algeria,DZ,,Algeria - Tipaza,2014-04-20,
Bombus terrestris,Animalia,Apidae,Buff-tailed Bumblebee,,1,2.54814148,36.57321576,Africa,Algeria,DZ,,Algeria - Tipaza,2014-04-20,
Eristalis tenax,Animalia,HOVER_FLIES_OR_FLOWER_FLIES_SYRPHIDAE,Drone Fly,,2,2.54874229,36.57352568,Africa,Algeria,DZ,,Algeria - Tipaza,2014-04-20,
Pamphagus cristatus,Animalia,Pamphagidae,,,1,2.54874229,36.57352568,Africa,Algeria,DZ,,Algeria - Tipaza,2014-04-20,
Oxythyrea funesta,Animalia,Scarabaeidae,White Spotted Rose Chafer beetle,,1,2.54998684,36.5738018,Africa,Algeria,DZ,,Algeria - Tipaza,2014-04-20,
Eucera spec.,Animalia,Apidae,,,1,2.55049109,36.5739052,Africa,Algeria,DZ,,Algeria - Tipaza,2014-04-20,
Streptopelia turtur,Animalia,PIGEONS_AND_DOVES_COLUMBIDAE,European Turtle Dove,,1,2.44201183,36.59282394,Africa,Algeria,DZ,,Algeria - Tipaza Chenoua NP,2014-04-19,
Eristalis spec.,Animalia,HOVER_FLIES_OR_FLOWER_FLIES_SYRPHIDAE,,,1,2.44211912,36.59399558,Africa,Algeria,DZ,,Algeria - Tipaza Chenoua NP,2014-04-19,
Xylocopa pubescens,Animalia,Apidae,,,1,2.43993044,36.59522737,Africa,Algeria,DZ,,Algeria - Tipaza Chenoua NP,2014-04-19,
Polyommatus celina,Animalia,GOSSAMERWINGED_BUTTERFLIES_LYCAENIDAE,Southern Common Blue,,2,2.44226933,36.59304791,Africa,Algeria,DZ,,Algeria - Tipaza Chenoua NP,2014-04-19,
Myathropa florea,Animalia,HOVER_FLIES_OR_FLOWER_FLIES_SYRPHIDAE,,,1,2.44267702,36.59282394,Africa,Algeria,DZ,,Algeria - Tipaza Chenoua NP,2014-04-19,
Coccothraustes coccothraustes,Animalia,FINCHES_FRINGILLIDAE,Hawfinch,,1,-0.645270834629935,35.60547108790365,Africa,Algeria,DZ,,Algeria - Oran,2018-01-10,09:00
Fringilla montifringilla,Animalia,FINCHES_FRINGILLIDAE,Brambling,,3,-0.645270834629935,35.60547108790365,Africa,Algeria,DZ,,Algeria - Oran,2018-01-10,09:00
Clamator glandarius,Animalia,CUCKOOS_AND_COUCALS_CUCULIDAE,Great Spotted Cuckoo,,1,-0.645270834629935,35.60547108790365,Africa,Algeria,DZ,,Algeria - Oran,2018-01-09,10:00
Platalea leucorodia,Animalia,IBISSES_AND_SPOONBILLS_THRESKIORNITHIDAE,Eurasian Spoonbill,,1,1.90482438,35.57206028,Africa,Algeria,DZ,,Algeria - Tissemsilt,2017-11-25,09:20
Platalea leucorodia,Animalia,IBISSES_AND_SPOONBILLS_THRESKIORNITHIDAE,Eurasian Spoonbill,,13,1.90482438,35.57206028,Africa,Algeria,DZ,,Algeria - Tissemsilt,2017-11-25,09:20
Aythya fuligula,Animalia,DUCKS_GEESE_AND_SWANS_ANATIDAE,Tufted Duck,,3,-5.9688735919044404,27.619657859343,Africa,Algeria,DZ,,Algeria - Tindouf,2017-01-29,
Turdus torquatus torquatus,Animalia,THRUSHES_TURDIDAE,Ring Ouzel ssp torquatus,,1,-0.8041888144486856,33.19405553459093,Africa,Algeria,DZ,,Algeria - Naama,2017-03-18,
Tringa totanus,Animalia,SANDPIPERS_AND_ALLIES_SCOLOPACIDAE,Common Redshank,,2,-0.645270834629935,35.60547108790365,Africa,Algeria,DZ,,Algeria - Oran,2016-05-12,
Pernis apivorus,Animalia,HAWKS_AND_EAGLES_ACCIPITRIDAE,European Honey Buzzard,,1,-0.645270834629935,35.60547108790365,Africa,Algeria,DZ,,Algeria - Oran,2016-05-12,
Motacilla alba subpersonata,Animalia,PIPITS_EN_WAGTAILS_MOTACILLIDAE,Moroccan Wagtail,,1,-2.197631401748022,30.362578920222,Africa,Algeria,DZ,,Algeria - Béchar,2017-03-20,
Passer simplex,Animalia,OLD_WORLD_SPARROWS_PASSERIDAE,Desert Sparrow,,10,-2.197631401748022,30.362578920222,Africa,Algeria,DZ,,Algeria - Béchar,2016-09-15,
Pandion haliaetus,Animalia,OSPREY_PANDIONIDAE,Western Osprey,,1,-2.197631401748022,30.362578920222,Africa,Algeria,DZ,,Algeria - Béchar,2015-09-25,
Oriolus oriolus,Animalia,ORIOLES_AND_FIG_BIRDS_ORIOLIDAE,Eurasian Golden Oriole,,3,2.1715471601458676,36.128645538909524,Africa,Algeria,DZ,,Algeria - Aïn Defla,2017-06-20,
Coracias garrulus,Animalia,ROLLERS_CORACIIDAE,European Roller,,2,1.96689606,35.8578918,Africa,Algeria,DZ,,Algeria - Aïn Defla,2017-07-05,10:45
Falco eleonorae,Animalia,CARACAS_AND_FALCONS_FALCONIDAE,Eleonora's Falcon,,1,1.94458008,35.84119483,Africa,Algeria,DZ,,Algeria - Aïn Defla,2017-07-05,10:45
Circaetus gallicus,Animalia,HAWKS_AND_EAGLES_ACCIPITRIDAE,Short-toed Snake Eagle,,1,1.9493866,35.86846473,Africa,Algeria,DZ,,Algeria - Aïn Defla,2017-06-21,14:00
Gyps fulvus,Animalia,HAWKS_AND_EAGLES_ACCIPITRIDAE,Griffon Vulture,,3,1.961174,35.86729622,Africa,Algeria,DZ,,Algeria - Aïn Defla,2017-06-25,10:30
Coloeus monedula,Animalia,CROWS_AND_JAYS_CORVIDAE,Western Jackdaw,,60,6.61513913422823,36.3662062639207,Africa,Algeria,DZ,,Algeria - Constantine,2017-05-01,18:00
Falco peregrinus brookei,Animalia,CARACAS_AND_FALCONS_FALCONIDAE,Peregrine Falcon ssp brookei,,2,6.61,36.36,Africa,Algeria,DZ,,Algeria - Constantine,2017-05-01,18:00
Calidris melanotos,Animalia,SANDPIPERS_AND_ALLIES_SCOLOPACIDAE,Pectoral Sandpiper,,2,6.50857061,35.51874333,Africa,Algeria,DZ,,Algeria - Batna,2017-05-01,
Sitta ledanti,Animalia,NUTHATCHES_SITTIDAE,Algerian Nuthatch,,1,5.89362189,36.56559832,Africa,Algeria,DZ,,Algeria - Jijel,2016-05-20,16:20
Sitta ledanti,Animalia,NUTHATCHES_SITTIDAE,Algerian Nuthatch,,1,5.89362189,36.56559832,Africa,Algeria,DZ,,Algeria - Jijel,2016-05-20,16:20
Sitta ledanti,Animalia,NUTHATCHES_SITTIDAE,Algerian Nuthatch,,4,5.89279912,36.56552965,Africa,Algeria,DZ,,Algeria - Jijel,2016-05-25,
Sitta ledanti,Animalia,NUTHATCHES_SITTIDAE,Algerian Nuthatch,,4,5.6580877,36.721384,Africa,Algeria,DZ,,Algeria - Jijel,2016-09-24,
Sitta ledanti,Animalia,NUTHATCHES_SITTIDAE,Algerian Nuthatch,,4,5.8900451660156,36.578075464483,Africa,Algeria,DZ,,Algeria - Jijel,2016-08-10,10:00
Alaemon alaudipes,Animalia,LARKS_ALAUDIDAE,Greater Hoopoe-Lark,,1,-2.197631401748022,30.362578920222,Africa,Algeria,DZ,,Algeria - Béchar,2016-02-26,
Cyanistes teneriffae,Animalia,TITS_PARIDAE,African Blue Tit,,1,-0.645270834629935,35.60547108790365,Africa,Algeria,DZ,,Algeria - Oran,2016-05-05,15:30
Arenaria interpres,Animalia,SANDPIPERS_AND_ALLIES_SCOLOPACIDAE,Ruddy Turnstone,,10,-0.645270834629935,35.60547108790365,Africa,Algeria,DZ,,Algeria - Oran,2015-10-07,
Motacilla alba subpersonata,Animalia,PIPITS_EN_WAGTAILS_MOTACILLIDAE,Moroccan Wagtail,,2,-2.197631401748022,30.362578920222,Africa,Algeria,DZ,,Algeria - Béchar,2015-11-11,
Pandion haliaetus,Animalia,OSPREY_PANDIONIDAE,Western Osprey,,1,-2.197631401748022,30.362578920222,Africa,Algeria,DZ,,Algeria - Béchar,2016-02-15,07:00
Pernis apivorus,Animalia,HAWKS_AND_EAGLES_ACCIPITRIDAE,European Honey Buzzard,,1,-2.197631401748022,30.362578920222,Africa,Algeria,DZ,,Algeria - Béchar,2016-05-12,14:00
Ciconia nigra,Animalia,STORKS_CICONIIDAE,Black Stork,,5,-2.197631401748022,30.362578920222,Africa,Algeria,DZ,,Algeria - Béchar,2016-02-15,11:00
Oxyura leucocephala,Animalia,DUCKS_GEESE_AND_SWANS_ANATIDAE,White-headed Duck,,1,-0.645270834629935,35.60547108790365,Africa,Algeria,DZ,,Algeria - Oran,2016-07-28,
Melanocorypha calandra,Animalia,LARKS_ALAUDIDAE,Calandra Lark,,2,1.8572918614473966,35.75134944490746,Africa,Algeria,DZ,,Algeria - Tissemsilt,2015-09-15,11:00
Sitta ledanti,Animalia,NUTHATCHES_SITTIDAE,Algerian Nuthatch,,1,5.9951860360654,36.71597310045125,Africa,Algeria,DZ,,Algeria - Jijel,2016-07-26,
Phoenicurus moussieri,Animalia,OLD_WORLD_FLYCATCHERS_MUSCICAPIDAE,Moussier's Redstart,,1,1.9736480677966,35.860841262757,Africa,Algeria,DZ,,Algeria - Aïn Defla,2016-06-25,14:15
Phoenicurus moussieri,Animalia,OLD_WORLD_FLYCATCHERS_MUSCICAPIDAE,Moussier's Redstart,,1,1.9736480677966,35.860841262757,Africa,Algeria,DZ,,Algeria - Aïn Defla,2016-06-25,14:15
Ciconia nigra,Animalia,STORKS_CICONIIDAE,Black Stork,,18,-2.4315786030557485,30.31155403619597,Africa,Algeria,DZ,,Algeria - Béchar,2014-04-29,
Picus vaillantii,Animalia,WOODPECKERS_PICIDAE,Levaillant's Woodpecker,,1,-0.645270834629935,35.60547108790365,Africa,Algeria,DZ,,Algeria - Oran,2016-02-10,
Argya fulva,Animalia,Leiothrichidae,Fulvous Babbler,,6,-2.197631401748022,30.362578920222,Africa,Algeria,DZ,,Algeria - Béchar,2016-02-10,
Motacilla alba subpersonata,Animalia,PIPITS_EN_WAGTAILS_MOTACILLIDAE,Moroccan Wagtail,,3,-2.4315786030557485,30.31155403619597,Africa,Algeria,DZ,,Algeria - Béchar,2015-11-11,
Vanessa atalanta,Animalia,BRUSHFOOTED_BUTTERFLIES_NYMPHALIDAE,Red Admiral,,1,2.4579629302025,36.59375344983,Africa,Algeria,DZ,,Algeria - Tipaza Chenoua NP,2014-04-17,
Thymelaea hirsuta,Plantae,THYMELAEACEAE,,,1,2.4579629302025,36.59375344983,Africa,Algeria,DZ,,Algeria - Tipaza Chenoua NP,2014-04-17,
Moraea sisyrinchium,Plantae,IRIDACEAE,,,1,2.4597591720521,36.595081003004,Africa,Algeria,DZ,,Algeria - Tipaza Chenoua NP,2014-04-17,
Pistacia lentiscus,Plantae,ANACARDIACEAE,Mastic tree,,1,2.4604780040681,36.594775210857,Africa,Algeria,DZ,,Algeria - Tipaza Chenoua NP,2014-04-17,
Ornithogalum arabicum,Plantae,ASPARAGACEAE,Lesser Cape-lily,,10,2.4609178863466,36.594094711307,Africa,Algeria,DZ,,Algeria - Tipaza Chenoua NP,2014-04-17,
Bartsia trixago,Plantae,OROBANCHACEAE,,,10,2.4608231708407,36.594658856088,Africa,Algeria,DZ,,Algeria - Tipaza Chenoua NP,2014-04-17,
Polistes dominula,Animalia,Vespidae,European Paper Wasp,,2,2.45877765,36.59409882,Africa,Algeria,DZ,,Algeria - Tipaza Chenoua NP,2014-04-17,
Oxythyrea funesta,Animalia,Scarabaeidae,White Spotted Rose Chafer beetle,,1,2.4601509422064,36.594891296267,Africa,Algeria,DZ,,Algeria - Tipaza Chenoua NP,2014-04-17,
Sedum caeruleum,Plantae,CRASSULACEAE,,,1,2.4606236815453,36.594166920455,Africa,Algeria,DZ,,Algeria - Tipaza Chenoua NP,2014-04-17,
Rhodanthidium sticticum,Animalia,MEGACHILIDAE,,,1,2.4580340087414,36.594201914611,Africa,Algeria,DZ,,Algeria - Tipaza Chenoua NP,2014-04-17,
Pararge aegeria,Animalia,BRUSHFOOTED_BUTTERFLIES_NYMPHALIDAE,Speckled Wood,,1,2.4555623531342,36.593474571257,Africa,Algeria,DZ,,Algeria - Tipaza Chenoua NP,2014-04-17,
Sphaerophoria scripta,Animalia,HOVER_FLIES_OR_FLOWER_FLIES_SYRPHIDAE,,,1,2.4576222896576,36.593474571257,Africa,Algeria,DZ,,Algeria - Tipaza Chenoua NP,2014-04-17,
Bartsia trixago,Plantae,OROBANCHACEAE,,,1,2.3680116981268,36.582882630853,Africa,Algeria,DZ,,Algeria - Tipaza,2014-04-17,
Pyrgomorpha conica,Animalia,Pyrgomorphidae,,,1,2.3656372725964,36.581176531638,Africa,Algeria,DZ,,Algeria - Tipaza,2014-04-17,
Syritta pipiens,Animalia,HOVER_FLIES_OR_FLOWER_FLIES_SYRPHIDAE,,,1,2.3656372725964,36.581176531638,Africa,Algeria,DZ,,Algeria - Tipaza,2014-04-17,
Bombus terrestris,Animalia,Apidae,Buff-tailed Bumblebee,,1,2.3656372725964,36.581176531638,Africa,Algeria,DZ,,Algeria - Tipaza,2014-04-17,
Pamphagus elephas,Animalia,Pamphagidae,,,4,2.353592813015,36.595682960457,Africa,Algeria,DZ,,Algeria - Tipaza,2014-04-17,
Platalea leucorodia,Animalia,IBISSES_AND_SPOONBILLS_THRESKIORNITHIDAE,Eurasian Spoonbill,,11,1.9030655594543,35.565790987887,Africa,Algeria,DZ,,Algeria - Tissemsilt,2016-02-18,
Monticola solitarius,Animalia,OLD_WORLD_FLYCATCHERS_MUSCICAPIDAE,Blue Rock Thrush,,1,2.4036266875919,36.619878762618,Africa,Algeria,DZ,,Algeria - Tipaza,2016-02-13,
Glaucium flavum,Plantae,PAPAVERACEAE,Yellow Horn-poppy,,1,2.7545374631882,36.414373411545,Africa,Algeria,DZ,,Algeria - Chrea NP,2014-04-16,
Fedia cornucopiae,Plantae,CAPRIFOLIACEAE,Horn-of-plenty,,1,2.7541646361351,36.41458170594,Africa,Algeria,DZ,,Algeria - Chrea NP,2014-04-16,
Plantago serraria,Plantae,PLANTAGINACEAE,Toothed Plantain,,10,2.4702109023929,36.594193704445,Africa,Algeria,DZ,,Algeria - Tipaza Chenoua NP,2014-04-15,
Centranthus calcitrapae,Plantae,CAPRIFOLIACEAE,Annual Valerian,,15,2.4730543792248,36.591135289486,Africa,Algeria,DZ,,Algeria - Tipaza Chenoua NP,2014-04-15,
Chrysotoxum intermedium,Animalia,HOVER_FLIES_OR_FLOWER_FLIES_SYRPHIDAE,,,1,2.472510561347,36.590790986448,Africa,Algeria,DZ,,Algeria - Tipaza Chenoua NP,2014-04-15,
Ophrys speculum,Plantae,ORCHIDACEAE,Mirror Bee Orchid,,4,2.47,36.59,Africa,Algeria,DZ,,Algeria - Tipaza Chenoua NP,2014-04-15,
Moraea sisyrinchium,Plantae,IRIDACEAE,,,15,2.4447302520275,36.595614588555,Africa,Algeria,DZ,,Algeria - Tipaza Chenoua NP,2014-04-14,
Rhodanthidium sticticum,Animalia,MEGACHILIDAE,,,1,2.4441827461123,36.594822519888,Africa,Algeria,DZ,,Algeria - Tipaza Chenoua NP,2014-04-14,
Prasium majus,Plantae,Lamiaceae,White hedge-nettle,,10,2.4449015781283,36.59560637854,Africa,Algeria,DZ,,Algeria - Tipaza Chenoua NP,2014-04-14,
Tarentola mauritanica,Animalia,PHYLLODACTYLIDAE,Moorish Gecko,,1,2.4438860267401,36.594426146025,Africa,Algeria,DZ,,Algeria - Tipaza Chenoua NP,2014-04-14,
Pararge aegeria,Animalia,BRUSHFOOTED_BUTTERFLIES_NYMPHALIDAE,Speckled Wood,,1,2.4449374526739,36.593358012635,Africa,Algeria,DZ,,Algeria - Tipaza Chenoua NP,2014-04-14,
Chloromyia formosa,Animalia,SOLDIER_FLIES_STRATIOMYIDAE,Broad Centurian,,1,2.4449374526739,36.593358012635,Africa,Algeria,DZ,,Algeria - Tipaza Chenoua NP,2014-04-14,
Aiolopus strepens,Animalia,SHORTHORNED_GRASSHOPPERS_ACRIDIDAE,,,1,-0.13709306716919,35.755419662609,Africa,Algeria,DZ,,Algeria - Oran,2014-04-13,
Polistes gallicus,Animalia,Vespidae,,,1,-0.13709306716919,35.755419662609,Africa,Algeria,DZ,,Algeria - Oran,2014-04-13,
Testudo graeca,Animalia,Testudinidae,Greek Tortoise,,4,-0.14207661151886,35.749853741162,Africa,Algeria,DZ,,Algeria - Oran,2014-04-13,
Sphaerophoria scripta,Animalia,HOVER_FLIES_OR_FLOWER_FLIES_SYRPHIDAE,,,1,-0.12791588902473,35.771759824654,Africa,Algeria,DZ,,Algeria - Oran,2014-04-12,
Stratiomys longicornis,Animalia,SOLDIER_FLIES_STRATIOMYIDAE,,,1,-0.12559711933136,35.775762328737,Africa,Algeria,DZ,,Algeria - Oran,2014-04-12,
Pyrgomorpha conica,Animalia,Pyrgomorphidae,,,1,-0.88039219379425,35.641531499427,Africa,Algeria,DZ,,Algeria - Oran,2014-04-11,
Canis lupaster,Animalia,DOGS_CANIDAE,African Golden Wolf,,1,-0.89125849306583,35.636894713483,Africa,Algeria,DZ,,Algeria - Oran,2014-04-11,
Trifolium stellatum,Plantae,Fabaceae,Starry Clover,,1,-0.8860570192337,35.637206711107,Africa,Algeria,DZ,,Algeria - Oran,2014-04-11,
Gladiolus illyricus,Plantae,IRIDACEAE,Wild Gladiolus,,1,-0.88210880756378,35.640694461889,Africa,Algeria,DZ,,Algeria - Oran,2014-04-11,
Anagallis arvensis,Plantae,PRIMULACEAE,Scarlet Pimpernel,,10,-0.88210880756378,35.640694461889,Africa,Algeria,DZ,,Algeria - Oran,2014-04-11,
Cytinus ruber,Plantae,CYTINACEAE,,,1,-0.88210880756378,35.640694461889,Africa,Algeria,DZ,,Algeria - Oran,2014-04-11,
Polygala myrtifolia,Plantae,POLYGALACEAE,Parrotbush,,1,2.4422840774059,36.594236370381,Africa,Algeria,DZ,,Algeria - Tipaza Chenoua NP,2014-04-10,
Vespula germanica,Animalia,Vespidae,German Wasp,,1,2.4454058334231,36.592289999057,Africa,Algeria,DZ,,Algeria - Tipaza Chenoua NP,2014-04-10,
Chloromyia formosa,Animalia,SOLDIER_FLIES_STRATIOMYIDAE,Broad Centurian,,1,2.4457169696689,36.592643178718,Africa,Algeria,DZ,,Algeria - Tipaza Chenoua NP,2014-04-10,
Dasyscolia ciliata,Animalia,Scoliidae,,,2,2.4457169696689,36.592643178718,Africa,Algeria,DZ,,Algeria - Tipaza Chenoua NP,2014-04-10,
Onopordum spec.,Plantae,Asteraceae,Thistle,,1,2.3657231032848,36.581934682954,Africa,Algeria,DZ,,Algeria - Tipaza,2014-04-09,
Xylocopa violacea/valga,Animalia,Apidae,,,1,2.44244836,36.59421941,Africa,Algeria,DZ,,Algeria - Tipaza Chenoua NP,2014-04-10,
Myathropa florea,Animalia,HOVER_FLIES_OR_FLOWER_FLIES_SYRPHIDAE,,,1,2.4445082992315,36.593754257392,Africa,Algeria,DZ,,Algeria - Tipaza Chenoua NP,2014-04-10,
Chalcides ocellatus,Animalia,Scincidae,Ocellated Skink,,1,2.4445082992315,36.593754257392,Africa,Algeria,DZ,,Algeria - Tipaza Chenoua NP,2014-04-10,
Bombylius medius,Animalia,BEE_FLIES_BOMBYLIIDAE,,,1,2.3685126006603,36.584002330517,Africa,Algeria,DZ,,Algeria - Tipaza,2014-04-09,
Megachile sicula,Animalia,MEGACHILIDAE,,,1,2.3685126006603,36.584002330517,Africa,Algeria,DZ,,Algeria - Tipaza,2014-04-09,
Melecta spec.,Animalia,Apidae,,,1,2.364135235548,36.582141450202,Africa,Algeria,DZ,,Algeria - Tipaza,2014-04-09,
Pieris rapae,Animalia,WHITES_PIERIDAE,Small White,,12,2.364135235548,36.582141450202,Africa,Algeria,DZ,,Algeria - Tipaza,2014-04-09,
Eulasia spec.,Animalia,GLAPHYRIDAE,,,1,2.364135235548,36.582141450202,Africa,Algeria,DZ,,Algeria - Tipaza,2014-04-09,
Chrysolina americana,Animalia,ROOTWORM_BEETLES_CHRYSOMELIDAE,Rosemary Beetle,,10,2.4427378736436,36.590089117658,Africa,Algeria,DZ,,Algeria - Tipaza Chenoua NP,2014-04-09,
Polistes dominula,Animalia,Vespidae,European Paper Wasp,,1,2.4427378736436,36.590089117658,Africa,Algeria,DZ,,Algeria - Tipaza Chenoua NP,2014-04-09,
Pararge aegeria,Animalia,BRUSHFOOTED_BUTTERFLIES_NYMPHALIDAE,Speckled Wood,,1,2.4427378736436,36.590089117658,Africa,Algeria,DZ,,Algeria - Tipaza Chenoua NP,2014-04-09,
Muscari comosum,Plantae,ASPARAGACEAE,Tassel Hyacinth,,1,2.5508169829845,36.575834799992,Africa,Algeria,DZ,,Algeria - Tipaza,2014-04-08,
Circus macrourus,Animalia,HAWKS_AND_EAGLES_ACCIPITRIDAE,Pallid Harrier,,1,1.3586425501853,34.528281914425,Africa,Algeria,DZ,,Algeria - Tiaret,2016-01-21,
Papilio machaon,Animalia,SWALLOWTAILS_PAPILIONIDAE,Swallowtail,,4,2.5533701106906,36.574766813196,Africa,Algeria,DZ,,Algeria - Tipaza,2014-04-08,
Anacridium aegyptium,Animalia,SHORTHORNED_GRASSHOPPERS_ACRIDIDAE,Egyptian Grasshopper,,1,2.5533701106906,36.574766813196,Africa,Algeria,DZ,,Algeria - Tipaza,2014-04-08,
Emberiza sahari sahari,Animalia,BUNTINGS_EMBERIZIDAE,House Bunting ssp sahari,,1,5.73333,34.85,Africa,Algeria,DZ,,Algeria - Biskra,1985-06-22,
Testudo graeca,Animalia,Testudinidae,Greek Tortoise,,1,-0.23,35.76,Africa,Algeria,DZ,,Algeria - Oran,2015-04-28,19:19
Testudo graeca,Animalia,Testudinidae,Greek Tortoise,,1,-0.1,35.79,Africa,Algeria,DZ,,Algeria - Mostaganem,2015-04-30,10:19
Discoglossus pictus,Animalia,Discoglossidae,Painted Frog,,1,-0.98,35.65,Africa,Algeria,DZ,,Algeria - Oran,2015-05-28,20:45
Daboia mauritanica,Animalia,Viperidae,Moorish Viper,,1,-1.68,35.14,Africa,Algeria,DZ,,Algeria - Tlemcen,2015-05-29,13:02
Herpestes ichneumon,Animalia,MONGOOSES_HERPESTIDAE,Egyptian Mongoose,,1,-7.9384,38.54626,Africa,Algeria,DZ,,Algeria - Mediterranean Sea,2015-03-16,13:22
