scientificName,kingdom,family,vernacularName,previousIdentifications,individualCount,longitudeDecimal,latitudeDecimal,continent,country,countryCode,stateProvince,locality,eventDate,eventTime
Marmota marmota,Animalia,SQUIRRELS_CHIPMUNKS_AND_PRAIRIEDOGS_SCIURIDAE,Alpine Marmot,,1,1.72098409384,42.5433740242,Europe,Andorra,AD,,Andorra - Pas de la Casa,2013-07-02,
Marmota marmota,Animalia,SQUIRRELS_CHIPMUNKS_AND_PRAIRIEDOGS_SCIURIDAE,Alpine Marmot,,4,1.48601621389,42.6360414953,Europe,Andorra,AD,,Andorra,2014-08-30,
Gyps fulvus,Animalia,HAWKS_AND_EAGLES_ACCIPITRIDAE,Griffon Vulture,,20,1.48601621389,42.6360414953,Europe,Andorra,AD,,Andorra,2014-08-30,
Anthus spinoletta,Animalia,PIPITS_EN_WAGTAILS_MOTACILLIDAE,Water Pipit,,50,1.48601621389,42.6360414953,Europe,Andorra,AD,,Andorra,2014-08-30,
Arctostaphylos uva-ursi,Plantae,ERICACEAE,Bearberry,,1,1.49960249657,42.4408132688,Europe,Andorra,AD,,Andorra,2014-08-09,17:05
Vaccinium myrtillus,Plantae,ERICACEAE,Bilberry,,1,1.50034897421,42.4407152025,Europe,Andorra,AD,,Andorra,2014-08-09,16:51
Pyrgus andromedae,Animalia,SKIPPERS_HESPERIIDAE,Alpine Grizzled Skipper,,6,1.63722038269,42.6122961245,Europe,Andorra,AD,,Andorra,2014-05-20,
Gyps fulvus,Animalia,HAWKS_AND_EAGLES_ACCIPITRIDAE,Griffon Vulture,,1,1.52787208557,42.5027943651,Europe,Andorra,AD,,Andorra,2014-07-10,
Rana temporaria,Animalia,Ranidae,Common Frog,,1,1.47773,42.637637,Europe,Andorra,AD,,Andorra,2007-08-15,
Lycaena virgaureae,Animalia,GOSSAMERWINGED_BUTTERFLIES_LYCAENIDAE,Scarce Copper,,1,1.5,42.45,Europe,Andorra,AD,,Andorra,2013-07-26,
Plebejus argus,Animalia,GOSSAMERWINGED_BUTTERFLIES_LYCAENIDAE,Silver-studded Blue,,10,1.5655517578125,42.552827379347,Europe,Andorra,AD,,Andorra - Canillo,2013-07-26,
Pyrrhocorax pyrrhocorax,Animalia,CROWS_AND_JAYS_CORVIDAE,Red-billed Chough,,6,1.4989471435547,42.626633439691,Europe,Andorra,AD,,Andorra,2013-07-26,
Prunella modularis,Animalia,ACCENTORS_PRUNELLIDAE,Dunnock,,6,1.5023803710938,42.628654293518,Europe,Andorra,AD,,Andorra,2013-07-26,
Anthus spinoletta,Animalia,PIPITS_EN_WAGTAILS_MOTACILLIDAE,Water Pipit,,8,1.5023803710938,42.628654293518,Europe,Andorra,AD,,Andorra,2013-07-25,
Vipera aspis,Animalia,Viperidae,Asp Viper,,1,1.527099609375,42.59353262565,Europe,Andorra,AD,,Andorra,2013-07-25,
Aporia crataegi,Animalia,WHITES_PIERIDAE,Black-veined White,,100,1.527099609375,42.59353262565,Europe,Andorra,AD,,Andorra,2013-07-25,
Erebia oeme,Animalia,BRUSHFOOTED_BUTTERFLIES_NYMPHALIDAE,Bright-eyed Ringlet,,1,1.527099609375,42.59353262565,Europe,Andorra,AD,,Andorra,2013-07-25,
Coenonympha arcania,Animalia,BRUSHFOOTED_BUTTERFLIES_NYMPHALIDAE,Pearly Heath,,15,1.5,42.55,Europe,Andorra,AD,,Andorra,2013-07-25,
Pararge aegeria,Animalia,BRUSHFOOTED_BUTTERFLIES_NYMPHALIDAE,Speckled Wood,,20,1.5429782867432,42.620191530278,Europe,Andorra,AD,,Andorra,2013-07-25,
Oenanthe oenanthe,Animalia,OLD_WORLD_FLYCATCHERS_MUSCICAPIDAE,Northern Wheatear,,1,1.4828380476697187,42.631723182315596,Europe,Andorra,AD,,Andorra,2013-07-21,09:16
Anthus spinoletta,Animalia,PIPITS_EN_WAGTAILS_MOTACILLIDAE,Water Pipit,,4,1.4824739377959468,42.6317419577787,Europe,Andorra,AD,,Andorra,2013-07-20,22:14
Gypaetus barbatus,Animalia,HAWKS_AND_EAGLES_ACCIPITRIDAE,Bearded Vulture,,2,1.4780227281166967,42.63138145212329,Europe,Andorra,AD,,Andorra,2013-07-20,17:36
Corvus corax,Animalia,CROWS_AND_JAYS_CORVIDAE,Northern Raven,,3,1.4780227281166967,42.63138145212329,Europe,Andorra,AD,,Andorra,2013-07-20,17:36
Gyps fulvus,Animalia,HAWKS_AND_EAGLES_ACCIPITRIDAE,Griffon Vulture,,1,1.7411077022552,42.569517215185,Europe,Andorra,AD,,Andorra,2013-07-05,
Luzula campestris,Plantae,JUNCACEAE,Field Wood-rush,,1,1.7354249952041,42.544147743328,Europe,Andorra,AD,,Andorra - Pas de la Casa,2013-07-02,
Reseda phyteuma,Plantae,RESEDACEAE,Corn Mignonette,,1,1.7354249952041,42.544147743328,Europe,Andorra,AD,,Andorra - Pas de la Casa,2013-07-02,
Veronica beccabunga,Plantae,PLANTAGINACEAE,Brooklime Speedwell,,1,1.7354249952041,42.544147743328,Europe,Andorra,AD,,Andorra - Pas de la Casa,2013-07-02,
Taraxacum officinale s.l. (incl. all sec.),Plantae,Asteraceae,Common Dandelion,,1,1.7354249952041,42.544147743328,Europe,Andorra,AD,,Andorra - Pas de la Casa,2013-07-02,
Botrychium lunaria,Plantae,OPHIOGLOSSACEAE,Moonwort,,1,1.7,42.5,Europe,Andorra,AD,,Andorra - Pas de la Casa,2013-07-02,
Oxytropis halleri,Plantae,Fabaceae,Purple Oxytropis,,1,1.7204046240658,42.543083256475,Europe,Andorra,AD,,Andorra - Pas de la Casa,2013-07-02,
Anthyllis vulneraria,Plantae,Fabaceae,Kidney Vetch,,1,1.7204046240658,42.543083256475,Europe,Andorra,AD,,Andorra - Pas de la Casa,2013-07-02,
Soldanella alpina,Plantae,PRIMULACEAE,Alpine snowbell,,1,1.7204046240658,42.543083256475,Europe,Andorra,AD,,Andorra - Pas de la Casa,2013-07-02,
Ajuga reptans,Plantae,Lamiaceae,Bugle,,1,1.7204046240658,42.543083256475,Europe,Andorra,AD,,Andorra - Pas de la Casa,2013-07-02,
Myosotis alpestris,Plantae,BORAGINACEAE,Alpine Forget-me-not,,1,1.7204046240658,42.543083256475,Europe,Andorra,AD,,Andorra - Pas de la Casa,2013-07-02,
Salix herbacea,Plantae,SALICACEAE,Dwarf Willow,,1,1.7204046240658,42.543083256475,Europe,Andorra,AD,,Andorra - Pas de la Casa,2013-07-02,
Anemone narcissiflora,Plantae,RANUNCULACEAE,Narcissus anemone,,1,1.7204046240658,42.543083256475,Europe,Andorra,AD,,Andorra - Pas de la Casa,2013-07-02,
Antennaria carpatica,Plantae,Asteraceae,,,1,1.7204046240658,42.543083256475,Europe,Andorra,AD,,Andorra - Pas de la Casa,2013-07-02,
Primula elatior,Plantae,PRIMULACEAE,Oxlip,,1,1.72,42.54,Europe,Andorra,AD,,Andorra - Pas de la Casa,2013-07-02,
Luzula lutea,Plantae,JUNCACEAE,,,1,1.7204046240658,42.543083256475,Europe,Andorra,AD,,Andorra - Pas de la Casa,2013-07-02,
Vaccinium uliginosum,Plantae,ERICACEAE,Bog Bilberry,,1,1.7204046240658,42.543083256475,Europe,Andorra,AD,,Andorra - Pas de la Casa,2013-07-02,
Calluna vulgaris,Plantae,ERICACEAE,Heather,,1,1.7204046240658,42.543083256475,Europe,Andorra,AD,,Andorra - Pas de la Casa,2013-07-02,
Juniperus communis,Plantae,CUPRESSACEAE,Juniper,,1,1.7204046240658,42.543083256475,Europe,Andorra,AD,,Andorra - Pas de la Casa,2013-07-02,
Pulsatilla alpina,Plantae,RANUNCULACEAE,,,1,1.7204046240658,42.543083256475,Europe,Andorra,AD,,Andorra - Pas de la Casa,2013-07-02,
Pulsatilla vernalis,Plantae,RANUNCULACEAE,,,1,1.7204046240658,42.543083256475,Europe,Andorra,AD,,Andorra - Pas de la Casa,2013-07-02,
Daphne cneorum,Plantae,THYMELAEACEAE,Rose daphne,,1,1.7204046240658,42.543083256475,Europe,Andorra,AD,,Andorra - Pas de la Casa,2013-07-02,
Gentiana pyrenaica,Plantae,GENTIANACEAE,,,1,1.7204046240658,42.543083256475,Europe,Andorra,AD,,Andorra - Pas de la Casa,2013-07-02,
Carlina acaulis,Plantae,Asteraceae,Stemless Carline Thistle,,1,1.560058,42.640196,Europe,Andorra,AD,,Andorra,2007-08-16,
Astrantia major,Plantae,Apiaceae,Great Masterwort,,1,1.551786,42.626588,Europe,Andorra,AD,,Andorra,2007-08-16,
Aconitum napellus,Plantae,RANUNCULACEAE,Monk's-hood,,1,1.551818,42.62644,Europe,Andorra,AD,,Andorra,2007-08-16,
Sparganium angustifolium,Plantae,TYPHACEAE,Floating Bur-reed,,40,1.4776850000001,42.634772,Europe,Andorra,AD,,Andorra,2007-08-15,
Eryngium bourgatii,Plantae,Apiaceae,,,1,1.5600580466271,42.640054107614,Europe,Andorra,AD,,Andorra,2007-08-16,
Decticus verrucivorus,Animalia,KATYDIDS_TETTIGONIIDAE,Wart-Biter,,1,1.5573010000001,42.629256,Europe,Andorra,AD,,Andorra,2007-08-21,
Parnassia palustris,Plantae,CELASTRACEAE,Grass-of-Parnassus,,20,1.55799865723,42.553238357,Europe,Andorra,AD,,Andorra,2012-08-10,
Prenanthes purpurea,Plantae,Asteraceae,Purple Lettuce,,21,1.55254840851,42.6237362419,Europe,Andorra,AD,,Andorra,2012-08-15,
Prenanthes purpurea,Plantae,Asteraceae,Purple Lettuce,,51,1.54040336609,42.5495117977,Europe,Andorra,AD,,Andorra,2012-08-10,
Moneses uniflora,Plantae,ERICACEAE,One-flowered Wintergreen,,1,1.56808161526,42.5555621725,Europe,Andorra,AD,,Andorra - Canillo,2012-08-10,
Carex echinata,Plantae,CYPERACEAE,Star Sedge,,1,1.6840839386,42.527151723,Europe,Andorra,AD,,Andorra,2012-08-11,
Carex panicea,Plantae,CYPERACEAE,Carnation Sedge,,1,1.68706655502,42.5265033709,Europe,Andorra,AD,,Andorra,2012-08-11,
Dryas octopetala,Plantae,ROSACEAE,Mountain Avens,,1,1.6836065054,42.5264282564,Europe,Andorra,AD,,Andorra,2012-08-11,
Marmota marmota,Animalia,SQUIRRELS_CHIPMUNKS_AND_PRAIRIEDOGS_SCIURIDAE,Alpine Marmot,,3,1.68259799481,42.5256533869,Europe,Andorra,AD,,Andorra,2012-08-11,
Parnassia palustris,Plantae,CELASTRACEAE,Grass-of-Parnassus,,100,1.68633699417,42.5235263995,Europe,Andorra,AD,,Andorra,2012-08-11,
Swertia perennis,Plantae,GENTIANACEAE,Star gentian,,30,1.68633699417,42.5235263995,Europe,Andorra,AD,,Andorra,2012-08-11,
Ptyonoprogne rupestris,Animalia,SWALLOWS_HIRUNDINIDAE,Eurasian Crag Martin,,4,1.53243720531,42.5572887125,Europe,Andorra,AD,,Andorra,2012-08-14,
Gyps fulvus,Animalia,HAWKS_AND_EAGLES_ACCIPITRIDAE,Griffon Vulture,,2,1.56396389008,42.6224652215,Europe,Andorra,AD,,Andorra,2012-07-26,
Linaria cannabina,Animalia,FINCHES_FRINGILLIDAE,Common Linnet,,5,1.7226433754,42.5424413934,Europe,Andorra,AD,,Andorra - Pas de la Casa,2012-07-17,14:15
Ptyonoprogne rupestris,Animalia,SWALLOWS_HIRUNDINIDAE,Eurasian Crag Martin,,1,1.528774,42.507435,Europe,Andorra,AD,,Andorra,2012-07-17,17:02
Oenanthe oenanthe libanotica,Animalia,OLD_WORLD_FLYCATCHERS_MUSCICAPIDAE,Northern Wheatear ssp libanotica,,6,1.722641,42.542365,Europe,Andorra,AD,,Andorra - Pas de la Casa,2012-07-17,14:15
Ptyonoprogne rupestris,Animalia,SWALLOWS_HIRUNDINIDAE,Eurasian Crag Martin,,4,1.5279810666666667,42.5075314,Europe,Andorra,AD,,Andorra,2012-07-23,14:29
Oenanthe oenanthe,Animalia,OLD_WORLD_FLYCATCHERS_MUSCICAPIDAE,Northern Wheatear,,1,1.53031826019,42.539390083,Europe,Andorra,AD,,Andorra,2007-05-26,
Anguis fragilis,Animalia,Anguidae,Slow Worm,,1,1.56804084778,42.6222757504,Europe,Andorra,AD,,Andorra,2011-07-08,
Lycaena virgaureae,Animalia,GOSSAMERWINGED_BUTTERFLIES_LYCAENIDAE,Scarce Copper,,1,1.55,42.6,Europe,Andorra,AD,,Andorra,2011-07-08,
Aporia crataegi,Animalia,WHITES_PIERIDAE,Black-veined White,,1,1.55748367309,42.6254966806,Europe,Andorra,AD,,Andorra,2011-07-08,
Melitaea didyma,Animalia,BRUSHFOOTED_BUTTERFLIES_NYMPHALIDAE,Spotted Fritillary,,1,1.55,42.6,Europe,Andorra,AD,,Andorra,2011-07-08,
Parnassius apollo,Animalia,SWALLOWTAILS_PAPILIONIDAE,Apollo,,1,1.55,42.6,Europe,Andorra,AD,,Andorra,2011-07-08,
Decticus verrucivorus,Animalia,KATYDIDS_TETTIGONIIDAE,Wart-Biter,,1,1.55,42.55,Europe,Andorra,AD,,Andorra - Canillo,2011-07-07,16:00
Decticus verrucivorus,Animalia,KATYDIDS_TETTIGONIIDAE,Wart-Biter,,1,1.55,42.55,Europe,Andorra,AD,,Andorra - Canillo,2011-07-07,
Trollius europaeus,Plantae,RANUNCULACEAE,Globeflower,,1,1.57550811767,42.5630693988,Europe,Andorra,AD,,Andorra - Canillo,2011-07-07,
Aster alpinus,Plantae,Asteraceae,Blue alpine daisy,,1,1.57550811767,42.5642072971,Europe,Andorra,AD,,Andorra - Canillo,2011-07-07,
Coenonympha arcania,Animalia,BRUSHFOOTED_BUTTERFLIES_NYMPHALIDAE,Pearly Heath,,1,1.5,42.5,Europe,Andorra,AD,,Andorra,2011-07-06,
Anthus spinoletta,Animalia,PIPITS_EN_WAGTAILS_MOTACILLIDAE,Water Pipit,,1,1.49725198746,42.5879561872,Europe,Andorra,AD,,Andorra,2010-05-26,
Periparus ater,Animalia,TITS_PARIDAE,Coal Tit,,1,1.49725198746,42.5879561872,Europe,Andorra,AD,,Andorra,2010-05-26,
Corvus corax,Animalia,CROWS_AND_JAYS_CORVIDAE,Northern Raven,,1,1.58582925797,42.538394027,Europe,Andorra,AD,,Andorra - Encamp,2010-05-26,
Ptyonoprogne rupestris,Animalia,SWALLOWS_HIRUNDINIDAE,Eurasian Crag Martin,,2,1.59483343363,42.5291026687,Europe,Andorra,AD,,Andorra - Encamp,2011-07-21,
Periparus ater,Animalia,TITS_PARIDAE,Coal Tit,,1,1.58409118653,42.5282270238,Europe,Andorra,AD,,Andorra - Encamp,2011-07-21,
Serinus citrinella,Animalia,FINCHES_FRINGILLIDAE,,,4,1.47606854029,42.5401464244,Europe,Andorra,AD,,Andorra,2011-08-15,
Corvus corax,Animalia,CROWS_AND_JAYS_CORVIDAE,Northern Raven,,3,1.5659169488064,42.516976566713,Europe,Andorra,AD,,Andorra,2011-08-15,12:06
Ptyonoprogne rupestris,Animalia,SWALLOWS_HIRUNDINIDAE,Eurasian Crag Martin,,3,1.5660631694674,42.516876864805,Europe,Andorra,AD,,Andorra,2011-08-15,12:07
Periparus ater,Animalia,TITS_PARIDAE,Coal Tit,,1,1.5695740704789,42.518919106266,Europe,Andorra,AD,,Andorra,2011-08-15,12:14
Falco tinnunculus,Animalia,CARACAS_AND_FALCONS_FALCONIDAE,Common Kestrel,,5,1.424154790243,42.550377313893,Europe,Andorra,AD,,Andorra,2011-08-15,15:08
Oenanthe oenanthe,Animalia,OLD_WORLD_FLYCATCHERS_MUSCICAPIDAE,Northern Wheatear,,5,1.589685969922971,42.542322223007986,Europe,Andorra,AD,,Andorra,2011-08-15,15:09
Gypaetus barbatus,Animalia,HAWKS_AND_EAGLES_ACCIPITRIDAE,Bearded Vulture,,1,1.43972553004,42.5586522702,Europe,Andorra,AD,,Andorra,2011-08-15,15:57
Pyrrhocorax pyrrhocorax,Animalia,CROWS_AND_JAYS_CORVIDAE,Red-billed Chough,,5,1.4475400315736,42.555557547634,Europe,Andorra,AD,,Andorra,2011-08-15,16:07
Falco tinnunculus,Animalia,CARACAS_AND_FALCONS_FALCONIDAE,Common Kestrel,,6,1.4502103688308,42.553182459063,Europe,Andorra,AD,,Andorra,2011-08-15,16:08
Salamandra salamandra,Animalia,Salamandridae,Fire Salamander,,1,1.5,42.45,Europe,Andorra,AD,,Andorra,2010-07-21,
Podarcis muralis,Animalia,Lacertidae,Common Wall Lizard,,12,1.5,42.55,Europe,Andorra,AD,,Andorra,2010-07-17,
Serinus citrinella,Animalia,FINCHES_FRINGILLIDAE,,,1,1.57568832821,42.5485829657,Europe,Andorra,AD,,Andorra,2007-09-08,
Periparus ater,Animalia,TITS_PARIDAE,Coal Tit,,1,1.52984619141,42.5571267033,Europe,Andorra,AD,,Andorra,2010-07-20,
Oenanthe oenanthe,Animalia,OLD_WORLD_FLYCATCHERS_MUSCICAPIDAE,Northern Wheatear,,2,1.52847290039,42.6203178486,Europe,Andorra,AD,,Andorra,2010-07-20,
Phoenicurus ochruros,Animalia,OLD_WORLD_FLYCATCHERS_MUSCICAPIDAE,Black Redstart,,4,1.52847290039,42.6203178486,Europe,Andorra,AD,,Andorra,2010-07-20,
Ptyonoprogne rupestris,Animalia,SWALLOWS_HIRUNDINIDAE,Eurasian Crag Martin,,5,1.4769744873,42.5449866731,Europe,Andorra,AD,,Andorra,2010-07-19,
Phoenicurus ochruros,Animalia,OLD_WORLD_FLYCATCHERS_MUSCICAPIDAE,Black Redstart,,1,1.48847579956,42.6377788946,Europe,Andorra,AD,,Andorra,2008-08-02,
Oenanthe oenanthe,Animalia,OLD_WORLD_FLYCATCHERS_MUSCICAPIDAE,Northern Wheatear,,1,1.48847579956,42.6377788946,Europe,Andorra,AD,,Andorra,2008-08-02,
Serinus citrinella,Animalia,FINCHES_FRINGILLIDAE,,,2,1.56160354614,42.6238546586,Europe,Andorra,AD,,Andorra,2007-05-17,
Oenanthe oenanthe,Animalia,OLD_WORLD_FLYCATCHERS_MUSCICAPIDAE,Northern Wheatear,,1,1.53911590576,42.5711606696,Europe,Andorra,AD,,Andorra,2007-05-17,
Oenanthe oenanthe,Animalia,OLD_WORLD_FLYCATCHERS_MUSCICAPIDAE,Northern Wheatear,,1,1.59112930298,42.5452396145,Europe,Andorra,AD,,Andorra - Encamp,2009-08-16,
Senecio inaequidens,Plantae,Asteraceae,Narrow-leaved Ragwort,,1,1.51741862,42.54569333,Europe,Andorra,AD,,Andorra - La Massana,2019-09-06,
Rosa pendulina,Plantae,ROSACEAE,Alpine Rose,,1,1.72282945,42.54335031,Europe,Andorra,AD,,Andorra - Pas de la Casa,2019-07-16,14:36
Daphne cneorum,Plantae,THYMELAEACEAE,Rose daphne,,1,1.72282945,42.54335031,Europe,Andorra,AD,,Andorra - Pas de la Casa,2019-07-16,14:36
Androsace laggeri,Plantae,PRIMULACEAE,,,1,1.72221553,42.5438652,Europe,Andorra,AD,,Andorra - Pas de la Casa,2019-07-16,14:37
Dianthus carthusianorum,Plantae,CARYOPHYLLACEAE,Carthusian Pink,,1,1.72119975,42.55474091,Europe,Andorra,AD,,Andorra - Encamp,2019-07-16,15:54
Dianthus carthusianorum,Plantae,CARYOPHYLLACEAE,Carthusian Pink,,1,1.72119975,42.55474091,Europe,Andorra,AD,,Andorra - Encamp,2019-07-16,15:54
Androsace laggeri,Plantae,PRIMULACEAE,,,1,1.72221553,42.5438652,Europe,Andorra,AD,,Andorra - Pas de la Casa,2019-07-16,14:37
Rosa pendulina,Plantae,ROSACEAE,Alpine Rose,,1,1.72282945,42.54335031,Europe,Andorra,AD,,Andorra - Pas de la Casa,2019-07-16,14:36
Saxifraga paniculata,Plantae,SAXIFRAGACEAE,Livelong Saxifrage,,1,1.72282945,42.54335031,Europe,Andorra,AD,,Andorra - Pas de la Casa,2019-07-16,14:36
Saxifraga paniculata,Plantae,SAXIFRAGACEAE,Livelong Saxifrage,,1,1.72282945,42.54335031,Europe,Andorra,AD,,Andorra - Pas de la Casa,2019-07-16,14:36
Antennaria dioica,Plantae,Asteraceae,Mountain Everlasting,,1,1.7,42.5,Europe,Andorra,AD,,Andorra - Pas de la Casa,2019-07-16,14:36
Antennaria dioica,Plantae,Asteraceae,Mountain Everlasting,,1,1.7,42.5,Europe,Andorra,AD,,Andorra - Pas de la Casa,2019-07-16,14:36
Gymnadenia rhellicani,Plantae,ORCHIDACEAE,,,1,1.72,42.54,Europe,Andorra,AD,,Andorra - Pas de la Casa,2019-07-16,14:36
Daphne cneorum,Plantae,THYMELAEACEAE,Rose daphne,,1,1.72282945,42.54335031,Europe,Andorra,AD,,Andorra - Pas de la Casa,2019-07-16,14:36
Gentiana acaulis,Plantae,GENTIANACEAE,Trumpet gentian,,1,1.72282945,42.54335031,Europe,Andorra,AD,,Andorra - Pas de la Casa,2019-07-16,14:36
Gentiana acaulis,Plantae,GENTIANACEAE,Trumpet gentian,,1,1.72282945,42.54335031,Europe,Andorra,AD,,Andorra - Pas de la Casa,2019-07-16,14:36
Carduus carlinoides,Plantae,Asteraceae,,,1,1.72167504,42.54163742,Europe,Andorra,AD,,Andorra - Pas de la Casa,2019-07-16,13:22
Carduus carlinoides,Plantae,Asteraceae,,,1,1.72167504,42.54163742,Europe,Andorra,AD,,Andorra - Pas de la Casa,2019-07-16,13:22
Phoenicurus ochruros,Animalia,OLD_WORLD_FLYCATCHERS_MUSCICAPIDAE,Black Redstart,,2,1.67152202129364,42.6117515563965,Europe,Andorra,AD,,Andorra,2019-10-09,11:47
Pyrrhocorax graculus,Animalia,CROWS_AND_JAYS_CORVIDAE,Alpine Chough,,10,1.67119944095612,42.6120452880859,Europe,Andorra,AD,,Andorra,2019-10-09,11:53
Gypaetus barbatus,Animalia,HAWKS_AND_EAGLES_ACCIPITRIDAE,Bearded Vulture,,2,1.65980529785156,42.5964241027832,Europe,Andorra,AD,,Andorra,2019-10-09,14:19
Falco tinnunculus,Animalia,CARACAS_AND_FALCONS_FALCONIDAE,Common Kestrel,,1,1.68834865093231,42.5253868103027,Europe,Andorra,AD,,Andorra - Encamp,2019-10-10,11:12
Pyrrhocorax graculus,Animalia,CROWS_AND_JAYS_CORVIDAE,Alpine Chough,,2,1.68837594985962,42.5253829956055,Europe,Andorra,AD,,Andorra - Encamp,2019-10-10,11:13
Phoenicurus ochruros,Animalia,OLD_WORLD_FLYCATCHERS_MUSCICAPIDAE,Black Redstart,,4,1.67618000507355,42.5236167907715,Europe,Andorra,AD,,Andorra - Encamp,2019-10-10,13:16
Bilusius serratus,Animalia,CICADELLIDAE,,,5,1.72221124,42.54141235,Europe,Andorra,AD,,Andorra - Pas de la Casa,2019-07-16,13:36
Cinclus cinclus,Animalia,DIPPERS_CINCLIDAE,White-throated Dipper,,1,1.52888405323029,42.5088691711426,Europe,Andorra,AD,,Andorra - Andorra la Vella,2019-10-04,16:15
Iberolacerta aurelioi,Animalia,Lacertidae,Aurelio's Rock Lizard,,1,1.48197984695435,42.6405372619629,Europe,Andorra,AD,,Andorra,2019-10-05,14:07
Erebia triarius,Animalia,BRUSHFOOTED_BUTTERFLIES_NYMPHALIDAE,de Prunner's Ringlet,,1,1.71813595,42.54017639,Europe,Andorra,AD,,Andorra - Pas de la Casa,2019-07-16,16:37
Erebia triarius,Animalia,BRUSHFOOTED_BUTTERFLIES_NYMPHALIDAE,de Prunner's Ringlet,,1,1.71813595,42.54017639,Europe,Andorra,AD,,Andorra - Pas de la Casa,2019-07-16,16:37
Agriades glandon,Animalia,GOSSAMERWINGED_BUTTERFLIES_LYCAENIDAE,Glandon Blue,,4,1.72221553,42.5438652,Europe,Andorra,AD,,Andorra - Pas de la Casa,2019-07-16,14:37
Agriades glandon,Animalia,GOSSAMERWINGED_BUTTERFLIES_LYCAENIDAE,Glandon Blue,,4,1.72221553,42.5438652,Europe,Andorra,AD,,Andorra - Pas de la Casa,2019-07-16,14:37
Gypaetus barbatus,Animalia,HAWKS_AND_EAGLES_ACCIPITRIDAE,Bearded Vulture,,1,1.68470501899719,42.606632232666,Europe,Andorra,AD,,Andorra,2019-07-13,14:26
Coenonympha pamphilus,Animalia,BRUSHFOOTED_BUTTERFLIES_NYMPHALIDAE,Small Heath,,4,1.72104406,42.5406189,Europe,Andorra,AD,,Andorra - Pas de la Casa,2019-07-16,12:58
Coenonympha pamphilus,Animalia,BRUSHFOOTED_BUTTERFLIES_NYMPHALIDAE,Small Heath,,4,1.72104406,42.5406189,Europe,Andorra,AD,,Andorra - Pas de la Casa,2019-07-16,12:58
Erebia arvernensis,Animalia,BRUSHFOOTED_BUTTERFLIES_NYMPHALIDAE,Common Brassy Ringlet,,1,1.71813595,42.54017639,Europe,Andorra,AD,,Andorra - Pas de la Casa,2019-07-16,12:46
Erebia arvernensis,Animalia,BRUSHFOOTED_BUTTERFLIES_NYMPHALIDAE,Common Brassy Ringlet,,1,1.71813595,42.54017639,Europe,Andorra,AD,,Andorra - Pas de la Casa,2019-07-16,12:46
Pontia callidice,Animalia,WHITES_PIERIDAE,Peak White,,1,1.72119975,42.55474091,Europe,Andorra,AD,,Andorra - Encamp,2019-07-16,15:54
Pontia callidice,Animalia,WHITES_PIERIDAE,Peak White,,1,1.72119975,42.55474091,Europe,Andorra,AD,,Andorra - Encamp,2019-07-16,15:54
Erebia epiphron,Animalia,BRUSHFOOTED_BUTTERFLIES_NYMPHALIDAE,Mountain Ringlet,,1,1.71813595,42.54017639,Europe,Andorra,AD,,Andorra - Pas de la Casa,2019-07-16,12:46
Erebia epiphron,Animalia,BRUSHFOOTED_BUTTERFLIES_NYMPHALIDAE,Mountain Ringlet,,1,1.71813595,42.54017639,Europe,Andorra,AD,,Andorra - Pas de la Casa,2019-07-16,12:46
Pyrrhocorax graculus,Animalia,CROWS_AND_JAYS_CORVIDAE,Alpine Chough,,4,1.72538375854492,42.5414924621582,Europe,Andorra,AD,,Andorra - Pas de la Casa,2019-07-16,12:15
Oenanthe oenanthe,Animalia,OLD_WORLD_FLYCATCHERS_MUSCICAPIDAE,Northern Wheatear,,1,1.7181361913681,42.5401763916016,Europe,Andorra,AD,,Andorra - Pas de la Casa,2019-07-16,12:45
Phoenicurus ochruros,Animalia,OLD_WORLD_FLYCATCHERS_MUSCICAPIDAE,Black Redstart,,4,1.72104406356812,42.5406188964844,Europe,Andorra,AD,,Andorra - Pas de la Casa,2019-07-16,12:58
Monticola saxatilis,Animalia,OLD_WORLD_FLYCATCHERS_MUSCICAPIDAE,Common Rock Thrush,,4,1.72055006027222,42.5412178039551,Europe,Andorra,AD,,Andorra - Pas de la Casa,2019-07-16,13:10
Gyps fulvus,Animalia,HAWKS_AND_EAGLES_ACCIPITRIDAE,Griffon Vulture,,1,1.72119975090027,42.5547409057617,Europe,Andorra,AD,,Andorra - Encamp,2019-07-16,15:54
Marmota marmota,Animalia,SQUIRRELS_CHIPMUNKS_AND_PRAIRIEDOGS_SCIURIDAE,Alpine Marmot,,1,1.72050774097443,42.5549545288086,Europe,Andorra,AD,,Andorra - Encamp,2019-07-16,16:06
Gypaetus barbatus,Animalia,HAWKS_AND_EAGLES_ACCIPITRIDAE,Bearded Vulture,,1,1.72318756580353,42.5432510375977,Europe,Andorra,AD,,Andorra - Pas de la Casa,2019-07-12,13:03
Pyrrhocorax graculus,Animalia,CROWS_AND_JAYS_CORVIDAE,Alpine Chough,,4,1.72538375854492,42.5414924621582,Europe,Andorra,AD,,Andorra - Pas de la Casa,2019-07-16,12:15
Oenanthe oenanthe,Animalia,OLD_WORLD_FLYCATCHERS_MUSCICAPIDAE,Northern Wheatear,,1,1.7181361913681,42.5401763916016,Europe,Andorra,AD,,Andorra - Pas de la Casa,2019-07-16,12:45
Phoenicurus ochruros,Animalia,OLD_WORLD_FLYCATCHERS_MUSCICAPIDAE,Black Redstart,,4,1.72104406356812,42.5406188964844,Europe,Andorra,AD,,Andorra - Pas de la Casa,2019-07-16,12:58
Monticola saxatilis,Animalia,OLD_WORLD_FLYCATCHERS_MUSCICAPIDAE,Common Rock Thrush,,4,1.72055006027222,42.5412178039551,Europe,Andorra,AD,,Andorra - Pas de la Casa,2019-07-16,13:10
Gyps fulvus,Animalia,HAWKS_AND_EAGLES_ACCIPITRIDAE,Griffon Vulture,,1,1.72119975090027,42.5547409057617,Europe,Andorra,AD,,Andorra - Encamp,2019-07-16,15:54
Marmota marmota,Animalia,SQUIRRELS_CHIPMUNKS_AND_PRAIRIEDOGS_SCIURIDAE,Alpine Marmot,,1,1.72050774097443,42.5549545288086,Europe,Andorra,AD,,Andorra - Encamp,2019-07-16,16:06
Pyrrhocorax graculus,Animalia,CROWS_AND_JAYS_CORVIDAE,Alpine Chough,,20,1.72334253787994,42.5432891845703,Europe,Andorra,AD,,Andorra - Pas de la Casa,2019-07-12,11:29
Gypaetus barbatus,Animalia,HAWKS_AND_EAGLES_ACCIPITRIDAE,Bearded Vulture,,1,1.72318756580353,42.5432510375977,Europe,Andorra,AD,,Andorra - Pas de la Casa,2019-07-12,13:03
Pyrrhocorax graculus,Animalia,CROWS_AND_JAYS_CORVIDAE,Alpine Chough,,5,1.73497021198273,42.543888092041,Europe,Andorra,AD,,Andorra - Pas de la Casa,2019-07-10,08:45
Falco tinnunculus,Animalia,CARACAS_AND_FALCONS_FALCONIDAE,Common Kestrel,,1,1.70359671115875,42.5425338745117,Europe,Andorra,AD,,Andorra - Encamp,2019-07-10,09:12
Phoenicurus ochruros,Animalia,OLD_WORLD_FLYCATCHERS_MUSCICAPIDAE,Black Redstart,,1,1.70359671115875,42.5425338745117,Europe,Andorra,AD,,Andorra - Encamp,2019-07-10,09:13
Daphne cneorum,Plantae,THYMELAEACEAE,Rose daphne,,1,1.73154831,42.53815687,Europe,Andorra,AD,,Andorra - Pas de la Casa,2019-06-21,
Aconitum napellus,Plantae,RANUNCULACEAE,Monk's-hood,,1,1.73,42.53,Europe,Andorra,AD,,Andorra - Pas de la Casa,2019-06-21,
Pulsatilla alpina,Plantae,RANUNCULACEAE,,,1,1.73154831,42.53815687,Europe,Andorra,AD,,Andorra - Pas de la Casa,2019-06-21,
Oenanthe oenanthe,Animalia,OLD_WORLD_FLYCATCHERS_MUSCICAPIDAE,Northern Wheatear,,4,1.73154831,42.53815687,Europe,Andorra,AD,,Andorra - Pas de la Casa,2019-06-21,
Gentiana pyrenaica,Plantae,GENTIANACEAE,,,1,1.73166297,42.53844121,Europe,Andorra,AD,,Andorra - Pas de la Casa,2019-06-21,
Gentiana lutea,Plantae,GENTIANACEAE,Yellow gentian,,1,1.7,42.5,Europe,Andorra,AD,,Andorra - Pas de la Casa,2019-06-21,
Gentiana acaulis,Plantae,GENTIANACEAE,Trumpet gentian,,1,1.73166297,42.53844121,Europe,Andorra,AD,,Andorra - Pas de la Casa,2019-06-21,
Trifolium alpinum,Plantae,Fabaceae,Alpine clover,,1,1.73166297,42.53844121,Europe,Andorra,AD,,Andorra - Pas de la Casa,2019-06-21,
Sempervivum montanum,Plantae,CRASSULACEAE,Mountain House-leek,,1,1.73166297,42.53844121,Europe,Andorra,AD,,Andorra - Pas de la Casa,2019-06-21,
Antennaria dioica,Plantae,Asteraceae,Mountain Everlasting,,1,1.7,42.5,Europe,Andorra,AD,,Andorra - Pas de la Casa,2019-06-21,
Phoenicurus ochruros,Animalia,OLD_WORLD_FLYCATCHERS_MUSCICAPIDAE,Black Redstart,,1,1.73166297,42.53844121,Europe,Andorra,AD,,Andorra - Pas de la Casa,2019-06-21,
Oenanthe oenanthe,Animalia,OLD_WORLD_FLYCATCHERS_MUSCICAPIDAE,Northern Wheatear,,5,1.72886074,42.54131693,Europe,Andorra,AD,,Andorra - Pas de la Casa,2019-06-21,
Pyrrhocorax graculus,Animalia,CROWS_AND_JAYS_CORVIDAE,Alpine Chough,,60,1.72814459,42.54176059,Europe,Andorra,AD,,Andorra - Pas de la Casa,2019-06-21,
Oenanthe oenanthe,Animalia,OLD_WORLD_FLYCATCHERS_MUSCICAPIDAE,Northern Wheatear,,2,1.72092795372009,42.5409469604492,Europe,Andorra,AD,,Andorra - Pas de la Casa,2019-06-20,10:28
Trifolium alpinum,Plantae,Fabaceae,Alpine clover,,1,1.72250545024872,42.5419769287109,Europe,Andorra,AD,,Andorra - Pas de la Casa,2019-06-20,11:04
Sempervivum montanum,Plantae,CRASSULACEAE,Mountain House-leek,,1,1.72256064414978,42.5419731140137,Europe,Andorra,AD,,Andorra - Pas de la Casa,2019-06-20,11:06
Gentiana pyrenaica,Plantae,GENTIANACEAE,,,1,1.72253441810608,42.5419960021973,Europe,Andorra,AD,,Andorra - Pas de la Casa,2019-06-20,11:14
Daphne cneorum,Plantae,THYMELAEACEAE,Rose daphne,,1,1.72326159477234,42.5433502197266,Europe,Andorra,AD,,Andorra - Pas de la Casa,2019-06-20,11:55
Oenanthe oenanthe,Animalia,OLD_WORLD_FLYCATCHERS_MUSCICAPIDAE,Northern Wheatear,,2,1.72269666194916,42.5436058044434,Europe,Andorra,AD,,Andorra - Pas de la Casa,2019-06-20,12:01
Antennaria dioica,Plantae,Asteraceae,Mountain Everlasting,,1,1.7,42.5,Europe,Andorra,AD,,Andorra - Pas de la Casa,2019-06-20,13:03
Marmota marmota,Animalia,SQUIRRELS_CHIPMUNKS_AND_PRAIRIEDOGS_SCIURIDAE,Alpine Marmot,,2,1.71980237960815,42.5463485717773,Europe,Andorra,AD,,Andorra - Encamp,2019-06-20,13:38
Daphne cneorum,Plantae,THYMELAEACEAE,Rose daphne,,1,1.71992325782776,42.5462226867676,Europe,Andorra,AD,,Andorra - Encamp,2019-06-20,14:17
Pyrrhocorax graculus,Animalia,CROWS_AND_JAYS_CORVIDAE,Alpine Chough,,3,1.7271625995636,42.536937713623,Europe,Andorra,AD,,Andorra - Pas de la Casa,2019-06-21,14:17
Pyrrhocorax graculus,Animalia,CROWS_AND_JAYS_CORVIDAE,Alpine Chough,,2,1.72870552539825,42.5385894775391,Europe,Andorra,AD,,Andorra - Pas de la Casa,2019-06-20,10:13
Pyrrhocorax graculus,Animalia,CROWS_AND_JAYS_CORVIDAE,Alpine Chough,,15,1.72764313220978,42.5400314331055,Europe,Andorra,AD,,Andorra - Pas de la Casa,2019-06-20,10:14
Marmota marmota,Animalia,SQUIRRELS_CHIPMUNKS_AND_PRAIRIEDOGS_SCIURIDAE,Alpine Marmot,,2,1.72277939319611,42.5435371398926,Europe,Andorra,AD,,Andorra - Pas de la Casa,2019-06-20,12:24
Oenanthe oenanthe,Animalia,OLD_WORLD_FLYCATCHERS_MUSCICAPIDAE,Northern Wheatear,,1,1.72258460521698,42.5430526733398,Europe,Andorra,AD,,Andorra - Pas de la Casa,2019-06-20,13:05
Phoenicurus ochruros,Animalia,OLD_WORLD_FLYCATCHERS_MUSCICAPIDAE,Black Redstart,,3,1.73082244,42.54218832,Europe,Andorra,AD,,Andorra - Pas de la Casa,2019-06-14,
Pyrrhocorax graculus,Animalia,CROWS_AND_JAYS_CORVIDAE,Alpine Chough,,10,1.73082244,42.54218832,Europe,Andorra,AD,,Andorra - Pas de la Casa,2019-06-14,
Marmota marmota,Animalia,SQUIRRELS_CHIPMUNKS_AND_PRAIRIEDOGS_SCIURIDAE,Alpine Marmot,,2,1.47790031,42.63130655,Europe,Andorra,AD,,Andorra,2019-06-15,
Phoenicurus ochruros,Animalia,OLD_WORLD_FLYCATCHERS_MUSCICAPIDAE,Black Redstart,,2,1.70006102,42.53404592,Europe,Andorra,AD,,Andorra - Encamp,2019-06-15,
Carduus carlinoides,Plantae,Asteraceae,,,1,1.72203388,42.54139161,Europe,Andorra,AD,,Andorra - Pas de la Casa,2016-06-16,11:09
Androsace carnea,Plantae,PRIMULACEAE,,,1,1.72225848,42.54143787,Europe,Andorra,AD,,Andorra - Pas de la Casa,2016-06-16,10:59
Cricotopus spec.,Animalia,Chironomidae,,,1,1.4830184,42.4491811,Europe,Andorra,AD,,Andorra - Sant Julià de Lòria,2017-08-17,
Falco tinnunculus,Animalia,CARACAS_AND_FALCONS_FALCONIDAE,Common Kestrel,,2,1.727251,42.53745,Europe,Andorra,AD,,Andorra - Pas de la Casa,2016-08-04,
Oxytropis halleri,Plantae,Fabaceae,Purple Oxytropis,,1,1.60746574,42.62144207,Europe,Andorra,AD,,Andorra,2017-06-23,12:31
Podarcis muralis,Animalia,Lacertidae,Common Wall Lizard,,1,1.65,42.55,Europe,Andorra,AD,,Andorra - Soldeu,2018-07-08,
Botrychium lunaria,Plantae,OPHIOGLOSSACEAE,Moonwort,,1,1.7,42.5,Europe,Andorra,AD,,Andorra,2016-06-16,13:43
Polyommatus icarus,Animalia,GOSSAMERWINGED_BUTTERFLIES_LYCAENIDAE,Common Blue,,1,1.6885,42.5578,Europe,Andorra,AD,,Andorra,2016-06-15,15:17
Erynnis tages,Animalia,SKIPPERS_HESPERIIDAE,Dingy Skipper,,1,1.7,42.5,Europe,Andorra,AD,,Andorra - Encamp,2016-06-15,14:01
Rana temporaria,Animalia,Ranidae,Common Frog,,1,1.68853,42.55777,Europe,Andorra,AD,,Andorra,2016-06-15,
Gnaphalium sylvaticum,Plantae,Asteraceae,Heath Cudweed,,1,1.645635,42.58851997,Europe,Andorra,AD,,Andorra,2018-09-18,22:49
Gnaphalium sylvaticum,Plantae,Asteraceae,Heath Cudweed,,1,1.645635,42.58851997,Europe,Andorra,AD,,Andorra,2018-09-18,22:49
Cardamine resedifolia,Plantae,Brassicaceae,,,1,1.4858749722222,42.643248305556,Europe,Andorra,AD,,Andorra,2018-09-19,21:14
Potentilla rupestris,Plantae,ROSACEAE,Rock Cinquefoil,,1,1.57378,42.500009972222,Europe,Andorra,AD,,Andorra - Escaldes-Engordany,2018-09-17,19:14
Galium maritimum,Plantae,RUBIACEAE,,,1,1.57378,42.500006666667,Europe,Andorra,AD,,Andorra - Escaldes-Engordany,2018-09-17,19:15
Saxifraga paniculata,Plantae,SAXIFRAGACEAE,Livelong Saxifrage,,1,1.5684583055556,42.500673305556,Europe,Andorra,AD,,Andorra - Escaldes-Engordany,2018-09-17,18:55
Gentiana lutea,Plantae,GENTIANACEAE,Yellow gentian,,1,1.6,42.55,Europe,Andorra,AD,,Andorra - Canillo,2018-09-18,23:16
Sempervivum montanum,Plantae,CRASSULACEAE,Mountain House-leek,,1,1.6898283055556,42.528599972222,Europe,Andorra,AD,,Andorra - Encamp,2018-09-20,23:15
Cirsium vulgare,Plantae,Asteraceae,Spear Thistle,,1,1.6875783055556,42.526934972222,Europe,Andorra,AD,,Andorra - Encamp,2018-09-20,22:54
Cirsium eriophorum,Plantae,Asteraceae,Woolly Thistle,,1,1.6867283055556,42.528126638889,Europe,Andorra,AD,,Andorra - Encamp,2018-09-20,22:50
Molopospermum peloponnesiacum,Plantae,Apiaceae,,,1,1.68769,42.527334972222,Europe,Andorra,AD,,Andorra - Encamp,2018-09-20,22:52
Leucanthemopsis alpina,Plantae,Asteraceae,Alpine moon daisy,,1,1.48628,42.631413305556,Europe,Andorra,AD,,Andorra,2018-09-19,22:58
Selinum pyrenaeum,Plantae,Apiaceae,,,1,1.4859516666667,42.643351638889,Europe,Andorra,AD,,Andorra,2018-09-19,21:27
Meum athamanticum,Plantae,Apiaceae,Spignel,,1,1.4858599722222,42.643371666667,Europe,Andorra,AD,,Andorra,2018-09-19,21:15
Geum montanum,Plantae,ROSACEAE,,,1,1.492095,42.645005,Europe,Andorra,AD,,Andorra,2018-09-19,19:28
Saxifraga stellaris,Plantae,SAXIFRAGACEAE,Starry Saxifrage,,1,1.492095,42.645005,Europe,Andorra,AD,,Andorra,2018-09-19,19:28
Senecio adonidifolius,Plantae,Asteraceae,,,1,1.6518583055556,42.584038333333,Europe,Andorra,AD,,Andorra,2018-09-18,23:30
Carlina acanthifolia,Plantae,Asteraceae,,,1,1.645635,42.58851997,Europe,Andorra,AD,,Andorra,2018-09-18,22:49
Carlina acaulis,Plantae,Asteraceae,Stemless Carline Thistle,,1,1.645635,42.588519972222,Europe,Andorra,AD,,Andorra,2018-09-18,22:49
Aconitum napellus,Plantae,RANUNCULACEAE,Monk's-hood,,1,1.65,42.58,Europe,Andorra,AD,,Andorra,2018-09-18,22:28
Sedum brevifolium,Plantae,CRASSULACEAE,,,1,1.6605933333333,42.599626638889,Europe,Andorra,AD,,Andorra,2018-09-18,21:26
Trifolium alpinum,Plantae,Fabaceae,Alpine clover,,1,1.6605366388889,42.599525,Europe,Andorra,AD,,Andorra,2018-09-18,19:40
Galium verum,Plantae,RUBIACEAE,Lady's Bedstraw,,1,1.6588566388889,42.593501638889,Europe,Andorra,AD,,Andorra,2018-09-18,18:56
Chamaenerion angustifolium,Plantae,ONAGRACEAE,Rosebay Willowherb,,1,1.65694664,42.586,Europe,Andorra,AD,,Andorra,2018-09-18,18:11
Digitalis lutea,Plantae,PLANTAGINACEAE,Straw Foxglove,,1,1.57115,42.50048667,Europe,Andorra,AD,,Andorra - Escaldes-Engordany,2018-09-17,19:03
Prenanthes purpurea,Plantae,Asteraceae,Purple Lettuce,,1,1.57115,42.50048667,Europe,Andorra,AD,,Andorra - Escaldes-Engordany,2018-09-17,19:03
Polypodium vulgare,Plantae,POLYPODIACEAE,Common Polypody,,1,1.57115,42.50048667,Europe,Andorra,AD,,Andorra - Escaldes-Engordany,2018-09-17,19:03
Rubus idaeus,Plantae,ROSACEAE,Raspberry,,1,1.57115,42.50048667,Europe,Andorra,AD,,Andorra - Escaldes-Engordany,2018-09-17,19:03
Hepatica nobilis,Plantae,RANUNCULACEAE,Liverleaf,,1,1.57115,42.50048667,Europe,Andorra,AD,,Andorra - Escaldes-Engordany,2018-09-17,19:03
Arctostaphylos uva-ursi,Plantae,ERICACEAE,Bearberry,,1,1.57115,42.500486666667,Europe,Andorra,AD,,Andorra - Escaldes-Engordany,2018-09-17,19:03
Centaurea jacea agg.,Plantae,Asteraceae,,,1,1.5665199722222,42.501256666667,Europe,Andorra,AD,,Andorra - Escaldes-Engordany,2018-09-17,18:45
Campanula rotundifolia agg.,Plantae,CAMPANULACEAE,,,1,1.5673283055556,42.501096666667,Europe,Andorra,AD,,Andorra - Escaldes-Engordany,2018-09-17,18:49
Sedum dasyphyllum,Plantae,CRASSULACEAE,Thick-leaved Stonecrop,,1,1.5683166388889,42.500643305556,Europe,Andorra,AD,,Andorra - Escaldes-Engordany,2018-09-17,18:54
Anthyllis vulneraria,Plantae,Fabaceae,Kidney Vetch,,1,1.5683183055556,42.500644972222,Europe,Andorra,AD,,Andorra - Escaldes-Engordany,2018-09-17,18:54
Sempervivum tectorum,Plantae,CRASSULACEAE,House-leek,,1,1.5737766388889,42.500015,Europe,Andorra,AD,,Andorra - Escaldes-Engordany,2018-09-17,19:13
Antirrhinum latifolium,Plantae,PLANTAGINACEAE,,,1,1.5821766666667,42.498168305556,Europe,Andorra,AD,,Andorra - Escaldes-Engordany,2018-09-17,19:43
Eryngium bourgatii,Plantae,Apiaceae,,,1,1.5845933333333,42.497029972222,Europe,Andorra,AD,,Andorra - Escaldes-Engordany,2018-09-17,19:56
Aconitum anthora,Plantae,RANUNCULACEAE,Yellow Monkshood,,1,1.5845033333333,42.497066666667,Europe,Andorra,AD,,Andorra - Escaldes-Engordany,2018-09-17,19:54
Solidago virgaurea,Plantae,Asteraceae,Goldenrod,,1,1.5880966666667,42.494823333333,Europe,Andorra,AD,,Andorra - Escaldes-Engordany,2018-09-17,20:11
Hieracium amplexicaule,Plantae,Asteraceae,Amplexicaul Hawkweed,,1,1.5782883055556,42.518523333333,Europe,Andorra,AD,,Andorra - Encamp,2018-09-18,00:10
Viola arvensis,Plantae,VIOLACEAE,Field Pansy,,1,1.5835583333333,42.496321666667,Europe,Andorra,AD,,Andorra - Escaldes-Engordany,2018-09-17,21:59
Molopospermum peloponnesiacum,Plantae,Apiaceae,,,1,1.5944666388889,42.49224,Europe,Andorra,AD,,Andorra - Escaldes-Engordany,2018-09-17,21:12
Gypaetus barbatus,Animalia,HAWKS_AND_EAGLES_ACCIPITRIDAE,Bearded Vulture,,1,1.52289382464067,42.504243488247,Europe,Andorra,AD,,Andorra - Andorra la Vella,2018-09-18,15:47
Phoenicurus ochruros,Animalia,OLD_WORLD_FLYCATCHERS_MUSCICAPIDAE,Black Redstart,,1,1.72026851117707,42.5399425344727,Europe,Andorra,AD,,Andorra - Pas de la Casa,2018-09-17,11:23
Marmota marmota,Animalia,SQUIRRELS_CHIPMUNKS_AND_PRAIRIEDOGS_SCIURIDAE,Alpine Marmot,,1,1.7207041120334,42.5409087899878,Europe,Andorra,AD,,Andorra - Pas de la Casa,2018-09-17,11:14
Marmota marmota,Animalia,SQUIRRELS_CHIPMUNKS_AND_PRAIRIEDOGS_SCIURIDAE,Alpine Marmot,,1,1.72059498,42.54090397,Europe,Andorra,AD,,Andorra - Pas de la Casa,2018-09-17,11:13
Phoenicurus ochruros,Animalia,OLD_WORLD_FLYCATCHERS_MUSCICAPIDAE,Black Redstart,,1,1.72068501,42.54069574,Europe,Andorra,AD,,Andorra - Pas de la Casa,2018-09-17,11:20
Gypaetus barbatus,Animalia,HAWKS_AND_EAGLES_ACCIPITRIDAE,Bearded Vulture,,1,1.52303752,42.5040704,Europe,Andorra,AD,,Andorra - Andorra la Vella,2018-09-18,15:48
Monticola saxatilis,Animalia,OLD_WORLD_FLYCATCHERS_MUSCICAPIDAE,Common Rock Thrush,,1,1.72239013,42.54155973,Europe,Andorra,AD,,Andorra - Pas de la Casa,2018-06-22,10:25
Oenanthe oenanthe,Animalia,OLD_WORLD_FLYCATCHERS_MUSCICAPIDAE,Northern Wheatear,,1,1.72310429,42.5424297,Europe,Andorra,AD,,Andorra - Pas de la Casa,2018-06-22,12:06
Pyrrhocorax graculus,Animalia,CROWS_AND_JAYS_CORVIDAE,Alpine Chough,,4,1.72314932,42.54354962,Europe,Andorra,AD,,Andorra - Pas de la Casa,2018-06-22,12:32
Marmota marmota,Animalia,SQUIRRELS_CHIPMUNKS_AND_PRAIRIEDOGS_SCIURIDAE,Alpine Marmot,,1,1.72384835779667,42.5442451340019,Europe,Andorra,AD,,Andorra - Pas de la Casa,2018-06-22,12:32
Oenanthe oenanthe,Animalia,OLD_WORLD_FLYCATCHERS_MUSCICAPIDAE,Northern Wheatear,,1,1.7231698,42.54358279,Europe,Andorra,AD,,Andorra - Pas de la Casa,2018-06-22,13:08
Monticola saxatilis,Animalia,OLD_WORLD_FLYCATCHERS_MUSCICAPIDAE,Common Rock Thrush,,1,1.72299014,42.54354153,Europe,Andorra,AD,,Andorra - Pas de la Casa,2018-06-22,13:27
Marmota marmota,Animalia,SQUIRRELS_CHIPMUNKS_AND_PRAIRIEDOGS_SCIURIDAE,Alpine Marmot,,1,1.72219328,42.54093825,Europe,Andorra,AD,,Andorra - Pas de la Casa,2018-06-21,10:41
Trifolium alpinum,Plantae,Fabaceae,Alpine clover,,1,1.72218719,42.54094076,Europe,Andorra,AD,,Andorra - Pas de la Casa,2018-06-21,10:46
Gentiana verna,Plantae,GENTIANACEAE,Spring Gentian,,1,1.722168,42.54090672,Europe,Andorra,AD,,Andorra - Pas de la Casa,2018-06-21,11:00
Pulsatilla vernalis,Plantae,RANUNCULACEAE,,,1,1.72217512,42.5409151,Europe,Andorra,AD,,Andorra - Pas de la Casa,2018-06-21,11:03
Pulsatilla alpina,Plantae,RANUNCULACEAE,,,1,1.72204273,42.54143241,Europe,Andorra,AD,,Andorra - Pas de la Casa,2018-06-21,11:16
Gentiana pyrenaica,Plantae,GENTIANACEAE,,,1,1.72241829,42.54157529,Europe,Andorra,AD,,Andorra - Pas de la Casa,2018-06-21,11:24
Geum montanum,Plantae,ROSACEAE,,,1,1.72264762,42.54195241,Europe,Andorra,AD,,Andorra - Pas de la Casa,2018-06-21,11:52
Antennaria dioica,Plantae,Asteraceae,Mountain Everlasting,,1,1.7,42.5,Europe,Andorra,AD,,Andorra - Pas de la Casa,2018-06-21,12:43
Antennaria carpatica,Plantae,Asteraceae,,,1,1.72315271,42.54341592,Europe,Andorra,AD,,Andorra - Pas de la Casa,2018-06-21,12:43
Gypaetus barbatus,Animalia,HAWKS_AND_EAGLES_ACCIPITRIDAE,Bearded Vulture,,1,1.72312669,42.54342504,Europe,Andorra,AD,,Andorra - Pas de la Casa,2018-06-21,13:03
Kalmia procumbens,Plantae,ERICACEAE,Trailing Azalea,,1,1.72324103,42.54334615,Europe,Andorra,AD,,Andorra - Pas de la Casa,2018-06-21,13:20
Rhododendron ferrugineum,Plantae,ERICACEAE,Alpenrose,,1,1.72266842,42.54354403,Europe,Andorra,AD,,Andorra - Pas de la Casa,2018-06-21,13:43
Bartsia alpina,Plantae,OROBANCHACEAE,Alpine Bartsia,,1,1.72190663,42.54355903,Europe,Andorra,AD,,Andorra - Pas de la Casa,2018-06-21,13:49
Gypaetus barbatus,Animalia,HAWKS_AND_EAGLES_ACCIPITRIDAE,Bearded Vulture,,1,1.72001556,42.54619263,Europe,Andorra,AD,,Andorra - Encamp,2018-06-21,14:32
Plantago monosperma,Plantae,PLANTAGINACEAE,,,1,1.72024727,42.54295994,Europe,Andorra,AD,,Andorra - Pas de la Casa,2018-06-21,12:00
Primula integrifolia,Plantae,PRIMULACEAE,,,1,1.72024727,42.54295994,Europe,Andorra,AD,,Andorra - Pas de la Casa,2018-06-21,12:00
Pulsatilla alpina,Plantae,RANUNCULACEAE,,,1,1.72024727,42.54295994,Europe,Andorra,AD,,Andorra - Pas de la Casa,2018-06-21,12:00
Bartsia alpina,Plantae,OROBANCHACEAE,Alpine Bartsia,,1,1.72024727,42.54295994,Europe,Andorra,AD,,Andorra - Pas de la Casa,2018-06-21,12:00
Dactylorhiza sambucina,Plantae,ORCHIDACEAE,Elder-flowered Orchid,,1,1.72,42.54,Europe,Andorra,AD,,Andorra - Pas de la Casa,2018-06-21,12:00
Gentiana alpina,Plantae,GENTIANACEAE,Southern gentian,,1,1.72024727,42.54295994,Europe,Andorra,AD,,Andorra - Pas de la Casa,2018-06-21,12:00
Gentiana verna,Plantae,GENTIANACEAE,Spring Gentian,,1,1.72024727,42.54295994,Europe,Andorra,AD,,Andorra - Pas de la Casa,2018-06-21,12:00
Gentiana acaulis,Plantae,GENTIANACEAE,Trumpet gentian,,1,1.72024727,42.54295994,Europe,Andorra,AD,,Andorra - Pas de la Casa,2018-06-21,12:00
Trifolium alpinum,Plantae,Fabaceae,Alpine clover,,1,1.72024727,42.54295994,Europe,Andorra,AD,,Andorra - Pas de la Casa,2018-06-21,12:00
Rhododendron ferrugineum,Plantae,ERICACEAE,Alpenrose,,1,1.72024727,42.54295994,Europe,Andorra,AD,,Andorra - Pas de la Casa,2018-06-21,12:00
Kalmia procumbens,Plantae,ERICACEAE,Trailing Azalea,,1,1.72024727,42.54295994,Europe,Andorra,AD,,Andorra - Pas de la Casa,2018-06-21,12:00
Leucanthemopsis alpina,Plantae,Asteraceae,Alpine moon daisy,,1,1.72024727,42.54295994,Europe,Andorra,AD,,Andorra - Pas de la Casa,2018-06-21,12:00
Sempervivum montanum,Plantae,CRASSULACEAE,Mountain House-leek,,1,1.72024727,42.54295994,Europe,Andorra,AD,,Andorra - Pas de la Casa,2018-06-21,12:00
Oenanthe oenanthe,Animalia,OLD_WORLD_FLYCATCHERS_MUSCICAPIDAE,Northern Wheatear,,4,1.7205119,42.54121789,Europe,Andorra,AD,,Andorra - Pas de la Casa,2018-06-21,14:52
Marmota marmota,Animalia,SQUIRRELS_CHIPMUNKS_AND_PRAIRIEDOGS_SCIURIDAE,Alpine Marmot,,2,1.7203334062235,42.5449599023253,Europe,Andorra,AD,,Andorra - Encamp,2018-06-21,13:40
Oenanthe oenanthe,Animalia,OLD_WORLD_FLYCATCHERS_MUSCICAPIDAE,Northern Wheatear,,1,1.72319518150568,42.5431988676935,Europe,Andorra,AD,,Andorra - Pas de la Casa,2018-06-21,12:24
Marmota marmota,Animalia,SQUIRRELS_CHIPMUNKS_AND_PRAIRIEDOGS_SCIURIDAE,Alpine Marmot,,2,1.72220768,42.54127645,Europe,Andorra,AD,,Andorra - Pas de la Casa,2018-06-21,11:08
Phoenicurus ochruros,Animalia,OLD_WORLD_FLYCATCHERS_MUSCICAPIDAE,Black Redstart,,1,1.72105561285683,42.5416559752003,Europe,Andorra,AD,,Andorra - Pas de la Casa,2018-06-21,10:30
Phoenicurus ochruros,Animalia,OLD_WORLD_FLYCATCHERS_MUSCICAPIDAE,Black Redstart,,1,1.72105561285683,42.5416559752003,Europe,Andorra,AD,,Andorra - Pas de la Casa,2018-06-21,10:30
Trifolium alpinum,Plantae,Fabaceae,Alpine clover,,1,1.72213933846937,42.5409539200425,Europe,Andorra,AD,,Andorra - Pas de la Casa,2018-06-21,10:46
Gentiana verna,Plantae,GENTIANACEAE,Spring Gentian,,20,1.72216904730623,42.5413258270606,Europe,Andorra,AD,,Andorra - Pas de la Casa,2018-06-21,10:57
Gentiana alpina,Plantae,GENTIANACEAE,Southern gentian,,3,1.72216904730623,42.5413258270606,Europe,Andorra,AD,,Andorra - Pas de la Casa,2018-06-21,10:58
Marmota marmota,Animalia,SQUIRRELS_CHIPMUNKS_AND_PRAIRIEDOGS_SCIURIDAE,Alpine Marmot,,1,1.72220768121351,42.5412764500014,Europe,Andorra,AD,,Andorra - Pas de la Casa,2018-06-21,11:08
Ranunculus pyrenaeus,Plantae,RANUNCULACEAE,,,5,1.72220768121351,42.5412764500014,Europe,Andorra,AD,,Andorra - Pas de la Casa,2018-06-21,11:09
Pulsatilla vernalis,Plantae,RANUNCULACEAE,,,5,1.72218904506401,42.5413462880601,Europe,Andorra,AD,,Andorra - Pas de la Casa,2018-06-21,11:15
Antennaria dioica,Plantae,Asteraceae,Mountain Everlasting,,1,1.7,42.5,Europe,Andorra,AD,,Andorra - Pas de la Casa,2018-06-21,11:55
Vaccinium myrtillus,Plantae,ERICACEAE,Bilberry,,1,1.72245299664296,42.5420783550027,Europe,Andorra,AD,,Andorra - Pas de la Casa,2018-06-21,11:58
Kalmia procumbens,Plantae,ERICACEAE,Trailing Azalea,,50,1.72325155056899,42.5432051092158,Europe,Andorra,AD,,Andorra - Pas de la Casa,2018-06-21,12:21
Oenanthe oenanthe,Animalia,OLD_WORLD_FLYCATCHERS_MUSCICAPIDAE,Northern Wheatear,,1,1.72319518150568,42.5431988676935,Europe,Andorra,AD,,Andorra - Pas de la Casa,2018-06-21,12:24
Rupicapra pyrenaica,Animalia,BOVIDS_BOVIDAE,Pyrenean Chamois,,7,1.7232191925644,42.5432219122568,Europe,Andorra,AD,,Andorra - Pas de la Casa,2018-06-21,12:30
Marmota marmota,Animalia,SQUIRRELS_CHIPMUNKS_AND_PRAIRIEDOGS_SCIURIDAE,Alpine Marmot,,2,1.7203334062235,42.5449599023253,Europe,Andorra,AD,,Andorra - Encamp,2018-06-21,13:40
Leucanthemopsis alpina,Plantae,Asteraceae,Alpine moon daisy,,1,1.71966378425325,42.5456288822842,Europe,Andorra,AD,,Andorra - Encamp,2018-06-21,13:46
Oenanthe oenanthe,Animalia,OLD_WORLD_FLYCATCHERS_MUSCICAPIDAE,Northern Wheatear,,1,1.72051190226872,42.5412178932726,Europe,Andorra,AD,,Andorra - Pas de la Casa,2018-06-21,14:52
Monticola saxatilis,Animalia,OLD_WORLD_FLYCATCHERS_MUSCICAPIDAE,Common Rock Thrush,,1,1.72239937,42.54156681,Europe,Andorra,AD,,Andorra - Pas de la Casa,2018-06-22,10:38
Pyrrhocorax graculus,Animalia,CROWS_AND_JAYS_CORVIDAE,Alpine Chough,,10,1.7232684,42.54331079,Europe,Andorra,AD,,Andorra - Pas de la Casa,2018-06-22,11:54
Oenanthe oenanthe,Animalia,OLD_WORLD_FLYCATCHERS_MUSCICAPIDAE,Northern Wheatear,,1,1.72012214,42.54613115,Europe,Andorra,AD,,Andorra - Encamp,2018-06-22,13:45
Erebia arvernensis,Animalia,BRUSHFOOTED_BUTTERFLIES_NYMPHALIDAE,Common Brassy Ringlet,,1,1.41989708,42.54625137,Europe,Andorra,AD,,Andorra - La Massana,2011-08-15,15:00
Prunella modularis,Animalia,ACCENTORS_PRUNELLIDAE,Dunnock,,2,1.48643974299142,42.6382969071392,Europe,Andorra,AD,,Andorra,2017-06-27,11:27
Oenanthe oenanthe,Animalia,OLD_WORLD_FLYCATCHERS_MUSCICAPIDAE,Northern Wheatear,,1,1.48439197311964,42.6356741397107,Europe,Andorra,AD,,Andorra,2017-06-27,12:00
Aconitum napellus,Plantae,RANUNCULACEAE,Monk's-hood,,30,1.57,42.56,Europe,Andorra,AD,,Andorra - Canillo,2017-08-30,12:41
Carlina acaulis,Plantae,Asteraceae,Stemless Carline Thistle,,10,1.57414722,42.56303056,Europe,Andorra,AD,,Andorra - Canillo,2017-08-30,12:43
Falco tinnunculus,Animalia,CARACAS_AND_FALCONS_FALCONIDAE,Common Kestrel,,1,1.72237172,42.54170546,Europe,Andorra,AD,,Andorra - Pas de la Casa,2017-08-02,12:38
Oenanthe oenanthe,Animalia,OLD_WORLD_FLYCATCHERS_MUSCICAPIDAE,Northern Wheatear,,1,1.72083385,42.54162285,Europe,Andorra,AD,,Andorra - Pas de la Casa,2017-08-02,12:30
Gyps fulvus,Animalia,HAWKS_AND_EAGLES_ACCIPITRIDAE,Griffon Vulture,,10,1.72085348,42.54033782,Europe,Andorra,AD,,Andorra - Pas de la Casa,2017-08-02,13:00
Pyrrhocorax graculus,Animalia,CROWS_AND_JAYS_CORVIDAE,Alpine Chough,,2,1.72085348,42.54033782,Europe,Andorra,AD,,Andorra - Pas de la Casa,2017-08-02,13:00
Oenanthe oenanthe,Animalia,OLD_WORLD_FLYCATCHERS_MUSCICAPIDAE,Northern Wheatear,,1,1.72085761,42.54151453,Europe,Andorra,AD,,Andorra - Pas de la Casa,2017-08-02,12:28
Pyrrhocorax graculus,Animalia,CROWS_AND_JAYS_CORVIDAE,Alpine Chough,,4,1.72188887,42.54182164,Europe,Andorra,AD,,Andorra - Pas de la Casa,2017-08-02,12:31
Ptyonoprogne rupestris,Animalia,SWALLOWS_HIRUNDINIDAE,Eurasian Crag Martin,,14,1.54009910300374,42.5552052911371,Europe,Andorra,AD,,Andorra,2017-07-09,17:14
Ptyonoprogne rupestris,Animalia,SWALLOWS_HIRUNDINIDAE,Eurasian Crag Martin,,8,1.54000539332628,42.5550332525745,Europe,Andorra,AD,,Andorra,2017-07-10,09:01
Gyps fulvus,Animalia,HAWKS_AND_EAGLES_ACCIPITRIDAE,Griffon Vulture,,2,1.53589893132448,42.5590887106955,Europe,Andorra,AD,,Andorra,2017-07-09,11:28
Ptyonoprogne rupestris,Animalia,SWALLOWS_HIRUNDINIDAE,Eurasian Crag Martin,,2,1.53635800816119,42.5596356298775,Europe,Andorra,AD,,Andorra,2017-07-09,11:34
Ptyonoprogne rupestris,Animalia,SWALLOWS_HIRUNDINIDAE,Eurasian Crag Martin,,4,1.53929360210896,42.5587995350361,Europe,Andorra,AD,,Andorra,2017-07-09,12:27
Ptyonoprogne rupestris,Animalia,SWALLOWS_HIRUNDINIDAE,Eurasian Crag Martin,,8,1.54256698675454,42.5584659771994,Europe,Andorra,AD,,Andorra,2017-07-09,12:42
Ptyonoprogne rupestris,Animalia,SWALLOWS_HIRUNDINIDAE,Eurasian Crag Martin,,8,1.53439823538065,42.5564058730379,Europe,Andorra,AD,,Andorra,2017-07-09,13:11
Gyps fulvus,Animalia,HAWKS_AND_EAGLES_ACCIPITRIDAE,Griffon Vulture,,8,1.5400719,42.5550759,Europe,Andorra,AD,,Andorra,2017-07-09,14:46
Gyps fulvus,Animalia,HAWKS_AND_EAGLES_ACCIPITRIDAE,Griffon Vulture,,2,1.54006239026785,42.5551194185391,Europe,Andorra,AD,,Andorra,2017-07-09,16:46
Ptyonoprogne rupestris,Animalia,SWALLOWS_HIRUNDINIDAE,Eurasian Crag Martin,,10,1.54012776911259,42.5551572628319,Europe,Andorra,AD,,Andorra,2017-07-09,16:46
Gyps fulvus,Animalia,HAWKS_AND_EAGLES_ACCIPITRIDAE,Griffon Vulture,,21,1.5403367,42.5549384,Europe,Andorra,AD,,Andorra,2017-07-08,18:04
Ptyonoprogne rupestris,Animalia,SWALLOWS_HIRUNDINIDAE,Eurasian Crag Martin,,8,1.53999106027186,42.5551155209541,Europe,Andorra,AD,,Andorra,2017-07-08,18:13
Ptyonoprogne rupestris,Animalia,SWALLOWS_HIRUNDINIDAE,Eurasian Crag Martin,,6,1.54007077217102,42.5551662733778,Europe,Andorra,AD,,Andorra,2017-07-07,16:58
Ptyonoprogne rupestris,Animalia,SWALLOWS_HIRUNDINIDAE,Eurasian Crag Martin,,2,1.54018501751125,42.5551583524793,Europe,Andorra,AD,,Andorra,2017-07-08,09:03
Ptyonoprogne rupestris,Animalia,SWALLOWS_HIRUNDINIDAE,Eurasian Crag Martin,,10,1.54010941274464,42.5551626691595,Europe,Andorra,AD,,Andorra,2017-07-08,17:00
Ptyonoprogne rupestris,Animalia,SWALLOWS_HIRUNDINIDAE,Eurasian Crag Martin,,6,1.54002207331359,42.5550774671137,Europe,Andorra,AD,,Andorra,2017-07-06,17:17
Gyps fulvus,Animalia,HAWKS_AND_EAGLES_ACCIPITRIDAE,Griffon Vulture,,1,1.5402232,42.5551505,Europe,Andorra,AD,,Andorra,2017-07-07,13:05
Gyps fulvus,Animalia,HAWKS_AND_EAGLES_ACCIPITRIDAE,Griffon Vulture,,3,1.5402043,42.5551699,Europe,Andorra,AD,,Andorra,2017-07-07,15:50
Ptyonoprogne rupestris,Animalia,SWALLOWS_HIRUNDINIDAE,Eurasian Crag Martin,,2,1.54022617265582,42.5551262916997,Europe,Andorra,AD,,Andorra,2017-07-06,10:14
Gyps fulvus,Animalia,HAWKS_AND_EAGLES_ACCIPITRIDAE,Griffon Vulture,,2,1.5404787,42.5549843,Europe,Andorra,AD,,Andorra,2017-07-06,10:37
Ptyonoprogne rupestris,Animalia,SWALLOWS_HIRUNDINIDAE,Eurasian Crag Martin,,4,1.5404787,42.5549843,Europe,Andorra,AD,,Andorra,2017-07-06,10:38
Ptyonoprogne rupestris,Animalia,SWALLOWS_HIRUNDINIDAE,Eurasian Crag Martin,,4,1.54003255069256,42.5552439736202,Europe,Andorra,AD,,Andorra,2017-07-06,16:33
Ptyonoprogne rupestris,Animalia,SWALLOWS_HIRUNDINIDAE,Eurasian Crag Martin,,2,1.5404881,42.5549938,Europe,Andorra,AD,,Andorra,2017-07-04,10:31
Ptyonoprogne rupestris,Animalia,SWALLOWS_HIRUNDINIDAE,Eurasian Crag Martin,,10,1.53981168754399,42.5550595298409,Europe,Andorra,AD,,Andorra,2017-07-04,18:20
Ptyonoprogne rupestris,Animalia,SWALLOWS_HIRUNDINIDAE,Eurasian Crag Martin,,6,1.54023296199739,42.5552199594677,Europe,Andorra,AD,,Andorra,2017-07-05,16:58
Pyrrhocorax graculus,Animalia,CROWS_AND_JAYS_CORVIDAE,Alpine Chough,,1,1.723,42.5433,Europe,Andorra,AD,,Andorra - Pas de la Casa,2017-06-23,13:05
Bartsia alpina,Plantae,OROBANCHACEAE,Alpine Bartsia,,1,1.7199,42.5459,Europe,Andorra,AD,,Andorra - Encamp,2017-06-23,14:46
Trifolium badium,Plantae,Fabaceae,Brown Clover,,1,1.7199,42.5458,Europe,Andorra,AD,,Andorra - Encamp,2017-06-23,14:40
Botrychium lunaria,Plantae,OPHIOGLOSSACEAE,Moonwort,,1,1.7,42.5,Europe,Andorra,AD,,Andorra - Encamp,2017-06-23,14:38
Kalmia procumbens,Plantae,ERICACEAE,Trailing Azalea,,1,1.7219,42.5435,Europe,Andorra,AD,,Andorra - Pas de la Casa,2017-06-23,14:07
Papilio machaon,Animalia,SWALLOWTAILS_PAPILIONIDAE,Swallowtail,,1,1.7225,42.5434,Europe,Andorra,AD,,Andorra - Pas de la Casa,2017-06-23,13:55
Ajuga pyramidalis,Plantae,Lamiaceae,Pyramidal Bugle,,1,1.7,42.5,Europe,Andorra,AD,,Andorra - Pas de la Casa,2017-06-23,13:49
Marmota marmota,Animalia,SQUIRRELS_CHIPMUNKS_AND_PRAIRIEDOGS_SCIURIDAE,Alpine Marmot,,1,1.7229,42.5433,Europe,Andorra,AD,,Andorra - Pas de la Casa,2017-06-23,13:05
Pyrrhocorax graculus,Animalia,CROWS_AND_JAYS_CORVIDAE,Alpine Chough,,1,1.723,42.5433,Europe,Andorra,AD,,Andorra - Pas de la Casa,2017-06-23,13:05
Ranunculus pyrenaeus,Plantae,RANUNCULACEAE,,,1,1.7232,42.5431,Europe,Andorra,AD,,Andorra - Pas de la Casa,2017-06-23,12:52
Daphne cneorum,Plantae,THYMELAEACEAE,Rose daphne,,1,1.7232,42.543,Europe,Andorra,AD,,Andorra - Pas de la Casa,2017-06-23,12:50
Linaria alpina,Plantae,PLANTAGINACEAE,,,1,1.7225,42.5419,Europe,Andorra,AD,,Andorra - Pas de la Casa,2017-06-23,12:33
Gentiana pyrenaica,Plantae,GENTIANACEAE,,,1,1.7225,42.5418,Europe,Andorra,AD,,Andorra - Pas de la Casa,2017-06-23,12:29
Geum montanum,Plantae,ROSACEAE,,,1,1.7224,42.5419,Europe,Andorra,AD,,Andorra - Pas de la Casa,2017-06-23,12:21
Antennaria dioica,Plantae,Asteraceae,Mountain Everlasting,,1,1.7,42.5,Europe,Andorra,AD,,Andorra - Pas de la Casa,2017-06-23,12:20
Cerastium alpinum,Plantae,CARYOPHYLLACEAE,Alpine Mouse-ear,,1,1.7221,42.5411,Europe,Andorra,AD,,Andorra - Pas de la Casa,2017-06-23,11:54
Cardamine resedifolia,Plantae,Brassicaceae,,,1,1.722,42.5409,Europe,Andorra,AD,,Andorra - Pas de la Casa,2017-06-23,11:51
Meum athamanticum,Plantae,Apiaceae,Spignel,,1,1.7221,42.5409,Europe,Andorra,AD,,Andorra - Pas de la Casa,2017-06-23,11:44
Trifolium alpinum,Plantae,Fabaceae,Alpine clover,,1,1.7222,42.5409,Europe,Andorra,AD,,Andorra - Pas de la Casa,2017-06-23,11:43
Pulsatilla alpina,Plantae,RANUNCULACEAE,,,1,1.7221,42.5409,Europe,Andorra,AD,,Andorra - Pas de la Casa,2017-06-23,11:33
Rhododendron ferrugineum,Plantae,ERICACEAE,Alpenrose,,1,1.7221,42.5408,Europe,Andorra,AD,,Andorra - Pas de la Casa,2017-06-23,11:29
Sempervivum montanum,Plantae,CRASSULACEAE,Mountain House-leek,,1,1.7215,42.5409,Europe,Andorra,AD,,Andorra - Pas de la Casa,2017-06-23,11:14
Gentiana pyrenaica,Plantae,GENTIANACEAE,,,1,1.7183,42.5402,Europe,Andorra,AD,,Andorra - Pas de la Casa,2017-06-23,11:03
Boloria euphrosyne,Animalia,BRUSHFOOTED_BUTTERFLIES_NYMPHALIDAE,Pearl-bordered Fritillary,,1,1.55,42.55,Europe,Andorra,AD,,Andorra - Canillo,2017-06-08,
Ptyonoprogne rupestris,Animalia,SWALLOWS_HIRUNDINIDAE,Eurasian Crag Martin,,1,1.5174,42.5424,Europe,Andorra,AD,,Andorra - La Massana,2017-06-10,16:35
Ptyonoprogne rupestris,Animalia,SWALLOWS_HIRUNDINIDAE,Eurasian Crag Martin,,2,1.4959,42.6306,Europe,Andorra,AD,,Andorra,2017-06-10,11:39
Oenanthe oenanthe,Animalia,OLD_WORLD_FLYCATCHERS_MUSCICAPIDAE,Northern Wheatear,,3,1.4789,42.6273,Europe,Andorra,AD,,Andorra,2017-06-10,11:09
Prunella modularis,Animalia,ACCENTORS_PRUNELLIDAE,Dunnock,,1,1.4789,42.6269,Europe,Andorra,AD,,Andorra,2017-06-10,10:35
Phoenicurus ochruros,Animalia,OLD_WORLD_FLYCATCHERS_MUSCICAPIDAE,Black Redstart,,1,1.4777,42.627,Europe,Andorra,AD,,Andorra,2017-06-10,10:32
Phoenicurus ochruros,Animalia,OLD_WORLD_FLYCATCHERS_MUSCICAPIDAE,Black Redstart,,5,1.484,42.6308,Europe,Andorra,AD,,Andorra,2017-06-10,10:17
Ptyonoprogne rupestris,Animalia,SWALLOWS_HIRUNDINIDAE,Eurasian Crag Martin,,1,1.4828,42.6315,Europe,Andorra,AD,,Andorra,2017-06-10,10:03
Erebia epiphron,Animalia,BRUSHFOOTED_BUTTERFLIES_NYMPHALIDAE,Mountain Ringlet,,1,1.4993,42.6309,Europe,Andorra,AD,,Andorra,2017-06-10,09:44
Ptyonoprogne rupestris,Animalia,SWALLOWS_HIRUNDINIDAE,Eurasian Crag Martin,,4,1.5172,42.5425,Europe,Andorra,AD,,Andorra - La Massana,2017-06-09,17:01
Motacilla cinerea,Animalia,PIPITS_EN_WAGTAILS_MOTACILLIDAE,Grey Wagtail,,1,1.5501,42.6259,Europe,Andorra,AD,,Andorra,2017-06-09,16:09
Erebia epiphron,Animalia,BRUSHFOOTED_BUTTERFLIES_NYMPHALIDAE,Mountain Ringlet,,1,1.5347,42.6034,Europe,Andorra,AD,,Andorra,2017-06-09,14:43
Motacilla cinerea,Animalia,PIPITS_EN_WAGTAILS_MOTACILLIDAE,Grey Wagtail,,1,1.5357,42.6055,Europe,Andorra,AD,,Andorra,2017-06-09,14:36
Pieris brassicae,Animalia,WHITES_PIERIDAE,Large White,,1,1.5622,42.5559,Europe,Andorra,AD,,Andorra - Canillo,2017-06-09,14:01
Erebia epiphron,Animalia,BRUSHFOOTED_BUTTERFLIES_NYMPHALIDAE,Mountain Ringlet,,1,1.5622,42.5559,Europe,Andorra,AD,,Andorra - Canillo,2017-06-09,13:46
Gyps fulvus,Animalia,HAWKS_AND_EAGLES_ACCIPITRIDAE,Griffon Vulture,,4,1.5749,42.5637,Europe,Andorra,AD,,Andorra - Canillo,2017-06-09,12:28
Aglais urticae,Animalia,BRUSHFOOTED_BUTTERFLIES_NYMPHALIDAE,Small Tortoiseshell,,2,1.5716,42.5562,Europe,Andorra,AD,,Andorra - Canillo,2017-06-09,11:13
Pieris brassicae,Animalia,WHITES_PIERIDAE,Large White,,20,1.5707,42.5549,Europe,Andorra,AD,,Andorra - Canillo,2017-06-09,10:49
Aglais urticae,Animalia,BRUSHFOOTED_BUTTERFLIES_NYMPHALIDAE,Small Tortoiseshell,,1,1.5526,42.6222,Europe,Andorra,AD,,Andorra,2017-06-08,10:59
Motacilla cinerea,Animalia,PIPITS_EN_WAGTAILS_MOTACILLIDAE,Grey Wagtail,,1,1.5524,42.6221,Europe,Andorra,AD,,Andorra,2017-06-08,10:56
Aglais urticae,Animalia,BRUSHFOOTED_BUTTERFLIES_NYMPHALIDAE,Small Tortoiseshell,,4,1.5261,42.6254,Europe,Andorra,AD,,Andorra,2017-06-08,10:08
Ptyonoprogne rupestris,Animalia,SWALLOWS_HIRUNDINIDAE,Eurasian Crag Martin,,1,1.517,42.5428,Europe,Andorra,AD,,Andorra - La Massana,2017-06-07,15:52
Papilio machaon,Animalia,SWALLOWTAILS_PAPILIONIDAE,Swallowtail,,1,1.72285935,42.54329207,Europe,Andorra,AD,,Andorra - Pas de la Casa,2016-06-16,12:26
Sibbaldia procumbens,Plantae,ROSACEAE,Sibbaldia,,1,1.71918,42.54012,Europe,Andorra,AD,,Andorra - Pas de la Casa,2016-06-15,
Sanguisorba officinalis,Plantae,ROSACEAE,Great Burnet,,1,1.70736,42.5459,Europe,Andorra,AD,,Andorra - Encamp,2016-06-15,
Caltha palustris subsp. palustris,Plantae,RANUNCULACEAE,Marsh Marigold,,1,1.70736,42.5459,Europe,Andorra,AD,,Andorra - Encamp,2016-06-15,
Caltha palustris subsp. palustris,Plantae,RANUNCULACEAE,Marsh Marigold,,1,1.47808,42.63128,Europe,Andorra,AD,,Andorra,2016-06-16,
Polystichum lonchitis,Plantae,DRYOPTERIDACEAE,Holly Fern,,1,1.70736,42.5459,Europe,Andorra,AD,,Andorra - Encamp,2016-06-15,
Polystichum lonchitis,Plantae,DRYOPTERIDACEAE,Holly Fern,,1,1.4788,42.6308,Europe,Andorra,AD,,Andorra,2016-06-16,
Luzula nivea,Plantae,JUNCACEAE,Snow-white Wood-rush,,1,1.54761314,42.55276415,Europe,Andorra,AD,,Andorra,2016-06-15,
Leucanthemopsis alpina,Plantae,Asteraceae,Alpine moon daisy,,1,1.71955,42.541,Europe,Andorra,AD,,Andorra - Pas de la Casa,2016-06-15,
Homogyne alpina,Plantae,Asteraceae,Purple Colt's-foot,,1,1.70736,42.5459,Europe,Andorra,AD,,Andorra - Encamp,2016-06-15,
Meum athamanticum,Plantae,Apiaceae,Spignel,,1,1.70736,42.5459,Europe,Andorra,AD,,Andorra - Encamp,2016-06-15,
Meum athamanticum,Plantae,Apiaceae,Spignel,,1,1.4816,42.6317,Europe,Andorra,AD,,Andorra,2016-06-16,
Melampyrum pratense,Plantae,OROBANCHACEAE,Common Cow-wheat,,1,1.548353,42.55104,Europe,Andorra,AD,,Andorra,2016-06-15,
Vaccinium myrtillus,Plantae,ERICACEAE,Bilberry,,1,1.47995,42.63244,Europe,Andorra,AD,,Andorra,2016-06-16,
Vaccinium myrtillus,Plantae,ERICACEAE,Bilberry,,1,1.70736,42.5459,Europe,Andorra,AD,,Andorra - Encamp,2016-06-15,
Trifolium alpinum,Plantae,Fabaceae,Alpine clover,,1,1.71955,42.541,Europe,Andorra,AD,,Andorra - Pas de la Casa,2016-06-15,
Trifolium alpinum,Plantae,Fabaceae,Alpine clover,,1,1.47995,42.63244,Europe,Andorra,AD,,Andorra,2016-06-16,
Trifolium badium,Plantae,Fabaceae,Brown Clover,,1,1.68853,42.5577,Europe,Andorra,AD,,Andorra,2016-06-16,
Astragalus monspessulanus,Plantae,Fabaceae,,,1,1.58754,42.56978,Europe,Andorra,AD,,Andorra - Canillo,2016-06-15,
Astragalus glycyphyllos,Plantae,Fabaceae,Wild Liquorice,,1,1.52114,42.63034,Europe,Andorra,AD,,Andorra,2016-06-16,
Cephalanthera longifolia,Plantae,ORCHIDACEAE,Narrow-leaved Helleborine,,1,1.5,42.6,Europe,Andorra,AD,,Andorra,2016-06-16,
Cephalanthera longifolia,Plantae,ORCHIDACEAE,Narrow-leaved Helleborine,,1,1.5,42.55,Europe,Andorra,AD,,Andorra,2016-06-15,
Rhododendron ferrugineum,Plantae,ERICACEAE,Alpenrose,,1,1.70736,42.5459,Europe,Andorra,AD,,Andorra - Encamp,2016-06-15,
Rhododendron ferrugineum,Plantae,ERICACEAE,Alpenrose,,1,1.4788,42.6308,Europe,Andorra,AD,,Andorra,2016-06-16,
Soldanella alpina,Plantae,PRIMULACEAE,Alpine snowbell,,1,1.4788,42.6308,Europe,Andorra,AD,,Andorra,2016-06-16,
Primula integrifolia,Plantae,PRIMULACEAE,,,1,1.70736,42.5459,Europe,Andorra,AD,,Andorra - Encamp,2016-06-15,
Primula integrifolia,Plantae,PRIMULACEAE,,,1,1.71918,42.54012,Europe,Andorra,AD,,Andorra - Pas de la Casa,2016-06-15,
Primula integrifolia,Plantae,PRIMULACEAE,,,1,1.4816,42.6317,Europe,Andorra,AD,,Andorra,2016-06-16,
Primula integrifolia,Plantae,PRIMULACEAE,,,1,1.47808,42.63128,Europe,Andorra,AD,,Andorra,2016-06-16,
Primula elatior subsp. intricata,Plantae,PRIMULACEAE,,,1,1.70736,42.5459,Europe,Andorra,AD,,Andorra - Encamp,2016-06-15,
Linaria alpina,Plantae,PLANTAGINACEAE,,,1,1.4816,42.6317,Europe,Andorra,AD,,Andorra,2016-06-16,
Linaria alpina,Plantae,PLANTAGINACEAE,,,1,1.70736,42.5459,Europe,Andorra,AD,,Andorra - Encamp,2016-06-15,
Linaria alpina,Plantae,PLANTAGINACEAE,,,1,1.71955,42.541,Europe,Andorra,AD,,Andorra - Pas de la Casa,2016-06-15,
Kalmia procumbens,Plantae,ERICACEAE,Trailing Azalea,,1,1.71918,42.54012,Europe,Andorra,AD,,Andorra - Pas de la Casa,2016-06-15,
Dactylorhiza sambucina,Plantae,ORCHIDACEAE,Elder-flowered Orchid,,1,1.68,42.55,Europe,Andorra,AD,,Andorra,2016-06-15,
Dactylorhiza majalis,Plantae,ORCHIDACEAE,Western Marsh-orchid s.l.,,1,1.68,42.55,Europe,Andorra,AD,,Andorra,2016-06-15,
Ajuga pyramidalis,Plantae,Lamiaceae,Pyramidal Bugle,,1,1.45,42.6,Europe,Andorra,AD,,Andorra,2016-06-16,
Ajuga pyramidalis,Plantae,Lamiaceae,Pyramidal Bugle,,1,1.45,42.6,Europe,Andorra,AD,,Andorra,2016-06-16,
Anthyllis montana,Plantae,Fabaceae,Mountain Kidney Vetch,,1,1.58754,42.56978,Europe,Andorra,AD,,Andorra - Canillo,2016-06-15,
Antennaria dioica,Plantae,Asteraceae,Mountain Everlasting,,1,1.45,42.6,Europe,Andorra,AD,,Andorra,2016-06-16,
Antennaria dioica,Plantae,Asteraceae,Mountain Everlasting,,1,1.7,42.5,Europe,Andorra,AD,,Andorra - Pas de la Casa,2016-06-15,
Antennaria carpatica,Plantae,Asteraceae,,,1,1.71918,42.54012,Europe,Andorra,AD,,Andorra - Pas de la Casa,2016-06-15,
Cerastium cerastoides,Plantae,CARYOPHYLLACEAE,Starwort Mouse-ear,,1,1.4788,42.6308,Europe,Andorra,AD,,Andorra,2016-06-16,
Gypsophila repens,Plantae,CARYOPHYLLACEAE,Alpine Gypsophila,,1,1.58754,42.56978,Europe,Andorra,AD,,Andorra - Canillo,2016-06-15,
Alchemilla saxatilis,Plantae,ROSACEAE,,,1,1.71918,42.54012,Europe,Andorra,AD,,Andorra - Pas de la Casa,2016-06-15,
Myosotis alpestris,Plantae,BORAGINACEAE,Alpine Forget-me-not,,1,1.68853,42.5577,Europe,Andorra,AD,,Andorra,2016-06-15,
Blitum bonus-henricus,Plantae,AMARANTHACEAE,Good-King-Henry,,1,1.47808,42.63128,Europe,Andorra,AD,,Andorra,2016-06-16,
Silene rupestris,Plantae,CARYOPHYLLACEAE,,,1,1.50006,42.63293,Europe,Andorra,AD,,Andorra,2016-06-16,
Silene dioica,Plantae,CARYOPHYLLACEAE,Red Campion,,1,1.5211400000001,42.63034,Europe,Andorra,AD,,Andorra,2016-06-16,
Aconitum napellus subsp. vulgare,Plantae,RANUNCULACEAE,Monk's-hood,,1,1.70736,42.5459,Europe,Andorra,AD,,Andorra - Encamp,2016-06-15,
Ranunculus pyrenaeus,Plantae,RANUNCULACEAE,,,1,1.4788,42.6308,Europe,Andorra,AD,,Andorra,2016-06-16,
Ranunculus pyrenaeus,Plantae,RANUNCULACEAE,,,1,1.7191800000001,42.54012,Europe,Andorra,AD,,Andorra - Pas de la Casa,2016-06-15,
Ranunculus pyrenaeus,Plantae,RANUNCULACEAE,,,1,1.4816,42.6317,Europe,Andorra,AD,,Andorra,2016-06-16,
Ranunculus aconitifolius,Plantae,RANUNCULACEAE,Aconite-Leaved Buttercup,,1,1.479701222229,42.630973658078,Europe,Andorra,AD,,Andorra,2016-06-16,
Pedicularis verticillata,Plantae,OROBANCHACEAE,Whorled lousewort,,1,1.68853,42.5577,Europe,Andorra,AD,,Andorra,2016-06-15,
Plantago monosperma,Plantae,PLANTAGINACEAE,,,1,1.7191800000001,42.54012,Europe,Andorra,AD,,Andorra - Pas de la Casa,2016-06-15,
Pedicularis foliosa,Plantae,OROBANCHACEAE,,,1,1.6888062675285,42.557667263316,Europe,Andorra,AD,,Andorra,2016-06-15,
Plantago media,Plantae,PLANTAGINACEAE,Hoary Plantain,,1,1.68872,42.5576,Europe,Andorra,AD,,Andorra,2016-06-15,
Ononis cristata,Plantae,Fabaceae,,,1,1.5848590674591,42.567442228788,Europe,Andorra,AD,,Andorra - Canillo,2016-06-15,
Oxytropis halleri,Plantae,Fabaceae,Purple Oxytropis,,1,1.58754,42.56978,Europe,Andorra,AD,,Andorra - Canillo,2016-06-15,
Gentiana verna,Plantae,GENTIANACEAE,Spring Gentian,,1,1.7078,42.5459,Europe,Andorra,AD,,Andorra - Encamp,2016-06-15,
Gentiana verna,Plantae,GENTIANACEAE,Spring Gentian,,1,1.68872,42.5576,Europe,Andorra,AD,,Andorra,2016-06-15,
Gentiana verna,Plantae,GENTIANACEAE,Spring Gentian,,1,1.47808,42.63128,Europe,Andorra,AD,,Andorra,2016-06-16,
Gentiana acaulis,Plantae,GENTIANACEAE,Trumpet gentian,,1,1.7191800000001,42.54012,Europe,Andorra,AD,,Andorra - Pas de la Casa,2016-06-15,
Gentiana acaulis,Plantae,GENTIANACEAE,Trumpet gentian,,1,1.7078,42.5459,Europe,Andorra,AD,,Andorra - Encamp,2016-06-15,
Gentiana alpina,Plantae,GENTIANACEAE,Southern gentian,,1,1.7191800000001,42.54012,Europe,Andorra,AD,,Andorra - Pas de la Casa,2016-06-15,
Gentiana alpina,Plantae,GENTIANACEAE,Southern gentian,,1,1.47995,42.63244,Europe,Andorra,AD,,Andorra,2016-06-16,
Gentiana pyrenaica,Plantae,GENTIANACEAE,,,1,1.7078,42.5459,Europe,Andorra,AD,,Andorra - Encamp,2016-06-15,
Gentiana pyrenaica,Plantae,GENTIANACEAE,,,1,1.47995,42.63244,Europe,Andorra,AD,,Andorra,2016-06-16,
Erinus alpinus,Plantae,PLANTAGINACEAE,Fairy Foxglove,,1,1.58754,42.56978,Europe,Andorra,AD,,Andorra - Canillo,2016-06-15,
Dryas octopetala,Plantae,ROSACEAE,Mountain Avens,,1,1.58754,42.56978,Europe,Andorra,AD,,Andorra - Canillo,2016-06-15,
Daphne cneorum,Plantae,THYMELAEACEAE,Rose daphne,,1,1.58754,42.56978,Europe,Andorra,AD,,Andorra - Canillo,2016-06-15,
Erigeron neglectus,Plantae,Asteraceae,,,1,1.71918,42.54012,Europe,Andorra,AD,,Andorra - Pas de la Casa,2016-06-15,11:31
Lathyrus laevigatus subsp. occidentalis,Plantae,Fabaceae,,,1,1.538,42.611,Europe,Andorra,AD,,Andorra,2016-06-16,
Euphorbia cyparissias,Plantae,EUPHORBIACEAE,Cypress Spurge,,1,1.58754,42.56978,Europe,Andorra,AD,,Andorra - Canillo,2016-06-15,
Crocus nudiflorus,Plantae,IRIDACEAE,Autumn Crocus,,1,1.47995,42.63244,Europe,Andorra,AD,,Andorra,2016-06-16,
Erythronium dens-canis,Plantae,LILIACEAE,Dog's-tooth-violet,,1,1.47995,42.63244,Europe,Andorra,AD,,Andorra,2016-06-16,
Androsace carnea,Plantae,PRIMULACEAE,,,1,1.71955,42.541,Europe,Andorra,AD,,Andorra - Pas de la Casa,2016-06-15,
Androsace carnea,Plantae,PRIMULACEAE,,,1,1.7191800000001,42.54012,Europe,Andorra,AD,,Andorra - Pas de la Casa,2016-06-15,
Androsace carnea,Plantae,PRIMULACEAE,,,1,1.7078,42.5459,Europe,Andorra,AD,,Andorra - Encamp,2016-06-16,
Androsace carnea,Plantae,PRIMULACEAE,,,1,1.4807000000001,42.6318,Europe,Andorra,AD,,Andorra,2016-06-16,
Pinguicula grandiflora subsp. grandiflora,Plantae,LENTIBULARIACEAE,,,1,1.480698777771,42.631842081863,Europe,Andorra,AD,,Andorra,2016-06-16,
Pulsatilla alpina subsp. apiifolia,Plantae,RANUNCULACEAE,,,1,1.7078,42.5459,Europe,Andorra,AD,,Andorra - Encamp,2016-06-15,
Pulsatilla vernalis,Plantae,RANUNCULACEAE,,,1,1.7191800000001,42.54012,Europe,Andorra,AD,,Andorra - Pas de la Casa,2016-06-15,
Persicaria bistorta,Plantae,POLYGONACEAE,Common Bistort,,1,1.54003,42.61927,Europe,Andorra,AD,,Andorra,2016-06-16,
Cerastium alpinum,Plantae,CARYOPHYLLACEAE,Alpine Mouse-ear,,1,1.68853,42.55777,Europe,Andorra,AD,,Andorra,2016-06-15,
Cardamine resedifolia,Plantae,Brassicaceae,,,1,1.7191800000001,42.54012,Europe,Andorra,AD,,Andorra - Pas de la Casa,2016-06-15,
Geum montanum,Plantae,ROSACEAE,,,1,1.7193302037049,42.54045201123,Europe,Andorra,AD,,Andorra - Pas de la Casa,2016-06-15,
Sempervivum montanum,Plantae,CRASSULACEAE,Mountain House-leek,,1,1.7190941693116,42.54012,Europe,Andorra,AD,,Andorra - Pas de la Casa,2016-06-15,
Globularia repens,Plantae,PLANTAGINACEAE,,,1,1.58754,42.56978,Europe,Andorra,AD,,Andorra - Canillo,2016-06-15,
Saxifraga stellaris,Plantae,SAXIFRAGACEAE,Starry Saxifrage,,1,1.7078,42.5459,Europe,Andorra,AD,,Andorra,2016-06-15,
Saxifraga stellaris,Plantae,SAXIFRAGACEAE,Starry Saxifrage,,1,1.6887874920654,42.557540817933,Europe,Andorra,AD,,Andorra,2016-06-15,
Saxifraga stellaris,Plantae,SAXIFRAGACEAE,Starry Saxifrage,,1,1.47808,42.63128,Europe,Andorra,AD,,Andorra,2016-06-16,
Saxifraga stellaris,Plantae,SAXIFRAGACEAE,Starry Saxifrage,,1,1.4787099813111,42.630753385346,Europe,Andorra,AD,,Andorra,2016-06-16,
Saxifraga paniculata,Plantae,SAXIFRAGACEAE,Livelong Saxifrage,,1,1.68853,42.55777,Europe,Andorra,AD,,Andorra,2016-06-15,
Saxifraga paniculata,Plantae,SAXIFRAGACEAE,Livelong Saxifrage,,1,1.50006,42.63293,Europe,Andorra,AD,,Andorra,2016-06-16,
Clinopodium alpinum subsp. meridionale,Plantae,Lamiaceae,,,1,1.58502,42.5673,Europe,Andorra,AD,,Andorra - Canillo,2016-06-15,
Arabis scabra,Plantae,Brassicaceae,Bristol Rock-cress,,1,1.58754,42.56978,Europe,Andorra,AD,,Andorra - Canillo,2016-06-15,
Fragaria vesca,Plantae,ROSACEAE,Wild Strawberry,,1,1.54353,42.55104,Europe,Andorra,AD,,Andorra,2016-06-15,
Oenanthe oenanthe,Animalia,OLD_WORLD_FLYCATCHERS_MUSCICAPIDAE,Northern Wheatear,,1,1.7171795820468,42.540313296805,Europe,Andorra,AD,,Andorra - Pas de la Casa,2016-07-16,
Valeriana tripteris,Plantae,CAPRIFOLIACEAE,,,1,1.6885957141209,42.557757157924,Europe,Andorra,AD,,Andorra,2016-06-15,
Potentilla rupestris,Plantae,ROSACEAE,Rock Cinquefoil,,1,1.5211400000001,42.63034,Europe,Andorra,AD,,Andorra,2016-06-16,
Potentilla tabernaemontani,Plantae,ROSACEAE,Spring Cinquefoil,,1,1.68867,42.55767,Europe,Andorra,AD,,Andorra,2016-06-15,
Bartsia alpina,Plantae,OROBANCHACEAE,Alpine Bartsia,,1,1.7078,42.5459,Europe,Andorra,AD,,Andorra,2016-06-15,
Jasione crispa subsp. crispa,Plantae,CAMPANULACEAE,,,1,1.71955,42.541,Europe,Andorra,AD,,Andorra - Pas de la Casa,2016-06-15,
Blitum bonus-henricus,Plantae,AMARANTHACEAE,Good-King-Henry,,1,1.71955,42.541,Europe,Andorra,AD,,Andorra - Pas de la Casa,2016-06-15,
Arenaria grandiflora subsp. grandiflora,Plantae,CARYOPHYLLACEAE,,,1,1.7078,42.5459,Europe,Andorra,AD,,Andorra,2016-06-15,
Iberis sempervirens,Plantae,Brassicaceae,Perennial Candytuft,,1,1.58754,42.56978,Europe,Andorra,AD,,Andorra - Canillo,2016-06-15,
Marmota marmota,Animalia,SQUIRRELS_CHIPMUNKS_AND_PRAIRIEDOGS_SCIURIDAE,Alpine Marmot,,3,1.7262733707321,42.542136664333,Europe,Andorra,AD,,Andorra - Pas de la Casa,2016-07-28,
Lycaena hippothoe,Animalia,GOSSAMERWINGED_BUTTERFLIES_LYCAENIDAE,Purple-edged Copper,,1,1.7,42.5,Europe,Andorra,AD,,Andorra,2016-07-28,12:53
Lysandra coridon,Animalia,GOSSAMERWINGED_BUTTERFLIES_LYCAENIDAE,Chalk hill Blue,,4,1.7074,42.5459,Europe,Andorra,AD,,Andorra,2016-07-28,12:43
Coenonympha glycerion,Animalia,BRUSHFOOTED_BUTTERFLIES_NYMPHALIDAE,Chestnut Heath,,2,1.7,42.5,Europe,Andorra,AD,,Andorra - Pas de la Casa,2016-07-28,11:59
Oenanthe oenanthe,Animalia,OLD_WORLD_FLYCATCHERS_MUSCICAPIDAE,Northern Wheatear,,3,1.7254,42.5412,Europe,Andorra,AD,,Andorra - Pas de la Casa,2016-07-28,11:38
Erebia cassioides,Animalia,BRUSHFOOTED_BUTTERFLIES_NYMPHALIDAE,Common Brassy Ringlet,,4,1.7252970456684,42.541646565121,Europe,Andorra,AD,,Andorra - Pas de la Casa,2016-07-28,
Erebia meolans,Animalia,BRUSHFOOTED_BUTTERFLIES_NYMPHALIDAE,Piedmont Ringlet,,1,1.7254616253194,42.541568386041,Europe,Andorra,AD,,Andorra - Pas de la Casa,2016-07-28,
Marmota marmota,Animalia,SQUIRRELS_CHIPMUNKS_AND_PRAIRIEDOGS_SCIURIDAE,Alpine Marmot,,3,1.7262733707321,42.542136664333,Europe,Andorra,AD,,Andorra - Pas de la Casa,2016-07-28,
Lycaena hippothoe,Animalia,GOSSAMERWINGED_BUTTERFLIES_LYCAENIDAE,Purple-edged Copper,,1,1.7,42.5,Europe,Andorra,AD,,Andorra,2016-07-28,12:53
Lysandra coridon,Animalia,GOSSAMERWINGED_BUTTERFLIES_LYCAENIDAE,Chalk hill Blue,,4,1.7074,42.5459,Europe,Andorra,AD,,Andorra,2016-07-28,12:43
Coenonympha glycerion,Animalia,BRUSHFOOTED_BUTTERFLIES_NYMPHALIDAE,Chestnut Heath,,2,1.7,42.5,Europe,Andorra,AD,,Andorra - Pas de la Casa,2016-07-28,11:59
Oenanthe oenanthe,Animalia,OLD_WORLD_FLYCATCHERS_MUSCICAPIDAE,Northern Wheatear,,3,1.7254,42.5412,Europe,Andorra,AD,,Andorra - Pas de la Casa,2016-07-28,11:38
Narcissus poeticus,Plantae,AMARYLLIDACEAE,Pheasant's-eye Daffodil,,1,1.58844,42.57128,Europe,Andorra,AD,,Andorra - Canillo,2016-06-14,
Erebia cassioides,Animalia,BRUSHFOOTED_BUTTERFLIES_NYMPHALIDAE,Common Brassy Ringlet,,4,1.7252970456684,42.541646565121,Europe,Andorra,AD,,Andorra - Pas de la Casa,2016-07-28,
Erebia meolans,Animalia,BRUSHFOOTED_BUTTERFLIES_NYMPHALIDAE,Piedmont Ringlet,,1,1.7254616253194,42.541568386041,Europe,Andorra,AD,,Andorra - Pas de la Casa,2016-07-28,
Carduus carlinoides,Plantae,Asteraceae,,,1,1.71955,42.541,Europe,Andorra,AD,,Andorra - Pas de la Casa,2016-06-15,
Veronica bellidioides,Plantae,PLANTAGINACEAE,,,1,1.4802267089843,42.632284112253,Europe,Andorra,AD,,Andorra,2016-06-16,
Iberolacerta aurelioi,Animalia,Lacertidae,Aurelio's Rock Lizard,,2,1.47,42.62,Europe,Andorra,AD,,Andorra,2016-07-16,
Geranium sylvaticum,Plantae,GERANIACEAE,Wood Crane's-bill,,1,1.5400407288361,42.619329212638,Europe,Andorra,AD,,Andorra,2016-06-16,
Carex davalliana,Plantae,CYPERACEAE,Davall's Sedge,,1,1.68853,42.55777,Europe,Andorra,AD,,Andorra,2016-06-15,
Carex flacca,Plantae,CYPERACEAE,Glaucous Sedge,,1,1.7189627410698,42.540035020652,Europe,Andorra,AD,,Andorra - Pas de la Casa,2016-06-15,
Botrychium lunaria,Plantae,OPHIOGLOSSACEAE,Moonwort,,1,1.7,42.5,Europe,Andorra,AD,,Andorra,2016-06-15,13:55
Vaccinium myrtillus,Plantae,ERICACEAE,Bilberry,,1,1.722813444212079,42.543527288362384,Europe,Andorra,AD,,Andorra - Pas de la Casa,2016-06-15,13:24
Gentiana verna,Plantae,GENTIANACEAE,Spring Gentian,,1,1.72224785,42.54144321,Europe,Andorra,AD,,Andorra - Pas de la Casa,2016-06-16,10:34
Gentiana alpina,Plantae,GENTIANACEAE,Southern gentian,,1,1.72223364,42.54145423,Europe,Andorra,AD,,Andorra - Pas de la Casa,2016-06-16,10:34
Pulsatilla vernalis,Plantae,RANUNCULACEAE,,,1,1.72222327,42.54145078,Europe,Andorra,AD,,Andorra - Pas de la Casa,2016-06-16,10:42
Ranunculus pyrenaeus,Plantae,RANUNCULACEAE,,,1,1.72221857,42.54145271,Europe,Andorra,AD,,Andorra - Pas de la Casa,2016-06-16,10:43
Pedicularis verticillata,Plantae,OROBANCHACEAE,Whorled lousewort,,1,1.72222222,42.54144777,Europe,Andorra,AD,,Andorra - Pas de la Casa,2016-06-16,10:49
Oenanthe oenanthe,Animalia,OLD_WORLD_FLYCATCHERS_MUSCICAPIDAE,Northern Wheatear,,1,1.72225168,42.54142398,Europe,Andorra,AD,,Andorra - Pas de la Casa,2016-06-16,10:59
Cardamine resedifolia,Plantae,Brassicaceae,,,1,1.72198895,42.54138804,Europe,Andorra,AD,,Andorra - Pas de la Casa,2016-06-16,11:08
Androsace carnea,Plantae,PRIMULACEAE,,,1,1.72203388,42.54139161,Europe,Andorra,AD,,Andorra - Pas de la Casa,2016-06-16,11:09
Geum montanum,Plantae,ROSACEAE,,,1,1.72174663,42.54151433,Europe,Andorra,AD,,Andorra - Pas de la Casa,2016-06-16,11:33
Trifolium alpinum,Plantae,Fabaceae,Alpine clover,,1,1.7223784,42.54196152,Europe,Andorra,AD,,Andorra - Pas de la Casa,2016-06-16,11:50
Erigeron uniflorus,Plantae,Asteraceae,One-flowered fleabane,,1,1.72237835,42.54196163,Europe,Andorra,AD,,Andorra - Pas de la Casa,2016-06-16,11:51
Linaria alpina,Plantae,PLANTAGINACEAE,,,1,1.72237447,42.54212085,Europe,Andorra,AD,,Andorra - Pas de la Casa,2016-06-16,12:11
Kalmia procumbens,Plantae,ERICACEAE,Trailing Azalea,,1,1.72279732,42.5430839,Europe,Andorra,AD,,Andorra - Pas de la Casa,2016-06-16,12:55
Rhododendron ferrugineum,Plantae,ERICACEAE,Alpenrose,,1,1.72279732,42.5430839,Europe,Andorra,AD,,Andorra - Pas de la Casa,2016-06-16,12:55
Primula integrifolia,Plantae,PRIMULACEAE,,,1,1.72279732,42.5430839,Europe,Andorra,AD,,Andorra - Pas de la Casa,2016-06-16,12:55
Saxifraga paniculata,Plantae,SAXIFRAGACEAE,Livelong Saxifrage,,1,1.72279732,42.5430839,Europe,Andorra,AD,,Andorra - Pas de la Casa,2016-06-16,12:55
Falco tinnunculus,Animalia,CARACAS_AND_FALCONS_FALCONIDAE,Common Kestrel,,1,1.71958858,42.54563478,Europe,Andorra,AD,,Andorra,2016-06-16,13:44
Gentiana pyrenaica,Plantae,GENTIANACEAE,,,1,1.71959095,42.54565208,Europe,Andorra,AD,,Andorra,2016-06-16,13:47
Antennaria dioica,Plantae,Asteraceae,Mountain Everlasting,,1,1.7,42.5,Europe,Andorra,AD,,Andorra - Pas de la Casa,2016-06-16,14:16
Ranunculus pyrenaeus,Plantae,RANUNCULACEAE,,,1,1.72221857,42.54145271,Europe,Andorra,AD,,Andorra - Pas de la Casa,2016-06-16,10:43
Pedicularis verticillata,Plantae,OROBANCHACEAE,Whorled lousewort,,1,1.72222222,42.54144777,Europe,Andorra,AD,,Andorra - Pas de la Casa,2016-06-16,10:49
Oenanthe oenanthe,Animalia,OLD_WORLD_FLYCATCHERS_MUSCICAPIDAE,Northern Wheatear,,1,1.72225168,42.54142398,Europe,Andorra,AD,,Andorra - Pas de la Casa,2016-06-16,10:59
Geum montanum,Plantae,ROSACEAE,,,1,1.72174663,42.54151433,Europe,Andorra,AD,,Andorra - Pas de la Casa,2016-06-16,11:33
Trifolium alpinum,Plantae,Fabaceae,Alpine clover,,1,1.7223784,42.54196152,Europe,Andorra,AD,,Andorra - Pas de la Casa,2016-06-16,11:50
Linaria alpina,Plantae,PLANTAGINACEAE,,,1,1.72237447,42.54212085,Europe,Andorra,AD,,Andorra - Pas de la Casa,2016-06-16,12:11
Kalmia procumbens,Plantae,ERICACEAE,Trailing Azalea,,1,1.72279732,42.5430839,Europe,Andorra,AD,,Andorra - Pas de la Casa,2016-06-16,12:55
Rhododendron ferrugineum,Plantae,ERICACEAE,Alpenrose,,1,1.72279732,42.5430839,Europe,Andorra,AD,,Andorra - Pas de la Casa,2016-06-16,12:55
Primula integrifolia,Plantae,PRIMULACEAE,,,1,1.72279732,42.5430839,Europe,Andorra,AD,,Andorra - Pas de la Casa,2016-06-16,12:55
Saxifraga paniculata,Plantae,SAXIFRAGACEAE,Livelong Saxifrage,,1,1.72279732,42.5430839,Europe,Andorra,AD,,Andorra - Pas de la Casa,2016-06-16,12:55
Falco tinnunculus,Animalia,CARACAS_AND_FALCONS_FALCONIDAE,Common Kestrel,,1,1.71958858,42.54563478,Europe,Andorra,AD,,Andorra,2016-06-16,13:44
Gentiana pyrenaica,Plantae,GENTIANACEAE,,,1,1.71959095,42.54565208,Europe,Andorra,AD,,Andorra,2016-06-16,13:47
Antennaria dioica,Plantae,Asteraceae,Mountain Everlasting,,1,1.7,42.5,Europe,Andorra,AD,,Andorra - Pas de la Casa,2016-06-16,14:16
Fragaria vesca,Plantae,ROSACEAE,Wild Strawberry,,5,1.5148830691578,42.537377505581,Europe,Andorra,AD,,Andorra,2016-05-07,
Decticus verrucivorus,Animalia,KATYDIDS_TETTIGONIIDAE,Wart-Biter,,1,1.6,42.6,Europe,Andorra,AD,,Andorra,2015-08-21,17:07
Prunella modularis,Animalia,ACCENTORS_PRUNELLIDAE,Dunnock,,1,1.64019666666667,42.6139316666667,Europe,Andorra,AD,,Andorra,2015-08-22,10:11
Gyps fulvus,Animalia,HAWKS_AND_EAGLES_ACCIPITRIDAE,Griffon Vulture,,4,1.638765,42.6173266666667,Europe,Andorra,AD,,Andorra,2015-08-22,10:35
Marmota marmota,Animalia,SQUIRRELS_CHIPMUNKS_AND_PRAIRIEDOGS_SCIURIDAE,Alpine Marmot,,1,1.63892166666667,42.618435,Europe,Andorra,AD,,Andorra,2015-08-22,10:55
Lysandra coridon,Animalia,GOSSAMERWINGED_BUTTERFLIES_LYCAENIDAE,Chalk hill Blue,,1,1.58756833333333,42.5526933333333,Europe,Andorra,AD,,Andorra - Canillo,2015-08-22,14:20
Oenanthe oenanthe,Animalia,OLD_WORLD_FLYCATCHERS_MUSCICAPIDAE,Northern Wheatear,,4,1.69360833333333,42.53087,Europe,Andorra,AD,,Andorra,2015-08-23,10:16
Gyps fulvus,Animalia,HAWKS_AND_EAGLES_ACCIPITRIDAE,Griffon Vulture,,1,1.68553,42.5268583333333,Europe,Andorra,AD,,Andorra,2015-08-23,10:59
Decticus verrucivorus,Animalia,KATYDIDS_TETTIGONIIDAE,Wart-Biter,,1,1.65,42.5,Europe,Andorra,AD,,Andorra,2015-08-23,13:09
Decticus verrucivorus,Animalia,KATYDIDS_TETTIGONIIDAE,Wart-Biter,,1,1.65,42.6,Europe,Andorra,AD,,Andorra,2015-08-24,
Sericomyia silentis,Animalia,HOVER_FLIES_OR_FLOWER_FLIES_SYRPHIDAE,,,1,1.69492727,42.61321593,Europe,Andorra,AD,,Andorra,2015-08-24,
Aconitum napellus,Plantae,RANUNCULACEAE,Monk's-hood,,1,1.63,42.61,Europe,Andorra,AD,,Andorra,2015-08-24,
Ptyonoprogne rupestris,Animalia,SWALLOWS_HIRUNDINIDAE,Eurasian Crag Martin,,3,1.53855356388,42.6184960455,Europe,Andorra,AD,,Andorra,2015-08-23,
Sciurus vulgaris,Animalia,SQUIRRELS_CHIPMUNKS_AND_PRAIRIEDOGS_SCIURIDAE,Eurasian Red Squirrel,,1,1.51582762599,42.6001347482,Europe,Andorra,AD,,Andorra,2015-08-23,
Eliomys quercinus,Animalia,DORMICE_GLIRIDAE,Garden Dormouse,,1,1.45,42.55,Europe,Andorra,AD,,Andorra,2015-08-21,
Veratrum album,Plantae,MELANTHIACEAE,White false hellebore,,1,1.45187269896,42.5797642716,Europe,Andorra,AD,,Andorra,2015-08-21,
Erebia meolans,Animalia,BRUSHFOOTED_BUTTERFLIES_NYMPHALIDAE,Piedmont Ringlet,,12,1.5147,42.5809,Europe,Andorra,AD,,Andorra,2015-08-20,10:51
Lysandra coridon,Animalia,GOSSAMERWINGED_BUTTERFLIES_LYCAENIDAE,Chalk hill Blue,,1,1.5143,42.5817,Europe,Andorra,AD,,Andorra,2015-08-20,10:44
Aglais io,Animalia,BRUSHFOOTED_BUTTERFLIES_NYMPHALIDAE,Peacock,,1,1.5143,42.5817,Europe,Andorra,AD,,Andorra,2015-08-20,10:39
Phoenicurus ochruros,Animalia,OLD_WORLD_FLYCATCHERS_MUSCICAPIDAE,Black Redstart,,1,1.5162,42.5819,Europe,Andorra,AD,,Andorra,2015-08-20,10:32
Gyps fulvus,Animalia,HAWKS_AND_EAGLES_ACCIPITRIDAE,Griffon Vulture,,2,1.5208,42.5062,Europe,Andorra,AD,,Andorra,2015-08-19,15:15
Pieris brassicae,Animalia,WHITES_PIERIDAE,Large White,,1,1.5186,42.5822,Europe,Andorra,AD,,Andorra,2015-08-19,12:31
Lysandra coridon,Animalia,GOSSAMERWINGED_BUTTERFLIES_LYCAENIDAE,Chalk hill Blue,,6,1.5154,42.5822,Europe,Andorra,AD,,Andorra,2015-08-19,12:04
Pieris brassicae,Animalia,WHITES_PIERIDAE,Large White,,1,1.515,42.5819,Europe,Andorra,AD,,Andorra,2015-08-19,11:57
Corvus corax,Animalia,CROWS_AND_JAYS_CORVIDAE,Northern Raven,,1,1.5174,42.5823,Europe,Andorra,AD,,Andorra,2015-08-19,11:31
Ptyonoprogne rupestris,Animalia,SWALLOWS_HIRUNDINIDAE,Eurasian Crag Martin,,2,1.5174,42.582,Europe,Andorra,AD,,Andorra,2015-08-19,11:29
Ptyonoprogne rupestris,Animalia,SWALLOWS_HIRUNDINIDAE,Eurasian Crag Martin,,15,1.5188,42.5795,Europe,Andorra,AD,,Andorra,2015-08-19,10:34
Motacilla cinerea,Animalia,PIPITS_EN_WAGTAILS_MOTACILLIDAE,Grey Wagtail,,1,1.5186,42.58,Europe,Andorra,AD,,Andorra,2015-08-19,09:45
Falco tinnunculus,Animalia,CARACAS_AND_FALCONS_FALCONIDAE,Common Kestrel,,2,1.70338465,42.5958953,Europe,Andorra,AD,,Andorra,2015-08-12,12:12
Prunella collaris,Animalia,ACCENTORS_PRUNELLIDAE,Alpine Accentor,,1,1.474,42.6211,Europe,Andorra,AD,,Andorra,2015-07-22,12:34
Oenanthe oenanthe,Animalia,OLD_WORLD_FLYCATCHERS_MUSCICAPIDAE,Northern Wheatear,,1,1.474,42.6212,Europe,Andorra,AD,,Andorra,2015-07-22,12:34
Anthus spinoletta,Animalia,PIPITS_EN_WAGTAILS_MOTACILLIDAE,Water Pipit,,1,1.474,42.6212,Europe,Andorra,AD,,Andorra,2015-07-22,12:34
Phoenicurus ochruros,Animalia,OLD_WORLD_FLYCATCHERS_MUSCICAPIDAE,Black Redstart,,1,1.474,42.6212,Europe,Andorra,AD,,Andorra,2015-07-22,12:33
Phoenicurus ochruros,Animalia,OLD_WORLD_FLYCATCHERS_MUSCICAPIDAE,Black Redstart,,1,1.4743,42.6211,Europe,Andorra,AD,,Andorra,2015-07-22,12:17
Oenanthe oenanthe,Animalia,OLD_WORLD_FLYCATCHERS_MUSCICAPIDAE,Northern Wheatear,,1,1.4743,42.6211,Europe,Andorra,AD,,Andorra,2015-07-22,12:17
Prunella collaris,Animalia,ACCENTORS_PRUNELLIDAE,Alpine Accentor,,1,1.5985107579,42.5750162996,Europe,Andorra,AD,,Andorra - Canillo,2015-06-17,
Gyps fulvus,Animalia,HAWKS_AND_EAGLES_ACCIPITRIDAE,Griffon Vulture,,10,1.5985107579,42.5750162996,Europe,Andorra,AD,,Andorra - Canillo,2015-06-17,
Falco tinnunculus,Animalia,CARACAS_AND_FALCONS_FALCONIDAE,Common Kestrel,,1,1.7194,42.5398,Europe,Andorra,AD,,Andorra - Pas de la Casa,2015-07-21,14:06
Lasiommata megera,Animalia,BRUSHFOOTED_BUTTERFLIES_NYMPHALIDAE,Wall Brown,,1,1.5,42.53,Europe,Andorra,AD,,Andorra,2015-07-06,08:59
Ochlodes sylvanus,Animalia,SKIPPERS_HESPERIIDAE,Large Skipper,,2,1.49,42.52,Europe,Andorra,AD,,Andorra,2015-07-06,09:07
Coenonympha arcania,Animalia,BRUSHFOOTED_BUTTERFLIES_NYMPHALIDAE,Pearly Heath,,3,1.45,42.5,Europe,Andorra,AD,,Andorra,2015-07-06,09:09
Coenonympha arcania,Animalia,BRUSHFOOTED_BUTTERFLIES_NYMPHALIDAE,Pearly Heath,,1,1.5,42.5,Europe,Andorra,AD,,Andorra,2015-07-06,09:13
Coenonympha arcania,Animalia,BRUSHFOOTED_BUTTERFLIES_NYMPHALIDAE,Pearly Heath,,1,1.45,42.5,Europe,Andorra,AD,,Andorra,2015-07-06,09:16
Aglais io,Animalia,BRUSHFOOTED_BUTTERFLIES_NYMPHALIDAE,Peacock,,1,1.49,42.52,Europe,Andorra,AD,,Andorra,2015-07-06,09:19
Melitaea parthenoides,Animalia,BRUSHFOOTED_BUTTERFLIES_NYMPHALIDAE,Meadow Fritillary,,1,1.45,42.5,Europe,Andorra,AD,,Andorra,2015-07-06,09:23
Melanargia lachesis,Animalia,BRUSHFOOTED_BUTTERFLIES_NYMPHALIDAE,Iberian Marbled White,,1,1.49,42.52,Europe,Andorra,AD,,Andorra,2015-07-06,09:25
Leptidea sinapis,Animalia,WHITES_PIERIDAE,Wood White,,2,1.49,42.52,Europe,Andorra,AD,,Andorra,2015-07-06,09:32
Erebia meolans,Animalia,BRUSHFOOTED_BUTTERFLIES_NYMPHALIDAE,Piedmont Ringlet,,2,1.49,42.52,Europe,Andorra,AD,,Andorra,2015-07-06,09:39
Coenonympha arcania,Animalia,BRUSHFOOTED_BUTTERFLIES_NYMPHALIDAE,Pearly Heath,,1,1.45,42.5,Europe,Andorra,AD,,Andorra,2015-07-06,09:51
Erebia meolans,Animalia,BRUSHFOOTED_BUTTERFLIES_NYMPHALIDAE,Piedmont Ringlet,,1,1.49,42.52,Europe,Andorra,AD,,Andorra,2015-07-06,09:55
Erebia meolans,Animalia,BRUSHFOOTED_BUTTERFLIES_NYMPHALIDAE,Piedmont Ringlet,,1,1.5,42.52,Europe,Andorra,AD,,Andorra,2015-07-06,10:07
Lasiommata maera,Animalia,BRUSHFOOTED_BUTTERFLIES_NYMPHALIDAE,Large Wall Brown,,1,1.5,42.5,Europe,Andorra,AD,,Andorra,2015-07-06,10:21
Erebia meolans,Animalia,BRUSHFOOTED_BUTTERFLIES_NYMPHALIDAE,Piedmont Ringlet,,1,1.5,42.52,Europe,Andorra,AD,,Andorra,2015-07-06,10:28
Lasiommata maera,Animalia,BRUSHFOOTED_BUTTERFLIES_NYMPHALIDAE,Large Wall Brown,,1,1.5,42.5,Europe,Andorra,AD,,Andorra,2015-07-06,10:33
Lasiommata maera,Animalia,BRUSHFOOTED_BUTTERFLIES_NYMPHALIDAE,Large Wall Brown,,1,1.5,42.5,Europe,Andorra,AD,,Andorra,2015-07-06,10:38
Lasiommata maera,Animalia,BRUSHFOOTED_BUTTERFLIES_NYMPHALIDAE,Large Wall Brown,,1,1.5,42.5,Europe,Andorra,AD,,Andorra,2015-07-06,10:48
Erebia meolans,Animalia,BRUSHFOOTED_BUTTERFLIES_NYMPHALIDAE,Piedmont Ringlet,,2,1.5,42.51,Europe,Andorra,AD,,Andorra,2015-07-06,10:57
Coenonympha arcania,Animalia,BRUSHFOOTED_BUTTERFLIES_NYMPHALIDAE,Pearly Heath,,1,1.5,42.5,Europe,Andorra,AD,,Andorra,2015-07-06,11:04
Erebia epiphron,Animalia,BRUSHFOOTED_BUTTERFLIES_NYMPHALIDAE,Mountain Ringlet,,2,1.5,42.51,Europe,Andorra,AD,,Andorra,2015-07-06,11:12
Lampides boeticus,Animalia,GOSSAMERWINGED_BUTTERFLIES_LYCAENIDAE,Long-tailed Blue,,1,1.5,42.51,Europe,Andorra,AD,,Andorra,2015-07-06,11:21
Lycaena phlaeas,Animalia,GOSSAMERWINGED_BUTTERFLIES_LYCAENIDAE,Small Copper,,1,1.5,42.51,Europe,Andorra,AD,,Andorra,2015-07-06,11:24
Boloria euphrosyne,Animalia,BRUSHFOOTED_BUTTERFLIES_NYMPHALIDAE,Pearl-bordered Fritillary,,2,1.5,42.5,Europe,Andorra,AD,,Andorra,2015-07-06,11:26
Erebia triarius,Animalia,BRUSHFOOTED_BUTTERFLIES_NYMPHALIDAE,de Prunner's Ringlet,,1,1.5,42.51,Europe,Andorra,AD,,Andorra,2015-07-06,11:34
Aglais urticae,Animalia,BRUSHFOOTED_BUTTERFLIES_NYMPHALIDAE,Small Tortoiseshell,,20,1.5,42.51,Europe,Andorra,AD,,Andorra,2015-07-06,11:40
Erebia meolans,Animalia,BRUSHFOOTED_BUTTERFLIES_NYMPHALIDAE,Piedmont Ringlet,,1,1.5,42.51,Europe,Andorra,AD,,Andorra,2015-07-06,11:43
Erebia epiphron,Animalia,BRUSHFOOTED_BUTTERFLIES_NYMPHALIDAE,Mountain Ringlet,,1,1.5,42.51,Europe,Andorra,AD,,Andorra,2015-07-06,11:48
Lampides boeticus,Animalia,GOSSAMERWINGED_BUTTERFLIES_LYCAENIDAE,Long-tailed Blue,,1,1.5,42.51,Europe,Andorra,AD,,Andorra,2015-07-06,11:49
Lasiommata maera,Animalia,BRUSHFOOTED_BUTTERFLIES_NYMPHALIDAE,Large Wall Brown,,1,1.45,42.5,Europe,Andorra,AD,,Andorra,2015-07-06,11:55
Aglais urticae,Animalia,BRUSHFOOTED_BUTTERFLIES_NYMPHALIDAE,Small Tortoiseshell,,1,1.49,42.51,Europe,Andorra,AD,,Andorra,2015-07-06,11:58
Erebia meolans,Animalia,BRUSHFOOTED_BUTTERFLIES_NYMPHALIDAE,Piedmont Ringlet,,1,1.49,42.51,Europe,Andorra,AD,,Andorra,2015-07-06,12:00
Lycaena alciphron,Animalia,GOSSAMERWINGED_BUTTERFLIES_LYCAENIDAE,Purple-shot Copper,,3,1.49,42.51,Europe,Andorra,AD,,Andorra,2015-07-06,12:17
Papilio machaon,Animalia,SWALLOWTAILS_PAPILIONIDAE,Swallowtail,,1,1.49,42.51,Europe,Andorra,AD,,Andorra,2015-07-06,12:17
Lasiommata megera,Animalia,BRUSHFOOTED_BUTTERFLIES_NYMPHALIDAE,Wall Brown,,5,1.49,42.51,Europe,Andorra,AD,,Andorra,2015-07-06,12:20
Lycaena phlaeas,Animalia,GOSSAMERWINGED_BUTTERFLIES_LYCAENIDAE,Small Copper,,1,1.49,42.51,Europe,Andorra,AD,,Andorra,2015-07-06,12:20
Satyrium esculi,Animalia,GOSSAMERWINGED_BUTTERFLIES_LYCAENIDAE,False Ilex Hairstreak,,1,1.49,42.51,Europe,Andorra,AD,,Andorra,2015-07-06,12:48
Agriades glandon,Animalia,GOSSAMERWINGED_BUTTERFLIES_LYCAENIDAE,Glandon Blue,,1,1.49,42.51,Europe,Andorra,AD,,Andorra,2015-07-06,12:48
Aglais urticae,Animalia,BRUSHFOOTED_BUTTERFLIES_NYMPHALIDAE,Small Tortoiseshell,,1,1.49,42.51,Europe,Andorra,AD,,Andorra,2015-07-06,12:49
Pieris brassicae,Animalia,WHITES_PIERIDAE,Large White,,1,1.5,42.51,Europe,Andorra,AD,,Andorra,2015-07-06,13:13
Lasiommata maera,Animalia,BRUSHFOOTED_BUTTERFLIES_NYMPHALIDAE,Large Wall Brown,,1,1.5,42.5,Europe,Andorra,AD,,Andorra,2015-07-06,13:44
Erebia triarius,Animalia,BRUSHFOOTED_BUTTERFLIES_NYMPHALIDAE,de Prunner's Ringlet,,1,1.5,42.52,Europe,Andorra,AD,,Andorra,2015-07-06,13:52
Leptidea sinapis,Animalia,WHITES_PIERIDAE,Wood White,,1,1.49,42.52,Europe,Andorra,AD,,Andorra,2015-07-06,14:05
Melitaea deione,Animalia,BRUSHFOOTED_BUTTERFLIES_NYMPHALIDAE,Provencal Fritillary,,1,1.49,42.52,Europe,Andorra,AD,,Andorra,2015-07-06,14:12
Fabriciana adippe,Animalia,BRUSHFOOTED_BUTTERFLIES_NYMPHALIDAE,High Brown Fritillary,,1,1.49,42.52,Europe,Andorra,AD,,Andorra,2015-07-06,14:17
Thymelicus lineola,Animalia,SKIPPERS_HESPERIIDAE,Essex Skipper,,3,1.49,42.52,Europe,Andorra,AD,,Andorra,2015-07-06,14:25
Lampides boeticus,Animalia,GOSSAMERWINGED_BUTTERFLIES_LYCAENIDAE,Long-tailed Blue,,1,1.49,42.51,Europe,Andorra,AD,,Andorra,2015-07-06,
Melanargia lachesis,Animalia,BRUSHFOOTED_BUTTERFLIES_NYMPHALIDAE,Iberian Marbled White,,3,1.51,42.53,Europe,Andorra,AD,,Andorra,2015-07-05,19:04
Pyrgus armoricanus,Animalia,SKIPPERS_HESPERIIDAE,Oberthür's Grizzled Skipper,,1,1.5,42.5,Europe,Andorra,AD,,Andorra,2015-07-05,19:10
Aricia agestis,Animalia,GOSSAMERWINGED_BUTTERFLIES_LYCAENIDAE,Brown Argus,,1,1.51,42.53,Europe,Andorra,AD,,Andorra,2015-07-05,19:15
Melitaea athalia,Animalia,BRUSHFOOTED_BUTTERFLIES_NYMPHALIDAE,Heath Fritillary,,2,1.5,42.5,Europe,Andorra,AD,,Andorra,2015-07-05,19:15
Melitaea didyma,Animalia,BRUSHFOOTED_BUTTERFLIES_NYMPHALIDAE,Spotted Fritillary,,1,1.5,42.5,Europe,Andorra,AD,,Andorra,2015-07-05,19:29
Plebejus argus,Animalia,GOSSAMERWINGED_BUTTERFLIES_LYCAENIDAE,Silver-studded Blue,,1,1.51,42.53,Europe,Andorra,AD,,Andorra,2015-07-05,19:29
Melitaea parthenoides,Animalia,BRUSHFOOTED_BUTTERFLIES_NYMPHALIDAE,Meadow Fritillary,,1,1.5,42.5,Europe,Andorra,AD,,Andorra,2015-07-05,19:34
Plebejus argus,Animalia,GOSSAMERWINGED_BUTTERFLIES_LYCAENIDAE,Silver-studded Blue,,1,1.51,42.53,Europe,Andorra,AD,,Andorra,2015-07-05,19:40
Podarcis muralis,Animalia,Lacertidae,Common Wall Lizard,,1,1.5,42.4,Europe,Andorra,AD,,Andorra,2014-08-09,
Erythronium dens-canis,Plantae,LILIACEAE,Dog's-tooth-violet,,1,1.49050723761,42.6381339406,Europe,Andorra,AD,,Andorra,2013-07-21,
Ptyonoprogne rupestris,Animalia,SWALLOWS_HIRUNDINIDAE,Eurasian Crag Martin,,2,1.48555078,42.57166484,Europe,Andorra,AD,,Andorra,2015-03-24,08:37
Gypaetus barbatus,Animalia,HAWKS_AND_EAGLES_ACCIPITRIDAE,Bearded Vulture,,1,1.49653684348,42.6076135527,Europe,Andorra,AD,,Andorra,2015-02-21,12:00
