scientificName,kingdom,family,vernacularName,previousIdentifications,individualCount,longitudeDecimal,latitudeDecimal,continent,country,countryCode,stateProvince,locality,eventDate,eventTime
Anastomus lamelligerus,Animalia,STORKS_CICONIIDAE,African Openbill,,39,19.8324,-17.8735,Africa,Angola,AO,,Angola - Cuando Cubango,2015-02-26,18:39
Cinnyricinclus leucogaster,Animalia,STARLINGS_STURNIDAE,Violet-backed Starling,,1,19.8319,-17.8742,Africa,Angola,AO,,Angola - Cuando Cubango,2015-02-26,16:05
Laniarius bicolor,Animalia,HELMETSHRIKES_BUSHSHRIKES_MALACONOTIDAE,Swamp Boubou,,1,19.8325,-17.8736,Africa,Angola,AO,,Angola - Cuando Cubango,2015-02-26,07:09
Turdoides hartlaubii,Animalia,Leiothrichidae,Hartlaub's Babbler,,4,19.833,-17.8738,Africa,Angola,AO,,Angola - Cuando Cubango,2015-02-26,06:48
Bubulcus ibis,Animalia,HERONS_ARDEIDAE,Western Cattle Egret,,30,19.8325,-17.8735,Africa,Angola,AO,,Angola - Cuando Cubango,2015-02-26,06:35
Anastomus lamelligerus,Animalia,STORKS_CICONIIDAE,African Openbill,,1,19.8325,-17.8735,Africa,Angola,AO,,Angola - Cuando Cubango,2015-02-26,06:35
Tyto alba,Animalia,BARN_OWLS_TYTONIDAE,Western Barn Owl,,1,19.8323,-17.8736,Africa,Angola,AO,,Angola - Cuando Cubango,2015-02-25,20:01
Bubulcus ibis,Animalia,HERONS_ARDEIDAE,Western Cattle Egret,,5,19.8311,-17.8736,Africa,Angola,AO,,Angola - Cuando Cubango,2015-02-25,16:49
Anastomus lamelligerus,Animalia,STORKS_CICONIIDAE,African Openbill,,3,19.832,-17.8737,Africa,Angola,AO,,Angola - Cuando Cubango,2015-02-25,16:37
Anastomus lamelligerus,Animalia,STORKS_CICONIIDAE,African Openbill,,2,19.832,-17.8744,Africa,Angola,AO,,Angola - Cuando Cubango,2015-02-25,16:10
Megaptera novaeangliae,Animalia,RORQUAL_WHALES_BALAENOPTERIDAE,Humpback Whale,,2,11.7297935486,-5.11291526767,Africa,Angola,AO,,Angola,2014-09-27,
Ceryle rudis,Animalia,KINGFISHERS_ALCEDINIDAE,Pied Kingfisher,,1,12.6013183594,-6.03062786203,Africa,Angola,AO,,Angola - Zaire,2013-01-27,
Corvus albus,Animalia,CROWS_AND_JAYS_CORVIDAE,Pied Crow,,30,13.056049346924,-5.864500481913,Africa,Angola,AO,,Angola - Zaire,2013-01-27,
Emberiza tahapisi,Animalia,BUNTINGS_EMBERIZIDAE,Cinnamon-breasted Bunting,,2,13.056049346924,-5.864500481913,Africa,Angola,AO,,Angola - Zaire,2013-01-15,
Gypohierax angolensis,Animalia,HAWKS_AND_EAGLES_ACCIPITRIDAE,Palm-nut Vulture,,8,13.056049346924,-5.864500481913,Africa,Angola,AO,,Angola - Zaire,2013-01-27,
Hirundo smithii,Animalia,SWALLOWS_HIRUNDINIDAE,Wire-tailed Swallow,,4,13.056049346924,-5.864500481913,Africa,Angola,AO,,Angola - Zaire,2013-01-27,
Cypsiurus parvus,Animalia,SWIFTS_APODIDAE,African Palm Swift,,5,13.056049346924,-5.864500481913,Africa,Angola,AO,,Angola - Zaire,2013-01-27,
Gypohierax angolensis,Animalia,HAWKS_AND_EAGLES_ACCIPITRIDAE,Palm-nut Vulture,,4,12.8526306152,-5.91931268901,Africa,Angola,AO,,Angola - Zaire,2012-06-24,14:00
Phoenicopterus roseus,Animalia,FLAMINGOS_PHOENICOPTERIDAE,Greater Flamingo,,450,11.8453571945429,-15.7846466681836,Africa,Angola,AO,,Angola - Namibe,2020-01-31,07:57
Phalacrocorax capensis,Animalia,CORMORANTS_PHALACROCORACIDAE,Cape Cormorant,,4,11.8234996795654,-16.4346218109131,Africa,Angola,AO,,Angola - Namibe,2020-01-31,13:38
Phalacrocorax capensis,Animalia,CORMORANTS_PHALACROCORACIDAE,Cape Cormorant,,90000,11.82373047,-16.50623322,Africa,Angola,AO,,Angola - Namibe,2020-01-31,13:50
Phalacrocorax capensis,Animalia,CORMORANTS_PHALACROCORACIDAE,Cape Cormorant,,9600,11.8162629380822,-16.5874728634578,Africa,Angola,AO,,Angola - Namibe,2020-01-31,14:08
Phoenicopterus roseus,Animalia,FLAMINGOS_PHOENICOPTERIDAE,Greater Flamingo,,40,11.8216104507446,-16.586742401123,Africa,Angola,AO,,Angola - Namibe,2020-01-31,14:09
Phoenicopterus roseus,Animalia,FLAMINGOS_PHOENICOPTERIDAE,Greater Flamingo,,30,11.8213005065918,-16.6199779510498,Africa,Angola,AO,,Angola - Namibe,2020-01-31,14:41
Phoenicopterus roseus,Animalia,FLAMINGOS_PHOENICOPTERIDAE,Greater Flamingo,,3,11.8218717575073,-16.6321868896484,Africa,Angola,AO,,Angola - Namibe,2020-01-31,14:43
Phoenicopterus roseus,Animalia,FLAMINGOS_PHOENICOPTERIDAE,Greater Flamingo,,1,11.8229131698608,-16.638635635376,Africa,Angola,AO,,Angola - Namibe,2020-01-31,14:43
Phoenicopterus roseus,Animalia,FLAMINGOS_PHOENICOPTERIDAE,Greater Flamingo,,10,11.8231554031372,-16.6427001953125,Africa,Angola,AO,,Angola - Namibe,2020-01-31,14:44
Phoenicopterus roseus,Animalia,FLAMINGOS_PHOENICOPTERIDAE,Greater Flamingo,,60,11.8235416412354,-16.6483135223389,Africa,Angola,AO,,Angola - Namibe,2020-01-31,14:45
Phoenicopterus roseus,Animalia,FLAMINGOS_PHOENICOPTERIDAE,Greater Flamingo,,15,11.8250865936279,-16.6718063354492,Africa,Angola,AO,,Angola - Namibe,2020-01-31,14:52
Phalacrocorax capensis,Animalia,CORMORANTS_PHALACROCORACIDAE,Cape Cormorant,,6,11.8189115524292,-16.7495250701904,Africa,Angola,AO,,Angola - Namibe,2020-01-31,15:22
Phalacrocorax capensis,Animalia,CORMORANTS_PHALACROCORACIDAE,Cape Cormorant,,20,11.8177928924561,-16.7525024414063,Africa,Angola,AO,,Angola - Namibe,2020-01-31,15:23
Phalacrocorax lucidus,Animalia,CORMORANTS_PHALACROCORACIDAE,White-breasted Cormorant,,1,11.8144941329956,-16.7597370147705,Africa,Angola,AO,,Angola - Namibe,2020-01-31,15:25
Phalacrocorax capensis,Animalia,CORMORANTS_PHALACROCORACIDAE,Cape Cormorant,,25,11.8143014907837,-16.7602272033691,Africa,Angola,AO,,Angola - Namibe,2020-01-31,15:25
Phalacrocorax capensis,Animalia,CORMORANTS_PHALACROCORACIDAE,Cape Cormorant,,9,11.8119802474976,-16.7672138214111,Africa,Angola,AO,,Angola - Namibe,2020-01-31,15:27
Phalacrocorax capensis,Animalia,CORMORANTS_PHALACROCORACIDAE,Cape Cormorant,,8,11.8112268447876,-16.7698822021484,Africa,Angola,AO,,Angola - Namibe,2020-01-31,15:28
Merops pusillus,Animalia,BEEEATERS_MEROPIDAE,Little Bee-eater,,1,13.392106,-16.99178673,Africa,Angola,AO,,Angola - Cunene,2019-11-15,
Ardea cinerea,Animalia,HERONS_ARDEIDAE,Grey Heron,,15,13.2466846704483,-8.77556934841611,Africa,Angola,AO,,Angola - Luanda,2020-01-29,07:39
Microcarbo africanus,Animalia,CORMORANTS_PHALACROCORACIDAE,Reed Cormorant,,8,13.2466846704483,-8.77556934841611,Africa,Angola,AO,,Angola - Luanda,2020-01-29,07:39
Gypohierax angolensis,Animalia,HAWKS_AND_EAGLES_ACCIPITRIDAE,Palm-nut Vulture,,1,13.2451742514968,-8.77746632933081,Africa,Angola,AO,,Angola - Luanda,2020-01-29,07:39
Thalasseus albididorsalis,Animalia,GULLS_TERNS_AND_SKIMMERS_LARIDAE,West African Crested Tern,,60,13.1685173884034,-8.88572124975351,Africa,Angola,AO,,Angola - Luanda,2020-01-29,17:29
Sterna hirundo,Animalia,GULLS_TERNS_AND_SKIMMERS_LARIDAE,Common Tern,,50,13.1685173884034,-8.88572124975351,Africa,Angola,AO,,Angola - Luanda,2020-01-29,17:29
Thalasseus sandvicensis,Animalia,GULLS_TERNS_AND_SKIMMERS_LARIDAE,Sandwich Tern,,190,13.16851739,-8.88572125,Africa,Angola,AO,,Angola - Luanda,2020-01-29,17:29
Hydroprogne caspia,Animalia,GULLS_TERNS_AND_SKIMMERS_LARIDAE,Caspian Tern,,2,13.15930434,-8.86596119,Africa,Angola,AO,,Angola - Luanda,2020-01-29,18:02
Sterna hirundo,Animalia,GULLS_TERNS_AND_SKIMMERS_LARIDAE,Common Tern,,4,13.1593043357134,-8.86596118806642,Africa,Angola,AO,,Angola - Luanda,2020-01-29,18:02
Thalasseus albididorsalis,Animalia,GULLS_TERNS_AND_SKIMMERS_LARIDAE,West African Crested Tern,,34,13.1593043357134,-8.86596118806642,Africa,Angola,AO,,Angola - Luanda,2020-01-29,18:02
Thalasseus sandvicensis,Animalia,GULLS_TERNS_AND_SKIMMERS_LARIDAE,Sandwich Tern,,16,13.1593043357134,-8.86596118806642,Africa,Angola,AO,,Angola - Luanda,2020-01-29,18:02
Larus fuscus,Animalia,GULLS_TERNS_AND_SKIMMERS_LARIDAE,Lesser Black-backed Gull,,36,13.15930434,-8.86596119,Africa,Angola,AO,,Angola - Luanda,2020-01-29,18:02
Larus dominicanus,Animalia,GULLS_TERNS_AND_SKIMMERS_LARIDAE,Kelp Gull,,10,13.1593043357134,-8.86596118806642,Africa,Angola,AO,,Angola - Luanda,2020-01-29,18:02
Colius castanotus,Animalia,MOUSEBIRDS_COLIIDAE,Red-backed Mousebird,,1,13.235912322998,-8.78318881988525,Africa,Angola,AO,,Angola - Luanda,2020-01-30,08:26
Urocolius indicus,Animalia,MOUSEBIRDS_COLIIDAE,Red-faced Mousebird,,5,13.02083027,-9.09071921,Africa,Angola,AO,,Angola - Luanda,2020-01-28,10:01
Amadina erythrocephala,Animalia,WAXBILLS_MUNIAS_ALLIES_ESTRILDIDAE,Red-headed Finch,,15,13.0209655761719,-9.09060287475586,Africa,Angola,AO,,Angola - Luanda,2020-01-28,09:15
Cichladusa ruficauda,Animalia,OLD_WORLD_FLYCATCHERS_MUSCICAPIDAE,Rufous-tailed Palm Thrush,,1,13.0204131826758,-9.09094566175066,Africa,Angola,AO,,Angola - Luanda,2020-01-28,09:15
Tringa nebularia,Animalia,SANDPIPERS_AND_ALLIES_SCOLOPACIDAE,Common Greenshank,,25,13.0172005668283,-9.09412022662741,Africa,Angola,AO,,Angola - Luanda,2020-01-28,10:01
Egretta garzetta,Animalia,HERONS_ARDEIDAE,Little Egret,,30,13.009464405477,-9.09929038011028,Africa,Angola,AO,,Angola - Luanda,2020-01-28,10:19
Egretta garzetta,Animalia,HERONS_ARDEIDAE,Little Egret,,25,13.01846858114,-9.09368653551586,Africa,Angola,AO,,Angola - Luanda,2020-01-28,10:19
Charadrius pecuarius,Animalia,PLOVERS_CHARADRIIDAE,Kittlitz's Plover,,12,13.017416,-9.09234238,Africa,Angola,AO,,Angola - Luanda,2020-01-28,10:38
Tringa nebularia,Animalia,SANDPIPERS_AND_ALLIES_SCOLOPACIDAE,Common Greenshank,,1,13.0170392990112,-9.08977699279785,Africa,Angola,AO,,Angola - Luanda,2020-01-28,10:58
Egretta garzetta,Animalia,HERONS_ARDEIDAE,Little Egret,,1,13.0170392990112,-9.08977699279785,Africa,Angola,AO,,Angola - Luanda,2020-01-28,10:58
Egretta garzetta,Animalia,HERONS_ARDEIDAE,Little Egret,,40,13.0130625888705,-9.08993657526866,Africa,Angola,AO,,Angola - Luanda,2020-01-28,11:04
Microcarbo africanus,Animalia,CORMORANTS_PHALACROCORACIDAE,Reed Cormorant,,3,13.2462913915515,-8.77609950999737,Africa,Angola,AO,,Angola - Luanda,2020-01-26,10:15
Ardea cinerea,Animalia,HERONS_ARDEIDAE,Grey Heron,,15,13.2462913915515,-8.77609950999737,Africa,Angola,AO,,Angola - Luanda,2020-01-26,10:15
Bubulcus ibis,Animalia,HERONS_ARDEIDAE,Western Cattle Egret,,260,13.2340756058693,-8.78429272956566,Africa,Angola,AO,,Angola - Luanda,2020-01-26,13:39
Chrysococcyx klaas,Animalia,CUCKOOS_AND_COUCALS_CUCULIDAE,Klaas's Cuckoo,,1,13.1057615280151,-8.95946407318115,Africa,Angola,AO,,Angola - Luanda,2020-01-27,09:35
Hydroprogne caspia,Animalia,GULLS_TERNS_AND_SKIMMERS_LARIDAE,Caspian Tern,,1,13.137505531311,-8.9333667755127,Africa,Angola,AO,,Angola - Luanda,2020-01-27,12:13
Pelecanus rufescens,Animalia,PELICANS_PELECANIDAE,Pink-backed Pelican,,1,13.137505531311,-8.9333667755127,Africa,Angola,AO,,Angola - Luanda,2020-01-27,12:13
Chroicocephalus cirrocephalus,Animalia,GULLS_TERNS_AND_SKIMMERS_LARIDAE,Grey-headed Gull,,1,13.1374883651733,-8.93336296081543,Africa,Angola,AO,,Angola - Luanda,2020-01-27,12:16
Thalasseus sandvicensis,Animalia,GULLS_TERNS_AND_SKIMMERS_LARIDAE,Sandwich Tern,,25,13.1374883651733,-8.93336296081543,Africa,Angola,AO,,Angola - Luanda,2020-01-27,12:16
Thalasseus albididorsalis,Animalia,GULLS_TERNS_AND_SKIMMERS_LARIDAE,West African Crested Tern,,30,13.1374883651733,-8.93336296081543,Africa,Angola,AO,,Angola - Luanda,2020-01-27,12:16
Tringa totanus,Animalia,SANDPIPERS_AND_ALLIES_SCOLOPACIDAE,Common Redshank,,3,13.1374769210815,-8.93337440490723,Africa,Angola,AO,,Angola - Luanda,2020-01-27,12:26
Platalea alba,Animalia,IBISSES_AND_SPOONBILLS_THRESKIORNITHIDAE,African Spoonbill,,10,13.1361951828003,-8.93194007873535,Africa,Angola,AO,,Angola - Luanda,2020-01-27,12:48
Hydroprogne caspia,Animalia,GULLS_TERNS_AND_SKIMMERS_LARIDAE,Caspian Tern,,3,13.1361694335938,-8.93196105957031,Africa,Angola,AO,,Angola - Luanda,2020-01-27,12:51
Charadrius marginatus marginatus,Animalia,PLOVERS_CHARADRIIDAE,White-fronted Plover ssp marginatus,,2,13.136191368103,-8.93195343017578,Africa,Angola,AO,,Angola - Luanda,2020-01-27,12:55
Gypohierax angolensis,Animalia,HAWKS_AND_EAGLES_ACCIPITRIDAE,Palm-nut Vulture,,1,13.1332962960005,-8.93570479639385,Africa,Angola,AO,,Angola - Luanda,2020-01-27,12:57
Glareola nordmanni,Animalia,COURSERS_AND_PRATINCOLES_GLAREOLIDAE,Black-winged Pratincole,,1,13.1332962960005,-8.93570479639385,Africa,Angola,AO,,Angola - Luanda,2020-01-27,12:57
Pelecanus rufescens,Animalia,PELICANS_PELECANIDAE,Pink-backed Pelican,,3,13.1220353767276,-8.94424917357032,Africa,Angola,AO,,Angola - Luanda,2020-01-27,14:44
Colius castanotus,Animalia,MOUSEBIRDS_COLIIDAE,Red-backed Mousebird,,3,13.22984028,-8.78806305,Africa,Angola,AO,,Angola - Luanda,2019-12-11,06:13
Ardea cinerea,Animalia,HERONS_ARDEIDAE,Grey Heron,,2,13.2300891876221,-8.78813362121582,Africa,Angola,AO,,Angola - Luanda,2019-11-18,08:22
Bubulcus ibis,Animalia,HERONS_ARDEIDAE,Western Cattle Egret,,1,13.2299814224243,-8.78804206848145,Africa,Angola,AO,,Angola - Luanda,2019-11-18,08:27
Colius castanotus,Animalia,MOUSEBIRDS_COLIIDAE,Red-backed Mousebird,,1,13.2300930023193,-8.7880687713623,Africa,Angola,AO,,Angola - Luanda,2019-11-18,08:34
Colius castanotus,Animalia,MOUSEBIRDS_COLIIDAE,Red-backed Mousebird,,4,13.2299432754517,-8.788010597229,Africa,Angola,AO,,Angola - Luanda,2019-11-18,18:04
Ardea cinerea,Animalia,HERONS_ARDEIDAE,Grey Heron,,1,13.236,-8.8479,Africa,Angola,AO,,Angola - Luanda,2019-08-08,08:54
Actophilornis africanus,Animalia,JACANAS_JACANIDAE,African Jacana,,1,19.895119238663366,-17.876305589469034,Africa,Angola,AO,,Angola - Cuando Cubango,2019-02-10,19:10
Saxicola torquatus,Animalia,OLD_WORLD_FLYCATCHERS_MUSCICAPIDAE,African Stonechat,,3,19.895119238663366,-17.876305589469034,Africa,Angola,AO,,Angola - Cuando Cubango,2019-02-10,18:23
Microcarbo africanus,Animalia,CORMORANTS_PHALACROCORACIDAE,Reed Cormorant,,3,19.895119238663366,-17.876305589469034,Africa,Angola,AO,,Angola - Cuando Cubango,2019-02-10,18:20
Ardea alba,Animalia,HERONS_ARDEIDAE,Great Egret,,1,19.895245637763193,-17.876305296102423,Africa,Angola,AO,,Angola - Cuando Cubango,2019-02-10,18:20
Anhinga rufa rufa,Animalia,ANHINGAS_ANHINGIDAE,African Darter ssp rufa,,1,13.836925383670103,-17.330254269779967,Africa,Angola,AO,,Angola - Cunene,2018-11-07,16:52
Dendropicos fuscescens loandae,Animalia,WOODPECKERS_PICIDAE,Cardinal Woodpecker ssp loandae,,1,13.836925383670103,-17.330254269779967,Africa,Angola,AO,,Angola - Cunene,2018-11-07,16:52
Bubulcus ibis,Animalia,HERONS_ARDEIDAE,Western Cattle Egret,,4,19.88399734,-17.87656257,Africa,Angola,AO,,Angola - Cuando Cubango,2018-07-27,
Anthus cinnamomeus,Animalia,PIPITS_EN_WAGTAILS_MOTACILLIDAE,African Pipit,,1,19.88990335,-17.87556027,Africa,Angola,AO,,Angola - Cuando Cubango,2018-07-27,
Ceryle rudis,Animalia,KINGFISHERS_ALCEDINIDAE,Pied Kingfisher,,1,19.89670029,-17.87438315,Africa,Angola,AO,,Angola - Cuando Cubango,2018-07-27,
Actophilornis africanus,Animalia,JACANAS_JACANIDAE,African Jacana,,1,19.89541111,-17.87580043,Africa,Angola,AO,,Angola - Cuando Cubango,2018-07-27,
Microcarbo africanus,Animalia,CORMORANTS_PHALACROCORACIDAE,Reed Cormorant,,4,19.89114876,-17.8742933,Africa,Angola,AO,,Angola - Cuando Cubango,2018-07-27,
Burhinus vermiculatus,Animalia,THICKKNEES_BURHINIDAE,Water Thick-knee,,2,13.88662412,-17.35644142,Africa,Angola,AO,,Angola - Cunene,2017-11-22,18:25
Microcarbo africanus,Animalia,CORMORANTS_PHALACROCORACIDAE,Reed Cormorant,,5,13.2168,-8.8195,Africa,Angola,AO,,Angola - Luanda,2017-11-18,13:44
Ardea cinerea,Animalia,HERONS_ARDEIDAE,Grey Heron,,3,13.2168,-8.8195,Africa,Angola,AO,,Angola - Luanda,2017-11-18,07:05
Hydroprogne caspia,Animalia,GULLS_TERNS_AND_SKIMMERS_LARIDAE,Caspian Tern,,2,13.2168,-8.8195,Africa,Angola,AO,,Angola - Luanda,2017-11-18,06:56
Colius castanotus,Animalia,MOUSEBIRDS_COLIIDAE,Red-backed Mousebird,,1,13.22276115,-8.80123941,Africa,Angola,AO,,Angola - Luanda,2017-11-21,17:00
Lanius humeralis,Animalia,SHRIKES_LANIIDAE,Northern Fiscal,,1,12.3364,-6.1251,Africa,Angola,AO,,Angola - Zaire,2017-11-11,09:27
Lanius humeralis,Animalia,SHRIKES_LANIIDAE,Northern Fiscal,,2,12.3364,-6.125,Africa,Angola,AO,,Angola - Zaire,2017-11-10,05:49
Lanius humeralis,Animalia,SHRIKES_LANIIDAE,Northern Fiscal,,1,12.3372,-6.1245,Africa,Angola,AO,,Angola - Zaire,2017-11-09,07:04
Lanius humeralis,Animalia,SHRIKES_LANIIDAE,Northern Fiscal,,1,12.3364,-6.125,Africa,Angola,AO,,Angola - Zaire,2017-11-06,05:57
Pycnonotus tricolor,Animalia,BULBULS_PYCNONOTIDAE,Dark-capped Bulbul,,1,12.3356,-6.1255,Africa,Angola,AO,,Angola - Zaire,2017-11-05,17:25
Lanius humeralis,Animalia,SHRIKES_LANIIDAE,Northern Fiscal,,1,12.3367,-6.125,Africa,Angola,AO,,Angola - Zaire,2017-11-05,17:08
Hydroprogne caspia,Animalia,GULLS_TERNS_AND_SKIMMERS_LARIDAE,Caspian Tern,,2,13.2168,-8.8195,Africa,Angola,AO,,Angola - Luanda,2017-11-04,07:27
Ardea cinerea,Animalia,HERONS_ARDEIDAE,Grey Heron,,2,13.2168,-8.8195,Africa,Angola,AO,,Angola - Luanda,2017-11-04,07:27
Ixobrychus sturmii,Animalia,HERONS_ARDEIDAE,Dwarf Bittern,,1,19.8095002447283,-17.8678720362484,Africa,Angola,AO,,Angola - Cuando Cubango,2017-08-05,17:05
Haliaeetus vocifer,Animalia,HAWKS_AND_EAGLES_ACCIPITRIDAE,African Fish Eagle,,1,19.8230826482177,-17.8685001944685,Africa,Angola,AO,,Angola - Cuando Cubango,2017-08-05,17:23
Upupa africana,Animalia,HOOPOES_UPUPIDAE,African Hoopoe,,2,19.8208904015975,-17.8680187493279,Africa,Angola,AO,,Angola - Cuando Cubango,2017-08-06,16:50
Haliaeetus vocifer,Animalia,HAWKS_AND_EAGLES_ACCIPITRIDAE,African Fish Eagle,,1,19.8231,-17.8683,Africa,Angola,AO,,Angola - Cuando Cubango,2017-08-05,17:23
Haliaeetus vocifer,Animalia,HAWKS_AND_EAGLES_ACCIPITRIDAE,African Fish Eagle,,1,19.8225207254291,-17.868491578674,Africa,Angola,AO,,Angola - Cuando Cubango,2017-08-05,17:23
Bubulcus ibis,Animalia,HERONS_ARDEIDAE,Western Cattle Egret,,1,19.77912168,-17.88917701,Africa,Angola,AO,,Angola - Cuando Cubango,2016-11-17,06:45
Saxicola torquatus,Animalia,OLD_WORLD_FLYCATCHERS_MUSCICAPIDAE,African Stonechat,,2,17.1087110695052,-13.6985340406021,Africa,Angola,AO,,Angola - Bié,2016-12-09,16:52
Saxicola torquatus,Animalia,OLD_WORLD_FLYCATCHERS_MUSCICAPIDAE,African Stonechat,,1,17.0732796554976,-13.7040238511272,Africa,Angola,AO,,Angola - Bié,2016-12-10,07:54
Neolestes torquatus,Animalia,BULBULS_PYCNONOTIDAE,Black-collared Bulbul,,5,15.1602,-12.4297,Africa,Angola,AO,,Angola - Huambo,2016-09-17,09:40
Tauraco schalowi,Animalia,TURACOS_MUSOPHAGIDAE,Schalow's Turaco,,2,15.1602,-12.4297,Africa,Angola,AO,,Angola - Huambo,2016-09-17,09:40
Vanellus senegallus lateralis,Animalia,PLOVERS_CHARADRIIDAE,African Wattled Lapwing ssp lateralis,,1,15.1116,-12.3692,Africa,Angola,AO,,Angola - Huambo,2016-09-17,16:03
Neotis ludwigii,Animalia,BUSTARDS_OTIDIDAE,Ludwig's Bustard,,1,12.388,-15.0103,Africa,Angola,AO,,Angola - Namibe,2016-09-15,13:43
Eupodotis rueppelii rueppelii,Animalia,BUSTARDS_OTIDIDAE,Rüppell's Korhaan ssp rueppelii,,3,12.388,-15.0103,Africa,Angola,AO,,Angola - Namibe,2016-09-15,13:43
Turdoides gymnogenys gymnogenys,Animalia,Leiothrichidae,Bare-cheeked Babbler ssp gymnogenys,,3,13.1017,-15.0559,Africa,Angola,AO,,Angola - Namibe,2016-09-15,07:49
Melaenornis pammelaina diabolicus,Animalia,OLD_WORLD_FLYCATCHERS_MUSCICAPIDAE,Southern Black Flycatcher ssp diabolicus,,3,13.1017,-15.0559,Africa,Angola,AO,,Angola - Namibe,2016-09-15,07:49
Corythaixoides concolor bechuanae,Animalia,TURACOS_MUSOPHAGIDAE,Grey Go-away-bird ssp bechuanae,,4,13.1017,-15.0559,Africa,Angola,AO,,Angola - Namibe,2016-09-15,07:49
Tockus monteiri,Animalia,HORNBILLS_BUCEROTIDAE,Monteiro's Hornbill,,1,13.1017,-15.0559,Africa,Angola,AO,,Angola - Namibe,2016-09-15,07:49
Campethera bennettii capricorni,Animalia,WOODPECKERS_PICIDAE,Bennett's Woodpecker ssp capricorni,,1,13.1017,-15.0559,Africa,Angola,AO,,Angola - Namibe,2016-09-15,07:49
Pternistis swierstrai,Animalia,FRANCOLINS_QUAILS_PARTRIDGES_AND_PHEASANTS_PHASIANIDAE,Swierstra's Francolin,,1,13.938217163086,-14.576716613347,Africa,Angola,AO,,Angola - Huíla,2016-09-14,
Xenocopsychus ansorgei,Animalia,OLD_WORLD_FLYCATCHERS_MUSCICAPIDAE,Angolan Cave Chat,,4,13.446128368378,-14.856317657921,Africa,Angola,AO,,Angola - Huíla,2016-09-14,
Lanioturdus torquatus,Animalia,WATTLEEYES_BATISES_PLATYSTEIRIDAE,White-tailed Shrike,,8,13.604850769043,-11.541140491026,Africa,Angola,AO,,Angola - Benguela,2016-09-13,08:13
Pternistis hartlaubi,Animalia,FRANCOLINS_QUAILS_PARTRIDGES_AND_PHEASANTS_PHASIANIDAE,Hartlaub's Spurfowl,,3,13.5297,-12.9336,Africa,Angola,AO,,Angola - Benguela,2016-09-13,08:13
Phoenicopterus roseus,Animalia,FLAMINGOS_PHOENICOPTERIDAE,Greater Flamingo,,50,13.781447410583,-10.665570454969,Africa,Angola,AO,,Angola - Cuanza Sul,2016-09-12,
Eurocephalus anguitimens anguitimens,Animalia,SHRIKES_LANIIDAE,Southern White-crowned Shrike ssp anguitimens,,1,13.306331634521,-9.6531590302576,Africa,Angola,AO,,Angola - Kisama (Quiçãma) NP,2016-09-12,
Tockus leucomelas elegans,Animalia,HORNBILLS_BUCEROTIDAE,Southern Yellow-billed Hornbill ssp elegans,,6,13.442716598511,-9.6296633900419,Africa,Angola,AO,,Angola - Kisama (Quiçãma) NP,2016-09-12,
Halcyon senegalensis cyanoleuca,Animalia,KINGFISHERS_ALCEDINIDAE,Woodland Kingfisher ssp cyanoleuca,,1,13.920621871948,-9.5213308767662,Africa,Angola,AO,,Angola - Kisama (Quiçãma) NP,2016-09-11,
Colius castanotus,Animalia,MOUSEBIRDS_COLIIDAE,Red-backed Mousebird,,20,13.9874,-9.5566,Africa,Angola,AO,,Angola - Bengo,2016-09-11,16:22
Pternistis griseostriatus,Animalia,FRANCOLINS_QUAILS_PARTRIDGES_AND_PHEASANTS_PHASIANIDAE,Grey-striped Spurfowl,,8,13.9874,-9.5566,Africa,Angola,AO,,Angola - Bengo,2016-09-11,16:22
Gypohierax angolensis,Animalia,HAWKS_AND_EAGLES_ACCIPITRIDAE,Palm-nut Vulture,,5,14.0451,-9.6356,Africa,Angola,AO,,Angola - Bengo,2016-09-11,13:15
Cichladusa ruficauda,Animalia,OLD_WORLD_FLYCATCHERS_MUSCICAPIDAE,Rufous-tailed Palm Thrush,,3,13.010108470917,-9.1093357133584,Africa,Angola,AO,,Angola - Luanda,2016-09-10,
Miopithecus talapoin,Animalia,OLD_WORLD_MONKEYS_CERCOPITHECIDAE,Southern Talapoin Monkey,,1,13.943538665771,-9.5935845857294,Africa,Angola,AO,,Angola - Kisama (Quiçãma) NP,2016-09-11,
Cercopithecus mitis mitis,Animalia,OLD_WORLD_MONKEYS_CERCOPITHECIDAE,Pluto Monkey,,1,13.216327428818,-9.5356396584683,Africa,Angola,AO,,Angola - Kisama (Quiçãma) NP,2016-09-10,
Jynx ruficollis ruficollis,Animalia,WOODPECKERS_PICIDAE,Red-throated Wryneck ssp ruficollis,,2,15.1602,-12.4297,Africa,Angola,AO,,Angola - Huambo,2016-09-17,09:40
Lamprotornis acuticaudus,Animalia,STARLINGS_STURNIDAE,Sharp-tailed Starling,,6,14.0705,-14.5622,Africa,Angola,AO,,Angola - Huíla,2016-09-16,09:50
Ardeola rufiventris,Animalia,HERONS_ARDEIDAE,Rufous-bellied Heron,,1,13.6824,-14.7986,Africa,Angola,AO,,Angola - Huíla,2016-09-16,08:37
Tricholaema leucomelas centralis,Animalia,Lybiidae,Acacia Pied Barbet ssp centralis,,3,13.5297,-12.9336,Africa,Angola,AO,,Angola - Benguela,2016-09-13,08:13
Anastomus lamelligerus,Animalia,STORKS_CICONIIDAE,African Openbill,,25,13.557,-10.2614,Africa,Angola,AO,,Angola - Cuanza Sul,2016-09-12,09:44
Merops superciliosus alternans,Animalia,BEEEATERS_MEROPIDAE,Olive Bee-eater ssp alternans,,2,14.0451,-9.6356,Africa,Angola,AO,,Angola - Bengo,2016-09-11,13:15
Quelea quelea,Animalia,WEAVERS_PLOCEIDAE,Red-billed Quelea,,30,14.0353,-9.6189,Africa,Angola,AO,,Angola - Bengo,2016-09-11,07:06
Ceryle rudis,Animalia,KINGFISHERS_ALCEDINIDAE,Pied Kingfisher,,1,19.904752224684,-17.8677914642,Africa,Angola,AO,,Angola - Cuando Cubango,2016-07-23,08:35
Anastomus lamelligerus,Animalia,STORKS_CICONIIDAE,African Openbill,,1,19.904944969167,-17.867578634283,Africa,Angola,AO,,Angola - Cuando Cubango,2016-07-23,08:35
Haliaeetus vocifer,Animalia,HAWKS_AND_EAGLES_ACCIPITRIDAE,African Fish Eagle,,1,19.904787683408,-17.867656853045,Africa,Angola,AO,,Angola - Cuando Cubango,2016-07-22,14:41
Microcarbo africanus,Animalia,CORMORANTS_PHALACROCORACIDAE,Reed Cormorant,,1,19.905173923471,-17.867672782741,Africa,Angola,AO,,Angola - Cuando Cubango,2016-07-22,12:59
Ceryle rudis,Animalia,KINGFISHERS_ALCEDINIDAE,Pied Kingfisher,,2,19.905023718457,-17.867427710573,Africa,Angola,AO,,Angola - Cuando Cubango,2016-07-22,13:00
