scientificName,kingdom,family,vernacularName,previousIdentifications,individualCount,longitudeDecimal,latitudeDecimal,continent,country,countryCode,stateProvince,locality,eventDate,eventTime
Parus cinereus,Animalia,TITS_PARIDAE,Cinereous Tit,,1,91.77833086,24.30317022,Asia,Bangladesh,BD,,Bangladesh - Sylhet,2015-02-23,13:47
Tyto javanica stertens,Animalia,BARN_OWLS_TYTONIDAE,Eastern Barn Owl ssp stertens,,16,90.40147509,23.89033054,Asia,Bangladesh,BD,,Bangladesh - Dhaka,2015-02-24,18:29
Surniculus lugubris,Animalia,CUCKOOS_AND_COUCALS_CUCULIDAE,Square-tailed Drongo-Cuckoo,,1,91.78509415,24.32688488,Asia,Bangladesh,BD,,Bangladesh - Sylhet,2015-02-23,11:39
Megalurus palustris,Animalia,Locustellidae,Striated Grassbird,,5,91.70608305,24.37055243,Asia,Bangladesh,BD,,Bangladesh - Sylhet,2015-02-22,15:52
Tringa guttifer,Animalia,SANDPIPERS_AND_ALLIES_SCOLOPACIDAE,Nordmann's Greenshank,,3,91.86410643,21.55626046,Asia,Bangladesh,BD,,Bangladesh,2015-02-15,10:09
Calidris pygmaea,Animalia,SANDPIPERS_AND_ALLIES_SCOLOPACIDAE,Spoon-billed Sandpiper,,3,91.86397824,21.55645338,Asia,Bangladesh,BD,,Bangladesh,2015-02-15,10:20
Charadrius leschenaultii,Animalia,PLOVERS_CHARADRIIDAE,Greater Sand Plover,,30,91.8639753,21.5564063,Asia,Bangladesh,BD,,Bangladesh,2015-02-15,10:30
Parus cinereus planorum,Animalia,TITS_PARIDAE,Cinereous Tit ssp planorum,,2,91.97573688,21.43484254,Asia,Bangladesh,BD,,Bangladesh - Chittagong,2015-02-14,10:02
Charadrius leschenaultii,Animalia,PLOVERS_CHARADRIIDAE,Greater Sand Plover,,55,91.8449717,21.54398297,Asia,Bangladesh,BD,,Bangladesh - Chittagong,2015-02-14,13:23
Calidris pygmaea,Animalia,SANDPIPERS_AND_ALLIES_SCOLOPACIDAE,Spoon-billed Sandpiper,,8,91.85969294,21.55643772,Asia,Bangladesh,BD,,Bangladesh,2015-02-14,15:17
Dicrurus hottentottus,Animalia,DRONGOS_DICRURIDAE,Hair-crested Drongo,,1,89.5092771202,22.5815537738,Asia,Bangladesh,BD,,Bangladesh - Khulna,2014-12-04,
Argya striata,Animalia,Leiothrichidae,Jungle Babbler,,1,89.82813835,24.38524335,Asia,Bangladesh,BD,,Bangladesh - Dhaka,2012-09-04,
Riparia chinensis chinensis,Animalia,SWALLOWS_HIRUNDINIDAE,Grey-throated Martin ssp chinensis,,1,89.83411789,24.39216675,Asia,Bangladesh,BD,,Bangladesh - Dhaka,2012-09-11,
Lanius cristatus,Animalia,SHRIKES_LANIIDAE,Brown Shrike,,1,89.83411789,24.39216675,Asia,Bangladesh,BD,,Bangladesh - Dhaka,2012-09-06,
Acridotheres ginginianus,Animalia,STARLINGS_STURNIDAE,Bank Myna,,1,89.83411789,24.39216675,Asia,Bangladesh,BD,,Bangladesh - Dhaka,2012-09-05,
Dendrocopos macei,Animalia,WOODPECKERS_PICIDAE,Fulvous-breasted Woodpecker,,1,89.83411789,24.39216675,Asia,Bangladesh,BD,,Bangladesh - Dhaka,2012-09-05,
Psilopogon lineatus,Animalia,Megalaimidae,Lineated Barbet,,1,89.83411789,24.39216675,Asia,Bangladesh,BD,,Bangladesh - Dhaka,2012-09-05,
Upupa epops,Animalia,HOOPOES_UPUPIDAE,Eurasian Hoopoe,,1,89.83411789,24.39216675,Asia,Bangladesh,BD,,Bangladesh - Dhaka,2012-09-05,
Dicrurus macrocercus,Animalia,DRONGOS_DICRURIDAE,Black Drongo,,1,90.08560178,23.97094438,Asia,Bangladesh,BD,,Bangladesh - Dhaka,2012-09-03,
Columba livia,Animalia,PIGEONS_AND_DOVES_COLUMBIDAE,Rock Dove,,1,90.08560178,23.97094438,Asia,Bangladesh,BD,,Bangladesh - Dhaka,2012-09-03,
Lanius schach,Animalia,SHRIKES_LANIIDAE,Long-tailed Shrike,,1,90.08560178,23.97094438,Asia,Bangladesh,BD,,Bangladesh - Dhaka,2012-09-03,
Coracias benghalensis,Animalia,ROLLERS_CORACIIDAE,Indian Roller,,1,90.08560178,23.97094438,Asia,Bangladesh,BD,,Bangladesh - Dhaka,2012-09-03,
Elanus caeruleus,Animalia,HAWKS_AND_EAGLES_ACCIPITRIDAE,Black-winged Kite,,1,90.08560178,23.97094438,Asia,Bangladesh,BD,,Bangladesh - Dhaka,2012-09-03,
Corvus culminatus,Animalia,CROWS_AND_JAYS_CORVIDAE,Indian Jungle Crow,,1,90.43487549,23.73557204,Asia,Bangladesh,BD,,Bangladesh - Dhaka,2012-09-01,
Acridotheres tristis,Animalia,STARLINGS_STURNIDAE,Common Myna,,1,90.43487549,23.73557204,Asia,Bangladesh,BD,,Bangladesh - Dhaka,2012-09-01,
Gracupica contra,Animalia,STARLINGS_STURNIDAE,Pied Myna,,1,90.43487549,23.73557204,Asia,Bangladesh,BD,,Bangladesh - Dhaka,2012-09-01,
Eudynamys scolopaceus,Animalia,CUCKOOS_AND_COUCALS_CUCULIDAE,Asian Koel,,1,90.43487549,23.73557204,Asia,Bangladesh,BD,,Bangladesh - Dhaka,2012-09-01,
Corvus splendens,Animalia,CROWS_AND_JAYS_CORVIDAE,House Crow,,1,90.43,23.73,Asia,Bangladesh,BD,,Bangladesh - Dhaka,2012-09-01,
Chroicocephalus brunnicephalus,Animalia,GULLS_TERNS_AND_SKIMMERS_LARIDAE,Brown-headed Gull,,5,91.250443897,22.208319223,Asia,Bangladesh,BD,,Bangladesh - Chittagong,2017-01-20,15:35
Clanga hastata,Animalia,HAWKS_AND_EAGLES_ACCIPITRIDAE,Indian Spotted Eagle,,3,90.5183580248531,22.7469568345857,Asia,Bangladesh,BD,,Bangladesh - Barisal,2017-01-16,12:12
Falco jugger,Animalia,CARACAS_AND_FALCONS_FALCONIDAE,Laggar Falcon,,1,90.59962925,22.81213758,Asia,Bangladesh,BD,,Bangladesh - Barisal,2017-01-16,16:04
Pluvialis fulva,Animalia,PLOVERS_CHARADRIIDAE,Pacific Golden Plover,,70,90.7605447310335,22.6447746154871,Asia,Bangladesh,BD,,Bangladesh - Barisal,2017-01-17,11:19
Orcaella brevirostris,Animalia,DOLPHINS_DELPHINIDAE,Irrawaddy Dolphin,,1,90.5678952412605,21.9925888222565,Asia,Bangladesh,BD,,Bangladesh - Barisal,2017-01-23,08:57
Spilornis cheela,Animalia,HAWKS_AND_EAGLES_ACCIPITRIDAE,Crested Serpent Eagle,,1,90.6480803923478,21.964929328725,Asia,Bangladesh,BD,,Bangladesh - Barisal,2017-01-22,08:02
Hierococcyx varius,Animalia,CUCKOOS_AND_COUCALS_CUCULIDAE,Common Hawk-Cuckoo,,1,90.6530866723671,21.9732384184529,Asia,Bangladesh,BD,,Bangladesh - Barisal,2017-01-22,08:53
Heliopais personatus,Animalia,FINFOOTS_HELIORNITHIDAE,Masked Finfoot,,1,89.6956584920642,22.18183014975,Asia,Bangladesh,BD,,Bangladesh - Khulna,2017-01-26,16:46
Halcyon pileata,Animalia,KINGFISHERS_ALCEDINIDAE,Black-capped Kingfisher,,1,89.7316503932799,21.9206362546379,Asia,Bangladesh,BD,,Bangladesh,2017-01-27,07:17
Pelargopsis amauroptera,Animalia,KINGFISHERS_ALCEDINIDAE,Brown-winged Kingfisher,,1,89.7323366920717,21.9193554638892,Asia,Bangladesh,BD,,Bangladesh - Khulna,2017-01-27,07:21
Centropus sinensis,Animalia,CUCKOOS_AND_COUCALS_CUCULIDAE,Greater Coucal,,3,89.7528489719866,21.9152456181274,Asia,Bangladesh,BD,,Bangladesh - Khulna,2017-01-27,08:16
Pelargopsis amauroptera,Animalia,KINGFISHERS_ALCEDINIDAE,Brown-winged Kingfisher,,1,89.7534556834693,21.916152793258,Asia,Bangladesh,BD,,Bangladesh - Khulna,2017-01-27,08:24
Macaca mulatta,Animalia,OLD_WORLD_MONKEYS_CERCOPITHECIDAE,Rhesus Macaque,,3,89.7536026402292,21.9173073373335,Asia,Bangladesh,BD,,Bangladesh - Khulna,2017-01-27,08:27
Axis axis,Animalia,DEER_CERVIDAE,Chital,,20,89.7785908857706,21.8559995435125,Asia,Bangladesh,BD,,Bangladesh - Khulna,2017-01-27,12:53
Macaca mulatta,Animalia,OLD_WORLD_MONKEYS_CERCOPITHECIDAE,Rhesus Macaque,,5,89.7824462756778,21.8567527580663,Asia,Bangladesh,BD,,Bangladesh - Khulna,2017-01-27,13:07
Dicrurus hottentottus,Animalia,DRONGOS_DICRURIDAE,Hair-crested Drongo,,2,89.7818298620612,21.8551860253031,Asia,Bangladesh,BD,,Bangladesh - Khulna,2017-01-27,14:27
Caprimulgus asiaticus,Animalia,NIGHTJARS_CAPRIMULGIDAE,Indian Nightjar,,2,89.5861935,22.42741741,Asia,Bangladesh,BD,,Bangladesh - Khulna,2017-01-29,10:04
Heliopais personatus,Animalia,FINFOOTS_HELIORNITHIDAE,Masked Finfoot,,1,89.6956584920642,22.18183014975,Asia,Bangladesh,BD,,Bangladesh - Khulna,2017-01-26,16:46
Halcyon pileata,Animalia,KINGFISHERS_ALCEDINIDAE,Black-capped Kingfisher,,1,89.7316503932799,21.9206362546379,Asia,Bangladesh,BD,,Bangladesh,2017-01-27,07:17
Pelargopsis amauroptera,Animalia,KINGFISHERS_ALCEDINIDAE,Brown-winged Kingfisher,,1,89.7323366920717,21.9193554638892,Asia,Bangladesh,BD,,Bangladesh - Khulna,2017-01-27,07:21
Centropus sinensis,Animalia,CUCKOOS_AND_COUCALS_CUCULIDAE,Greater Coucal,,3,89.7528489719866,21.9152456181274,Asia,Bangladesh,BD,,Bangladesh - Khulna,2017-01-27,08:16
Pelargopsis amauroptera,Animalia,KINGFISHERS_ALCEDINIDAE,Brown-winged Kingfisher,,1,89.7534556834693,21.916152793258,Asia,Bangladesh,BD,,Bangladesh - Khulna,2017-01-27,08:24
Macaca mulatta,Animalia,OLD_WORLD_MONKEYS_CERCOPITHECIDAE,Rhesus Macaque,,3,89.7536026402292,21.9173073373335,Asia,Bangladesh,BD,,Bangladesh - Khulna,2017-01-27,08:27
Axis axis,Animalia,DEER_CERVIDAE,Chital,,20,89.7785908857706,21.8559995435125,Asia,Bangladesh,BD,,Bangladesh - Khulna,2017-01-27,12:53
Dicrurus hottentottus,Animalia,DRONGOS_DICRURIDAE,Hair-crested Drongo,,2,89.78182986,21.85518603,Asia,Bangladesh,BD,,Bangladesh - Khulna,2017-01-27,14:27
Caprimulgus asiaticus,Animalia,NIGHTJARS_CAPRIMULGIDAE,Indian Nightjar,,1,89.5861934988184,22.4274174081755,Asia,Bangladesh,BD,,Bangladesh - Khulna,2017-01-29,10:04
Caprimulgus asiaticus,Animalia,NIGHTJARS_CAPRIMULGIDAE,Indian Nightjar,,3,89.586648434,22.427705335,Asia,Bangladesh,BD,,Bangladesh - Khulna,2017-01-29,09:52
Heliopais personatus,Animalia,FINFOOTS_HELIORNITHIDAE,Masked Finfoot,,1,89.695672588,22.181831232,Asia,Bangladesh,BD,,Bangladesh - Khulna,2017-01-26,16:47
Pelargopsis amauroptera,Animalia,KINGFISHERS_ALCEDINIDAE,Brown-winged Kingfisher,,1,89.732080878,21.919761615,Asia,Bangladesh,BD,,Bangladesh - Khulna,2017-01-27,07:20
Axis axis,Animalia,DEER_CERVIDAE,Chital,,1,89.738164517,21.91744268,Asia,Bangladesh,BD,,Bangladesh - Khulna,2017-01-27,07:34
Halcyon pileata,Animalia,KINGFISHERS_ALCEDINIDAE,Black-capped Kingfisher,,1,89.741028723,21.917501425,Asia,Bangladesh,BD,,Bangladesh - Khulna,2017-01-27,07:41
Centropus sinensis,Animalia,CUCKOOS_AND_COUCALS_CUCULIDAE,Greater Coucal,,5,89.754428986,21.914276843,Asia,Bangladesh,BD,,Bangladesh - Khulna,2017-01-27,09:15
Halcyon pileata,Animalia,KINGFISHERS_ALCEDINIDAE,Black-capped Kingfisher,,1,89.789707603,21.89190864,Asia,Bangladesh,BD,,Bangladesh - Khulna,2017-01-27,11:32
Axis axis,Animalia,DEER_CERVIDAE,Chital,,75,89.778305372,21.856021033,Asia,Bangladesh,BD,,Bangladesh - Khulna,2017-01-27,12:53
Macaca mulatta,Animalia,OLD_WORLD_MONKEYS_CERCOPITHECIDAE,Rhesus Macaque,,5,89.782221788,21.856852476,Asia,Bangladesh,BD,,Bangladesh - Khulna,2017-01-27,13:17
Dicrurus hottentottus,Animalia,DRONGOS_DICRURIDAE,Hair-crested Drongo,,2,89.78191907,21.85519108,Asia,Bangladesh,BD,,Bangladesh - Khulna,2017-01-27,14:29
Axis axis,Animalia,DEER_CERVIDAE,Chital,,1,89.781971248,21.855540438,Asia,Bangladesh,BD,,Bangladesh - Khulna,2017-01-27,14:44
Pelargopsis amauroptera,Animalia,KINGFISHERS_ALCEDINIDAE,Brown-winged Kingfisher,,1,89.796275858,21.855072098,Asia,Bangladesh,BD,,Bangladesh - Khulna,2017-01-27,16:05
Pelargopsis amauroptera,Animalia,KINGFISHERS_ALCEDINIDAE,Brown-winged Kingfisher,,2,89.781135446,21.929501672,Asia,Bangladesh,BD,,Bangladesh - Khulna,2017-01-28,07:46
Orcaella brevirostris,Animalia,DOLPHINS_DELPHINIDAE,Irrawaddy Dolphin,,1,90.5678952412605,21.9925888222565,Asia,Bangladesh,BD,,Bangladesh - Barisal,2017-01-23,08:57
Leptoptilos javanicus,Animalia,STORKS_CICONIIDAE,Lesser Adjutant,,3,90.47389326,21.87689596,Asia,Bangladesh,BD,,Bangladesh - Barisal,2017-01-22,16:22
Hierococcyx varius,Animalia,CUCKOOS_AND_COUCALS_CUCULIDAE,Common Hawk-Cuckoo,,1,90.6530866723671,21.9732384184529,Asia,Bangladesh,BD,,Bangladesh - Barisal,2017-01-22,08:53
Chroicocephalus brunnicephalus,Animalia,GULLS_TERNS_AND_SKIMMERS_LARIDAE,Brown-headed Gull,,5,91.250443897,22.208319223,Asia,Bangladesh,BD,,Bangladesh - Chittagong,2017-01-20,15:35
Spilornis cheela,Animalia,HAWKS_AND_EAGLES_ACCIPITRIDAE,Crested Serpent Eagle,,1,90.64549895,21.961812404,Asia,Bangladesh,BD,,Bangladesh - Barisal,2017-01-22,07:57
Microcarbo niger,Animalia,CORMORANTS_PHALACROCORACIDAE,Little Cormorant,,1,90.654143963,21.978590204,Asia,Bangladesh,BD,,Bangladesh - Barisal,2017-01-22,08:47
Rynchops albicollis,Animalia,GULLS_TERNS_AND_SKIMMERS_LARIDAE,Indian Skimmer,,1,91.0490705267833,22.0884500473617,Asia,Bangladesh,BD,,Bangladesh - Nijhum Dweep NP,2017-01-18,15:24
Spilornis cheela,Animalia,HAWKS_AND_EAGLES_ACCIPITRIDAE,Crested Serpent Eagle,,1,90.6480803923478,21.964929328725,Asia,Bangladesh,BD,,Bangladesh - Barisal,2017-01-22,08:02
Hierococcyx varius,Animalia,CUCKOOS_AND_COUCALS_CUCULIDAE,Common Hawk-Cuckoo,,1,90.6530866723671,21.9732384184529,Asia,Bangladesh,BD,,Bangladesh - Barisal,2017-01-22,08:53
Clanga hastata,Animalia,HAWKS_AND_EAGLES_ACCIPITRIDAE,Indian Spotted Eagle,,3,90.520254252,22.751039948,Asia,Bangladesh,BD,,Bangladesh - Barisal,2017-01-16,12:16
Haliastur indus,Animalia,HAWKS_AND_EAGLES_ACCIPITRIDAE,Brahminy Kite,,1,90.57649221,22.812183044,Asia,Bangladesh,BD,,Bangladesh - Barisal,2017-01-16,14:32
Falco jugger,Animalia,CARACAS_AND_FALCONS_FALCONIDAE,Laggar Falcon,,1,90.594149904,22.811178165,Asia,Bangladesh,BD,,Bangladesh,2017-01-16,15:57
Pluvialis fulva,Animalia,PLOVERS_CHARADRIIDAE,Pacific Golden Plover,,50,90.760421262,22.644757374,Asia,Bangladesh,BD,,Bangladesh - Barisal,2017-01-17,11:12
Clanga hastata,Animalia,HAWKS_AND_EAGLES_ACCIPITRIDAE,Indian Spotted Eagle,,3,90.5183580248531,22.7469568345857,Asia,Bangladesh,BD,,Bangladesh - Barisal,2017-01-16,12:12
Falco jugger,Animalia,CARACAS_AND_FALCONS_FALCONIDAE,Laggar Falcon,,1,90.59962925,22.81213758,Asia,Bangladesh,BD,,Bangladesh - Barisal,2017-01-16,16:04
Pluvialis fulva,Animalia,PLOVERS_CHARADRIIDAE,Pacific Golden Plover,,70,90.7605447310335,22.6447746154871,Asia,Bangladesh,BD,,Bangladesh - Barisal,2017-01-17,11:19
Iole cacharensis,Animalia,BULBULS_PYCNONOTIDAE,Cachar Bulbul,,1,91.90805672,24.27706777,Asia,Bangladesh,BD,,Bangladesh - Sylhet,2017-01-13,12:38
Saxicola jerdoni,Animalia,OLD_WORLD_FLYCATCHERS_MUSCICAPIDAE,Jerdon's Bush Chat,,1,91.8685837079579,24.2003069202458,Asia,Bangladesh,BD,,Bangladesh - Sylhet,2017-01-14,08:45
Saxicola jerdoni,Animalia,OLD_WORLD_FLYCATCHERS_MUSCICAPIDAE,Jerdon's Bush Chat,,1,91.86858371,24.20030692,Asia,Bangladesh,BD,,Bangladesh - Sylhet,2017-01-14,08:45
Amandava amandava,Animalia,WAXBILLS_MUNIAS_ALLIES_ESTRILDIDAE,Red Avadavat,,5,91.8688009118924,24.1998997436908,Asia,Bangladesh,BD,,Bangladesh - Sylhet,2017-01-14,09:18
Mirafra assamica,Animalia,LARKS_ALAUDIDAE,Bengal Bush Lark,,10,91.86881787,24.20017779,Asia,Bangladesh,BD,,Bangladesh - Sylhet,2017-01-14,09:42
Glaucidium cuculoides,Animalia,OWLS_STRIGIDAE,Asian Barred Owlet,,1,91.8648689830925,24.2013933229792,Asia,Bangladesh,BD,,Bangladesh - Sylhet,2017-01-14,10:36
Lanius schach tricolor,Animalia,SHRIKES_LANIIDAE,Long-tailed Shrike ssp tricolor,,3,91.8682219231905,24.1998334569623,Asia,Bangladesh,BD,,Bangladesh - Sylhet,2017-01-14,10:48
Mirafra assamica,Animalia,LARKS_ALAUDIDAE,Bengal Bush Lark,,15,91.86,24.2,Asia,Bangladesh,BD,,Bangladesh - Sylhet,2017-01-14,08:30
Lonchura punctulata,Animalia,WAXBILLS_MUNIAS_ALLIES_ESTRILDIDAE,Scaly-breasted Munia,,25,91.87,24.19,Asia,Bangladesh,BD,,Bangladesh - Sylhet,2017-01-14,09:15
Amandava amandava,Animalia,WAXBILLS_MUNIAS_ALLIES_ESTRILDIDAE,Red Avadavat,,3,91.86,24.19,Asia,Bangladesh,BD,,Bangladesh - Sylhet,2017-01-14,09:27
Glaucidium cuculoides,Animalia,OWLS_STRIGIDAE,Asian Barred Owlet,,1,91.86,24.2,Asia,Bangladesh,BD,,Bangladesh - Sylhet,2017-01-14,10:51
Leptocoma brasiliana,Animalia,SUNBIRDS_NECTARINIIDAE,Van Hasselt's Sunbird,,20,91.90318514,24.27222137,Asia,Bangladesh,BD,,Bangladesh - Sylhet,2017-01-13,09:49
Macronus gularis,Animalia,BABBLERS_TIMALIIDAE,Pin-striped Tit-Babbler,,1,91.90248002,24.271558483,Asia,Bangladesh,BD,,Bangladesh - Sylhet,2017-01-13,09:32
Leptocoma brasiliana,Animalia,SUNBIRDS_NECTARINIIDAE,Van Hasselt's Sunbird,,25,91.90311303,24.27185319,Asia,Bangladesh,BD,,Bangladesh - Sylhet,2017-01-13,09:49
Dicrurus remifer,Animalia,DRONGOS_DICRURIDAE,Lesser Racket-tailed Drongo,,1,91.908056715,24.277067765,Asia,Bangladesh,BD,,Bangladesh - Sylhet,2017-01-13,12:38
Phylloscopus cantator,Animalia,LEAF_WARBLERS_AND_ALLIES_PHYLLOSCOPIDAE,Yellow-vented Warbler,,1,91.90814168,24.27711414,Asia,Bangladesh,BD,,Bangladesh - Sylhet,2017-01-13,12:40
Megalurus palustris,Animalia,Locustellidae,Striated Grassbird,,10,91.7036504238449,24.3497547168892,Asia,Bangladesh,BD,,Bangladesh - Sylhet,2017-01-12,08:28
Acrocephalus bistrigiceps,Animalia,Acrocephalidae,Black-browed Reed Warbler,,2,91.7014554057208,24.3464161729268,Asia,Bangladesh,BD,,Bangladesh - Sylhet,2017-01-12,09:25
Merops orientalis,Animalia,BEEEATERS_MEROPIDAE,Green Bee-eater,,2,91.7003569139288,24.3455868450881,Asia,Bangladesh,BD,,Bangladesh - Sylhet,2017-01-12,09:36
Vanellus cinereus,Animalia,PLOVERS_CHARADRIIDAE,Grey-headed Lapwing,,10,91.7001830517106,24.3451461344081,Asia,Bangladesh,BD,,Bangladesh - Sylhet,2017-01-12,10:51
Lanius tephronotus,Animalia,SHRIKES_LANIIDAE,Grey-backed Shrike,,1,91.7055176748146,24.3516381109151,Asia,Bangladesh,BD,,Bangladesh - Sylhet,2017-01-12,14:27
Lanius cristatus,Animalia,SHRIKES_LANIIDAE,Brown Shrike,,1,91.7056355439085,24.3531913896989,Asia,Bangladesh,BD,,Bangladesh - Sylhet,2017-01-12,15:48
Ixobrychus sinensis,Animalia,HERONS_ARDEIDAE,Yellow Bittern,,1,91.70889261,24.35511609,Asia,Bangladesh,BD,,Bangladesh - Sylhet,2017-01-12,16:21
Megalurus palustris,Animalia,Locustellidae,Striated Grassbird,,5,91.702361384,24.347252623,Asia,Bangladesh,BD,,Bangladesh - Sylhet,2017-01-12,09:00
Dicrurus macrocercus,Animalia,DRONGOS_DICRURIDAE,Black Drongo,,1,91.701622327,24.346427687,Asia,Bangladesh,BD,,Bangladesh - Sylhet,2017-01-12,09:11
Acrocephalus bistrigiceps,Animalia,Acrocephalidae,Black-browed Reed Warbler,,2,91.701565727,24.346305688,Asia,Bangladesh,BD,,Bangladesh - Sylhet,2017-01-12,09:21
Merops orientalis,Animalia,BEEEATERS_MEROPIDAE,Green Bee-eater,,10,91.700409488,24.345395769,Asia,Bangladesh,BD,,Bangladesh - Sylhet,2017-01-12,09:55
Vanellus cinereus,Animalia,PLOVERS_CHARADRIIDAE,Grey-headed Lapwing,,25,91.700283315,24.345198147,Asia,Bangladesh,BD,,Bangladesh - Sylhet,2017-01-12,10:10
Parus cinereus,Animalia,TITS_PARIDAE,Cinereous Tit,,1,91.70381926,24.35061447,Asia,Bangladesh,BD,,Bangladesh - Sylhet,2017-01-12,12:12
Lanius tephronotus,Animalia,SHRIKES_LANIIDAE,Grey-backed Shrike,,1,91.702990446,24.350965029,Asia,Bangladesh,BD,,Bangladesh - Sylhet,2017-01-12,14:23
Ixobrychus sinensis,Animalia,HERONS_ARDEIDAE,Yellow Bittern,,1,91.703008363,24.350837124,Asia,Bangladesh,BD,,Bangladesh - Sylhet,2017-01-12,14:23
Halcyon smyrnensis,Animalia,KINGFISHERS_ALCEDINIDAE,White-throated Kingfisher,,1,92.036187653,24.527684818,Asia,Bangladesh,BD,,Bangladesh - Sylhet,2017-01-11,14:40
Ceryle rudis,Animalia,KINGFISHERS_ALCEDINIDAE,Pied Kingfisher,,3,91.9990707601749,21.3960719167355,Asia,Bangladesh,BD,,Bangladesh - Chittagong,2017-01-07,16:17
Calidris pygmaea,Animalia,SANDPIPERS_AND_ALLIES_SCOLOPACIDAE,Spoon-billed Sandpiper,,4,91.86480419,21.5565547,Asia,Bangladesh,BD,,Bangladesh,2017-01-08,09:14
Tringa guttifer,Animalia,SANDPIPERS_AND_ALLIES_SCOLOPACIDAE,Nordmann's Greenshank,,3,91.86480419,21.5565547,Asia,Bangladesh,BD,,Bangladesh,2017-01-08,09:14
Charadrius leschenaultii,Animalia,PLOVERS_CHARADRIIDAE,Greater Sand Plover,,2,91.8648050480165,21.5566072915278,Asia,Bangladesh,BD,,Bangladesh,2017-01-08,10:47
Todiramphus chloris,Animalia,KINGFISHERS_ALCEDINIDAE,Collared Kingfisher,,1,91.8861306853141,21.5095670862453,Asia,Bangladesh,BD,,Bangladesh - Chittagong,2017-01-08,15:56
Copsychus saularis,Animalia,OLD_WORLD_FLYCATCHERS_MUSCICAPIDAE,Oriental Magpie-Robin,,2,90.26541429,23.87600444,Asia,Bangladesh,BD,,Bangladesh - Dhaka,2017-01-06,11:45
Calidris pygmaea,Animalia,SANDPIPERS_AND_ALLIES_SCOLOPACIDAE,Spoon-billed Sandpiper,,4,91.864802147,21.556589178,Asia,Bangladesh,BD,,Bangladesh,2017-01-08,09:53
Tringa guttifer,Animalia,SANDPIPERS_AND_ALLIES_SCOLOPACIDAE,Nordmann's Greenshank,,5,91.86485866,21.55655394,Asia,Bangladesh,BD,,Bangladesh,2017-01-08,10:24
Charadrius leschenaultii,Animalia,PLOVERS_CHARADRIIDAE,Greater Sand Plover,,5,91.86483331,21.55656764,Asia,Bangladesh,BD,,Bangladesh,2017-01-08,11:00
Todiramphus chloris,Animalia,KINGFISHERS_ALCEDINIDAE,Collared Kingfisher,,1,91.887096502,21.508876552,Asia,Bangladesh,BD,,Bangladesh - Chittagong,2017-01-08,15:56
Ceryle rudis,Animalia,KINGFISHERS_ALCEDINIDAE,Pied Kingfisher,,3,91.999182609,21.39602287,Asia,Bangladesh,BD,,Bangladesh - Chittagong,2017-01-07,16:13
Accipiter badius,Animalia,HAWKS_AND_EAGLES_ACCIPITRIDAE,Shikra,,1,91.999027755,21.395898573,Asia,Bangladesh,BD,,Bangladesh - Chittagong,2017-01-07,16:25
Oriolus xanthornus,Animalia,ORIOLES_AND_FIG_BIRDS_ORIOLIDAE,Black-hooded Oriole,,1,90.2677369028778,23.8846505571797,Asia,Bangladesh,BD,,Bangladesh - Dhaka,2017-01-06,07:51
Dendrocopos macei,Animalia,WOODPECKERS_PICIDAE,Fulvous-breasted Woodpecker,,1,90.2677828100823,23.885810328894,Asia,Bangladesh,BD,,Bangladesh - Dhaka,2017-01-06,08:07
Spilopelia chinensis,Animalia,PIGEONS_AND_DOVES_COLUMBIDAE,Spotted Dove,,5,90.2678304308765,23.8861353184299,Asia,Bangladesh,BD,,Bangladesh - Dhaka,2017-01-06,08:13
Amaurornis phoenicurus,Animalia,RAILS_RALLIDAE,White-breasted Waterhen,,4,90.2664758569925,23.8856448500703,Asia,Bangladesh,BD,,Bangladesh - Dhaka,2017-01-06,08:55
Halcyon smyrnensis,Animalia,KINGFISHERS_ALCEDINIDAE,White-throated Kingfisher,,1,90.2672613555081,23.8854080145631,Asia,Bangladesh,BD,,Bangladesh - Dhaka,2017-01-06,09:05
Metopidius indicus,Animalia,JACANAS_JACANIDAE,Bronze-winged Jacana,,10,90.2681383295525,23.8858307379277,Asia,Bangladesh,BD,,Bangladesh - Dhaka,2017-01-06,10:04
Copsychus saularis,Animalia,OLD_WORLD_FLYCATCHERS_MUSCICAPIDAE,Oriental Magpie-Robin,,2,90.2678606460746,23.8852816595069,Asia,Bangladesh,BD,,Bangladesh - Dhaka,2017-01-06,10:15
Dendrocygna javanica,Animalia,DUCKS_GEESE_AND_SWANS_ANATIDAE,Lesser Whistling Duck,,1000,90.2680842729829,23.8852432114394,Asia,Bangladesh,BD,,Bangladesh - Dhaka,2017-01-06,10:25
Metopidius indicus,Animalia,JACANAS_JACANIDAE,Bronze-winged Jacana,,15,90.267750616,23.883771934,Asia,Bangladesh,BD,,Bangladesh - Dhaka,2017-01-06,07:33
Dendrocygna javanica,Animalia,DUCKS_GEESE_AND_SWANS_ANATIDAE,Lesser Whistling Duck,,1200,90.267745917,23.883679304,Asia,Bangladesh,BD,,Bangladesh - Dhaka,2017-01-06,07:33
Spilopelia chinensis,Animalia,PIGEONS_AND_DOVES_COLUMBIDAE,Spotted Dove,,15,90.267718568,23.883918394,Asia,Bangladesh,BD,,Bangladesh - Dhaka,2017-01-06,07:39
Halcyon smyrnensis,Animalia,KINGFISHERS_ALCEDINIDAE,White-throated Kingfisher,,2,90.267772622,23.883940415,Asia,Bangladesh,BD,,Bangladesh - Dhaka,2017-01-06,07:40
Dinopium benghalense benghalense,Animalia,WOODPECKERS_PICIDAE,Black-rumped Flameback ssp benghalense,,4,90.267463742,23.884561154,Asia,Bangladesh,BD,,Bangladesh - Dhaka,2017-01-06,07:47
Oriolus xanthornus,Animalia,ORIOLES_AND_FIG_BIRDS_ORIOLIDAE,Black-hooded Oriole,,15,90.267789628,23.884648796,Asia,Bangladesh,BD,,Bangladesh - Dhaka,2017-01-06,07:50
Dendrocitta vagabunda vagabunda,Animalia,CROWS_AND_JAYS_CORVIDAE,Rufous Treepie ssp vagabunda,,3,90.26772607,23.88492297,Asia,Bangladesh,BD,,Bangladesh - Dhaka,2017-01-06,07:57
Dendrocopos macei,Animalia,WOODPECKERS_PICIDAE,Fulvous-breasted Woodpecker,,1,90.269236908,23.887041717,Asia,Bangladesh,BD,,Bangladesh - Dhaka,2017-01-06,08:33
Amaurornis phoenicurus,Animalia,RAILS_RALLIDAE,White-breasted Waterhen,,2,90.266506379,23.885524547,Asia,Bangladesh,BD,,Bangladesh - Dhaka,2017-01-06,08:54
Callosciurus pygerythrus,Animalia,SQUIRRELS_CHIPMUNKS_AND_PRAIRIEDOGS_SCIURIDAE,Irrawaddy Squirrel,,1,90.267819972,23.882037336,Asia,Bangladesh,BD,,Bangladesh - Dhaka,2017-01-06,10:38
Prinia hodgsonii hodgsonii,Animalia,CISTICOLAS_AND_ALLIES_CISTICOLIDAE,Grey-breasted Prinia ssp hodgsonii,,15,90.26525882,23.87735222,Asia,Bangladesh,BD,,Bangladesh - Dhaka,2017-01-06,11:21
Chrysocolaptes guttacristatus,Animalia,WOODPECKERS_PICIDAE,Greater Flameback,,1,90.67168844,21.93243973,Asia,Bangladesh,BD,,Bangladesh - Barisal,2016-02-05,
Parus cinereus,Animalia,TITS_PARIDAE,Cinereous Tit,,1,90.34880476,23.81554247,Asia,Bangladesh,BD,,Bangladesh - Dhaka,2016-01-29,
Merops orientalis,Animalia,BEEEATERS_MEROPIDAE,Green Bee-eater,,1,91.69918413,24.35156749,Asia,Bangladesh,BD,,Bangladesh - Sylhet,2016-01-28,
Ixobrychus sinensis,Animalia,HERONS_ARDEIDAE,Yellow Bittern,,1,91.69918413,24.35156749,Asia,Bangladesh,BD,,Bangladesh - Sylhet,2016-01-28,
Cyornis whitei whitei,Animalia,OLD_WORLD_FLYCATCHERS_MUSCICAPIDAE,Hill Blue Flycatcher ssp whitei,,1,91.80299291,24.34313979,Asia,Bangladesh,BD,,Bangladesh - Sylhet,2016-01-26,
Dicrurus hottentottus,Animalia,DRONGOS_DICRURIDAE,Hair-crested Drongo,,1,91.80265732,24.33608949,Asia,Bangladesh,BD,,Bangladesh - Sylhet,2016-01-26,
Riparia chinensis,Animalia,SWALLOWS_HIRUNDINIDAE,Grey-throated Martin,,1,91.91348875,24.54102706,Asia,Bangladesh,BD,,Bangladesh - Sylhet,2016-01-20,
Porphyrio poliocephalus,Animalia,RAILS_RALLIDAE,Grey-headed Swamphen,,1,92.05,24.7,Asia,Bangladesh,BD,,Bangladesh - Sylhet,2016-01-18,
