scientificName,kingdom,family,vernacularName,previousIdentifications,individualCount,longitudeDecimal,latitudeDecimal,continent,country,countryCode,stateProvince,locality,eventDate,eventTime
Periparus ater,Animalia,TITS_PARIDAE,Coal Tit,,1,4.36855338,51.35753565,Europe,Belgium,BE,,Grenspark Kalmthoutse Heide - Wildernissen,2019-12-08,
Lophophanes cristatus,Animalia,TITS_PARIDAE,European Crested Tit,,1,4.34576534,51.35820562,Europe,Belgium,BE,,Grenspark Kalmthoutse Heide - Wildernissen,2019-11-24,
Turdus merula,Animalia,THRUSHES_TURDIDAE,Common Blackbird,,1,4.36707281,51.35884877,Europe,Belgium,BE,,Grenspark Kalmthoutse Heide - Wildernissen,2019-11-24,
Erithacus rubecula,Animalia,OLD_WORLD_FLYCATCHERS_MUSCICAPIDAE,European Robin,,1,4.36555635,51.36221349,Europe,Belgium,BE,,Grenspark Kalmthoutse Heide - Wildernissen,2019-11-24,
Lophophanes cristatus,Animalia,TITS_PARIDAE,European Crested Tit,,1,4.35844682,51.36001448,Europe,Belgium,BE,,Grenspark Kalmthoutse Heide - Wildernissen,2019-11-22,
Lophophanes cristatus,Animalia,TITS_PARIDAE,European Crested Tit,,1,4.35467027,51.3602363,Europe,Belgium,BE,,Grenspark Kalmthoutse Heide - Wildernissen,2019-11-22,
Periparus ater,Animalia,TITS_PARIDAE,Coal Tit,,1,4.36628591,51.35730283,Europe,Belgium,BE,,Grenspark Kalmthoutse Heide - Wildernissen,2019-11-22,
Lophophanes cristatus,Animalia,TITS_PARIDAE,European Crested Tit,,1,4.35370534,51.3632468,Europe,Belgium,BE,,Grenspark Kalmthoutse Heide - Wildernissen,2019-11-10,
Lophophanes cristatus,Animalia,TITS_PARIDAE,European Crested Tit,,1,4.34819743,51.3643789,Europe,Belgium,BE,,Grenspark Kalmthoutse Heide - Wildernissen,2019-11-10,
Garrulus glandarius,Animalia,CROWS_AND_JAYS_CORVIDAE,Eurasian Jay,,1,4.3490269,51.36276113,Europe,Belgium,BE,,Grenspark Kalmthoutse Heide - Wildernissen,2019-11-10,
Turdus merula,Animalia,THRUSHES_TURDIDAE,Common Blackbird,,1,4.35022853,51.3615821,Europe,Belgium,BE,,Grenspark Kalmthoutse Heide - Wildernissen,2019-11-10,
Turdus philomelos,Animalia,THRUSHES_TURDIDAE,Song Thrush,,3,4.36297439,51.36221181,Europe,Belgium,BE,,Grenspark Kalmthoutse Heide - Wildernissen,2019-10-18,
Buteo buteo,Animalia,HAWKS_AND_EAGLES_ACCIPITRIDAE,Common Buzzard,,1,4.36608575,51.36197065,Europe,Belgium,BE,,Grenspark Kalmthoutse Heide - Wildernissen,2019-10-18,
Lophophanes cristatus,Animalia,TITS_PARIDAE,European Crested Tit,,1,4.36158702,51.3632535,Europe,Belgium,BE,,Grenspark Kalmthoutse Heide - Wildernissen,2019-10-15,
Garrulus glandarius,Animalia,CROWS_AND_JAYS_CORVIDAE,Eurasian Jay,,1,4.35692333,51.36012167,Europe,Belgium,BE,,Grenspark Kalmthoutse Heide - Wildernissen,2019-10-11,
Aegithalos caudatus,Animalia,LONGTAILED_TITS_AEGITHALIDAE,Long-tailed Tit,,2,4.36769508,51.36041644,Europe,Belgium,BE,,Grenspark Kalmthoutse Heide - Wildernissen,2019-10-11,
Aegithalos caudatus,Animalia,LONGTAILED_TITS_AEGITHALIDAE,Long-tailed Tit,,5,4.35507797,51.36039708,Europe,Belgium,BE,,Grenspark Kalmthoutse Heide - Wildernissen,2019-10-11,
Periparus ater,Animalia,TITS_PARIDAE,Coal Tit,,1,4.3685963,51.3597197,Europe,Belgium,BE,,Grenspark Kalmthoutse Heide - Wildernissen,2019-10-11,
Lophophanes cristatus,Animalia,TITS_PARIDAE,European Crested Tit,,1,4.36842095,51.35818719,Europe,Belgium,BE,,Grenspark Kalmthoutse Heide - Wildernissen,2019-10-11,
Turdus philomelos,Animalia,THRUSHES_TURDIDAE,Song Thrush,,1,4.35482047,51.35815202,Europe,Belgium,BE,,Grenspark Kalmthoutse Heide - Wildernissen,2019-09-27,
Garrulus glandarius,Animalia,CROWS_AND_JAYS_CORVIDAE,Eurasian Jay,,1,4.36990522,51.3597331,Europe,Belgium,BE,,Grenspark Kalmthoutse Heide - Wildernissen,2019-09-27,
Garrulus glandarius,Animalia,CROWS_AND_JAYS_CORVIDAE,Eurasian Jay,,1,4.36559223,51.36197065,Europe,Belgium,BE,,Grenspark Kalmthoutse Heide - Wildernissen,2019-09-23,
Vanessa atalanta,Animalia,BRUSHFOOTED_BUTTERFLIES_NYMPHALIDAE,Red Admiral,,1,4.3490006,51.36558519,Europe,Belgium,BE,,Grenspark Kalmthoutse Heide - Wildernissen,2019-09-21,
Gonepteryx rhamni,Animalia,WHITES_PIERIDAE,Brimstone,,1,4.35000911,51.36374975,Europe,Belgium,BE,,Grenspark Kalmthoutse Heide - Wildernissen,2019-09-21,
Cyanistes caeruleus,Animalia,TITS_PARIDAE,Eurasian Blue Tit,,2,4.36600187,51.3620463,Europe,Belgium,BE,,Grenspark Kalmthoutse Heide - Wildernissen,2019-09-12,
Fringilla coelebs,Animalia,FINCHES_FRINGILLIDAE,Common Chaffinch,,2,4.36600187,51.3620463,Europe,Belgium,BE,,Grenspark Kalmthoutse Heide - Wildernissen,2019-09-12,
Sitta europaea,Animalia,NUTHATCHES_SITTIDAE,Eurasian Nuthatch,,1,4.36712417,51.36131195,Europe,Belgium,BE,,Grenspark Kalmthoutse Heide - Wildernissen,2019-09-12,
Pyrrhula pyrrhula,Animalia,FINCHES_FRINGILLIDAE,Eurasian Bullfinch,,1,4.36810472,51.36096104,Europe,Belgium,BE,,Grenspark Kalmthoutse Heide - Wildernissen,2019-09-12,
Dendrocopos major,Animalia,WOODPECKERS_PICIDAE,Great Spotted Woodpecker,,1,4.36780974,51.36022551,Europe,Belgium,BE,,Grenspark Kalmthoutse Heide - Wildernissen,2019-09-08,
Circus aeruginosus,Animalia,HAWKS_AND_EAGLES_ACCIPITRIDAE,Western Marsh Harrier,,1,2.5696528,51.037559,Europe,Belgium,BE,,Veurne - gebied De Moeren,2019-08-29,14:15
Lophophanes cristatus,Animalia,TITS_PARIDAE,European Crested Tit,,1,4.34954189,51.36465764,Europe,Belgium,BE,,Grenspark Kalmthoutse Heide - Wildernissen,2019-08-28,
Garrulus glandarius,Animalia,CROWS_AND_JAYS_CORVIDAE,Eurasian Jay,,1,4.36291002,51.35750885,Europe,Belgium,BE,,Grenspark Kalmthoutse Heide - Wildernissen,2019-08-28,
Hirundo rustica,Animalia,SWALLOWS_HIRUNDINIDAE,Barn Swallow,,1,2.598987999999963,51.0532,Europe,Belgium,BE,,Veurne - gebied De Moeren,2019-08-15,13:45
Circus aeruginosus,Animalia,HAWKS_AND_EAGLES_ACCIPITRIDAE,Western Marsh Harrier,,3,2.599880201742053,51.0357162506753,Europe,Belgium,BE,,Veurne - gebied De Moeren,2019-08-15,13:45
Buteo buteo,Animalia,HAWKS_AND_EAGLES_ACCIPITRIDAE,Common Buzzard,,1,2.5932412131805904,51.05426049426614,Europe,Belgium,BE,,Veurne - gebied De Moeren,2019-08-04,09:30
Buteo buteo,Animalia,HAWKS_AND_EAGLES_ACCIPITRIDAE,Common Buzzard,,1,2.5933313369750977,51.05411212614238,Europe,Belgium,BE,,Veurne - gebied De Moeren,2019-08-04,09:30
Buteo buteo,Animalia,HAWKS_AND_EAGLES_ACCIPITRIDAE,Common Buzzard,,1,2.5925119999999424,51.0536,Europe,Belgium,BE,,Veurne - gebied De Moeren,2018-08-04,09:30
Buteo buteo,Animalia,HAWKS_AND_EAGLES_ACCIPITRIDAE,Common Buzzard,,1,2.5924301147460938,51.05365353202674,Europe,Belgium,BE,,Veurne - gebied De Moeren,2019-08-04,
Buteo buteo,Animalia,HAWKS_AND_EAGLES_ACCIPITRIDAE,Common Buzzard,,1,2.5933742470806465,51.05403659322402,Europe,Belgium,BE,,Veurne - gebied De Moeren,2019-08-04,
Buteo buteo,Animalia,HAWKS_AND_EAGLES_ACCIPITRIDAE,Common Buzzard,,1,2.5933227540372172,51.054143148562666,Europe,Belgium,BE,,Veurne - gebied De Moeren,2019-08-04,09:30
Buteo buteo,Animalia,HAWKS_AND_EAGLES_ACCIPITRIDAE,Common Buzzard,,2,4.36253082,51.36343939,Europe,Belgium,BE,,Grenspark Kalmthoutse Heide - Wildernissen,2019-07-16,
Garrulus glandarius,Animalia,CROWS_AND_JAYS_CORVIDAE,Eurasian Jay,,1,4.3601279,51.36404535,Europe,Belgium,BE,,Grenspark Kalmthoutse Heide - Wildernissen,2019-06-28,
Circus aeruginosus,Animalia,HAWKS_AND_EAGLES_ACCIPITRIDAE,Western Marsh Harrier,,1,2.575158999999985,51.045799,Europe,Belgium,BE,,Veurne - gebied De Moeren,2019-06-18,15:23
Lophophanes cristatus,Animalia,TITS_PARIDAE,European Crested Tit,,1,4.34937023,51.36286236,Europe,Belgium,BE,,Grenspark Kalmthoutse Heide - Wildernissen,2019-06-15,
Periparus ater,Animalia,TITS_PARIDAE,Coal Tit,,2,4.35844682,51.35967951,Europe,Belgium,BE,,Grenspark Kalmthoutse Heide - Wildernissen,2019-06-15,
Periparus ater,Animalia,TITS_PARIDAE,Coal Tit,,1,4.36756264,51.35705494,Europe,Belgium,BE,,Grenspark Kalmthoutse Heide - Wildernissen,2019-05-25,
Ficedula hypoleuca,Animalia,OLD_WORLD_FLYCATCHERS_MUSCICAPIDAE,European Pied Flycatcher,,1,4.39597629,51.4043561,Europe,Belgium,BE,,Grenspark Kalmthoutse Heide - Grote Meer,2019-05-25,
Streptopelia decaocto,Animalia,PIGEONS_AND_DOVES_COLUMBIDAE,Eurasian Collared Dove,,1,4.38687877,51.35834421,Europe,Belgium,BE,,Grenspark Kalmthoutse Heide - Moretusbosch,2019-05-23,
Oryctolagus cuniculus,Animalia,HARES_AND_RABBITS_LEPORIDAE,European Rabbit,,1,4.38466441,51.35900454,Europe,Belgium,BE,,Grenspark Kalmthoutse Heide - Moretusbosch,2019-05-23,
Oryctolagus cuniculus,Animalia,HARES_AND_RABBITS_LEPORIDAE,European Rabbit,,1,4.38410651,51.36013004,Europe,Belgium,BE,,Grenspark Kalmthoutse Heide - Moretusbosch,2019-05-23,
Alopochen aegyptiaca,Animalia,DUCKS_GEESE_AND_SWANS_ANATIDAE,Egyptian Goose,,2,4.38576948,51.35791921,Europe,Belgium,BE,,Grenspark Kalmthoutse Heide - Moretusbosch,2019-05-23,
Ardea cinerea,Animalia,HERONS_ARDEIDAE,Grey Heron,,1,4.38630592,51.35785891,Europe,Belgium,BE,,Grenspark Kalmthoutse Heide - Moretusbosch,2019-05-23,
Phylloscopus collybita,Animalia,LEAF_WARBLERS_AND_ALLIES_PHYLLOSCOPIDAE,Common Chiffchaff,,1,4.37975429,51.36091218,Europe,Belgium,BE,,Grenspark Kalmthoutse Heide - Moretusbosch,2019-05-23,
Phylloscopus collybita,Animalia,LEAF_WARBLERS_AND_ALLIES_PHYLLOSCOPIDAE,Common Chiffchaff,,1,4.38675653,51.35783211,Europe,Belgium,BE,,Grenspark Kalmthoutse Heide - Moretusbosch,2019-05-23,
Turdus philomelos,Animalia,THRUSHES_TURDIDAE,Song Thrush,,1,4.37479757,51.35858079,Europe,Belgium,BE,,Grenspark Kalmthoutse Heide - Moretusbosch,2019-05-23,
Sylvia atricapilla,Animalia,OLD_WORLD_WARBLERS_SYLVIIDAE,Eurasian Blackcap,,1,4.37661778,51.35609016,Europe,Belgium,BE,,Grenspark Kalmthoutse Heide - Moretusbosch,2019-05-23,
Columba oenas,Animalia,PIGEONS_AND_DOVES_COLUMBIDAE,Stock Dove,,1,4.38550548,51.35772115,Europe,Belgium,BE,,Grenspark Kalmthoutse Heide - Moretusbosch,2019-05-20,
Tachybaptus ruficollis,Animalia,GREBES_PODICIPEDIDAE,Little Grebe,,2,4.38614499,51.3579527,Europe,Belgium,BE,,Grenspark Kalmthoutse Heide - Moretusbosch,2019-05-20,
Prunella modularis,Animalia,ACCENTORS_PRUNELLIDAE,Dunnock,,1,4.38329112,51.36088036,Europe,Belgium,BE,,Grenspark Kalmthoutse Heide - Moretusbosch,2019-05-20,
Anthus trivialis,Animalia,PIPITS_EN_WAGTAILS_MOTACILLIDAE,Tree Pipit,,1,4.37659632,51.36080667,Europe,Belgium,BE,,Grenspark Kalmthoutse Heide - Moretusbosch,2019-05-20,
Turdus philomelos,Animalia,THRUSHES_TURDIDAE,Song Thrush,,1,4.37490117,51.35863606,Europe,Belgium,BE,,Grenspark Kalmthoutse Heide - Moretusbosch,2019-05-20,
Sylvia atricapilla,Animalia,OLD_WORLD_WARBLERS_SYLVIIDAE,Eurasian Blackcap,,1,4.37834512,51.35613706,Europe,Belgium,BE,,Grenspark Kalmthoutse Heide - Moretusbosch,2019-05-20,
Sylvia borin,Animalia,OLD_WORLD_WARBLERS_SYLVIIDAE,Garden Warbler,,1,4.37630665,51.35619736,Europe,Belgium,BE,,Grenspark Kalmthoutse Heide - Moretusbosch,2019-05-20,
Dendrocopos major,Animalia,WOODPECKERS_PICIDAE,Great Spotted Woodpecker,,1,4.38454639,51.35545367,Europe,Belgium,BE,,Grenspark Kalmthoutse Heide - Moretusbosch,2019-05-20,
Streptopelia decaocto,Animalia,PIGEONS_AND_DOVES_COLUMBIDAE,Eurasian Collared Dove,,1,4.43073403,51.36206238,Europe,Belgium,BE,,Grenspark Kalmthoutse Heide - Keienhof,2019-05-18,
Lophophanes cristatus,Animalia,TITS_PARIDAE,European Crested Tit,,1,4.36696552,51.35728106,Europe,Belgium,BE,,Grenspark Kalmthoutse Heide - Wildernissen,2019-05-18,
Regulus regulus,Animalia,KINGLETS_REGULIDAE,Goldcrest,,1,4.36696552,51.35728106,Europe,Belgium,BE,,Grenspark Kalmthoutse Heide - Wildernissen,2019-05-18,
Sylvia borin,Animalia,OLD_WORLD_WARBLERS_SYLVIIDAE,Garden Warbler,,1,4.38204007,51.36057512,Europe,Belgium,BE,,Grenspark Kalmthoutse Heide - Moretusbosch,2019-05-16,
Turdus philomelos,Animalia,THRUSHES_TURDIDAE,Song Thrush,,1,4.38129924,51.36162974,Europe,Belgium,BE,,Grenspark Kalmthoutse Heide - Moretusbosch,2019-05-16,
Anthus trivialis,Animalia,PIPITS_EN_WAGTAILS_MOTACILLIDAE,Tree Pipit,,1,4.37749755,51.36141629,Europe,Belgium,BE,,Grenspark Kalmthoutse Heide - Moretusbosch,2019-05-16,
Phylloscopus trochilus,Animalia,LEAF_WARBLERS_AND_ALLIES_PHYLLOSCOPIDAE,Willow Warbler,,1,4.37765848,51.36040471,Europe,Belgium,BE,,Grenspark Kalmthoutse Heide - Moretusbosch,2019-05-16,
Fringilla coelebs,Animalia,FINCHES_FRINGILLIDAE,Common Chaffinch,,1,4.37495481,51.35872986,Europe,Belgium,BE,,Grenspark Kalmthoutse Heide - Moretusbosch,2019-05-16,
Turdus philomelos,Animalia,THRUSHES_TURDIDAE,Song Thrush,,1,4.37495481,51.35872986,Europe,Belgium,BE,,Grenspark Kalmthoutse Heide - Moretusbosch,2019-05-16,
Phylloscopus collybita,Animalia,LEAF_WARBLERS_AND_ALLIES_PHYLLOSCOPIDAE,Common Chiffchaff,,1,4.37938582,51.35605666,Europe,Belgium,BE,,Grenspark Kalmthoutse Heide - Moretusbosch,2019-05-16,
Turdus philomelos,Animalia,THRUSHES_TURDIDAE,Song Thrush,,1,4.38308727,51.35642516,Europe,Belgium,BE,,Grenspark Kalmthoutse Heide - Moretusbosch,2019-05-16,
Alopochen aegyptiaca,Animalia,DUCKS_GEESE_AND_SWANS_ANATIDAE,Egyptian Goose,,2,4.38582128,51.35789846,Europe,Belgium,BE,,Grenspark Kalmthoutse Heide - Moretusbosch,2019-05-16,
Chroicocephalus ridibundus,Animalia,GULLS_TERNS_AND_SKIMMERS_LARIDAE,Black-headed Gull,,3,4.3866422,51.35800463,Europe,Belgium,BE,,Grenspark Kalmthoutse Heide - Moretusbosch,2019-05-16,
Lepus europaeus,Animalia,HARES_AND_RABBITS_LEPORIDAE,Brown Hare,,1,4.37886011,51.35998935,Europe,Belgium,BE,,Grenspark Kalmthoutse Heide - Moretusbosch,2019-05-06,
Oryctolagus cuniculus,Animalia,HARES_AND_RABBITS_LEPORIDAE,European Rabbit,,1,4.3833233,51.36074637,Europe,Belgium,BE,,Grenspark Kalmthoutse Heide - Moretusbosch,2019-05-06,
Aythya fuligula,Animalia,DUCKS_GEESE_AND_SWANS_ANATIDAE,Tufted Duck,,2,4.38664203,51.35807748,Europe,Belgium,BE,,Grenspark Kalmthoutse Heide - Moretusbosch,2019-05-06,
Aix galericulata,Animalia,DUCKS_GEESE_AND_SWANS_ANATIDAE,Mandarin Duck,,2,4.38642746,51.35812438,Europe,Belgium,BE,,Grenspark Kalmthoutse Heide - Moretusbosch,2019-05-06,
Alopochen aegyptiaca,Animalia,DUCKS_GEESE_AND_SWANS_ANATIDAE,Egyptian Goose,,2,4.38561207,51.3578497,Europe,Belgium,BE,,Grenspark Kalmthoutse Heide - Moretusbosch,2019-05-06,
Phylloscopus trochilus,Animalia,LEAF_WARBLERS_AND_ALLIES_PHYLLOSCOPIDAE,Willow Warbler,,1,4.38076984,51.36041141,Europe,Belgium,BE,,Grenspark Kalmthoutse Heide - Moretusbosch,2019-05-06,
Phylloscopus trochilus,Animalia,LEAF_WARBLERS_AND_ALLIES_PHYLLOSCOPIDAE,Willow Warbler,,1,4.37656414,51.35954049,Europe,Belgium,BE,,Grenspark Kalmthoutse Heide - Moretusbosch,2019-05-06,
Fringilla coelebs,Animalia,FINCHES_FRINGILLIDAE,Common Chaffinch,,1,4.38451789,51.35520409,Europe,Belgium,BE,,Grenspark Kalmthoutse Heide - Moretusbosch,2019-05-06,
Fringilla coelebs,Animalia,FINCHES_FRINGILLIDAE,Common Chaffinch,,1,4.37518381,51.35876838,Europe,Belgium,BE,,Grenspark Kalmthoutse Heide - Moretusbosch,2019-05-06,
Sitta europaea,Animalia,NUTHATCHES_SITTIDAE,Eurasian Nuthatch,,1,4.37495481,51.35856237,Europe,Belgium,BE,,Grenspark Kalmthoutse Heide - Moretusbosch,2019-05-06,
Turdus philomelos,Animalia,THRUSHES_TURDIDAE,Song Thrush,,1,4.37633883,51.35592936,Europe,Belgium,BE,,Grenspark Kalmthoutse Heide - Moretusbosch,2019-05-06,
Lophophanes cristatus,Animalia,TITS_PARIDAE,European Crested Tit,,1,4.37829517,51.35606169,Europe,Belgium,BE,,Grenspark Kalmthoutse Heide - Moretusbosch,2019-05-06,
Turdus merula,Animalia,THRUSHES_TURDIDAE,Common Blackbird,,1,4.38464664,51.35508349,Europe,Belgium,BE,,Grenspark Kalmthoutse Heide - Moretusbosch,2019-05-06,
Erithacus rubecula,Animalia,OLD_WORLD_FLYCATCHERS_MUSCICAPIDAE,European Robin,,1,4.38464664,51.35508349,Europe,Belgium,BE,,Grenspark Kalmthoutse Heide - Moretusbosch,2019-05-06,
Buteo buteo,Animalia,HAWKS_AND_EAGLES_ACCIPITRIDAE,Common Buzzard,,1,4.38443206,51.35546167,Europe,Belgium,BE,,Grenspark Kalmthoutse Heide - Moretusbosch,2019-05-06,
Dryocopus martius,Animalia,WOODPECKERS_PICIDAE,Black Woodpecker,,2,4.35732733,51.36037279,Europe,Belgium,BE,,Grenspark Kalmthoutse Heide - Wildernissen,2019-05-01,
Periparus ater,Animalia,TITS_PARIDAE,Coal Tit,,1,4.36599623,51.3574116,Europe,Belgium,BE,,Grenspark Kalmthoutse Heide - Wildernissen,2019-05-01,
Ficedula hypoleuca,Animalia,OLD_WORLD_FLYCATCHERS_MUSCICAPIDAE,European Pied Flycatcher,,1,4.38600367,51.35644353,Europe,Belgium,BE,,Grenspark Kalmthoutse Heide - Moretusbosch,2019-05-01,
Cygnus olor,Animalia,DUCKS_GEESE_AND_SWANS_ANATIDAE,Mute Swan,,1,2.5875484943389893,51.02283909695675,Europe,Belgium,BE,,Veurne - gebied De Moeren,2019-04-28,
Chroicocephalus ridibundus,Animalia,GULLS_TERNS_AND_SKIMMERS_LARIDAE,Black-headed Gull,,4,4.38646685,51.35803467,Europe,Belgium,BE,,Grenspark Kalmthoutse Heide - Moretusbosch,2019-04-28,
Alopochen aegyptiaca,Animalia,DUCKS_GEESE_AND_SWANS_ANATIDAE,Egyptian Goose,,2,4.38615924,51.35785718,Europe,Belgium,BE,,Grenspark Kalmthoutse Heide - Moretusbosch,2019-04-28,
Anthus trivialis,Animalia,PIPITS_EN_WAGTAILS_MOTACILLIDAE,Tree Pipit,,1,4.37828075,51.3610963,Europe,Belgium,BE,,Grenspark Kalmthoutse Heide - Moretusbosch,2019-04-28,
Sylvia atricapilla,Animalia,OLD_WORLD_WARBLERS_SYLVIIDAE,Eurasian Blackcap,,1,4.3800832,51.35891901,Europe,Belgium,BE,,Grenspark Kalmthoutse Heide - Moretusbosch,2019-04-26,
Oryctolagus cuniculus,Animalia,HARES_AND_RABBITS_LEPORIDAE,European Rabbit,,1,4.38475024,51.35817536,Europe,Belgium,BE,,Grenspark Kalmthoutse Heide - Moretusbosch,2019-04-26,
Anthus trivialis,Animalia,PIPITS_EN_WAGTAILS_MOTACILLIDAE,Tree Pipit,,1,4.37746536,51.36141786,Europe,Belgium,BE,,Grenspark Kalmthoutse Heide - Moretusbosch,2019-04-26,
Troglodytes troglodytes,Animalia,WRENS_TROGLODYTIDAE,Eurasian Wren,,1,4.38059114,51.3589859,Europe,Belgium,BE,,Grenspark Kalmthoutse Heide - Moretusbosch,2019-04-26,
Alopochen aegyptiaca,Animalia,DUCKS_GEESE_AND_SWANS_ANATIDAE,Egyptian Goose,,2,4.38576763,51.35786388,Europe,Belgium,BE,,Grenspark Kalmthoutse Heide - Moretusbosch,2019-04-26,
Lophophanes cristatus,Animalia,TITS_PARIDAE,European Crested Tit,,1,4.37597405,51.35611853,Europe,Belgium,BE,,Grenspark Kalmthoutse Heide - Moretusbosch,2019-04-26,
Aegithalos caudatus,Animalia,LONGTAILED_TITS_AEGITHALIDAE,Long-tailed Tit,,2,4.37795889,51.35610513,Europe,Belgium,BE,,Grenspark Kalmthoutse Heide - Moretusbosch,2019-04-26,
Regulus regulus,Animalia,KINGLETS_REGULIDAE,Goldcrest,,1,4.37481903,51.35877152,Europe,Belgium,BE,,Grenspark Kalmthoutse Heide - Moretusbosch,2019-04-26,
Phylloscopus collybita,Animalia,LEAF_WARBLERS_AND_ALLIES_PHYLLOSCOPIDAE,Common Chiffchaff,,1,4.37413238,51.36070094,Europe,Belgium,BE,,Grenspark Kalmthoutse Heide - Moretusbosch,2019-04-26,
Turdus philomelos,Animalia,THRUSHES_TURDIDAE,Song Thrush,,1,4.37382644,51.35975985,Europe,Belgium,BE,,Grenspark Kalmthoutse Heide - Moretusbosch,2019-04-26,
Turdus philomelos,Animalia,THRUSHES_TURDIDAE,Song Thrush,,1,4.38316606,51.35617203,Europe,Belgium,BE,,Grenspark Kalmthoutse Heide - Moretusbosch,2019-04-26,
Picus viridis,Animalia,WOODPECKERS_PICIDAE,European Green Woodpecker,,1,4.38451789,51.35744499,Europe,Belgium,BE,,Grenspark Kalmthoutse Heide - Moretusbosch,2019-04-26,
Gonepteryx rhamni,Animalia,WHITES_PIERIDAE,Brimstone,,1,4.38881788,51.35535735,Europe,Belgium,BE,,Grenspark Kalmthoutse Heide - Moretusbosch,2019-04-23,
Turdus merula,Animalia,THRUSHES_TURDIDAE,Common Blackbird,,2,4.38437895,51.3554231,Europe,Belgium,BE,,Grenspark Kalmthoutse Heide - Moretusbosch,2019-04-24,
Certhia brachydactyla,Animalia,TREECREEPERS_CERTHIIDAE,Short-toed Treecreeper,,1,4.3798257,51.36008471,Europe,Belgium,BE,,Grenspark Kalmthoutse Heide - Moretusbosch,2019-04-24,
Turdus philomelos,Animalia,THRUSHES_TURDIDAE,Song Thrush,,1,4.3818786,51.36126368,Europe,Belgium,BE,,Grenspark Kalmthoutse Heide - Moretusbosch,2019-04-24,
Fringilla coelebs,Animalia,FINCHES_FRINGILLIDAE,Common Chaffinch,,2,4.3761779,51.35918699,Europe,Belgium,BE,,Grenspark Kalmthoutse Heide - Moretusbosch,2019-04-24,
Anthus trivialis,Animalia,PIPITS_EN_WAGTAILS_MOTACILLIDAE,Tree Pipit,,1,4.37832367,51.36070775,Europe,Belgium,BE,,Grenspark Kalmthoutse Heide - Moretusbosch,2019-04-24,
Troglodytes troglodytes,Animalia,WRENS_TROGLODYTIDAE,Eurasian Wren,,1,4.37757265,51.35964926,Europe,Belgium,BE,,Grenspark Kalmthoutse Heide - Moretusbosch,2019-04-24,
Sylvia atricapilla,Animalia,OLD_WORLD_WARBLERS_SYLVIIDAE,Eurasian Blackcap,,1,4.38109171,51.36029909,Europe,Belgium,BE,,Grenspark Kalmthoutse Heide - Moretusbosch,2019-04-24,
Sylvia atricapilla,Animalia,OLD_WORLD_WARBLERS_SYLVIIDAE,Eurasian Blackcap,,2,4.37640136,51.35600134,Europe,Belgium,BE,,Grenspark Kalmthoutse Heide - Moretusbosch,2019-04-24,
Ficedula hypoleuca,Animalia,OLD_WORLD_FLYCATCHERS_MUSCICAPIDAE,European Pied Flycatcher,,1,4.37584883,51.35580369,Europe,Belgium,BE,,Grenspark Kalmthoutse Heide - Moretusbosch,2019-04-24,
Aix galericulata,Animalia,DUCKS_GEESE_AND_SWANS_ANATIDAE,Mandarin Duck,,6,4.38638102,51.35796767,Europe,Belgium,BE,,Grenspark Kalmthoutse Heide - Moretusbosch,2019-04-24,
Gallinula chloropus,Animalia,RAILS_RALLIDAE,Common Moorhen,,1,4.38638102,51.35796767,Europe,Belgium,BE,,Grenspark Kalmthoutse Heide - Moretusbosch,2019-04-24,
Columba oenas,Animalia,PIGEONS_AND_DOVES_COLUMBIDAE,Stock Dove,,1,4.38519012,51.35782698,Europe,Belgium,BE,,Grenspark Kalmthoutse Heide - Moretusbosch,2019-04-24,
Alopochen aegyptiaca,Animalia,DUCKS_GEESE_AND_SWANS_ANATIDAE,Egyptian Goose,,2,4.38602697,51.35805477,Europe,Belgium,BE,,Grenspark Kalmthoutse Heide - Moretusbosch,2019-04-24,
Dryocopus martius,Animalia,WOODPECKERS_PICIDAE,Black Woodpecker,,4,4.37622081,51.35609843,Europe,Belgium,BE,,Grenspark Kalmthoutse Heide - Moretusbosch,2019-04-24,
Oryctolagus cuniculus,Animalia,HARES_AND_RABBITS_LEPORIDAE,European Rabbit,,3,4.38408874,51.35571643,Europe,Belgium,BE,,Grenspark Kalmthoutse Heide - Moretusbosch,2019-04-24,
Phylloscopus trochilus,Animalia,LEAF_WARBLERS_AND_ALLIES_PHYLLOSCOPIDAE,Willow Warbler,,1,4.37863849,51.36064735,Europe,Belgium,BE,,Grenspark Kalmthoutse Heide - Moretusbosch,2019-04-23,
Oryctolagus cuniculus,Animalia,HARES_AND_RABBITS_LEPORIDAE,European Rabbit,,1,4.38397055,51.35585729,Europe,Belgium,BE,,Grenspark Kalmthoutse Heide - Moretusbosch,2019-04-23,
Alopochen aegyptiaca,Animalia,DUCKS_GEESE_AND_SWANS_ANATIDAE,Egyptian Goose,,2,4.38658487,51.35808827,Europe,Belgium,BE,,Grenspark Kalmthoutse Heide - Moretusbosch,2019-04-23,
Chroicocephalus ridibundus,Animalia,GULLS_TERNS_AND_SKIMMERS_LARIDAE,Black-headed Gull,,4,4.38658487,51.35808827,Europe,Belgium,BE,,Grenspark Kalmthoutse Heide - Moretusbosch,2019-04-23,
Turdus merula,Animalia,THRUSHES_TURDIDAE,Common Blackbird,,1,4.38478243,51.35825576,Europe,Belgium,BE,,Grenspark Kalmthoutse Heide - Moretusbosch,2019-04-23,
Turdus philomelos,Animalia,THRUSHES_TURDIDAE,Song Thrush,,1,4.38400291,51.35970945,Europe,Belgium,BE,,Grenspark Kalmthoutse Heide - Moretusbosch,2019-04-23,
Turdus philomelos,Animalia,THRUSHES_TURDIDAE,Song Thrush,,1,4.38177835,51.36313281,Europe,Belgium,BE,,Grenspark Kalmthoutse Heide - Moretusbosch,2019-04-23,
Phylloscopus collybita,Animalia,LEAF_WARBLERS_AND_ALLIES_PHYLLOSCOPIDAE,Common Chiffchaff,,1,4.377115,51.36200058,Europe,Belgium,BE,,Grenspark Kalmthoutse Heide - Moretusbosch,2019-04-23,
Fringilla coelebs,Animalia,FINCHES_FRINGILLIDAE,Common Chaffinch,,1,4.37803768,51.35532783,Europe,Belgium,BE,,Grenspark Kalmthoutse Heide - Moretusbosch,2019-04-23,
Erithacus rubecula,Animalia,OLD_WORLD_FLYCATCHERS_MUSCICAPIDAE,European Robin,,1,4.38409578,51.35637983,Europe,Belgium,BE,,Grenspark Kalmthoutse Heide - Moretusbosch,2019-04-23,
Sylvia atricapilla,Animalia,OLD_WORLD_WARBLERS_SYLVIIDAE,Eurasian Blackcap,,1,4.38531702,51.35660433,Europe,Belgium,BE,,Grenspark Kalmthoutse Heide - Moretusbosch,2019-04-23,
Aegithalos caudatus,Animalia,LONGTAILED_TITS_AEGITHALIDAE,Long-tailed Tit,,1,4.38602513,51.35632293,Europe,Belgium,BE,,Grenspark Kalmthoutse Heide - Moretusbosch,2019-04-23,
Gonepteryx rhamni,Animalia,WHITES_PIERIDAE,Brimstone,,1,4.36506283,51.35818876,Europe,Belgium,BE,,Grenspark Kalmthoutse Heide - Wildernissen,2019-04-22,
Turdus philomelos,Animalia,THRUSHES_TURDIDAE,Song Thrush,,1,4.38172471,51.36211457,Europe,Belgium,BE,,Grenspark Kalmthoutse Heide - Moretusbosch,2019-04-22,
Phylloscopus trochilus,Animalia,LEAF_WARBLERS_AND_ALLIES_PHYLLOSCOPIDAE,Willow Warbler,,1,4.37407505,51.36100251,Europe,Belgium,BE,,Grenspark Kalmthoutse Heide - Moretusbosch,2019-04-22,
Regulus regulus,Animalia,KINGLETS_REGULIDAE,Goldcrest,,1,4.35649401,51.35804812,Europe,Belgium,BE,,Grenspark Kalmthoutse Heide - Wildernissen,2019-04-19,
Phylloscopus trochilus,Animalia,LEAF_WARBLERS_AND_ALLIES_PHYLLOSCOPIDAE,Willow Warbler,,1,4.36434768,51.36037938,Europe,Belgium,BE,,Grenspark Kalmthoutse Heide - Wildernissen,2019-04-19,
Periparus ater,Animalia,TITS_PARIDAE,Coal Tit,,1,4.36130069,51.35783358,Europe,Belgium,BE,,Grenspark Kalmthoutse Heide - Wildernissen,2019-04-06,
Turdus philomelos,Animalia,THRUSHES_TURDIDAE,Song Thrush,,1,4.3782308,51.36212116,Europe,Belgium,BE,,Grenspark Kalmthoutse Heide - Moretusbosch,2019-04-06,
Carduelis carduelis,Animalia,FINCHES_FRINGILLIDAE,European Goldfinch,,1,4.37651049,51.36239593,Europe,Belgium,BE,,Grenspark Kalmthoutse Heide - Moretusbosch,2019-04-06,
Regulus regulus,Animalia,KINGLETS_REGULIDAE,Goldcrest,,1,4.36042093,51.3631662,Europe,Belgium,BE,,Grenspark Kalmthoutse Heide - Wildernissen,2019-04-06,
Regulus regulus,Animalia,KINGLETS_REGULIDAE,Goldcrest,,1,4.36559223,51.35771298,Europe,Belgium,BE,,Grenspark Kalmthoutse Heide - Wildernissen,2019-04-06,
Garrulus glandarius,Animalia,CROWS_AND_JAYS_CORVIDAE,Eurasian Jay,,1,4.3546059,51.35823555,Europe,Belgium,BE,,Grenspark Kalmthoutse Heide - Wildernissen,2019-04-06,
Sturnus vulgaris,Animalia,STARLINGS_STURNIDAE,Common Starling,,1,4.38318752,51.3589993,Europe,Belgium,BE,,Grenspark Kalmthoutse Heide - Moretusbosch,2019-04-06,
Chroicocephalus ridibundus,Animalia,GULLS_TERNS_AND_SKIMMERS_LARIDAE,Black-headed Gull,,4,4.38639175,51.35800787,Europe,Belgium,BE,,Grenspark Kalmthoutse Heide - Moretusbosch,2019-04-06,
Alopochen aegyptiaca,Animalia,DUCKS_GEESE_AND_SWANS_ANATIDAE,Egyptian Goose,,2,4.38691746,51.35838305,Europe,Belgium,BE,,Grenspark Kalmthoutse Heide - Moretusbosch,2019-04-03,
Fringilla coelebs,Animalia,FINCHES_FRINGILLIDAE,Common Chaffinch,,1,4.34990667,51.36384948,Europe,Belgium,BE,,Grenspark Kalmthoutse Heide - Wildernissen,2019-04-03,
Turdus philomelos,Animalia,THRUSHES_TURDIDAE,Song Thrush,,1,4.37790893,51.36248291,Europe,Belgium,BE,,Grenspark Kalmthoutse Heide - Moretusbosch,2019-04-03,
Troglodytes troglodytes,Animalia,WRENS_TROGLODYTIDAE,Eurasian Wren,,1,4.34879791,51.36675677,Europe,Belgium,BE,,Grenspark Kalmthoutse Heide - Wildernissen,2019-04-03,
Periparus ater,Animalia,TITS_PARIDAE,Coal Tit,,1,4.34883378,51.36561793,Europe,Belgium,BE,,Grenspark Kalmthoutse Heide - Wildernissen,2019-04-03,
Lophophanes cristatus,Animalia,TITS_PARIDAE,European Crested Tit,,1,4.34921633,51.3648544,Europe,Belgium,BE,,Grenspark Kalmthoutse Heide - Wildernissen,2019-04-03,
Lophophanes cristatus,Animalia,TITS_PARIDAE,European Crested Tit,,1,4.35544979,51.36401036,Europe,Belgium,BE,,Grenspark Kalmthoutse Heide - Wildernissen,2019-04-03,
Lophophanes cristatus,Animalia,TITS_PARIDAE,European Crested Tit,,1,4.36034214,51.36306582,Europe,Belgium,BE,,Grenspark Kalmthoutse Heide - Wildernissen,2019-04-03,
Columba palumbus,Animalia,PIGEONS_AND_DOVES_COLUMBIDAE,Common Wood Pigeon,,25,4.38348424,51.35675502,Europe,Belgium,BE,,Grenspark Kalmthoutse Heide - Moretusbosch,2019-04-03,
Buteo buteo,Animalia,HAWKS_AND_EAGLES_ACCIPITRIDAE,Common Buzzard,,1,4.38278686,51.35812177,Europe,Belgium,BE,,Grenspark Kalmthoutse Heide - Moretusbosch,2019-04-03,
Erithacus rubecula,Animalia,OLD_WORLD_FLYCATCHERS_MUSCICAPIDAE,European Robin,,2,4.3868209,51.35587733,Europe,Belgium,BE,,Grenspark Kalmthoutse Heide - Moretusbosch,2019-04-03,
Turdus merula,Animalia,THRUSHES_TURDIDAE,Common Blackbird,,1,4.3858875,51.35644683,Europe,Belgium,BE,,Grenspark Kalmthoutse Heide - Moretusbosch,2019-04-03,
Sylvia atricapilla,Animalia,OLD_WORLD_WARBLERS_SYLVIIDAE,Eurasian Blackcap,,1,4.38728224,51.35627933,Europe,Belgium,BE,,Grenspark Kalmthoutse Heide - Moretusbosch,2019-04-03,
Dendrocopos major,Animalia,WOODPECKERS_PICIDAE,Great Spotted Woodpecker,,2,4.38850533,51.35536814,Europe,Belgium,BE,,Grenspark Kalmthoutse Heide - Moretusbosch,2019-04-03,
Phylloscopus collybita,Animalia,LEAF_WARBLERS_AND_ALLIES_PHYLLOSCOPIDAE,Common Chiffchaff,,1,4.3882693,51.35580364,Europe,Belgium,BE,,Grenspark Kalmthoutse Heide - Moretusbosch,2019-04-03,
Alopochen aegyptiaca,Animalia,DUCKS_GEESE_AND_SWANS_ANATIDAE,Egyptian Goose,,2,4.38630592,51.35812846,Europe,Belgium,BE,,Grenspark Kalmthoutse Heide - Moretusbosch,2019-04-02,
Prunella modularis,Animalia,ACCENTORS_PRUNELLIDAE,Dunnock,,1,4.38132774,51.36212127,Europe,Belgium,BE,,Grenspark Kalmthoutse Heide - Moretusbosch,2019-04-02,
Turdus philomelos,Animalia,THRUSHES_TURDIDAE,Song Thrush,,1,4.38139211,51.36160544,Europe,Belgium,BE,,Grenspark Kalmthoutse Heide - Moretusbosch,2019-04-02,
Anthus trivialis,Animalia,PIPITS_EN_WAGTAILS_MOTACILLIDAE,Tree Pipit,,1,4.37842391,51.36066075,Europe,Belgium,BE,,Grenspark Kalmthoutse Heide - Moretusbosch,2019-04-02,
Phylloscopus collybita,Animalia,LEAF_WARBLERS_AND_ALLIES_PHYLLOSCOPIDAE,Common Chiffchaff,,1,4.37612794,51.36027219,Europe,Belgium,BE,,Grenspark Kalmthoutse Heide - Moretusbosch,2019-04-02,
Turdus philomelos,Animalia,THRUSHES_TURDIDAE,Song Thrush,,1,4.38169252,51.35543514,Europe,Belgium,BE,,Grenspark Kalmthoutse Heide - Moretusbosch,2019-04-02,
Picus viridis,Animalia,WOODPECKERS_PICIDAE,European Green Woodpecker,,1,4.37537692,51.36236233,Europe,Belgium,BE,,Grenspark Kalmthoutse Heide - Moretusbosch,2019-03-30,
Sylvia atricapilla,Animalia,OLD_WORLD_WARBLERS_SYLVIIDAE,Eurasian Blackcap,,1,4.38466441,51.3572709,Europe,Belgium,BE,,Grenspark Kalmthoutse Heide - Moretusbosch,2019-03-30,
Gonepteryx rhamni,Animalia,WHITES_PIERIDAE,Brimstone,,1,4.38574098,51.35698941,Europe,Belgium,BE,,Grenspark Kalmthoutse Heide - Moretusbosch,2019-03-30,
Gonepteryx rhamni,Animalia,WHITES_PIERIDAE,Brimstone,,2,4.34080862,51.35867773,Europe,Belgium,BE,,Grenspark Kalmthoutse Heide - Wildernissen,2019-03-30,
Chroicocephalus ridibundus,Animalia,GULLS_TERNS_AND_SKIMMERS_LARIDAE,Black-headed Gull,,1,4.3867458,51.35809497,Europe,Belgium,BE,,Grenspark Kalmthoutse Heide - Moretusbosch,2019-03-30,
Coccothraustes coccothraustes,Animalia,FINCHES_FRINGILLIDAE,Hawfinch,,1,4.36527036,51.36166563,Europe,Belgium,BE,,Grenspark Kalmthoutse Heide - Wildernissen,2019-03-30,
Gonepteryx rhamni,Animalia,WHITES_PIERIDAE,Brimstone,,1,4.35695216,51.36017819,Europe,Belgium,BE,,Grenspark Kalmthoutse Heide - Wildernissen,2019-03-30,
Carduelis carduelis,Animalia,FINCHES_FRINGILLIDAE,European Goldfinch,,1,4.38050531,51.3625365,Europe,Belgium,BE,,Grenspark Kalmthoutse Heide - Moretusbosch,2019-03-30,
Garrulus glandarius,Animalia,CROWS_AND_JAYS_CORVIDAE,Eurasian Jay,,2,4.37952563,51.36395646,Europe,Belgium,BE,,Grenspark Kalmthoutse Heide - Moretusbosch,2019-03-30,
Fringilla coelebs,Animalia,FINCHES_FRINGILLIDAE,Common Chaffinch,,1,4.3981291,51.40632031,Europe,Belgium,BE,,Grenspark Kalmthoutse Heide - Grote Meer,2019-03-30,
Sturnus vulgaris,Animalia,STARLINGS_STURNIDAE,Common Starling,,1,4.39891599,51.4065946,Europe,Belgium,BE,,Grenspark Kalmthoutse Heide - Grote Meer,2019-03-30,
Turdus philomelos,Animalia,THRUSHES_TURDIDAE,Song Thrush,,2,4.39891599,51.4065946,Europe,Belgium,BE,,Grenspark Kalmthoutse Heide - Grote Meer,2019-03-30,
Turdus viscivorus,Animalia,THRUSHES_TURDIDAE,Mistle Thrush,,1,4.39891599,51.4065946,Europe,Belgium,BE,,Grenspark Kalmthoutse Heide - Grote Meer,2019-03-30,
Turdus philomelos,Animalia,THRUSHES_TURDIDAE,Song Thrush,,1,4.38301586,51.3618666,Europe,Belgium,BE,,Grenspark Kalmthoutse Heide - Moretusbosch,2019-03-27,
Alopochen aegyptiaca,Animalia,DUCKS_GEESE_AND_SWANS_ANATIDAE,Egyptian Goose,,2,4.38586604,51.35792078,Europe,Belgium,BE,,Grenspark Kalmthoutse Heide - Moretusbosch,2019-03-27,
Fringilla montifringilla,Animalia,FINCHES_FRINGILLIDAE,Brambling,,1,4.35170911,51.36269728,Europe,Belgium,BE,,Grenspark Kalmthoutse Heide - Wildernissen,2019-03-24,
Picus viridis,Animalia,WOODPECKERS_PICIDAE,European Green Woodpecker,,1,4.38335918,51.35968265,Europe,Belgium,BE,,Grenspark Kalmthoutse Heide - Moretusbosch,2019-03-24,
Accipiter gentilis,Animalia,HAWKS_AND_EAGLES_ACCIPITRIDAE,Northern Goshawk,,1,4.35928367,51.3625499,Europe,Belgium,BE,,Grenspark Kalmthoutse Heide - Wildernissen,2019-03-24,
Alopochen aegyptiaca,Animalia,DUCKS_GEESE_AND_SWANS_ANATIDAE,Egyptian Goose,,2,4.38636325,51.35810156,Europe,Belgium,BE,,Grenspark Kalmthoutse Heide - Moretusbosch,2019-03-24,
Carduelis carduelis,Animalia,FINCHES_FRINGILLIDAE,European Goldfinch,,1,4.37847387,51.36184661,Europe,Belgium,BE,,Grenspark Kalmthoutse Heide - Moretusbosch,2019-03-24,
Dendrocopos major,Animalia,WOODPECKERS_PICIDAE,Great Spotted Woodpecker,,1,4.43038031,51.36221474,Europe,Belgium,BE,,Grenspark Kalmthoutse Heide - Keienhof,2019-03-22,
Sitta europaea,Animalia,NUTHATCHES_SITTIDAE,Eurasian Nuthatch,,1,4.38352715,51.35656073,Europe,Belgium,BE,,Grenspark Kalmthoutse Heide - Moretusbosch,2019-03-21,
Lophophanes cristatus,Animalia,TITS_PARIDAE,European Crested Tit,,1,4.38634884,51.35613863,Europe,Belgium,BE,,Grenspark Kalmthoutse Heide - Moretusbosch,2019-03-21,
Columba oenas,Animalia,PIGEONS_AND_DOVES_COLUMBIDAE,Stock Dove,,1,4.3859341,51.35635962,Europe,Belgium,BE,,Grenspark Kalmthoutse Heide - Moretusbosch,2019-03-21,
Buteo buteo,Animalia,HAWKS_AND_EAGLES_ACCIPITRIDAE,Common Buzzard,,1,4.39797185,51.4063269,Europe,Belgium,BE,,Grenspark Kalmthoutse Heide - Grote Meer,2019-03-21,
Saxicola rubicola,Animalia,OLD_WORLD_FLYCATCHERS_MUSCICAPIDAE,European Stonechat,,1,4.39634107,51.40731739,Europe,Belgium,BE,,Grenspark Kalmthoutse Heide - Grote Meer,2019-03-21,
Garrulus glandarius,Animalia,CROWS_AND_JAYS_CORVIDAE,Eurasian Jay,,1,4.39614795,51.4052293,Europe,Belgium,BE,,Grenspark Kalmthoutse Heide - Grote Meer,2019-03-21,
Buteo buteo,Animalia,HAWKS_AND_EAGLES_ACCIPITRIDAE,Common Buzzard,,1,4.38348424,51.35672152,Europe,Belgium,BE,,Grenspark Kalmthoutse Heide - Moretusbosch,2019-03-21,
Sitta europaea,Animalia,NUTHATCHES_SITTIDAE,Eurasian Nuthatch,,1,4.38162111,51.3610761,Europe,Belgium,BE,,Grenspark Kalmthoutse Heide - Moretusbosch,2019-03-21,
Turdus philomelos,Animalia,THRUSHES_TURDIDAE,Song Thrush,,1,4.38162111,51.3610761,Europe,Belgium,BE,,Grenspark Kalmthoutse Heide - Moretusbosch,2019-03-21,
Regulus ignicapilla,Animalia,KINGLETS_REGULIDAE,Common Firecrest,,1,4.38563369,51.35638642,Europe,Belgium,BE,,Grenspark Kalmthoutse Heide - Moretusbosch,2019-03-21,
Phylloscopus collybita,Animalia,LEAF_WARBLERS_AND_ALLIES_PHYLLOSCOPIDAE,Common Chiffchaff,,1,4.39393781,51.40595211,Europe,Belgium,BE,,Grenspark Kalmthoutse Heide - Grote Meer,2019-03-21,
Phylloscopus collybita,Animalia,LEAF_WARBLERS_AND_ALLIES_PHYLLOSCOPIDAE,Common Chiffchaff,,1,4.38009761,51.3590261,Europe,Belgium,BE,,Grenspark Kalmthoutse Heide - Moretusbosch,2019-03-21,
Phylloscopus collybita,Animalia,LEAF_WARBLERS_AND_ALLIES_PHYLLOSCOPIDAE,Common Chiffchaff,,1,4.38449275,51.35641333,Europe,Belgium,BE,,Grenspark Kalmthoutse Heide - Moretusbosch,2019-03-21,
Regulus regulus,Animalia,KINGLETS_REGULIDAE,Goldcrest,,2,4.38213609,51.35593083,Europe,Belgium,BE,,Grenspark Kalmthoutse Heide - Moretusbosch,2019-03-20,
Pica pica,Animalia,CROWS_AND_JAYS_CORVIDAE,Eurasian Magpie,,1,4.38648831,51.35763269,Europe,Belgium,BE,,Grenspark Kalmthoutse Heide - Moretusbosch,2019-03-20,
Corvus corone,Animalia,CROWS_AND_JAYS_CORVIDAE,Carrion Crow,,1,4.38648831,51.35763269,Europe,Belgium,BE,,Grenspark Kalmthoutse Heide - Moretusbosch,2019-03-20,
Chroicocephalus ridibundus,Animalia,GULLS_TERNS_AND_SKIMMERS_LARIDAE,Black-headed Gull,,20,4.38636325,51.35787377,Europe,Belgium,BE,,Grenspark Kalmthoutse Heide - Moretusbosch,2019-03-20,
Alopochen aegyptiaca,Animalia,DUCKS_GEESE_AND_SWANS_ANATIDAE,Egyptian Goose,,2,4.38647482,51.35823071,Europe,Belgium,BE,,Grenspark Kalmthoutse Heide - Moretusbosch,2019-03-20,
Lophophanes cristatus,Animalia,TITS_PARIDAE,European Crested Tit,,1,4.37861703,51.36177281,Europe,Belgium,BE,,Grenspark Kalmthoutse Heide - Moretusbosch,2019-03-20,
Certhia brachydactyla,Animalia,TREECREEPERS_CERTHIIDAE,Short-toed Treecreeper,,1,4.38137099,51.3618128,Europe,Belgium,BE,,Grenspark Kalmthoutse Heide - Moretusbosch,2019-03-20,
Phylloscopus collybita,Animalia,LEAF_WARBLERS_AND_ALLIES_PHYLLOSCOPIDAE,Common Chiffchaff,,1,4.37836658,51.36146476,Europe,Belgium,BE,,Grenspark Kalmthoutse Heide - Moretusbosch,2019-03-20,
Alopochen aegyptiaca,Animalia,DUCKS_GEESE_AND_SWANS_ANATIDAE,Egyptian Goose,,2,4.38726967,51.35851374,Europe,Belgium,BE,,Grenspark Kalmthoutse Heide - Moretusbosch,2019-03-06,
Gallinula chloropus,Animalia,RAILS_RALLIDAE,Common Moorhen,,1,4.38718921,51.3584836,Europe,Belgium,BE,,Grenspark Kalmthoutse Heide - Moretusbosch,2019-02-27,
Alopochen aegyptiaca,Animalia,DUCKS_GEESE_AND_SWANS_ANATIDAE,Egyptian Goose,,2,4.38718921,51.3584836,Europe,Belgium,BE,,Grenspark Kalmthoutse Heide - Moretusbosch,2019-02-27,
Carduelis carduelis,Animalia,FINCHES_FRINGILLIDAE,European Goldfinch,,1,4.38139211,51.36252991,Europe,Belgium,BE,,Grenspark Kalmthoutse Heide - Moretusbosch,2019-02-27,
Regulus regulus,Animalia,KINGLETS_REGULIDAE,Goldcrest,,1,4.37804472,51.36202078,Europe,Belgium,BE,,Grenspark Kalmthoutse Heide - Moretusbosch,2019-02-27,
Turdus philomelos,Animalia,THRUSHES_TURDIDAE,Song Thrush,,1,4.38007247,51.36163894,Europe,Belgium,BE,,Grenspark Kalmthoutse Heide - Moretusbosch,2019-02-27,
Turdus merula,Animalia,THRUSHES_TURDIDAE,Common Blackbird,,1,4.36644685,51.35760589,Europe,Belgium,BE,,Grenspark Kalmthoutse Heide - Wildernissen,2019-02-27,
Fringilla coelebs,Animalia,FINCHES_FRINGILLIDAE,Common Chaffinch,,1,4.38747905,51.357177,Europe,Belgium,BE,,Grenspark Kalmthoutse Heide - Moretusbosch,2019-02-21,
Erithacus rubecula,Animalia,OLD_WORLD_FLYCATCHERS_MUSCICAPIDAE,European Robin,,1,4.38743614,51.357378,Europe,Belgium,BE,,Grenspark Kalmthoutse Heide - Moretusbosch,2019-02-21,
Carduelis carduelis,Animalia,FINCHES_FRINGILLIDAE,European Goldfinch,,1,4.38048385,51.36279106,Europe,Belgium,BE,,Grenspark Kalmthoutse Heide - Moretusbosch,2019-02-21,
Turdus merula,Animalia,THRUSHES_TURDIDAE,Common Blackbird,,1,4.38014053,51.36205417,Europe,Belgium,BE,,Grenspark Kalmthoutse Heide - Moretusbosch,2019-02-21,
Certhia brachydactyla,Animalia,TREECREEPERS_CERTHIIDAE,Short-toed Treecreeper,,1,4.38770067,51.35664782,Europe,Belgium,BE,,Grenspark Kalmthoutse Heide - Moretusbosch,2019-02-21,
Fulica atra,Animalia,RAILS_RALLIDAE,Eurasian Coot,,1,4.38595187,51.35767959,Europe,Belgium,BE,,Grenspark Kalmthoutse Heide - Moretusbosch,2019-02-21,
Turdus philomelos,Animalia,THRUSHES_TURDIDAE,Song Thrush,,1,4.38424632,51.35870432,Europe,Belgium,BE,,Grenspark Kalmthoutse Heide - Moretusbosch,2019-02-21,
Buteo buteo,Animalia,HAWKS_AND_EAGLES_ACCIPITRIDAE,Common Buzzard,,2,4.39,51.4,Europe,Belgium,BE,,Grenspark Kalmthoutse Heide - Grote Meer,2019-02-16,
Spinus spinus,Animalia,FINCHES_FRINGILLIDAE,Eurasian Siskin,,3,4.37092077,51.3602321,Europe,Belgium,BE,,Grenspark Kalmthoutse Heide - Moretusbosch,2019-02-16,
Turdus merula,Animalia,THRUSHES_TURDIDAE,Common Blackbird,,1,4.38685309,51.35593763,Europe,Belgium,BE,,Grenspark Kalmthoutse Heide - Moretusbosch,2019-02-16,
Turdus philomelos,Animalia,THRUSHES_TURDIDAE,Song Thrush,,1,4.38350569,51.35707661,Europe,Belgium,BE,,Grenspark Kalmthoutse Heide - Moretusbosch,2019-02-16,
Aegithalos caudatus,Animalia,LONGTAILED_TITS_AEGITHALIDAE,Long-tailed Tit,,2,4.38350569,51.35707661,Europe,Belgium,BE,,Grenspark Kalmthoutse Heide - Moretusbosch,2019-02-16,
Dendrocopos major,Animalia,WOODPECKERS_PICIDAE,Great Spotted Woodpecker,,1,4.38728224,51.35583043,Europe,Belgium,BE,,Grenspark Kalmthoutse Heide - Moretusbosch,2019-02-16,
Lophophanes cristatus,Animalia,TITS_PARIDAE,European Crested Tit,,1,4.38635956,51.35560934,Europe,Belgium,BE,,Grenspark Kalmthoutse Heide - Moretusbosch,2019-02-16,
Fringilla coelebs,Animalia,FINCHES_FRINGILLIDAE,Common Chaffinch,,2,4.38415311,51.35806136,Europe,Belgium,BE,,Grenspark Kalmthoutse Heide - Moretusbosch,2019-01-25,
Turdus merula,Animalia,THRUSHES_TURDIDAE,Common Blackbird,,1,4.38241504,51.3601918,Europe,Belgium,BE,,Grenspark Kalmthoutse Heide - Moretusbosch,2019-01-25,
Certhia brachydactyla,Animalia,TREECREEPERS_CERTHIIDAE,Short-toed Treecreeper,,1,4.36499845,51.36223515,Europe,Belgium,BE,,Grenspark Kalmthoutse Heide - Wildernissen,2019-01-25,
Lophophanes cristatus,Animalia,TITS_PARIDAE,European Crested Tit,,1,4.34731029,51.35937447,Europe,Belgium,BE,,Grenspark Kalmthoutse Heide - Wildernissen,2019-01-20,
Lophophanes cristatus,Animalia,TITS_PARIDAE,European Crested Tit,,1,4.35376905,51.36027219,Europe,Belgium,BE,,Grenspark Kalmthoutse Heide - Wildernissen,2019-01-20,
Vulpes vulpes,Animalia,DOGS_CANIDAE,Red Fox,,1,4.35597919,51.36092872,Europe,Belgium,BE,,Grenspark Kalmthoutse Heide - Wildernissen,2019-01-20,08:58
Buteo buteo,Animalia,HAWKS_AND_EAGLES_ACCIPITRIDAE,Common Buzzard,,1,4.36149381,51.36052676,Europe,Belgium,BE,,Grenspark Kalmthoutse Heide - Wildernissen,2019-01-20,
Lophophanes cristatus,Animalia,TITS_PARIDAE,European Crested Tit,,1,4.37026631,51.35816196,Europe,Belgium,BE,,Grenspark Kalmthoutse Heide - Wildernissen,2019-01-20,
Aegithalos caudatus,Animalia,LONGTAILED_TITS_AEGITHALIDAE,Long-tailed Tit,,4,4.38590895,51.35660762,Europe,Belgium,BE,,Grenspark Kalmthoutse Heide - Moretusbosch,2019-01-19,
Regulus regulus,Animalia,KINGLETS_REGULIDAE,Goldcrest,,1,4.3638327,51.35747179,Europe,Belgium,BE,,Grenspark Kalmthoutse Heide - Wildernissen,2019-01-19,
Fringilla montifringilla,Animalia,FINCHES_FRINGILLIDAE,Brambling,,1,4.3741753,51.35862413,Europe,Belgium,BE,,Grenspark Kalmthoutse Heide - Moretusbosch,2019-01-19,
Turdus merula,Animalia,THRUSHES_TURDIDAE,Common Blackbird,,3,4.34346937,51.35782018,Europe,Belgium,BE,,Grenspark Kalmthoutse Heide - Wildernissen,2019-01-19,
Regulus regulus,Animalia,KINGLETS_REGULIDAE,Goldcrest,,1,4.35486339,51.35818196,Europe,Belgium,BE,,Grenspark Kalmthoutse Heide - Wildernissen,2019-01-19,
Periparus ater,Animalia,TITS_PARIDAE,Coal Tit,,1,4.38157819,51.35696261,Europe,Belgium,BE,,Grenspark Kalmthoutse Heide - Moretusbosch,2019-01-19,
Sitta europaea,Animalia,NUTHATCHES_SITTIDAE,Eurasian Nuthatch,,1,4.37732957,51.35780678,Europe,Belgium,BE,,Grenspark Kalmthoutse Heide - Moretusbosch,2019-01-19,
Lophophanes cristatus,Animalia,TITS_PARIDAE,European Crested Tit,,1,4.3776729,51.35775318,Europe,Belgium,BE,,Grenspark Kalmthoutse Heide - Moretusbosch,2019-01-19,
Lophophanes cristatus,Animalia,TITS_PARIDAE,European Crested Tit,,1,4.372802,51.35938787,Europe,Belgium,BE,,Grenspark Kalmthoutse Heide - Moretusbosch,2019-01-12,
Garrulus glandarius,Animalia,CROWS_AND_JAYS_CORVIDAE,Eurasian Jay,,1,4.38097738,51.35546183,Europe,Belgium,BE,,Grenspark Kalmthoutse Heide - Moretusbosch,2019-01-12,
Fringilla coelebs,Animalia,FINCHES_FRINGILLIDAE,Common Chaffinch,,4,4.3790891,51.35997742,Europe,Belgium,BE,,Grenspark Kalmthoutse Heide - Moretusbosch,2019-01-12,
Buteo buteo,Animalia,HAWKS_AND_EAGLES_ACCIPITRIDAE,Common Buzzard,,1,4.37408578,51.35919369,Europe,Belgium,BE,,Grenspark Kalmthoutse Heide - Moretusbosch,2019-01-12,
Alopochen aegyptiaca,Animalia,DUCKS_GEESE_AND_SWANS_ANATIDAE,Egyptian Goose,,2,4.38610023,51.35804477,Europe,Belgium,BE,,Grenspark Kalmthoutse Heide - Moretusbosch,2019-01-12,
Certhia brachydactyla,Animalia,TREECREEPERS_CERTHIIDAE,Short-toed Treecreeper,,1,4.39543616,51.40365659,Europe,Belgium,BE,,Grenspark Kalmthoutse Heide - Grote Meer,2019-01-11,
Lophophanes cristatus,Animalia,TITS_PARIDAE,European Crested Tit,,1,4.39543616,51.40365659,Europe,Belgium,BE,,Grenspark Kalmthoutse Heide - Grote Meer,2019-01-11,
Periparus ater,Animalia,TITS_PARIDAE,Coal Tit,,2,4.39543616,51.40365659,Europe,Belgium,BE,,Grenspark Kalmthoutse Heide - Grote Meer,2019-01-11,
Gallinula chloropus,Animalia,RAILS_RALLIDAE,Common Moorhen,,1,4.38715702,51.3584702,Europe,Belgium,BE,,Grenspark Kalmthoutse Heide - Moretusbosch,2019-01-05,
Alopochen aegyptiaca,Animalia,DUCKS_GEESE_AND_SWANS_ANATIDAE,Egyptian Goose,,2,4.38681386,51.35834275,Europe,Belgium,BE,,Grenspark Kalmthoutse Heide - Moretusbosch,2019-01-05,
Sitta europaea,Animalia,NUTHATCHES_SITTIDAE,Eurasian Nuthatch,,1,4.37720083,51.35818196,Europe,Belgium,BE,,Grenspark Kalmthoutse Heide - Moretusbosch,2019-01-05,
Fringilla coelebs,Animalia,FINCHES_FRINGILLIDAE,Common Chaffinch,,1,4.37211536,51.36099571,Europe,Belgium,BE,,Grenspark Kalmthoutse Heide - Moretusbosch,2019-01-02,
Lophophanes cristatus,Animalia,TITS_PARIDAE,European Crested Tit,,1,4.34494995,51.35981664,Europe,Belgium,BE,,Grenspark Kalmthoutse Heide - Wildernissen,2019-01-02,
Regulus regulus,Animalia,KINGLETS_REGULIDAE,Goldcrest,,1,4.35711645,51.3637825,Europe,Belgium,BE,,Grenspark Kalmthoutse Heide - Wildernissen,2019-01-02,
Regulus regulus,Animalia,KINGLETS_REGULIDAE,Goldcrest,,1,4.35381196,51.35882512,Europe,Belgium,BE,,Grenspark Kalmthoutse Heide - Wildernissen,2019-01-02,
Lophophanes cristatus,Animalia,TITS_PARIDAE,European Crested Tit,,1,4.35443424,51.35991043,Europe,Belgium,BE,,Grenspark Kalmthoutse Heide - Wildernissen,2019-01-02,
Regulus regulus,Animalia,KINGLETS_REGULIDAE,Goldcrest,,1,4.38177835,51.35595103,Europe,Belgium,BE,,Grenspark Kalmthoutse Heide - Moretusbosch,2019-01-02,
Fringilla coelebs,Animalia,FINCHES_FRINGILLIDAE,Common Chaffinch,,4,4.3661679,51.36169253,Europe,Belgium,BE,,Grenspark Kalmthoutse Heide - Wildernissen,2019-01-02,
Garrulus glandarius,Animalia,CROWS_AND_JAYS_CORVIDAE,Eurasian Jay,,1,4.37898181,51.36182641,Europe,Belgium,BE,,Grenspark Kalmthoutse Heide - Moretusbosch,2019-01-02,
Ardea cinerea,Animalia,HERONS_ARDEIDAE,Grey Heron,,1,4.38598221,51.35771984,Europe,Belgium,BE,,Grenspark Kalmthoutse Heide - Moretusbosch,2018-12-16,
Regulus regulus,Animalia,KINGLETS_REGULIDAE,Goldcrest,,2,4.36559223,51.3573378,Europe,Belgium,BE,,Grenspark Kalmthoutse Heide - Wildernissen,2018-12-08,
Fringilla coelebs,Animalia,FINCHES_FRINGILLIDAE,Common Chaffinch,,1,4.37518381,51.36007121,Europe,Belgium,BE,,Grenspark Kalmthoutse Heide - Moretusbosch,2018-12-08,
Picus viridis,Animalia,WOODPECKERS_PICIDAE,European Green Woodpecker,,1,4.38357376,51.35802117,Europe,Belgium,BE,,Grenspark Kalmthoutse Heide - Moretusbosch,2018-11-24,
Alopochen aegyptiaca,Animalia,DUCKS_GEESE_AND_SWANS_ANATIDAE,Egyptian Goose,,2,4.38681906,51.35833621,Europe,Belgium,BE,,Grenspark Kalmthoutse Heide - Moretusbosch,2018-11-17,
Fringilla montifringilla,Animalia,FINCHES_FRINGILLIDAE,Brambling,,1,4.38009761,51.35745839,Europe,Belgium,BE,,Grenspark Kalmthoutse Heide - Moretusbosch,2018-11-17,
Fringilla montifringilla,Animalia,FINCHES_FRINGILLIDAE,Brambling,,1,4.38288711,51.35826235,Europe,Belgium,BE,,Grenspark Kalmthoutse Heide - Moretusbosch,2018-11-17,
Fringilla montifringilla,Animalia,FINCHES_FRINGILLIDAE,Brambling,,3,4.37638544,51.35942807,Europe,Belgium,BE,,Grenspark Kalmthoutse Heide - Moretusbosch,2018-11-17,
Fringilla montifringilla,Animalia,FINCHES_FRINGILLIDAE,Brambling,,1,4.37400363,51.35934768,Europe,Belgium,BE,,Grenspark Kalmthoutse Heide - Moretusbosch,2018-11-17,
Dendrocopos major,Animalia,WOODPECKERS_PICIDAE,Great Spotted Woodpecker,,1,4.38282274,51.3625767,Europe,Belgium,BE,,Grenspark Kalmthoutse Heide - Moretusbosch,2018-11-14,
Fringilla coelebs,Animalia,FINCHES_FRINGILLIDAE,Common Chaffinch,,2,4.38369881,51.35758579,Europe,Belgium,BE,,Grenspark Kalmthoutse Heide - Moretusbosch,2018-11-14,
Turdus merula,Animalia,THRUSHES_TURDIDAE,Common Blackbird,,2,4.38497555,51.35771979,Europe,Belgium,BE,,Grenspark Kalmthoutse Heide - Moretusbosch,2018-11-14,
Lophophanes cristatus,Animalia,TITS_PARIDAE,European Crested Tit,,1,4.37475465,51.35996402,Europe,Belgium,BE,,Grenspark Kalmthoutse Heide - Moretusbosch,2018-11-05,
Turdus merula,Animalia,THRUSHES_TURDIDAE,Common Blackbird,,3,4.37310945,51.36047997,Europe,Belgium,BE,,Grenspark Kalmthoutse Heide - Moretusbosch,2018-11-05,
Alopochen aegyptiaca,Animalia,DUCKS_GEESE_AND_SWANS_ANATIDAE,Egyptian Goose,,2,4.38675653,51.35832945,Europe,Belgium,BE,,Grenspark Kalmthoutse Heide - Moretusbosch,2018-11-05,
Gallinula chloropus,Animalia,RAILS_RALLIDAE,Common Moorhen,,1,4.38675653,51.35832945,Europe,Belgium,BE,,Grenspark Kalmthoutse Heide - Moretusbosch,2018-11-05,
Fringilla coelebs,Animalia,FINCHES_FRINGILLIDAE,Common Chaffinch,,10,4.38488971,51.35766619,Europe,Belgium,BE,,Grenspark Kalmthoutse Heide - Moretusbosch,2018-11-05,
Fringilla montifringilla,Animalia,FINCHES_FRINGILLIDAE,Brambling,,10,4.38488971,51.35766619,Europe,Belgium,BE,,Grenspark Kalmthoutse Heide - Moretusbosch,2018-11-05,
Fringilla montifringilla,Animalia,FINCHES_FRINGILLIDAE,Brambling,,10,4.38357007,51.3574116,Europe,Belgium,BE,,Grenspark Kalmthoutse Heide - Moretusbosch,2018-11-05,
Fringilla coelebs,Animalia,FINCHES_FRINGILLIDAE,Common Chaffinch,,50,4.38357007,51.3574116,Europe,Belgium,BE,,Grenspark Kalmthoutse Heide - Moretusbosch,2018-11-05,
Fringilla coelebs,Animalia,FINCHES_FRINGILLIDAE,Common Chaffinch,,1,4.37845241,51.36068765,Europe,Belgium,BE,,Grenspark Kalmthoutse Heide - Moretusbosch,2018-11-05,
Regulus regulus,Animalia,KINGLETS_REGULIDAE,Goldcrest,,1,4.37928926,51.36094222,Europe,Belgium,BE,,Grenspark Kalmthoutse Heide - Moretusbosch,2018-11-05,
Turdus iliacus,Animalia,THRUSHES_TURDIDAE,Redwing,,2,4.37928926,51.36094222,Europe,Belgium,BE,,Grenspark Kalmthoutse Heide - Moretusbosch,2018-11-05,
Fringilla montifringilla,Animalia,FINCHES_FRINGILLIDAE,Brambling,,1,4.37182199,51.35988373,Europe,Belgium,BE,,Grenspark Kalmthoutse Heide - Moretusbosch,2018-11-05,
Regulus regulus,Animalia,KINGLETS_REGULIDAE,Goldcrest,,2,4.37905323,51.35601803,Europe,Belgium,BE,,Grenspark Kalmthoutse Heide - Moretusbosch,2018-11-05,
Regulus regulus,Animalia,KINGLETS_REGULIDAE,Goldcrest,,5,4.38282978,51.35595773,Europe,Belgium,BE,,Grenspark Kalmthoutse Heide - Moretusbosch,2018-11-05,
Turdus merula,Animalia,THRUSHES_TURDIDAE,Common Blackbird,,2,4.38448202,51.35517383,Europe,Belgium,BE,,Grenspark Kalmthoutse Heide - Moretusbosch,2018-11-05,
Fringilla coelebs,Animalia,FINCHES_FRINGILLIDAE,Common Chaffinch,,10,4.38029073,51.35678842,Europe,Belgium,BE,,Grenspark Kalmthoutse Heide - Moretusbosch,2018-11-02,
Lophophanes cristatus,Animalia,TITS_PARIDAE,European Crested Tit,,1,4.39132735,51.40182906,Europe,Belgium,BE,,Grenspark Kalmthoutse Heide - Grote Meer,2018-10-27,
Dendrocopos major,Animalia,WOODPECKERS_PICIDAE,Great Spotted Woodpecker,,1,4.378381,51.3572708,Europe,Belgium,BE,,Grenspark Kalmthoutse Heide - Moretusbosch,2018-10-27,
Fringilla coelebs,Animalia,FINCHES_FRINGILLIDAE,Common Chaffinch,,15,4.38084863,51.35685541,Europe,Belgium,BE,,Grenspark Kalmthoutse Heide - Moretusbosch,2018-10-27,
Turdus philomelos,Animalia,THRUSHES_TURDIDAE,Song Thrush,,1,4.37956821,51.36414434,Europe,Belgium,BE,,Grenspark Kalmthoutse Heide - Moretusbosch,2018-10-20,
Sitta europaea,Animalia,NUTHATCHES_SITTIDAE,Eurasian Nuthatch,,1,4.34282564,51.35926728,Europe,Belgium,BE,,Grenspark Kalmthoutse Heide - Wildernissen,2018-10-20,
Turdus iliacus,Animalia,THRUSHES_TURDIDAE,Redwing,,1,4.37997591,51.35702971,Europe,Belgium,BE,,Grenspark Kalmthoutse Heide - Moretusbosch,2018-10-20,
Fringilla coelebs,Animalia,FINCHES_FRINGILLIDAE,Common Chaffinch,,30,4.37997591,51.35702971,Europe,Belgium,BE,,Grenspark Kalmthoutse Heide - Moretusbosch,2018-10-20,
Turdus merula,Animalia,THRUSHES_TURDIDAE,Common Blackbird,,2,4.38612169,51.35617888,Europe,Belgium,BE,,Grenspark Kalmthoutse Heide - Moretusbosch,2018-10-17,
Emberiza schoeniclus,Animalia,BUNTINGS_EMBERIZIDAE,Common Reed Bunting,,1,4.3947066,51.40703641,Europe,Belgium,BE,,Grenspark Kalmthoutse Heide - Grote Meer,2018-10-07,
Phylloscopus collybita,Animalia,LEAF_WARBLERS_AND_ALLIES_PHYLLOSCOPIDAE,Common Chiffchaff,,1,4.37799476,51.35542163,Europe,Belgium,BE,,Grenspark Kalmthoutse Heide - Moretusbosch,2018-09-24,
Turdus merula,Animalia,THRUSHES_TURDIDAE,Common Blackbird,,1,4.38244354,51.36121689,Europe,Belgium,BE,,Grenspark Kalmthoutse Heide - Moretusbosch,2018-09-24,
Oryctolagus cuniculus,Animalia,HARES_AND_RABBITS_LEPORIDAE,European Rabbit,,2,4.38373452,51.35839315,Europe,Belgium,BE,,Grenspark Kalmthoutse Heide - Moretusbosch,2018-09-24,
Dendrocopos major,Animalia,WOODPECKERS_PICIDAE,Great Spotted Woodpecker,,2,4.38411539,51.35795098,Europe,Belgium,BE,,Grenspark Kalmthoutse Heide - Moretusbosch,2018-09-24,
Alopochen aegyptiaca,Animalia,DUCKS_GEESE_AND_SWANS_ANATIDAE,Egyptian Goose,,1,4.38719993,51.35846015,Europe,Belgium,BE,,Grenspark Kalmthoutse Heide - Moretusbosch,2018-09-24,
Phylloscopus collybita,Animalia,LEAF_WARBLERS_AND_ALLIES_PHYLLOSCOPIDAE,Common Chiffchaff,,1,4.38604843,51.35800787,Europe,Belgium,BE,,Grenspark Kalmthoutse Heide - Moretusbosch,2018-09-23,
Gallinula chloropus,Animalia,RAILS_RALLIDAE,Common Moorhen,,1,4.38678872,51.35831605,Europe,Belgium,BE,,Grenspark Kalmthoutse Heide - Moretusbosch,2018-09-23,
Lophophanes cristatus,Animalia,TITS_PARIDAE,European Crested Tit,,1,4.39275764,51.40233795,Europe,Belgium,BE,,Grenspark Kalmthoutse Heide - Grote Meer,2018-09-21,
Zygaena filipendulae,Animalia,Zygaenidae,Six-spot Burnet,,5,5.677468,50.81918,Europe,Belgium,BE,,Kanne - Caestert,2015-08-18,16:23
Certhia brachydactyla,Animalia,TREECREEPERS_CERTHIIDAE,Short-toed Treecreeper,,3,6.13700286,50.12992322,Europe,Belgium,BE,,Reuland,2018-03-10,13:30
Emberiza schoeniclus,Animalia,BUNTINGS_EMBERIZIDAE,Common Reed Bunting,,1,4.5338791607719,51.430148590928,Europe,Belgium,BE,,Kalmthout - De Maatjes,2016-05-05,08:53
Himacerus mirmicoides,Animalia,Nabidae,Ant Damsel Bug,,1,3.9350602760715,50.982961168944,Europe,Belgium,BE,,Serskamp - Omgeving,2016-04-23,
Coccinella septempunctata,Animalia,LADYBIRDS_LADYBUGS_OR_LADY_BEETLES_COCCINELLIDAE,7-spot Ladybird,,5,3.9350602760715,50.982961168944,Europe,Belgium,BE,,Serskamp - Omgeving,2016-04-23,
