scientificName,kingdom,family,vernacularName,previousIdentifications,individualCount,longitudeDecimal,latitudeDecimal,continent,country,countryCode,stateProvince,locality,eventDate,eventTime
Xema sabini,Animalia,GULLS_TERNS_AND_SKIMMERS_LARIDAE,Sabine's Gull,,2,3.5875082015991,6.2320294726382,Africa,Benin,BJ,,Benin,2007-11-12,11:20
Ploceus superciliosus,Animalia,WEAVERS_PLOCEIDAE,Compact Weaver,,1,1.0615539550781,10.204109944887,Africa,Benin,BJ,,Benin - Boukoumbé,2010-01-01,
Passiflora foetida,Plantae,PASSIFLORACEAE,,,1,1.8286228179932,6.2829651028494,Africa,Benin,BJ,,Benin - Grand-Popo,2010-01-11,
Cephalophus rufilatus,Animalia,BOVIDS_BOVIDAE,Red-flanked Duiker,,1,1.6521679,11.26353508,Africa,Benin,BJ,,Benin - Tanguiéta,2001-06-14,
Ceryle rudis,Animalia,KINGFISHERS_ALCEDINIDAE,Pied Kingfisher,,1,1.54410447534,11.1078565271,Africa,Benin,BJ,,Benin - Tanguiéta,1995-12-26,
Haliaeetus vocifer,Animalia,HAWKS_AND_EAGLES_ACCIPITRIDAE,African Fish Eagle,,1,1.49095810704,11.0504557351,Africa,Benin,BJ,,Benin - Tanguiéta,1995-12-27,
Lophaetus occipitalis,Animalia,HAWKS_AND_EAGLES_ACCIPITRIDAE,Long-crested Eagle,,1,1.48821152501,11.0693247272,Africa,Benin,BJ,,Benin - Tanguiéta,1995-12-27,
Vanellus tectus,Animalia,PLOVERS_CHARADRIIDAE,Black-headed Lapwing,,1,1.48821152501,11.0693247272,Africa,Benin,BJ,,Benin - Tanguiéta,1995-12-27,
Ploceus nigerrimus,Animalia,WEAVERS_PLOCEIDAE,Vieillot's Black Weaver,,1,2.61611938477,6.47360918121,Africa,Benin,BJ,,Benin - Porto-Novo,2010-01-07,
Falco tinnunculus rufescens,Animalia,CARACAS_AND_FALCONS_FALCONIDAE,Common Kestrel ssp rufescens,,1,2.61611938477,6.47360918121,Africa,Benin,BJ,,Benin - Porto-Novo,2010-01-07,
Apus affinis,Animalia,SWIFTS_APODIDAE,Little Swift,,1,2.61199951172,7.35701895739,Africa,Benin,BJ,,Benin - Kétou,2010-01-06,
Cisticola marginatus,Animalia,CISTICOLAS_AND_ALLIES_CISTICOLIDAE,Winding Cisticola,,1,1.77154541016,6.27161806431,Africa,Benin,BJ,,Benin - Grand-Popo,2010-01-09,
Motacilla flava thunbergi,Animalia,PIPITS_EN_WAGTAILS_MOTACILLIDAE,Grey-headed Wagtail,,1,1.77154541016,6.27161806431,Africa,Benin,BJ,,Benin - Grand-Popo,2010-01-09,
Camaroptera brevicaudata,Animalia,CISTICOLAS_AND_ALLIES_CISTICOLIDAE,Grey-backed Camaroptera,,1,1.77154541016,6.27161806431,Africa,Benin,BJ,,Benin - Grand-Popo,2010-01-09,
Vidua macroura,Animalia,INDIGOBIRDS_AND_WHYDAHS_VIDUIDAE,Pin-tailed Whydah,,1,1.77154541016,6.27161806431,Africa,Benin,BJ,,Benin - Grand-Popo,2010-01-09,
Milvus aegyptius,Animalia,HAWKS_AND_EAGLES_ACCIPITRIDAE,Yellow-billed Kite,,1,2.40943908691,6.46542190628,Africa,Benin,BJ,,Benin - Sô-Ava,2010-01-08,
Cercomela familiaris,Animalia,OLD_WORLD_FLYCATCHERS_MUSCICAPIDAE,Familiar Chat,,1,1.18171691895,10.1507184785,Africa,Benin,BJ,,Benin - Boukoumbé,2010-01-02,
Prinia subflava,Animalia,CISTICOLAS_AND_ALLIES_CISTICOLIDAE,Tawny-flanked Prinia,,1,1.1762237548875,10.161532660982,Africa,Benin,BJ,,Benin - Boukoumbé,2010-01-02,
Pogoniulus chrysoconus,Animalia,Lybiidae,Yellow-fronted Tinkerbird,,1,1.82458877563,6.28049095763,Africa,Benin,BJ,,Benin - Grand-Popo,2010-01-11,
Merops albicollis,Animalia,BEEEATERS_MEROPIDAE,White-throated Bee-eater,,1,1.83179855347,6.28117348162,Africa,Benin,BJ,,Benin - Grand-Popo,2010-01-11,
Charadrius marginatus,Animalia,PLOVERS_CHARADRIIDAE,White-fronted Plover,,1,1.83145523071,6.28578049517,Africa,Benin,BJ,,Benin - Grand-Popo,2010-01-11,
Butorides striata,Animalia,HERONS_ARDEIDAE,Striated Heron,,1,1.83145523071,6.28578049517,Africa,Benin,BJ,,Benin - Grand-Popo,2010-01-11,
Tringa glareola,Animalia,SANDPIPERS_AND_ALLIES_SCOLOPACIDAE,Wood Sandpiper,,1,1.83145523071,6.28578049517,Africa,Benin,BJ,,Benin - Grand-Popo,2010-01-11,
Passer griseus,Animalia,OLD_WORLD_SPARROWS_PASSERIDAE,Northern Grey-headed Sparrow,,1,1.82819366455,6.28458608817,Africa,Benin,BJ,,Benin - Grand-Popo,2010-01-11,
Camaroptera brevicaudata,Animalia,CISTICOLAS_AND_ALLIES_CISTICOLIDAE,Grey-backed Camaroptera,,1,1.82819366455,6.28458608817,Africa,Benin,BJ,,Benin - Grand-Popo,2010-01-11,
Pycnonotus barbatus,Animalia,BULBULS_PYCNONOTIDAE,Common Bulbul,,1,1.81085586548,6.27759022067,Africa,Benin,BJ,,Benin - Grand-Popo,2010-01-11,
Kaupifalco monogrammicus,Animalia,HAWKS_AND_EAGLES_ACCIPITRIDAE,Lizard Buzzard,,1,1.8106842041,6.27895527537,Africa,Benin,BJ,,Benin - Grand-Popo,2010-01-11,
Actitis hypoleucos,Animalia,SANDPIPERS_AND_ALLIES_SCOLOPACIDAE,Common Sandpiper,,1,1.81772232056,6.28117348162,Africa,Benin,BJ,,Benin - Grand-Popo,2010-01-11,
Platysteira cyanea,Animalia,WATTLEEYES_BATISES_PLATYSTEIRIDAE,Brown-throated Wattle-eye,,1,1.81772232056,6.28117348162,Africa,Benin,BJ,,Benin - Grand-Popo,2010-01-11,
Lonchura cucullata,Animalia,WAXBILLS_MUNIAS_ALLIES_ESTRILDIDAE,Bronze Mannikin,,1,1.82750701904,6.28117348162,Africa,Benin,BJ,,Benin - Grand-Popo,2010-01-11,
Eurystomus glaucurus,Animalia,ROLLERS_CORACIIDAE,Broad-billed Roller,,1,1.8285369873,6.28185600472,Africa,Benin,BJ,,Benin - Grand-Popo,2010-01-11,
Himantopus himantopus,Animalia,STILTS_AND_AVOCETS_RECURVIROSTRIDAE,Black-winged Stilt,,1,1.83437347412,6.28322104824,Africa,Benin,BJ,,Benin - Grand-Popo,2010-01-11,
Elanus caeruleus,Animalia,HAWKS_AND_EAGLES_ACCIPITRIDAE,Black-winged Kite,,1,1.82767868042,6.28322104824,Africa,Benin,BJ,,Benin - Grand-Popo,2010-01-11,
Chlidonias niger,Animalia,GULLS_TERNS_AND_SKIMMERS_LARIDAE,Black Tern,,1,1.86098098755,6.28492734759,Africa,Benin,BJ,,Benin - Grand-Popo,2010-01-11,
Motacilla aguimp,Animalia,PIPITS_EN_WAGTAILS_MOTACILLIDAE,African Pied Wagtail,,1,1.82716369629,6.28100285071,Africa,Benin,BJ,,Benin - Grand-Popo,2010-01-11,
Halcyon senegalensis,Animalia,KINGFISHERS_ALCEDINIDAE,Woodland Kingfisher,,1,2.60307312012,6.46064593467,Africa,Benin,BJ,,Benin - Porto-Novo,2010-01-08,
Numenius phaeopus,Animalia,SANDPIPERS_AND_ALLIES_SCOLOPACIDAE,Eurasian Whimbrel,,1,2.55706787109,6.44154159771,Africa,Benin,BJ,,Benin - Aguégués,2010-01-08,
Ardea alba,Animalia,HERONS_ARDEIDAE,Great Egret,,1,2.55157470703,6.43744771758,Africa,Benin,BJ,,Benin - Aguégués,2010-01-08,
Microcarbo africanus,Animalia,CORMORANTS_PHALACROCORACIDAE,Reed Cormorant,,1,2.46780395508,6.44563544482,Africa,Benin,BJ,,Benin - Sô-Ava,2010-01-08,
Ceryle rudis,Animalia,KINGFISHERS_ALCEDINIDAE,Pied Kingfisher,,1,2.60513305664,6.46269278517,Africa,Benin,BJ,,Benin - Porto-Novo,2010-01-08,
Pandion haliaetus,Animalia,OSPREY_PANDIONIDAE,Western Osprey,,1,2.45819091797,6.45518762619,Africa,Benin,BJ,,Benin - Sô-Ava,2010-01-08,
Egretta garzetta,Animalia,HERONS_ARDEIDAE,Little Egret,,1,2.52479553223,6.43335380444,Africa,Benin,BJ,,Benin - Aguégués,2010-01-08,
Pycnonotus barbatus,Animalia,BULBULS_PYCNONOTIDAE,Common Bulbul,,1,2.3641204834,6.46815101266,Africa,Benin,BJ,,Benin - Abomey-Calavi,2010-01-08,
Hirundo aethiopica,Animalia,SWALLOWS_HIRUNDINIDAE,Ethiopian Swallow,,1,2.56874084473,6.44904695883,Africa,Benin,BJ,,Benin - Aguégués,2010-01-08,
Milvus aegyptius,Animalia,HAWKS_AND_EAGLES_ACCIPITRIDAE,Yellow-billed Kite,,1,2.60925292969,6.47156237492,Africa,Benin,BJ,,Benin - Porto-Novo,2010-01-07,
Streptopelia semitorquata,Animalia,PIGEONS_AND_DOVES_COLUMBIDAE,Red-eyed Dove,,1,2.60925292969,6.47156237492,Africa,Benin,BJ,,Benin - Porto-Novo,2010-01-07,
Ispidina picta,Animalia,KINGFISHERS_ALCEDINIDAE,African Pygmy Kingfisher,,1,2.60925292969,6.47156237492,Africa,Benin,BJ,,Benin - Porto-Novo,2010-01-07,
Halcyon senegalensis,Animalia,KINGFISHERS_ALCEDINIDAE,Woodland Kingfisher,,1,2.60925292969,6.47156237492,Africa,Benin,BJ,,Benin - Porto-Novo,2010-01-07,
Phoeniculus purpureus,Animalia,WOOD_HOOPOES_PHOENICULIDAE,Green Wood Hoopoe,,1,2.60925292969,6.47156237492,Africa,Benin,BJ,,Benin - Porto-Novo,2010-01-07,
Cinnyris venustus,Animalia,SUNBIRDS_NECTARINIIDAE,Variable Sunbird,,1,2.60925292969,6.47156237492,Africa,Benin,BJ,,Benin - Porto-Novo,2010-01-07,
Spermophaga haematina,Animalia,WAXBILLS_MUNIAS_ALLIES_ESTRILDIDAE,Western Bluebill,,1,2.60925292969,6.47156237492,Africa,Benin,BJ,,Benin - Porto-Novo,2010-01-07,
Turdus pelios,Animalia,THRUSHES_TURDIDAE,African Thrush,,1,2.60925292969,6.47156237492,Africa,Benin,BJ,,Benin - Porto-Novo,2010-01-07,
Ploceus aurantius,Animalia,WEAVERS_PLOCEIDAE,Orange Weaver,,1,2.60925292969,6.47156237492,Africa,Benin,BJ,,Benin - Porto-Novo,2010-01-07,
Ploceus nigricollis,Animalia,WEAVERS_PLOCEIDAE,Black-necked Weaver,,1,2.60925292969,6.47156237492,Africa,Benin,BJ,,Benin - Porto-Novo,2010-01-07,
Corvinella corvina,Animalia,SHRIKES_LANIIDAE,Yellow-billed Shrike,,1,2.60925292969,6.47156237492,Africa,Benin,BJ,,Benin - Porto-Novo,2010-01-07,
Crinifer piscator,Animalia,TURACOS_MUSOPHAGIDAE,Western Plantain-eater,,1,2.60925292969,6.47156237492,Africa,Benin,BJ,,Benin - Porto-Novo,2010-01-07,
Centropus monachus,Animalia,CUCKOOS_AND_COUCALS_CUCULIDAE,Blue-headed Coucal,,1,2.60925292969,6.47156237492,Africa,Benin,BJ,,Benin - Porto-Novo,2010-01-07,
Ploceus cucullatus,Animalia,WEAVERS_PLOCEIDAE,Village Weaver,,1,2.60925292969,6.47156237492,Africa,Benin,BJ,,Benin - Porto-Novo,2010-01-07,
Accipiter badius,Animalia,HAWKS_AND_EAGLES_ACCIPITRIDAE,Shikra,,1,2.60925292969,6.47156237492,Africa,Benin,BJ,,Benin - Porto-Novo,2010-01-07,
Cecropis daurica kumboensis,Animalia,SWALLOWS_HIRUNDINIDAE,Red-rumped Swallow ssp kumboensis,,1,1.38221740723,10.3230257604,Africa,Benin,BJ,,Benin - Natitingou,2010-01-03,
Uraeginthus bengalus,Animalia,WAXBILLS_MUNIAS_ALLIES_ESTRILDIDAE,Red-cheeked Cordon-bleu,,1,1.38221740723,10.3230257604,Africa,Benin,BJ,,Benin - Natitingou,2010-01-03,
Corvinella corvina,Animalia,SHRIKES_LANIIDAE,Yellow-billed Shrike,,1,1.38221740723,10.3230257604,Africa,Benin,BJ,,Benin - Natitingou,2010-01-03,
Spilopelia senegalensis,Animalia,PIGEONS_AND_DOVES_COLUMBIDAE,Laughing Dove,,1,1.38221740723,10.3230257604,Africa,Benin,BJ,,Benin - Natitingou,2010-01-03,
Turdus pelios,Animalia,THRUSHES_TURDIDAE,African Thrush,,1,1.38221740723,10.3230257604,Africa,Benin,BJ,,Benin - Natitingou,2010-01-03,
Dicrurus divaricatus divaricatus,Animalia,DRONGOS_DICRURIDAE,Glossy-backed Drongo ssp divaricatus,,1,1.38221740723,10.3230257604,Africa,Benin,BJ,,Benin - Natitingou,2010-01-03,
Necrosyrtes monachus,Animalia,HAWKS_AND_EAGLES_ACCIPITRIDAE,Hooded Vulture,,1,1.38359069824,10.3243768192,Africa,Benin,BJ,,Benin - Natitingou,2010-01-03,
Cecropis daurica kumboensis,Animalia,SWALLOWS_HIRUNDINIDAE,Red-rumped Swallow ssp kumboensis,,1,2.07504272461,7.1765194913,Africa,Benin,BJ,,Benin - Bohicon,2010-01-05,
Merops albicollis,Animalia,BEEEATERS_MEROPIDAE,White-throated Bee-eater,,1,2.07504272461,7.1765194913,Africa,Benin,BJ,,Benin - Bohicon,2010-01-05,
Delichon urbicum,Animalia,SWALLOWS_HIRUNDINIDAE,Common House Martin,,1,2.07572937012,7.17720075711,Africa,Benin,BJ,,Benin - Bohicon,2010-01-05,
Lonchura cucullata,Animalia,WAXBILLS_MUNIAS_ALLIES_ESTRILDIDAE,Bronze Mannikin,,1,2.07572937012,7.17856328566,Africa,Benin,BJ,,Benin - Bohicon,2010-01-05,
Lagonosticta senegala,Animalia,WAXBILLS_MUNIAS_ALLIES_ESTRILDIDAE,Red-billed Firefinch,,1,2.07366943359,7.17856328566,Africa,Benin,BJ,,Benin - Bohicon,2010-01-05,
Ploceus cucullatus,Animalia,WEAVERS_PLOCEIDAE,Village Weaver,,1,2.0743560791,7.17583822448,Africa,Benin,BJ,,Benin - Bohicon,2010-01-05,
Crithagra mozambica,Animalia,FINCHES_FRINGILLIDAE,Yellow-fronted Canary,,1,1.06292724609,10.2770863135,Africa,Benin,BJ,,Benin - Boukoumbé,2010-01-01,
Crinifer piscator,Animalia,TURACOS_MUSOPHAGIDAE,Western Plantain-eater,,1,1.06292724609,10.2770863135,Africa,Benin,BJ,,Benin - Boukoumbé,2010-01-01,
Cinnyris coccinigastrus,Animalia,SUNBIRDS_NECTARINIIDAE,Splendid Sunbird,,1,1.06292724609,10.2770863135,Africa,Benin,BJ,,Benin - Boukoumbé,2010-01-01,
Chalcomitra senegalensis,Animalia,SUNBIRDS_NECTARINIIDAE,Scarlet-chested Sunbird,,1,1.17553710938,10.2716812329,Africa,Benin,BJ,,Benin - Boukoumbé,2010-01-01,
Hedydipna platura,Animalia,SUNBIRDS_NECTARINIIDAE,Pygmy Sunbird,,1,1.15356445312,10.2770863135,Africa,Benin,BJ,,Benin - Boukoumbé,2010-01-01,
Emberiza goslingi,Animalia,BUNTINGS_EMBERIZIDAE,Gosling's Bunting,,1,1.13708496094,10.2716812329,Africa,Benin,BJ,,Benin - Boukoumbé,2010-01-01,
Circaetus cinereus,Animalia,HAWKS_AND_EAGLES_ACCIPITRIDAE,Brown Snake Eagle,,1,1.15905761719,10.268978658,Africa,Benin,BJ,,Benin - Boukoumbé,2010-01-01,
Pycnonotus barbatus inornatus,Animalia,BULBULS_PYCNONOTIDAE,Common Bulbul ssp inornatus,,1,1.8239522,6.28584022,Africa,Benin,BJ,,Benin - Grand-Popo,2010-01-10,
Actitis hypoleucos,Animalia,SANDPIPERS_AND_ALLIES_SCOLOPACIDAE,Common Sandpiper,,1,1.8239522,6.28584022,Africa,Benin,BJ,,Benin - Grand-Popo,2010-01-10,
Pycnonotus barbatus inornatus,Animalia,BULBULS_PYCNONOTIDAE,Common Bulbul ssp inornatus,,1,1.8239522,6.28584022,Africa,Benin,BJ,,Benin - Grand-Popo,2010-01-10,
Himantopus himantopus,Animalia,STILTS_AND_AVOCETS_RECURVIROSTRIDAE,Black-winged Stilt,,1,1.8239522,6.28584022,Africa,Benin,BJ,,Benin - Grand-Popo,2010-01-10,
Charadrius marginatus mechowi,Animalia,PLOVERS_CHARADRIIDAE,White-fronted Plover ssp mechowi,,1,1.8239522,6.28584022,Africa,Benin,BJ,,Benin - Grand-Popo,2010-01-10,
Vidua macroura,Animalia,INDIGOBIRDS_AND_WHYDAHS_VIDUIDAE,Pin-tailed Whydah,,1,1.8239522,6.28584022,Africa,Benin,BJ,,Benin - Grand-Popo,2010-01-10,
Eurystomus glaucurus afer,Animalia,ROLLERS_CORACIIDAE,Broad-billed Roller ssp afer,,1,1.8239522,6.28584022,Africa,Benin,BJ,,Benin - Grand-Popo,2010-01-10,
Ceryle rudis rudis,Animalia,KINGFISHERS_ALCEDINIDAE,Pied Kingfisher ssp rudis,,1,2.54413604,6.42259575,Africa,Benin,BJ,,Benin - Aguégués,2010-01-08,
Ceryle rudis rudis,Animalia,KINGFISHERS_ALCEDINIDAE,Pied Kingfisher ssp rudis,,1,2.54413604,6.42259575,Africa,Benin,BJ,,Benin - Aguégués,2010-01-08,
Halcyon senegalensis fuscopileus,Animalia,KINGFISHERS_ALCEDINIDAE,Woodland Kingfisher ssp fuscopileus,,1,2.54413604,6.42259575,Africa,Benin,BJ,,Benin - Aguégués,2010-01-08,
Halcyon senegalensis fuscopileus,Animalia,KINGFISHERS_ALCEDINIDAE,Woodland Kingfisher ssp fuscopileus,,1,2.60859489,6.47087584,Africa,Benin,BJ,,Benin - Porto-Novo,2010-01-07,
Halcyon senegalensis fuscopileus,Animalia,KINGFISHERS_ALCEDINIDAE,Woodland Kingfisher ssp fuscopileus,,1,2.60859489,6.47087584,Africa,Benin,BJ,,Benin - Porto-Novo,2010-01-07,
Turdus pelios saturatus,Animalia,THRUSHES_TURDIDAE,African Thrush ssp saturatus,,1,2.60859489,6.47087584,Africa,Benin,BJ,,Benin - Porto-Novo,2010-01-07,
Corvinella corvina togoensis,Animalia,SHRIKES_LANIIDAE,Yellow-billed Shrike ssp togoensis,,1,2.60859489,6.47087584,Africa,Benin,BJ,,Benin - Porto-Novo,2010-01-07,
Crinifer piscator,Animalia,TURACOS_MUSOPHAGIDAE,Western Plantain-eater,,1,2.60859489,6.47087584,Africa,Benin,BJ,,Benin - Porto-Novo,2010-01-07,
Uraeginthus bengalus bengalus,Animalia,WAXBILLS_MUNIAS_ALLIES_ESTRILDIDAE,Red-cheeked Cordon-bleu ssp bengalus,,1,1.382,10.323,Africa,Benin,BJ,,Benin - Natitingou,2010-01-03,
Uraeginthus bengalus bengalus,Animalia,WAXBILLS_MUNIAS_ALLIES_ESTRILDIDAE,Red-cheeked Cordon-bleu ssp bengalus,,1,1.382,10.323,Africa,Benin,BJ,,Benin - Natitingou,2010-01-03,
Papilio demodocus,Animalia,SWALLOWTAILS_PAPILIONIDAE,Christmas Butterfly,,1,1.063,10.277,Africa,Benin,BJ,,Benin - Boukoumbé,2010-01-01,
Himantopus himantopus,Animalia,STILTS_AND_AVOCETS_RECURVIROSTRIDAE,Black-winged Stilt,,1,2.3618180555556,6.4475097222222,Africa,Benin,BJ,,Benin - Abomey-Calavi,2019-05-09,09:02
Egretta gularis,Animalia,HERONS_ARDEIDAE,Western Reef Heron,,1,2.0854913888889,6.3327897222222,Africa,Benin,BJ,,Benin - Ouidah,2019-05-07,11:19
Chrysococcyx caprius,Animalia,CUCKOOS_AND_COUCALS_CUCULIDAE,Diederik Cuckoo,,1,2.0871863888889,6.33392,Africa,Benin,BJ,,Benin - Ouidah,2019-05-07,10:24
Ardea alba,Animalia,HERONS_ARDEIDAE,Great Egret,,1,2.361835,6.4475047222222,Africa,Benin,BJ,,Benin - Abomey-Calavi,2019-05-09,08:59
Rostratula benghalensis,Animalia,PAINTED_SNIPES_ROSTRATULIDAE,Greater Painted-snipe,,1,1.2415497222222,10.644461388889,Africa,Benin,BJ,,Benin - Tanguiéta,2018-05-20,19:47
Porphyrio alleni,Animalia,RAILS_RALLIDAE,Allen's Gallinule,,1,2.5288063888889,9.7432863888889,Africa,Benin,BJ,,Benin - N'Dali,2018-08-15,18:38
Spilopelia senegalensis,Animalia,PIGEONS_AND_DOVES_COLUMBIDAE,Laughing Dove,,1,1.82949814,6.2789419,Africa,Benin,BJ,,Benin - Grand-Popo,2013-06-01,
Passer griseus,Animalia,OLD_WORLD_SPARROWS_PASSERIDAE,Northern Grey-headed Sparrow,,1,1.82945078,6.27885388,Africa,Benin,BJ,,Benin - Grand-Popo,2013-06-01,
Halcyon senegalensis senegalensis,Animalia,KINGFISHERS_ALCEDINIDAE,Woodland Kingfisher ssp senegalensis,,1,1.82945078,6.27885388,Africa,Benin,BJ,,Benin - Grand-Popo,2013-06-01,
Merops albicollis,Animalia,BEEEATERS_MEROPIDAE,White-throated Bee-eater,,2,1.82945078,6.27885388,Africa,Benin,BJ,,Benin - Grand-Popo,2013-06-01,
Corythornis cristatus,Animalia,KINGFISHERS_ALCEDINIDAE,Malachite Kingfisher,,1,1.9977951,6.30993199,Africa,Benin,BJ,,Benin - Ouidah,2018-10-02,
Butorides striata,Animalia,HERONS_ARDEIDAE,Striated Heron,,1,2.3507309,6.42274306,Africa,Benin,BJ,,Benin - Abomey-Calavi,2018-10-04,
Centropus senegalensis,Animalia,CUCKOOS_AND_COUCALS_CUCULIDAE,Senegal Coucal,,1,2.3507309,6.42274306,Africa,Benin,BJ,,Benin - Abomey-Calavi,2018-10-04,
Ceryle rudis,Animalia,KINGFISHERS_ALCEDINIDAE,Pied Kingfisher,,12,2.3507309,6.42274306,Africa,Benin,BJ,,Benin - Abomey-Calavi,2018-10-04,
Halcyon senegalensis,Animalia,KINGFISHERS_ALCEDINIDAE,Woodland Kingfisher,,2,2.3507309,6.42274306,Africa,Benin,BJ,,Benin - Abomey-Calavi,2018-10-04,
Gallinula chloropus,Animalia,RAILS_RALLIDAE,Common Moorhen,,1,2.3507309,6.42274306,Africa,Benin,BJ,,Benin - Abomey-Calavi,2018-10-04,
Streptopelia semitorquata,Animalia,PIGEONS_AND_DOVES_COLUMBIDAE,Red-eyed Dove,,1,2.3507309,6.42274306,Africa,Benin,BJ,,Benin - Abomey-Calavi,2018-10-04,
Ciconia abdimii,Animalia,STORKS_CICONIIDAE,Abdim's Stork,,1,1.50587,11.20437806002,Africa,Benin,BJ,,Benin - Boucle de la Pendjari,2018-04-20,08:36
Circus aeruginosus,Animalia,HAWKS_AND_EAGLES_ACCIPITRIDAE,Western Marsh Harrier,,1,1.3586097199964,11.365745,Africa,Benin,BJ,,Benin - Boucle de la Pendjari,2018-04-18,16:20
Torgos tracheliotos,Animalia,HAWKS_AND_EAGLES_ACCIPITRIDAE,Lappet-faced Vulture,,1,1.39902715529907,11.4051442141988,Africa,Benin,BJ,,Benin - Boucle de la Pendjari,2018-02-28,09:20
Trigonoceps occipitalis,Animalia,HAWKS_AND_EAGLES_ACCIPITRIDAE,White-headed Vulture,,6,1.39940206136249,11.4103205963397,Africa,Benin,BJ,,Benin - Boucle de la Pendjari,2018-02-28,09:31
Torgos tracheliotos,Animalia,HAWKS_AND_EAGLES_ACCIPITRIDAE,Lappet-faced Vulture,,30,1.39938702408242,11.4103384248099,Africa,Benin,BJ,,Benin - Boucle de la Pendjari,2018-02-28,09:36
Trigonoceps occipitalis,Animalia,HAWKS_AND_EAGLES_ACCIPITRIDAE,White-headed Vulture,,1,1.40660381955335,11.4392338123675,Africa,Benin,BJ,,Benin - Boucle de la Pendjari,2018-03-01,08:12
Haliaeetus vocifer,Animalia,HAWKS_AND_EAGLES_ACCIPITRIDAE,African Fish Eagle,,1,1.59537637233734,11.3933048248291,Africa,Benin,BJ,,Benin - Boucle de la Pendjari,2018-03-02,09:35
Ardea goliath,Animalia,HERONS_ARDEIDAE,Goliath Heron,,1,1.70808492,11.4143182,Africa,Benin,BJ,,Benin - Boucle de la Pendjari,2018-03-02,16:01
Gymnoris dentata,Animalia,OLD_WORLD_SPARROWS_PASSERIDAE,Sahel Bush Sparrow,,1,1.44746788,10.211573,Africa,Benin,BJ,,Benin - Natitingou,2017-11-14,
Crinifer piscator,Animalia,TURACOS_MUSOPHAGIDAE,Western Plantain-eater,,1,1.20690758,10.19062332,Africa,Benin,BJ,,Benin - Boukoumbé,2017-11-13,
Neotis denhami,Animalia,BUSTARDS_OTIDIDAE,Denham's Bustard,,1,1.58771665,11.24896157,Africa,Benin,BJ,,Benin - Boucle de la Pendjari,2017-11-15,
Emberiza goslingi,Animalia,BUNTINGS_EMBERIZIDAE,Gosling's Bunting,,1,1.19906083,10.18067614,Africa,Benin,BJ,,Benin - Boukoumbé,2017-11-12,
Merops albicollis,Animalia,BEEEATERS_MEROPIDAE,White-throated Bee-eater,,1,2.08861079,6.32568219,Africa,Benin,BJ,,Benin - Ouidah,2017-11-04,
Turdus pelios,Animalia,THRUSHES_TURDIDAE,African Thrush,,1,2.09798948,6.36081837,Africa,Benin,BJ,,Benin - Ouidah,2017-11-04,
Turdus pelios,Animalia,THRUSHES_TURDIDAE,African Thrush,,1,2.59953727,6.53275557,Africa,Benin,BJ,,Benin - Akpro-Missérété,2017-11-08,
Passer griseus,Animalia,OLD_WORLD_SPARROWS_PASSERIDAE,Northern Grey-headed Sparrow,,1,2.41447381,6.46809867,Africa,Benin,BJ,,Benin - Sô-Ava,2017-11-06,
Falco tinnunculus,Animalia,CARACAS_AND_FALCONS_FALCONIDAE,Common Kestrel,,1,2.41447381,6.46809867,Africa,Benin,BJ,,Benin - Sô-Ava,2017-11-06,
Passer griseus,Animalia,OLD_WORLD_SPARROWS_PASSERIDAE,Northern Grey-headed Sparrow,,1,2.41447381,6.46809867,Africa,Benin,BJ,,Benin - Sô-Ava,2017-11-06,
Motacilla aguimp,Animalia,PIPITS_EN_WAGTAILS_MOTACILLIDAE,African Pied Wagtail,,1,2.41447381,6.46809867,Africa,Benin,BJ,,Benin - Sô-Ava,2017-11-06,
Gallinula chloropus,Animalia,RAILS_RALLIDAE,Common Moorhen,,1,2.41558757,6.46310173,Africa,Benin,BJ,,Benin - Sô-Ava,2017-11-07,
Microcarbo africanus,Animalia,CORMORANTS_PHALACROCORACIDAE,Reed Cormorant,,1,2.41558757,6.46310173,Africa,Benin,BJ,,Benin - Sô-Ava,2017-11-07,
Lonchura cucullata,Animalia,WAXBILLS_MUNIAS_ALLIES_ESTRILDIDAE,Bronze Mannikin,,1,2.18974557,7.77568302,Africa,Benin,BJ,,Benin - Dassa-Zoumè,2017-11-11,
Lophoceros fasciatus,Animalia,HORNBILLS_BUCEROTIDAE,African Pied Hornbill,,1,2.25952163,7.77294043,Africa,Benin,BJ,,Benin - Dassa-Zoumè,2017-11-11,
Kaupifalco monogrammicus,Animalia,HAWKS_AND_EAGLES_ACCIPITRIDAE,Lizard Buzzard,,1,1.20721464,10.18422351,Africa,Benin,BJ,,Benin - Boukoumbé,2017-11-13,
Lamprotornis caudatus,Animalia,STARLINGS_STURNIDAE,Long-tailed Glossy Starling,,1,1.20721464,10.18422351,Africa,Benin,BJ,,Benin - Boukoumbé,2017-11-13,
Lophoceros nasutus,Animalia,HORNBILLS_BUCEROTIDAE,African Grey Hornbill,,1,1.20721464,10.18422351,Africa,Benin,BJ,,Benin - Boukoumbé,2017-11-13,
Centropus senegalensis,Animalia,CUCKOOS_AND_COUCALS_CUCULIDAE,Senegal Coucal,,1,1.20721464,10.18422351,Africa,Benin,BJ,,Benin - Boukoumbé,2017-11-13,
Lybius dubius,Animalia,Lybiidae,Bearded Barbet,,1,1.20516983,10.18624856,Africa,Benin,BJ,,Benin - Boukoumbé,2017-11-14,
Numida meleagris,Animalia,GUINEAFOWL_NUMIDIDAE,Helmeted Guineafowl,,1,1.20193149,10.18716783,Africa,Benin,BJ,,Benin - Boukoumbé,2017-11-14,
Ploceus cucullatus,Animalia,WEAVERS_PLOCEIDAE,Village Weaver,,1,2.62624172,6.470525,Africa,Benin,BJ,,Benin - Porto-Novo,2017-11-07,
Euplectes franciscanus,Animalia,WEAVERS_PLOCEIDAE,Northern Red Bishop,,1,2.01234845,7.17779356,Africa,Benin,BJ,,Benin - Abomey,2017-11-10,
Butastur rufipennis,Animalia,HAWKS_AND_EAGLES_ACCIPITRIDAE,Grasshopper Buzzard,,1,1.53792107,11.35074289,Africa,Benin,BJ,,Benin - Boucle de la Pendjari,2017-11-16,
Balearica pavonina,Animalia,CRANES_GRUIDAE,Black Crowned Crane,,1,1.53792107,11.35074289,Africa,Benin,BJ,,Benin - Boucle de la Pendjari,2017-11-16,
Bucorvus abyssinicus,Animalia,GROUND_HORNBILLS_BUCORVIDAE,Abyssinian Ground Hornbill,,1,1.53792107,11.35074289,Africa,Benin,BJ,,Benin - Boucle de la Pendjari,2017-11-16,
Ardea cinerea,Animalia,HERONS_ARDEIDAE,Grey Heron,,1,1.53792107,11.35074289,Africa,Benin,BJ,,Benin - Boucle de la Pendjari,2017-11-16,
Haliaeetus vocifer,Animalia,HAWKS_AND_EAGLES_ACCIPITRIDAE,African Fish Eagle,,1,1.53792107,11.35074289,Africa,Benin,BJ,,Benin - Boucle de la Pendjari,2017-11-16,
Scopus umbretta,Animalia,HAMERKOP_SCOPIDAE,Hamerkop,,1,1.53792107,11.35074289,Africa,Benin,BJ,,Benin - Boucle de la Pendjari,2017-11-16,
Falco ardosiaceus,Animalia,CARACAS_AND_FALCONS_FALCONIDAE,Grey Kestrel,,1,1.53792107,11.35074289,Africa,Benin,BJ,,Benin - Boucle de la Pendjari,2017-11-16,
Vanellus senegallus,Animalia,PLOVERS_CHARADRIIDAE,African Wattled Lapwing,,1,1.53792107,11.35074289,Africa,Benin,BJ,,Benin - Boucle de la Pendjari,2017-11-16,
Numida meleagris,Animalia,GUINEAFOWL_NUMIDIDAE,Helmeted Guineafowl,,1,1.53792107,11.35074289,Africa,Benin,BJ,,Benin - Boucle de la Pendjari,2017-11-16,
Lophoceros nasutus,Animalia,HORNBILLS_BUCEROTIDAE,African Grey Hornbill,,1,1.53792107,11.35074289,Africa,Benin,BJ,,Benin - Boucle de la Pendjari,2017-11-16,
Bostrychia hagedash,Animalia,IBISSES_AND_SPOONBILLS_THRESKIORNITHIDAE,Hadada Ibis,,1,1.53792107,11.35074289,Africa,Benin,BJ,,Benin - Boucle de la Pendjari,2017-11-16,
Gyps rueppelli,Animalia,HAWKS_AND_EAGLES_ACCIPITRIDAE,Rüppell's Vulture,,1,1.59297636,11.24722404,Africa,Benin,BJ,,Benin - Boucle de la Pendjari,2017-11-15,
Leptoptilos crumenifer,Animalia,STORKS_CICONIIDAE,Marabou Stork,,1,1.59297636,11.24722404,Africa,Benin,BJ,,Benin - Boucle de la Pendjari,2017-11-15,
Ciconia episcopus,Animalia,STORKS_CICONIIDAE,Woolly-necked Stork,,1,1.59297636,11.24722404,Africa,Benin,BJ,,Benin - Boucle de la Pendjari,2017-11-15,
Ephippiorhynchus senegalensis,Animalia,STORKS_CICONIIDAE,Saddle-billed Stork,,1,1.59297636,11.24722404,Africa,Benin,BJ,,Benin - Boucle de la Pendjari,2017-11-15,
Lamprotornis caudatus,Animalia,STARLINGS_STURNIDAE,Long-tailed Glossy Starling,,1,1.59297636,11.24722404,Africa,Benin,BJ,,Benin - Boucle de la Pendjari,2017-11-15,
Pternistis bicalcaratus,Animalia,FRANCOLINS_QUAILS_PARTRIDGES_AND_PHEASANTS_PHASIANIDAE,Double-spurred Spurfowl,,1,1.59297636,11.24722404,Africa,Benin,BJ,,Benin - Boucle de la Pendjari,2017-11-15,
Vanellus spinosus,Animalia,PLOVERS_CHARADRIIDAE,Spur-winged Lapwing,,1,1.59297636,11.24722404,Africa,Benin,BJ,,Benin - Boucle de la Pendjari,2017-11-15,
Milvus aegyptius,Animalia,HAWKS_AND_EAGLES_ACCIPITRIDAE,Yellow-billed Kite,,1,1.59297636,11.24722404,Africa,Benin,BJ,,Benin - Boucle de la Pendjari,2017-11-15,
Ardea melanocephala,Animalia,HERONS_ARDEIDAE,Black-headed Heron,,1,1.59297636,11.24722404,Africa,Benin,BJ,,Benin - Boucle de la Pendjari,2017-11-15,
Balearica pavonina,Animalia,CRANES_GRUIDAE,Black Crowned Crane,,1,1.59297636,11.24722404,Africa,Benin,BJ,,Benin - Boucle de la Pendjari,2017-11-15,
Ardea cinerea,Animalia,HERONS_ARDEIDAE,Grey Heron,,1,1.59297636,11.24722404,Africa,Benin,BJ,,Benin - Boucle de la Pendjari,2017-11-15,
Actophilornis africanus,Animalia,JACANAS_JACANIDAE,African Jacana,,1,1.59297636,11.24722404,Africa,Benin,BJ,,Benin - Boucle de la Pendjari,2017-11-15,
Haliaeetus vocifer,Animalia,HAWKS_AND_EAGLES_ACCIPITRIDAE,African Fish Eagle,,1,1.59297636,11.24722404,Africa,Benin,BJ,,Benin - Boucle de la Pendjari,2017-11-15,
Coracias abyssinicus,Animalia,ROLLERS_CORACIIDAE,Abyssinian Roller,,1,1.59297636,11.24722404,Africa,Benin,BJ,,Benin - Boucle de la Pendjari,2017-11-15,
Coracias naevius,Animalia,ROLLERS_CORACIIDAE,Purple Roller,,1,1.59297636,11.24722404,Africa,Benin,BJ,,Benin - Boucle de la Pendjari,2017-11-15,
Crinifer piscator,Animalia,TURACOS_MUSOPHAGIDAE,Western Plantain-eater,,1,1.59297636,11.24722404,Africa,Benin,BJ,,Benin - Boucle de la Pendjari,2017-11-15,
Milvus aegyptius,Animalia,HAWKS_AND_EAGLES_ACCIPITRIDAE,Yellow-billed Kite,,1,1.59297636,11.24722404,Africa,Benin,BJ,,Benin - Boucle de la Pendjari,2017-11-15,
Corythornis cristatus,Animalia,KINGFISHERS_ALCEDINIDAE,Malachite Kingfisher,,1,2.56267776,6.44305974,Africa,Benin,BJ,,Benin - Aguégués,2017-11-07,
Ceryle rudis,Animalia,KINGFISHERS_ALCEDINIDAE,Pied Kingfisher,,1,2.56267776,6.44305974,Africa,Benin,BJ,,Benin - Aguégués,2017-11-07,
Milvus aegyptius,Animalia,HAWKS_AND_EAGLES_ACCIPITRIDAE,Yellow-billed Kite,,1,2.56267776,6.44305974,Africa,Benin,BJ,,Benin - Aguégués,2017-11-07,
Butorides striata,Animalia,HERONS_ARDEIDAE,Striated Heron,,1,2.56267776,6.44305974,Africa,Benin,BJ,,Benin - Aguégués,2017-11-07,
Halcyon senegalensis,Animalia,KINGFISHERS_ALCEDINIDAE,Woodland Kingfisher,,1,2.56267776,6.44305974,Africa,Benin,BJ,,Benin - Aguégués,2017-11-07,
Thalasseus sandvicensis,Animalia,GULLS_TERNS_AND_SKIMMERS_LARIDAE,Sandwich Tern,,1,2.47478714,6.45900162,Africa,Benin,BJ,,Benin - Sô-Ava,2017-11-07,
Ardeola ralloides,Animalia,HERONS_ARDEIDAE,Squacco Heron,,1,2.40771131,6.48364609,Africa,Benin,BJ,,Benin - Abomey-Calavi,2017-11-06,
Ceryle rudis,Animalia,KINGFISHERS_ALCEDINIDAE,Pied Kingfisher,,1,2.40771131,6.48364609,Africa,Benin,BJ,,Benin - Abomey-Calavi,2017-11-06,
Halcyon senegalensis,Animalia,KINGFISHERS_ALCEDINIDAE,Woodland Kingfisher,,1,2.40771131,6.48364609,Africa,Benin,BJ,,Benin - Abomey-Calavi,2017-11-06,
Bubulcus ibis,Animalia,HERONS_ARDEIDAE,Western Cattle Egret,,1,2.40771131,6.48364609,Africa,Benin,BJ,,Benin - Abomey-Calavi,2017-11-06,
Ardea purpurea,Animalia,HERONS_ARDEIDAE,Purple Heron,,1,2.40771131,6.48364609,Africa,Benin,BJ,,Benin - Abomey-Calavi,2017-11-06,
Merops albicollis,Animalia,BEEEATERS_MEROPIDAE,White-throated Bee-eater,,1,2.40771131,6.48364609,Africa,Benin,BJ,,Benin - Abomey-Calavi,2017-11-06,
Coracias naevius,Animalia,ROLLERS_CORACIIDAE,Purple Roller,,1,2.29815402,6.34681913,Africa,Benin,BJ,,Benin - Abomey-Calavi,2017-11-04,
Bubulcus ibis,Animalia,HERONS_ARDEIDAE,Western Cattle Egret,,1,2.29815402,6.34681913,Africa,Benin,BJ,,Benin - Abomey-Calavi,2017-11-04,
Vidua macroura,Animalia,INDIGOBIRDS_AND_WHYDAHS_VIDUIDAE,Pin-tailed Whydah,,1,1.83100285,6.27929862,Africa,Benin,BJ,,Benin - Grand-Popo,2017-11-03,
Motacilla aguimp,Animalia,PIPITS_EN_WAGTAILS_MOTACILLIDAE,African Pied Wagtail,,1,1.83100285,6.27929862,Africa,Benin,BJ,,Benin - Grand-Popo,2017-11-03,
Microcarbo africanus,Animalia,CORMORANTS_PHALACROCORACIDAE,Reed Cormorant,,1,1.88984885,6.29285261,Africa,Benin,BJ,,Benin - Grand-Popo,2017-11-02,
Microcarbo africanus,Animalia,CORMORANTS_PHALACROCORACIDAE,Reed Cormorant,,1,1.88984885,6.29285261,Africa,Benin,BJ,,Benin - Grand-Popo,2017-11-02,
Egretta gularis,Animalia,HERONS_ARDEIDAE,Western Reef Heron,,1,1.88984885,6.29285261,Africa,Benin,BJ,,Benin - Grand-Popo,2017-11-02,
Egretta gularis,Animalia,HERONS_ARDEIDAE,Western Reef Heron,,1,1.88984885,6.29285261,Africa,Benin,BJ,,Benin - Grand-Popo,2017-11-02,
Egretta garzetta,Animalia,HERONS_ARDEIDAE,Little Egret,,1,1.88984885,6.29285261,Africa,Benin,BJ,,Benin - Grand-Popo,2017-11-02,
Egretta garzetta,Animalia,HERONS_ARDEIDAE,Little Egret,,1,1.88984885,6.29285261,Africa,Benin,BJ,,Benin - Grand-Popo,2017-11-02,
Egretta ardesiaca,Animalia,HERONS_ARDEIDAE,Black Heron,,1,1.88984885,6.29285261,Africa,Benin,BJ,,Benin - Grand-Popo,2017-11-02,
Ardea alba,Animalia,HERONS_ARDEIDAE,Great Egret,,1,1.88984885,6.29285261,Africa,Benin,BJ,,Benin - Grand-Popo,2017-11-02,
Anastomus lamelligerus,Animalia,STORKS_CICONIIDAE,African Openbill,,1,1.88975444,6.29283981,Africa,Benin,BJ,,Benin - Grand-Popo,2017-11-02,
Tholymis tillarga,Animalia,SKIMMERS_LIBELLULIDAE,Twister,,1,2.08882593,6.33545793,Africa,Benin,BJ,,Benin - Ouidah,2016-08-07,
Vidua macroura,Animalia,INDIGOBIRDS_AND_WHYDAHS_VIDUIDAE,Pin-tailed Whydah,,1,1.8846869808002378,6.326989043410589,Africa,Benin,BJ,,Benin - Grand-Popo,2011-07-24,
Merops albicollis,Animalia,BEEEATERS_MEROPIDAE,White-throated Bee-eater,,1,2.02726364,6.31758484,Africa,Benin,BJ,,Benin - Ouidah,2017-02-19,13:00
Egretta gularis,Animalia,HERONS_ARDEIDAE,Western Reef Heron,,1,2.02726364,6.31758484,Africa,Benin,BJ,,Benin - Ouidah,2017-02-19,13:00
Papilio demodocus,Animalia,SWALLOWTAILS_PAPILIONIDAE,Christmas Butterfly,,1,2.3504645,6.42228078,Africa,Benin,BJ,,Benin - Abomey-Calavi,2017-01-21,10:00
Zizeeria knysna,Animalia,GOSSAMERWINGED_BUTTERFLIES_LYCAENIDAE,African Grass Blue,,5000,2.35138922,6.42211456,Africa,Benin,BJ,,Benin - Abomey-Calavi,2017-01-21,10:00
Leptotes spec.,Animalia,GOSSAMERWINGED_BUTTERFLIES_LYCAENIDAE,,,20,2.35114589,6.42201968,Africa,Benin,BJ,,Benin - Abomey-Calavi,2017-01-21,10:00
Mylothris chloris,Animalia,WHITES_PIERIDAE,Common Dotted Border,,1,2.35183253,6.42114543,Africa,Benin,BJ,,Benin - Abomey-Calavi,2017-01-30,09:00
Papilio demodocus,Animalia,SWALLOWTAILS_PAPILIONIDAE,Christmas Butterfly,,1,2.352,6.626,Africa,Benin,BJ,,Benin - Abomey-Calavi,2017-01-23,15:00
Ardeola ralloides,Animalia,HERONS_ARDEIDAE,Squacco Heron,,1,2.35108128439166,6.42262735612382,Africa,Benin,BJ,,Benin - Abomey-Calavi,2017-01-30,07:44
Microcarbo africanus,Animalia,CORMORANTS_PHALACROCORACIDAE,Reed Cormorant,,1,2.35108128439166,6.42262735612382,Africa,Benin,BJ,,Benin - Abomey-Calavi,2017-01-30,07:44
Ceryle rudis,Animalia,KINGFISHERS_ALCEDINIDAE,Pied Kingfisher,,1,2.35108128439166,6.42262735612382,Africa,Benin,BJ,,Benin - Abomey-Calavi,2017-01-30,07:44
Ardea purpurea,Animalia,HERONS_ARDEIDAE,Purple Heron,,1,2.35108128439166,6.42262735612382,Africa,Benin,BJ,,Benin - Abomey-Calavi,2017-01-30,07:45
Egretta ardesiaca,Animalia,HERONS_ARDEIDAE,Black Heron,,1,2.35108128439166,6.42262735612382,Africa,Benin,BJ,,Benin - Abomey-Calavi,2017-01-30,07:45
Ardea intermedia,Animalia,HERONS_ARDEIDAE,Intermediate Egret,,1,2.35108128439166,6.42262735612382,Africa,Benin,BJ,,Benin - Abomey-Calavi,2017-01-30,07:46
Bubulcus ibis,Animalia,HERONS_ARDEIDAE,Western Cattle Egret,,1,2.35131256075278,6.42252602126822,Africa,Benin,BJ,,Benin - Abomey-Calavi,2017-01-30,07:47
Pycnonotus barbatus,Animalia,BULBULS_PYCNONOTIDAE,Common Bulbul,,1,2.35078090130855,6.42164033308262,Africa,Benin,BJ,,Benin - Abomey-Calavi,2017-01-30,07:53
Butorides striata,Animalia,HERONS_ARDEIDAE,Striated Heron,,1,2.35079146468903,6.42163451428786,Africa,Benin,BJ,,Benin - Abomey-Calavi,2017-01-30,07:53
Himantopus himantopus,Animalia,STILTS_AND_AVOCETS_RECURVIROSTRIDAE,Black-winged Stilt,,1,2.35193001278401,6.42105564635458,Africa,Benin,BJ,,Benin - Abomey-Calavi,2017-01-30,08:02
Corvinella corvina,Animalia,SHRIKES_LANIIDAE,Yellow-billed Shrike,,1,2.3502223774445,6.42242902277811,Africa,Benin,BJ,,Benin - Abomey-Calavi,2017-01-30,08:24
Centropus senegalensis,Animalia,CUCKOOS_AND_COUCALS_CUCULIDAE,Senegal Coucal,,1,2.35014947370456,6.42257192714607,Africa,Benin,BJ,,Benin - Abomey-Calavi,2017-01-30,08:25
Corvinella corvina,Animalia,SHRIKES_LANIIDAE,Yellow-billed Shrike,,3,2.34933889052429,6.42303123819196,Africa,Benin,BJ,,Benin - Abomey-Calavi,2017-01-30,11:36
Butorides striata,Animalia,HERONS_ARDEIDAE,Striated Heron,,1,1.94362015793234,6.38669454277437,Africa,Benin,BJ,,Benin - Comè,2017-01-29,11:24
Tringa nebularia,Animalia,SANDPIPERS_AND_ALLIES_SCOLOPACIDAE,Common Greenshank,,1,1.94439182542095,6.3858074597113,Africa,Benin,BJ,,Benin - Comè,2017-01-29,11:26
Tringa totanus,Animalia,SANDPIPERS_AND_ALLIES_SCOLOPACIDAE,Common Redshank,,1,1.94490208212918,6.3853801755064,Africa,Benin,BJ,,Benin - Comè,2017-01-29,11:29
Milvus aegyptius,Animalia,HAWKS_AND_EAGLES_ACCIPITRIDAE,Yellow-billed Kite,,8,1.94498748789215,6.38531481118587,Africa,Benin,BJ,,Benin - Comè,2017-01-29,11:29
Butorides striata,Animalia,HERONS_ARDEIDAE,Striated Heron,,1,1.94558028774142,6.38436210078226,Africa,Benin,BJ,,Benin - Comè,2017-01-29,11:32
Microcarbo africanus,Animalia,CORMORANTS_PHALACROCORACIDAE,Reed Cormorant,,1,1.94559353312691,6.3843272402988,Africa,Benin,BJ,,Benin - Comè,2017-01-29,11:32
Butorides striata,Animalia,HERONS_ARDEIDAE,Striated Heron,,1,1.94568684519118,6.3840390008904,Africa,Benin,BJ,,Benin - Comè,2017-01-29,11:34
Corythornis cristatus,Animalia,KINGFISHERS_ALCEDINIDAE,Malachite Kingfisher,,1,1.94592696728158,6.38375170261491,Africa,Benin,BJ,,Benin - Comè,2017-01-29,11:35
Microcarbo africanus,Animalia,CORMORANTS_PHALACROCORACIDAE,Reed Cormorant,,1,1.94689159466079,6.38288989921173,Africa,Benin,BJ,,Benin - Comè,2017-01-29,11:40
Butorides striata,Animalia,HERONS_ARDEIDAE,Striated Heron,,1,1.94772232826113,6.38156559651877,Africa,Benin,BJ,,Benin - Comè,2017-01-29,11:45
Milvus aegyptius,Animalia,HAWKS_AND_EAGLES_ACCIPITRIDAE,Yellow-billed Kite,,1,1.94775378041235,6.38152675740491,Africa,Benin,BJ,,Benin - Comè,2017-01-29,11:46
Corythornis cristatus,Animalia,KINGFISHERS_ALCEDINIDAE,Malachite Kingfisher,,1,1.94978846845172,6.37885112794441,Africa,Benin,BJ,,Benin - Comè,2017-01-29,11:57
Corythornis cristatus,Animalia,KINGFISHERS_ALCEDINIDAE,Malachite Kingfisher,,1,1.94948878843663,6.37842602039308,Africa,Benin,BJ,,Benin - Comè,2017-01-29,11:58
Milvus aegyptius,Animalia,HAWKS_AND_EAGLES_ACCIPITRIDAE,Yellow-billed Kite,,6,1.94920127731935,6.37820537271135,Africa,Benin,BJ,,Benin - Comè,2017-01-29,11:59
Butorides striata,Animalia,HERONS_ARDEIDAE,Striated Heron,,1,1.94703741442699,6.37795044548635,Africa,Benin,BJ,,Benin - Comè,2017-01-29,12:11
Milvus aegyptius,Animalia,HAWKS_AND_EAGLES_ACCIPITRIDAE,Yellow-billed Kite,,2,1.94697352032644,6.37780716201628,Africa,Benin,BJ,,Benin - Comè,2017-01-29,12:23
Microcarbo africanus,Animalia,CORMORANTS_PHALACROCORACIDAE,Reed Cormorant,,1,1.9466731696239,6.37704663771362,Africa,Benin,BJ,,Benin - Comè,2017-01-29,12:26
Milvus aegyptius,Animalia,HAWKS_AND_EAGLES_ACCIPITRIDAE,Yellow-billed Kite,,8,1.97121825084822,6.53264013351612,Africa,Benin,BJ,,Benin - Bopa,2017-01-29,13:36
Lamprotornis purpureus,Animalia,STARLINGS_STURNIDAE,Purple Starling,,2,2.3501444,6.42300013,Africa,Benin,BJ,,Benin - Abomey-Calavi,2017-01-22,17:00
Dendropicos goertae,Animalia,WOODPECKERS_PICIDAE,African Grey Woodpecker,,2,2.35045822,6.42289085,Africa,Benin,BJ,,Benin - Abomey-Calavi,2017-01-22,16:00
Ploceus nigerrimus,Animalia,WEAVERS_PLOCEIDAE,Vieillot's Black Weaver,,50,2.3521,6.6261,Africa,Benin,BJ,,Benin - Abomey-Calavi,2017-01-23,16:56
Nycticorax nycticorax,Animalia,HERONS_ARDEIDAE,Black-crowned Night Heron,,4,2.3504,6.4224,Africa,Benin,BJ,,Benin - Abomey-Calavi,2017-01-21,19:20
Motacilla aguimp,Animalia,PIPITS_EN_WAGTAILS_MOTACILLIDAE,African Pied Wagtail,,1,2.391,6.4683,Africa,Benin,BJ,,Benin - Abomey-Calavi,2017-01-22,12:22
Centropus senegalensis,Animalia,CUCKOOS_AND_COUCALS_CUCULIDAE,Senegal Coucal,,1,2.3914,6.4762,Africa,Benin,BJ,,Benin - Abomey-Calavi,2017-01-22,12:42
Nycticorax nycticorax,Animalia,HERONS_ARDEIDAE,Black-crowned Night Heron,,3,2.3604,6.3888,Africa,Benin,BJ,,Benin - Abomey-Calavi,2017-01-24,09:04
Columba guinea,Animalia,PIGEONS_AND_DOVES_COLUMBIDAE,Speckled Pigeon,,3,2.3679,6.3868,Africa,Benin,BJ,,Benin - Abomey-Calavi,2017-01-24,09:09
Milvus aegyptius,Animalia,HAWKS_AND_EAGLES_ACCIPITRIDAE,Yellow-billed Kite,,4,1.97964908462314,6.6019791937152,Africa,Benin,BJ,,Benin - Bopa,2017-01-28,11:54
Milvus aegyptius,Animalia,HAWKS_AND_EAGLES_ACCIPITRIDAE,Yellow-billed Kite,,1,1.98063669650757,6.60220725465288,Africa,Benin,BJ,,Benin - Bopa,2017-01-28,11:55
Milvus aegyptius,Animalia,HAWKS_AND_EAGLES_ACCIPITRIDAE,Yellow-billed Kite,,1,1.98473550596504,6.60213937650559,Africa,Benin,BJ,,Benin - Bopa,2017-01-28,11:58
Milvus aegyptius,Animalia,HAWKS_AND_EAGLES_ACCIPITRIDAE,Yellow-billed Kite,,1,1.99070175250684,6.60161381090175,Africa,Benin,BJ,,Benin - Allada,2017-01-28,12:00
Milvus aegyptius,Animalia,HAWKS_AND_EAGLES_ACCIPITRIDAE,Yellow-billed Kite,,2,1.99402852962773,6.60194982229053,Africa,Benin,BJ,,Benin - Allada,2017-01-28,12:03
Milvus aegyptius,Animalia,HAWKS_AND_EAGLES_ACCIPITRIDAE,Yellow-billed Kite,,1,1.99651230398816,6.60362572218817,Africa,Benin,BJ,,Benin - Allada,2017-01-28,12:17
Milvus aegyptius,Animalia,HAWKS_AND_EAGLES_ACCIPITRIDAE,Yellow-billed Kite,,1,1.99403183100379,6.60184643014003,Africa,Benin,BJ,,Benin - Allada,2017-01-28,12:19
Milvus aegyptius,Animalia,HAWKS_AND_EAGLES_ACCIPITRIDAE,Yellow-billed Kite,,1,1.99374120739203,6.58694462731167,Africa,Benin,BJ,,Benin - Kpomassè,2017-01-28,12:28
Milvus aegyptius,Animalia,HAWKS_AND_EAGLES_ACCIPITRIDAE,Yellow-billed Kite,,2,1.99306050063953,6.58110448374822,Africa,Benin,BJ,,Benin - Kpomassè,2017-01-28,12:31
Milvus aegyptius,Animalia,HAWKS_AND_EAGLES_ACCIPITRIDAE,Yellow-billed Kite,,1,1.9904923913188,6.56773524496558,Africa,Benin,BJ,,Benin - Kpomassè,2017-01-28,12:37
Milvus aegyptius,Animalia,HAWKS_AND_EAGLES_ACCIPITRIDAE,Yellow-billed Kite,,5,1.98997297531187,6.56489231801781,Africa,Benin,BJ,,Benin - Bopa,2017-01-28,12:38
Milvus aegyptius,Animalia,HAWKS_AND_EAGLES_ACCIPITRIDAE,Yellow-billed Kite,,5,1.9904791976184,6.54342144237237,Africa,Benin,BJ,,Benin - Bopa,2017-01-28,12:53
Milvus aegyptius,Animalia,HAWKS_AND_EAGLES_ACCIPITRIDAE,Yellow-billed Kite,,40,1.9925496444864,6.5341416596375,Africa,Benin,BJ,,Benin - Bopa,2017-01-28,12:57
Milvus aegyptius,Animalia,HAWKS_AND_EAGLES_ACCIPITRIDAE,Yellow-billed Kite,,10,1.99280793303757,6.52802514846966,Africa,Benin,BJ,,Benin - Bopa,2017-01-28,13:04
Milvus aegyptius,Animalia,HAWKS_AND_EAGLES_ACCIPITRIDAE,Yellow-billed Kite,,4,1.99216826047053,6.52729129116735,Africa,Benin,BJ,,Benin - Bopa,2017-01-28,13:04
Milvus aegyptius,Animalia,HAWKS_AND_EAGLES_ACCIPITRIDAE,Yellow-billed Kite,,5,1.99149104712129,6.52402003512769,Africa,Benin,BJ,,Benin - Bopa,2017-01-28,13:07
Milvus aegyptius,Animalia,HAWKS_AND_EAGLES_ACCIPITRIDAE,Yellow-billed Kite,,3,1.99259940766423,6.52195115608902,Africa,Benin,BJ,,Benin - Bopa,2017-01-28,13:10
Milvus aegyptius,Animalia,HAWKS_AND_EAGLES_ACCIPITRIDAE,Yellow-billed Kite,,2,1.99581747998283,6.51502753766931,Africa,Benin,BJ,,Benin - Kpomassè,2017-01-28,13:15
Milvus aegyptius,Animalia,HAWKS_AND_EAGLES_ACCIPITRIDAE,Yellow-billed Kite,,15,1.99702667991702,6.51206851884528,Africa,Benin,BJ,,Benin - Kpomassè,2017-01-28,13:16
Milvus aegyptius,Animalia,HAWKS_AND_EAGLES_ACCIPITRIDAE,Yellow-billed Kite,,4,1.99519367419269,6.49577775400086,Africa,Benin,BJ,,Benin - Kpomassè,2017-01-28,13:25
Milvus aegyptius,Animalia,HAWKS_AND_EAGLES_ACCIPITRIDAE,Yellow-billed Kite,,1,1.98877453595174,6.48126615041086,Africa,Benin,BJ,,Benin,2017-01-28,13:31
Milvus aegyptius,Animalia,HAWKS_AND_EAGLES_ACCIPITRIDAE,Yellow-billed Kite,,1,1.98742609073044,6.47835138349198,Africa,Benin,BJ,,Benin - Bopa,2017-01-28,13:32
Milvus aegyptius,Animalia,HAWKS_AND_EAGLES_ACCIPITRIDAE,Yellow-billed Kite,,10,1.98425044897284,6.47214169719931,Africa,Benin,BJ,,Benin - Bopa,2017-01-28,13:35
Milvus aegyptius,Animalia,HAWKS_AND_EAGLES_ACCIPITRIDAE,Yellow-billed Kite,,2,1.98227598414576,6.46738268378213,Africa,Benin,BJ,,Benin - Comè,2017-01-28,13:37
Milvus aegyptius,Animalia,HAWKS_AND_EAGLES_ACCIPITRIDAE,Yellow-billed Kite,,6,1.98131875076369,6.46574577670167,Africa,Benin,BJ,,Benin - Comè,2017-01-28,13:38
Milvus aegyptius,Animalia,HAWKS_AND_EAGLES_ACCIPITRIDAE,Yellow-billed Kite,,5,1.97960868208148,6.46355637928528,Africa,Benin,BJ,,Benin - Comè,2017-01-28,13:39
Milvus aegyptius,Animalia,HAWKS_AND_EAGLES_ACCIPITRIDAE,Yellow-billed Kite,,4,1.97833188009974,6.46080803673022,Africa,Benin,BJ,,Benin - Comè,2017-01-28,13:40
Microcarbo africanus,Animalia,CORMORANTS_PHALACROCORACIDAE,Reed Cormorant,,1,1.967447724149,6.4521990737328,Africa,Benin,BJ,,Benin - Comè,2017-01-28,13:49
Microcarbo africanus,Animalia,CORMORANTS_PHALACROCORACIDAE,Reed Cormorant,,2,1.96093081070324,6.45425770229318,Africa,Benin,BJ,,Benin - Comè,2017-01-28,13:53
Microcarbo africanus,Animalia,CORMORANTS_PHALACROCORACIDAE,Reed Cormorant,,1,1.95895876734369,6.45128149640738,Africa,Benin,BJ,,Benin - Comè,2017-01-28,13:55
Dendrocygna viduata,Animalia,DUCKS_GEESE_AND_SWANS_ANATIDAE,White-faced Whistling Duck,,40,1.95542003342768,6.45019187136628,Africa,Benin,BJ,,Benin - Comè,2017-01-28,13:57
Microcarbo africanus,Animalia,CORMORANTS_PHALACROCORACIDAE,Reed Cormorant,,1,1.94807902245298,6.44399835852823,Africa,Benin,BJ,,Benin - Comè,2017-01-28,14:02
Chlidonias hybrida,Animalia,GULLS_TERNS_AND_SKIMMERS_LARIDAE,Whiskered Tern,,1,1.94181478524849,6.4220092868928,Africa,Benin,BJ,,Benin - Comè,2017-01-28,14:11
Microcarbo africanus,Animalia,CORMORANTS_PHALACROCORACIDAE,Reed Cormorant,,1,1.94180881811298,6.42161997048154,Africa,Benin,BJ,,Benin - Comè,2017-01-28,14:11
Milvus aegyptius,Animalia,HAWKS_AND_EAGLES_ACCIPITRIDAE,Yellow-billed Kite,,1,1.94174033836718,6.42044533111318,Africa,Benin,BJ,,Benin - Comè,2017-01-28,14:11
Chlidonias hybrida,Animalia,GULLS_TERNS_AND_SKIMMERS_LARIDAE,Whiskered Tern,,6,1.94052490995589,6.39326418303051,Africa,Benin,BJ,,Benin - Comè,2017-01-28,14:31
Limosa limosa,Animalia,SANDPIPERS_AND_ALLIES_SCOLOPACIDAE,Black-tailed Godwit,,36,1.93575931860352,6.39105607393695,Africa,Benin,BJ,,Benin - Comè,2017-01-28,14:56
Tringa stagnatilis,Animalia,SANDPIPERS_AND_ALLIES_SCOLOPACIDAE,Marsh Sandpiper,,14,1.93574104826827,6.39107416549915,Africa,Benin,BJ,,Benin - Comè,2017-01-28,15:01
Tringa nebularia,Animalia,SANDPIPERS_AND_ALLIES_SCOLOPACIDAE,Common Greenshank,,10,1.93478340920652,6.39166232691468,Africa,Benin,BJ,,Benin - Comè,2017-01-28,15:10
Tringa glareola,Animalia,SANDPIPERS_AND_ALLIES_SCOLOPACIDAE,Wood Sandpiper,,1,1.93478340920652,6.39166232691468,Africa,Benin,BJ,,Benin - Comè,2017-01-28,15:12
Charadrius hiaticula,Animalia,PLOVERS_CHARADRIIDAE,Common Ringed Plover,,6,1.93478340920652,6.39166232691468,Africa,Benin,BJ,,Benin - Comè,2017-01-28,15:12
Microcarbo africanus,Animalia,CORMORANTS_PHALACROCORACIDAE,Reed Cormorant,,8,1.93478340920652,6.39166232691468,Africa,Benin,BJ,,Benin - Comè,2017-01-28,15:13
Tringa nebularia,Animalia,SANDPIPERS_AND_ALLIES_SCOLOPACIDAE,Common Greenshank,,10,1.93482955655976,6.39164657712671,Africa,Benin,BJ,,Benin - Comè,2017-01-28,15:21
Tringa glareola,Animalia,SANDPIPERS_AND_ALLIES_SCOLOPACIDAE,Wood Sandpiper,,10,1.93405896070039,6.39354663038873,Africa,Benin,BJ,,Benin - Comè,2017-01-28,15:44
Charadrius hiaticula,Animalia,PLOVERS_CHARADRIIDAE,Common Ringed Plover,,1,1.93405896070039,6.39354663038873,Africa,Benin,BJ,,Benin - Comè,2017-01-28,15:44
Tringa stagnatilis,Animalia,SANDPIPERS_AND_ALLIES_SCOLOPACIDAE,Marsh Sandpiper,,20,1.93405896070039,6.39354663038873,Africa,Benin,BJ,,Benin - Comè,2017-01-28,15:45
Calidris ferruginea,Animalia,SANDPIPERS_AND_ALLIES_SCOLOPACIDAE,Curlew Sandpiper,,8,1.93405896070039,6.39354663038873,Africa,Benin,BJ,,Benin - Comè,2017-01-28,15:45
Halcyon leucocephala,Animalia,KINGFISHERS_ALCEDINIDAE,Grey-headed Kingfisher,,1,2.15974345,6.38802964,Africa,Benin,BJ,,Benin - Ouidah,2017-01-27,13:22
Actophilornis africanus,Animalia,JACANAS_JACANIDAE,African Jacana,,2,2.20863522016927,6.39008292741674,Africa,Benin,BJ,,Benin - Ouidah,2017-01-27,11:05
Merops albicollis,Animalia,BEEEATERS_MEROPIDAE,White-throated Bee-eater,,20,2.20102483857747,6.39024212816908,Africa,Benin,BJ,,Benin - Ouidah,2017-01-27,11:55
Microcarbo africanus,Animalia,CORMORANTS_PHALACROCORACIDAE,Reed Cormorant,,1,2.19994346475589,6.39043267700983,Africa,Benin,BJ,,Benin - Ouidah,2017-01-27,11:56
Microcarbo africanus,Animalia,CORMORANTS_PHALACROCORACIDAE,Reed Cormorant,,1,2.19978358059273,6.39045170412608,Africa,Benin,BJ,,Benin - Ouidah,2017-01-27,11:57
Nettapus auritus,Animalia,DUCKS_GEESE_AND_SWANS_ANATIDAE,African Pygmy Goose,,2,2.19830589,6.3906034,Africa,Benin,BJ,,Benin - Ouidah,2017-01-27,12:02
Microcarbo africanus,Animalia,CORMORANTS_PHALACROCORACIDAE,Reed Cormorant,,1,2.19790659617047,6.39077114061904,Africa,Benin,BJ,,Benin - Ouidah,2017-01-27,12:04
Nettapus auritus,Animalia,DUCKS_GEESE_AND_SWANS_ANATIDAE,African Pygmy Goose,,4,2.19709367218934,6.39085697215366,Africa,Benin,BJ,,Benin - Ouidah,2017-01-27,12:05
Microcarbo africanus,Animalia,CORMORANTS_PHALACROCORACIDAE,Reed Cormorant,,1,2.19586655833536,6.39080713591467,Africa,Benin,BJ,,Benin - Ouidah,2017-01-27,12:07
Microcarbo africanus,Animalia,CORMORANTS_PHALACROCORACIDAE,Reed Cormorant,,1,2.19268094956116,6.39167279531686,Africa,Benin,BJ,,Benin - Ouidah,2017-01-27,12:11
Nettapus auritus,Animalia,DUCKS_GEESE_AND_SWANS_ANATIDAE,African Pygmy Goose,,4,2.19184452669048,6.39205168407376,Africa,Benin,BJ,,Benin - Ouidah,2017-01-27,12:13
Microcarbo africanus,Animalia,CORMORANTS_PHALACROCORACIDAE,Reed Cormorant,,1,2.18751777424418,6.39174954190227,Africa,Benin,BJ,,Benin - Ouidah,2017-01-27,12:20
Microcarbo africanus,Animalia,CORMORANTS_PHALACROCORACIDAE,Reed Cormorant,,1,2.18233633897159,6.3896648071817,Africa,Benin,BJ,,Benin - Ouidah,2017-01-27,12:29
Actophilornis africanus,Animalia,JACANAS_JACANIDAE,African Jacana,,1,2.18203358096535,6.38968379656707,Africa,Benin,BJ,,Benin - Ouidah,2017-01-27,12:30
Microcarbo africanus,Animalia,CORMORANTS_PHALACROCORACIDAE,Reed Cormorant,,1,2.18175033658745,6.38960351848697,Africa,Benin,BJ,,Benin - Ouidah,2017-01-27,12:31
Microcarbo africanus,Animalia,CORMORANTS_PHALACROCORACIDAE,Reed Cormorant,,1,2.18024577367014,6.3894011668438,Africa,Benin,BJ,,Benin - Ouidah,2017-01-27,12:33
Milvus aegyptius,Animalia,HAWKS_AND_EAGLES_ACCIPITRIDAE,Yellow-billed Kite,,1,2.17879225,6.38970006,Africa,Benin,BJ,,Benin - Ouidah,2017-01-27,12:36
Merops albicollis,Animalia,BEEEATERS_MEROPIDAE,White-throated Bee-eater,,2,2.17030205299197,6.38725171388252,Africa,Benin,BJ,,Benin - Ouidah,2017-01-27,12:51
Nettapus auritus,Animalia,DUCKS_GEESE_AND_SWANS_ANATIDAE,African Pygmy Goose,,3,2.1597020971193,6.38886580383578,Africa,Benin,BJ,,Benin - Ouidah,2017-01-27,13:25
Actophilornis africanus,Animalia,JACANAS_JACANIDAE,African Jacana,,2,2.15969560993061,6.3889688871001,Africa,Benin,BJ,,Benin - Ouidah,2017-01-27,13:25
Microcarbo africanus,Animalia,CORMORANTS_PHALACROCORACIDAE,Reed Cormorant,,1,2.1596867812831,6.38906520167491,Africa,Benin,BJ,,Benin - Ouidah,2017-01-27,13:26
Nettapus auritus,Animalia,DUCKS_GEESE_AND_SWANS_ANATIDAE,African Pygmy Goose,,5,2.15930920884159,6.39060952461732,Africa,Benin,BJ,,Benin - Ouidah,2017-01-27,13:28
Actophilornis africanus,Animalia,JACANAS_JACANIDAE,African Jacana,,1,2.15719238611253,6.39332454269115,Africa,Benin,BJ,,Benin - Ouidah,2017-01-27,13:34
Actophilornis africanus,Animalia,JACANAS_JACANIDAE,African Jacana,,1,2.15565484692394,6.39522103137709,Africa,Benin,BJ,,Benin - Ouidah,2017-01-27,13:38
Microcarbo africanus,Animalia,CORMORANTS_PHALACROCORACIDAE,Reed Cormorant,,1,2.15509282996377,6.39642037445196,Africa,Benin,BJ,,Benin - Ouidah,2017-01-27,13:40
Nettapus auritus,Animalia,DUCKS_GEESE_AND_SWANS_ANATIDAE,African Pygmy Goose,,9,2.15458349764208,6.39879999025943,Africa,Benin,BJ,,Benin - Ouidah,2017-01-27,13:45
Microcarbo africanus,Animalia,CORMORANTS_PHALACROCORACIDAE,Reed Cormorant,,1,2.1591834896846,6.40174679896554,Africa,Benin,BJ,,Benin - Ouidah,2017-01-27,13:55
Microcarbo africanus,Animalia,CORMORANTS_PHALACROCORACIDAE,Reed Cormorant,,1,2.16591821042647,6.393320359189,Africa,Benin,BJ,,Benin - Ouidah,2017-01-27,14:14
Microcarbo africanus,Animalia,CORMORANTS_PHALACROCORACIDAE,Reed Cormorant,,1,2.17637708382765,6.3904163100476,Africa,Benin,BJ,,Benin - Ouidah,2017-01-27,14:35
Merops albicollis,Animalia,BEEEATERS_MEROPIDAE,White-throated Bee-eater,,4,2.17651919921016,6.39049825039491,Africa,Benin,BJ,,Benin - Ouidah,2017-01-27,14:35
Actophilornis africanus,Animalia,JACANAS_JACANIDAE,African Jacana,,1,2.17901614406606,6.39308894264841,Africa,Benin,BJ,,Benin - Ouidah,2017-01-27,14:42
Microcarbo africanus,Animalia,CORMORANTS_PHALACROCORACIDAE,Reed Cormorant,,2,2.1790947507635,6.39448686568232,Africa,Benin,BJ,,Benin - Ouidah,2017-01-27,14:45
Actophilornis africanus,Animalia,JACANAS_JACANIDAE,African Jacana,,1,2.1792173367536,6.39559480328637,Africa,Benin,BJ,,Benin - Ouidah,2017-01-27,14:48
Microcarbo africanus,Animalia,CORMORANTS_PHALACROCORACIDAE,Reed Cormorant,,1,2.18042170324809,6.39627510148532,Africa,Benin,BJ,,Benin - Ouidah,2017-01-27,14:50
Microcarbo africanus,Animalia,CORMORANTS_PHALACROCORACIDAE,Reed Cormorant,,1,2.18296437356865,6.40777344446604,Africa,Benin,BJ,,Benin - Ouidah,2017-01-27,15:12
Microcarbo africanus,Animalia,CORMORANTS_PHALACROCORACIDAE,Reed Cormorant,,1,2.18183634722176,6.41373222704196,Africa,Benin,BJ,,Benin - Ouidah,2017-01-27,15:23
Microcarbo africanus,Animalia,CORMORANTS_PHALACROCORACIDAE,Reed Cormorant,,1,2.18150805272935,6.41528074480755,Africa,Benin,BJ,,Benin - Ouidah,2017-01-27,15:26
Merops albicollis,Animalia,BEEEATERS_MEROPIDAE,White-throated Bee-eater,,60,2.18035853881988,6.41624682121339,Africa,Benin,BJ,,Benin - Ouidah,2017-01-27,15:29
Microcarbo africanus,Animalia,CORMORANTS_PHALACROCORACIDAE,Reed Cormorant,,1,2.18004231296925,6.41695458106764,Africa,Benin,BJ,,Benin - Ouidah,2017-01-27,15:45
Microcarbo africanus,Animalia,CORMORANTS_PHALACROCORACIDAE,Reed Cormorant,,1,2.17935418513849,6.41927056772489,Africa,Benin,BJ,,Benin - Ouidah,2017-01-27,15:51
Microcarbo africanus,Animalia,CORMORANTS_PHALACROCORACIDAE,Reed Cormorant,,1,2.1847558174292,6.4203094680347,Africa,Benin,BJ,,Benin - Ouidah,2017-01-27,16:06
Microcarbo africanus,Animalia,CORMORANTS_PHALACROCORACIDAE,Reed Cormorant,,18,2.18623545911712,6.41734683686533,Africa,Benin,BJ,,Benin - Ouidah,2017-01-27,16:12
Actophilornis africanus,Animalia,JACANAS_JACANIDAE,African Jacana,,2,2.18742035522972,6.41482246288776,Africa,Benin,BJ,,Benin - Ouidah,2017-01-27,16:18
Actophilornis africanus,Animalia,JACANAS_JACANIDAE,African Jacana,,1,2.18809534621459,6.41136869107035,Africa,Benin,BJ,,Benin - Ouidah,2017-01-27,16:25
Microcarbo africanus,Animalia,CORMORANTS_PHALACROCORACIDAE,Reed Cormorant,,5,2.18811225060836,6.41129319861474,Africa,Benin,BJ,,Benin - Ouidah,2017-01-27,16:25
Microcarbo africanus,Animalia,CORMORANTS_PHALACROCORACIDAE,Reed Cormorant,,1,2.18836614042071,6.4108130423615,Africa,Benin,BJ,,Benin - Ouidah,2017-01-27,16:27
Microcarbo africanus,Animalia,CORMORANTS_PHALACROCORACIDAE,Reed Cormorant,,5,2.19027512361957,6.40655044648547,Africa,Benin,BJ,,Benin - Ouidah,2017-01-27,16:36
Actophilornis africanus,Animalia,JACANAS_JACANIDAE,African Jacana,,2,2.19051377450702,6.4055469156705,Africa,Benin,BJ,,Benin - Ouidah,2017-01-27,16:38
Microcarbo africanus,Animalia,CORMORANTS_PHALACROCORACIDAE,Reed Cormorant,,1,2.19056976376077,6.40451386719334,Africa,Benin,BJ,,Benin - Ouidah,2017-01-27,16:40
Microcarbo africanus,Animalia,CORMORANTS_PHALACROCORACIDAE,Reed Cormorant,,3,2.19033458578149,6.40330802662873,Africa,Benin,BJ,,Benin - Ouidah,2017-01-27,16:43
Actophilornis africanus,Animalia,JACANAS_JACANIDAE,African Jacana,,1,2.18935025833134,6.39972087857925,Africa,Benin,BJ,,Benin - Ouidah,2017-01-27,16:50
Microcarbo africanus,Animalia,CORMORANTS_PHALACROCORACIDAE,Reed Cormorant,,1,2.19214566282726,6.39426879493541,Africa,Benin,BJ,,Benin - Ouidah,2017-01-27,17:04
Microcarbo africanus,Animalia,CORMORANTS_PHALACROCORACIDAE,Reed Cormorant,,1,2.19620981245556,6.39294051199458,Africa,Benin,BJ,,Benin - Ouidah,2017-01-27,17:12
Onychognathus fulgidus,Animalia,STARLINGS_STURNIDAE,Chestnut-winged Starling,,4,2.19634030256752,6.39286681168657,Africa,Benin,BJ,,Benin - Ouidah,2017-01-27,17:13
Microcarbo africanus,Animalia,CORMORANTS_PHALACROCORACIDAE,Reed Cormorant,,1,2.19648987322729,6.39279120397016,Africa,Benin,BJ,,Benin - Ouidah,2017-01-27,17:13
Microcarbo africanus,Animalia,CORMORANTS_PHALACROCORACIDAE,Reed Cormorant,,5,2.19780186157158,6.39184914115236,Africa,Benin,BJ,,Benin - Ouidah,2017-01-27,17:17
Nettapus auritus,Animalia,DUCKS_GEESE_AND_SWANS_ANATIDAE,African Pygmy Goose,,3,2.19982556144561,6.39053182938091,Africa,Benin,BJ,,Benin - Ouidah,2017-01-27,17:22
Halcyon leucocephala,Animalia,KINGFISHERS_ALCEDINIDAE,Grey-headed Kingfisher,,1,2.20896736955389,6.38958773988692,Africa,Benin,BJ,,Benin - Ouidah,2017-01-27,18:07
Butorides striata,Animalia,HERONS_ARDEIDAE,Striated Heron,,1,1.93920504859392,6.38918280278484,Africa,Benin,BJ,,Benin - Comè,2017-01-26,11:03
Tringa glareola,Animalia,SANDPIPERS_AND_ALLIES_SCOLOPACIDAE,Wood Sandpiper,,1,1.93920504859392,6.38918280278484,Africa,Benin,BJ,,Benin - Comè,2017-01-26,11:03
Microcarbo africanus,Animalia,CORMORANTS_PHALACROCORACIDAE,Reed Cormorant,,20,1.93920504859392,6.38918280278484,Africa,Benin,BJ,,Benin - Comè,2017-01-26,11:04
Milvus aegyptius,Animalia,HAWKS_AND_EAGLES_ACCIPITRIDAE,Yellow-billed Kite,,2,1.93925486048802,6.38922577628281,Africa,Benin,BJ,,Benin - Comè,2017-01-26,11:08
Milvus aegyptius,Animalia,HAWKS_AND_EAGLES_ACCIPITRIDAE,Yellow-billed Kite,,2,1.94144977048117,6.38513639827274,Africa,Benin,BJ,,Benin - Comè,2017-01-26,11:19
Microcarbo africanus,Animalia,CORMORANTS_PHALACROCORACIDAE,Reed Cormorant,,2,1.94142169748347,6.38482697667835,Africa,Benin,BJ,,Benin - Comè,2017-01-26,11:19
Tringa nebularia,Animalia,SANDPIPERS_AND_ALLIES_SCOLOPACIDAE,Common Greenshank,,1,1.9433518860639,6.37944418732611,Africa,Benin,BJ,,Benin - Comè,2017-01-26,11:23
Microcarbo africanus,Animalia,CORMORANTS_PHALACROCORACIDAE,Reed Cormorant,,1,1.94485680840931,6.37694112458669,Africa,Benin,BJ,,Benin - Comè,2017-01-26,11:25
Butorides striata,Animalia,HERONS_ARDEIDAE,Striated Heron,,1,1.95044681175968,6.37351292670489,Africa,Benin,BJ,,Benin - Comè,2017-01-26,11:30
Butorides striata,Animalia,HERONS_ARDEIDAE,Striated Heron,,1,1.95250847734255,6.37318431210063,Africa,Benin,BJ,,Benin - Comè,2017-01-26,11:31
Milvus aegyptius,Animalia,HAWKS_AND_EAGLES_ACCIPITRIDAE,Yellow-billed Kite,,1,1.95301530529811,6.3729484253385,Africa,Benin,BJ,,Benin - Comè,2017-01-26,11:32
Butorides striata,Animalia,HERONS_ARDEIDAE,Striated Heron,,1,1.96015871851067,6.366829860277,Africa,Benin,BJ,,Benin - Comè,2017-01-26,11:47
Milvus aegyptius,Animalia,HAWKS_AND_EAGLES_ACCIPITRIDAE,Yellow-billed Kite,,1,1.96083561072788,6.36399987656225,Africa,Benin,BJ,,Benin - Comè,2017-01-26,11:48
Butorides striata,Animalia,HERONS_ARDEIDAE,Striated Heron,,1,1.96033234244484,6.36243255189996,Africa,Benin,BJ,,Benin - Comè,2017-01-26,11:49
Milvus aegyptius,Animalia,HAWKS_AND_EAGLES_ACCIPITRIDAE,Yellow-billed Kite,,2,1.9608306590093,6.35735844493872,Africa,Benin,BJ,,Benin - Comè,2017-01-26,11:52
Microcarbo africanus,Animalia,CORMORANTS_PHALACROCORACIDAE,Reed Cormorant,,1,1.96161981281025,6.35152618281886,Africa,Benin,BJ,,Benin - Comè,2017-01-26,11:56
Milvus aegyptius,Animalia,HAWKS_AND_EAGLES_ACCIPITRIDAE,Yellow-billed Kite,,1,1.96145526530919,6.35139199300682,Africa,Benin,BJ,,Benin - Comè,2017-01-26,11:56
Egretta gularis,Animalia,HERONS_ARDEIDAE,Western Reef Heron,,1,1.95918126560655,6.34837348664047,Africa,Benin,BJ,,Benin - Comè,2017-01-26,11:58
Egretta gularis,Animalia,HERONS_ARDEIDAE,Western Reef Heron,,1,1.95711274630005,6.34692602930058,Africa,Benin,BJ,,Benin - Comè,2017-01-26,12:00
Egretta garzetta,Animalia,HERONS_ARDEIDAE,Little Egret,,1,1.95653605149027,6.34618225326437,Africa,Benin,BJ,,Benin - Comè,2017-01-26,12:01
Corythornis cristatus,Animalia,KINGFISHERS_ALCEDINIDAE,Malachite Kingfisher,,1,1.95616181684091,6.34515695232305,Africa,Benin,BJ,,Benin - Comè,2017-01-26,12:01
Milvus aegyptius,Animalia,HAWKS_AND_EAGLES_ACCIPITRIDAE,Yellow-billed Kite,,1,1.95598977883075,6.34402688718736,Africa,Benin,BJ,,Benin - Comè,2017-01-26,12:02
Egretta garzetta,Animalia,HERONS_ARDEIDAE,Little Egret,,1,1.95778640470172,6.34166868639624,Africa,Benin,BJ,,Benin - Comè,2017-01-26,12:04
Microcarbo africanus,Animalia,CORMORANTS_PHALACROCORACIDAE,Reed Cormorant,,2,1.95790028150221,6.33946868693065,Africa,Benin,BJ,,Benin - Grand-Popo,2017-01-26,12:05
Egretta garzetta,Animalia,HERONS_ARDEIDAE,Little Egret,,1,1.95784372012828,6.33934311319497,Africa,Benin,BJ,,Benin - Grand-Popo,2017-01-26,12:06
Butorides striata,Animalia,HERONS_ARDEIDAE,Striated Heron,,1,1.95785120022751,6.33915662515593,Africa,Benin,BJ,,Benin - Grand-Popo,2017-01-26,12:07
Microcarbo africanus,Animalia,CORMORANTS_PHALACROCORACIDAE,Reed Cormorant,,1,1.95774333197914,6.33743289366914,Africa,Benin,BJ,,Benin - Grand-Popo,2017-01-26,12:08
Butorides striata,Animalia,HERONS_ARDEIDAE,Striated Heron,,1,1.96020373918998,6.33454800991436,Africa,Benin,BJ,,Benin - Grand-Popo,2017-01-26,12:11
Milvus aegyptius,Animalia,HAWKS_AND_EAGLES_ACCIPITRIDAE,Yellow-billed Kite,,1,1.9624729198442,6.33209191583999,Africa,Benin,BJ,,Benin - Grand-Popo,2017-01-26,12:13
Egretta garzetta,Animalia,HERONS_ARDEIDAE,Little Egret,,1,1.96348587098862,6.33149171724232,Africa,Benin,BJ,,Benin - Grand-Popo,2017-01-26,12:13
Egretta garzetta,Animalia,HERONS_ARDEIDAE,Little Egret,,1,1.9664903320625,6.33039105512465,Africa,Benin,BJ,,Benin - Grand-Popo,2017-01-26,12:15
Tringa nebularia,Animalia,SANDPIPERS_AND_ALLIES_SCOLOPACIDAE,Common Greenshank,,2,1.9583937160478,6.33625009018563,Africa,Benin,BJ,,Benin - Grand-Popo,2017-01-26,13:10
Egretta garzetta,Animalia,HERONS_ARDEIDAE,Little Egret,,1,1.95936875820456,6.33524564813502,Africa,Benin,BJ,,Benin - Grand-Popo,2017-01-26,13:11
Egretta garzetta,Animalia,HERONS_ARDEIDAE,Little Egret,,1,1.97216121919497,6.32695965348051,Africa,Benin,BJ,,Benin - Grand-Popo,2017-01-26,13:17
Egretta gularis,Animalia,HERONS_ARDEIDAE,Western Reef Heron,,1,1.97491951085448,6.32357332779555,Africa,Benin,BJ,,Benin - Grand-Popo,2017-01-26,13:21
Microcarbo africanus,Animalia,CORMORANTS_PHALACROCORACIDAE,Reed Cormorant,,4,1.97477537622763,6.32365269493762,Africa,Benin,BJ,,Benin - Grand-Popo,2017-01-26,13:21
Microcarbo africanus,Animalia,CORMORANTS_PHALACROCORACIDAE,Reed Cormorant,,3,1.97530033735038,6.32312209376444,Africa,Benin,BJ,,Benin - Grand-Popo,2017-01-26,13:22
Microcarbo africanus,Animalia,CORMORANTS_PHALACROCORACIDAE,Reed Cormorant,,1,1.9757662369528,6.32262687500346,Africa,Benin,BJ,,Benin - Grand-Popo,2017-01-26,13:23
Microcarbo africanus,Animalia,CORMORANTS_PHALACROCORACIDAE,Reed Cormorant,,6,1.9776140798787,6.32062214361996,Africa,Benin,BJ,,Benin - Grand-Popo,2017-01-26,13:24
Egretta gularis,Animalia,HERONS_ARDEIDAE,Western Reef Heron,,1,1.97808223195905,6.31989942391351,Africa,Benin,BJ,,Benin - Grand-Popo,2017-01-26,13:25
Microcarbo africanus,Animalia,CORMORANTS_PHALACROCORACIDAE,Reed Cormorant,,2,1.97861227681816,6.31922499097633,Africa,Benin,BJ,,Benin - Grand-Popo,2017-01-26,13:26
Microcarbo africanus,Animalia,CORMORANTS_PHALACROCORACIDAE,Reed Cormorant,,4,1.97999412205443,6.31743723734336,Africa,Benin,BJ,,Benin - Ouidah,2017-01-26,13:28
Egretta gularis,Animalia,HERONS_ARDEIDAE,Western Reef Heron,,3,1.97644541973417,6.30877737911258,Africa,Benin,BJ,,Benin - Ouidah,2017-01-26,13:34
Butorides striata,Animalia,HERONS_ARDEIDAE,Striated Heron,,2,1.97672734514436,6.30877821391355,Africa,Benin,BJ,,Benin - Ouidah,2017-01-26,13:38
Corythornis cristatus,Animalia,KINGFISHERS_ALCEDINIDAE,Malachite Kingfisher,,1,1.96261727855098,6.35240347305579,Africa,Benin,BJ,,Benin - Comè,2017-01-26,14:14
Milvus aegyptius,Animalia,HAWKS_AND_EAGLES_ACCIPITRIDAE,Yellow-billed Kite,,1,1.94002817,6.38910289,Africa,Benin,BJ,,Benin - Comè,2017-01-26,14:41
Milvus aegyptius,Animalia,HAWKS_AND_EAGLES_ACCIPITRIDAE,Yellow-billed Kite,,8,1.94025088482463,6.39074405024701,Africa,Benin,BJ,,Benin - Comè,2017-01-26,15:07
Microcarbo africanus,Animalia,CORMORANTS_PHALACROCORACIDAE,Reed Cormorant,,13,1.94046369472768,6.3913513251647,Africa,Benin,BJ,,Benin - Comè,2017-01-26,15:07
Microcarbo africanus,Animalia,CORMORANTS_PHALACROCORACIDAE,Reed Cormorant,,10,1.94204836387025,6.39825781504023,Africa,Benin,BJ,,Benin - Comè,2017-01-26,15:16
Microcarbo africanus,Animalia,CORMORANTS_PHALACROCORACIDAE,Reed Cormorant,,20,1.94219946772375,6.39946614645909,Africa,Benin,BJ,,Benin - Comè,2017-01-26,15:18
Microcarbo africanus,Animalia,CORMORANTS_PHALACROCORACIDAE,Reed Cormorant,,6,1.94168070425636,6.40002940465725,Africa,Benin,BJ,,Benin - Comè,2017-01-26,15:18
Microcarbo africanus,Animalia,CORMORANTS_PHALACROCORACIDAE,Reed Cormorant,,5,1.94084434557371,6.40038866118458,Africa,Benin,BJ,,Benin - Comè,2017-01-26,15:19
Microcarbo africanus,Animalia,CORMORANTS_PHALACROCORACIDAE,Reed Cormorant,,42,1.94026969819398,6.40112919763831,Africa,Benin,BJ,,Benin - Comè,2017-01-26,15:19
Microcarbo africanus,Animalia,CORMORANTS_PHALACROCORACIDAE,Reed Cormorant,,50,1.94023098160166,6.40348391422772,Africa,Benin,BJ,,Benin - Comè,2017-01-26,15:21
Microcarbo africanus,Animalia,CORMORANTS_PHALACROCORACIDAE,Reed Cormorant,,36,1.94049110421233,6.40496079937996,Africa,Benin,BJ,,Benin - Comè,2017-01-26,15:23
Milvus aegyptius,Animalia,HAWKS_AND_EAGLES_ACCIPITRIDAE,Yellow-billed Kite,,4,1.94051959337725,6.40526425888175,Africa,Benin,BJ,,Benin - Comè,2017-01-26,15:23
Microcarbo africanus,Animalia,CORMORANTS_PHALACROCORACIDAE,Reed Cormorant,,18,1.94049471380695,6.40563300077013,Africa,Benin,BJ,,Benin - Comè,2017-01-26,15:24
Microcarbo africanus,Animalia,CORMORANTS_PHALACROCORACIDAE,Reed Cormorant,,10,1.93743287724607,6.40756842340426,Africa,Benin,BJ,,Benin - Comè,2017-01-26,15:27
Chlidonias hybrida,Animalia,GULLS_TERNS_AND_SKIMMERS_LARIDAE,Whiskered Tern,,110,1.93019833442545,6.40855253882531,Africa,Benin,BJ,,Benin - Comè,2017-01-26,15:36
Microcarbo africanus,Animalia,CORMORANTS_PHALACROCORACIDAE,Reed Cormorant,,60,1.93022995976613,6.4087450753376,Africa,Benin,BJ,,Benin - Comè,2017-01-26,15:37
Butorides striata,Animalia,HERONS_ARDEIDAE,Striated Heron,,1,1.93038933417471,6.40954006181368,Africa,Benin,BJ,,Benin - Comè,2017-01-26,15:38
Microcarbo africanus,Animalia,CORMORANTS_PHALACROCORACIDAE,Reed Cormorant,,1,1.9313225510927,6.41073679773676,Africa,Benin,BJ,,Benin - Comè,2017-01-26,15:41
Chlidonias hybrida,Animalia,GULLS_TERNS_AND_SKIMMERS_LARIDAE,Whiskered Tern,,1,1.9324559620244,6.41170508858913,Africa,Benin,BJ,,Benin - Comè,2017-01-26,15:44
Milvus aegyptius,Animalia,HAWKS_AND_EAGLES_ACCIPITRIDAE,Yellow-billed Kite,,2,1.93330165781128,6.41210256350473,Africa,Benin,BJ,,Benin - Comè,2017-01-26,15:46
Microcarbo africanus,Animalia,CORMORANTS_PHALACROCORACIDAE,Reed Cormorant,,3,1.93678430228739,6.42443309498331,Africa,Benin,BJ,,Benin - Comè,2017-01-26,15:56
Milvus aegyptius,Animalia,HAWKS_AND_EAGLES_ACCIPITRIDAE,Yellow-billed Kite,,2,1.93666806351076,6.42461436520948,Africa,Benin,BJ,,Benin - Comè,2017-01-26,15:56
Milvus aegyptius,Animalia,HAWKS_AND_EAGLES_ACCIPITRIDAE,Yellow-billed Kite,,2,1.93606051401921,6.42597256626996,Africa,Benin,BJ,,Benin - Comè,2017-01-26,15:58
Microcarbo africanus,Animalia,CORMORANTS_PHALACROCORACIDAE,Reed Cormorant,,1,1.93500903744275,6.4282317794132,Africa,Benin,BJ,,Benin - Comè,2017-01-26,16:02
Chlidonias hybrida,Animalia,GULLS_TERNS_AND_SKIMMERS_LARIDAE,Whiskered Tern,,1,1.93473900875507,6.42908853866415,Africa,Benin,BJ,,Benin - Comè,2017-01-26,16:03
Chlidonias hybrida,Animalia,GULLS_TERNS_AND_SKIMMERS_LARIDAE,Whiskered Tern,,1,1.93456005118807,6.42961279714147,Africa,Benin,BJ,,Benin - Comè,2017-01-26,16:04
Microcarbo africanus,Animalia,CORMORANTS_PHALACROCORACIDAE,Reed Cormorant,,1,1.93451128473275,6.42972971348674,Africa,Benin,BJ,,Benin - Comè,2017-01-26,16:04
Chlidonias hybrida,Animalia,GULLS_TERNS_AND_SKIMMERS_LARIDAE,Whiskered Tern,,1,1.93542029027488,6.4448568617757,Africa,Benin,BJ,,Benin - Comè,2017-01-26,16:12
Milvus aegyptius,Animalia,HAWKS_AND_EAGLES_ACCIPITRIDAE,Yellow-billed Kite,,1,1.93956872326803,6.45636593891456,Africa,Benin,BJ,,Benin - Comè,2017-01-26,16:19
Milvus aegyptius,Animalia,HAWKS_AND_EAGLES_ACCIPITRIDAE,Yellow-billed Kite,,1,1.94133652032119,6.46033113617933,Africa,Benin,BJ,,Benin - Comè,2017-01-26,16:20
Milvus aegyptius,Animalia,HAWKS_AND_EAGLES_ACCIPITRIDAE,Yellow-billed Kite,,2,1.94515869853507,6.46712905262114,Africa,Benin,BJ,,Benin - Comè,2017-01-26,16:24
Milvus aegyptius,Animalia,HAWKS_AND_EAGLES_ACCIPITRIDAE,Yellow-billed Kite,,1,1.94539562308189,6.46735198872028,Africa,Benin,BJ,,Benin - Comè,2017-01-26,16:24
Chlidonias hybrida,Animalia,GULLS_TERNS_AND_SKIMMERS_LARIDAE,Whiskered Tern,,2,1.94724771728524,6.46750275801253,Africa,Benin,BJ,,Benin - Comè,2017-01-26,16:26
Microcarbo africanus,Animalia,CORMORANTS_PHALACROCORACIDAE,Reed Cormorant,,6,1.95339824793693,6.46443082129553,Africa,Benin,BJ,,Benin - Comè,2017-01-26,16:32
Chlidonias hybrida,Animalia,GULLS_TERNS_AND_SKIMMERS_LARIDAE,Whiskered Tern,,1,1.95332367606792,6.46427131565688,Africa,Benin,BJ,,Benin - Comè,2017-01-26,16:33
Microcarbo africanus,Animalia,CORMORANTS_PHALACROCORACIDAE,Reed Cormorant,,4,1.95366171109341,6.46512782549581,Africa,Benin,BJ,,Benin - Comè,2017-01-26,16:34
Microcarbo africanus,Animalia,CORMORANTS_PHALACROCORACIDAE,Reed Cormorant,,1,1.95445094912535,6.46579476422003,Africa,Benin,BJ,,Benin - Comè,2017-01-26,16:35
Microcarbo africanus,Animalia,CORMORANTS_PHALACROCORACIDAE,Reed Cormorant,,6,1.9559235064212,6.46573931499992,Africa,Benin,BJ,,Benin - Comè,2017-01-26,16:37
Chlidonias hybrida,Animalia,GULLS_TERNS_AND_SKIMMERS_LARIDAE,Whiskered Tern,,1,1.9564461917614,6.46660558584046,Africa,Benin,BJ,,Benin - Comè,2017-01-26,16:39
Milvus aegyptius,Animalia,HAWKS_AND_EAGLES_ACCIPITRIDAE,Yellow-billed Kite,,1,1.95490957276524,6.46357590022001,Africa,Benin,BJ,,Benin - Comè,2017-01-26,16:43
Microcarbo africanus,Animalia,CORMORANTS_PHALACROCORACIDAE,Reed Cormorant,,1,1.95477650125678,6.46332442942397,Africa,Benin,BJ,,Benin - Comè,2017-01-26,16:44
Milvus aegyptius,Animalia,HAWKS_AND_EAGLES_ACCIPITRIDAE,Yellow-billed Kite,,1,1.95339787320129,6.46048958431795,Africa,Benin,BJ,,Benin - Comè,2017-01-26,16:47
Sternula albifrons,Animalia,GULLS_TERNS_AND_SKIMMERS_LARIDAE,Little Tern,,1,1.95289154998037,6.45880641731743,Africa,Benin,BJ,,Benin - Comè,2017-01-26,16:49
Microcarbo africanus,Animalia,CORMORANTS_PHALACROCORACIDAE,Reed Cormorant,,2,1.95184202213501,6.45750706515187,Africa,Benin,BJ,,Benin - Comè,2017-01-26,16:52
Milvus aegyptius,Animalia,HAWKS_AND_EAGLES_ACCIPITRIDAE,Yellow-billed Kite,,1,1.95161543496289,6.4569071628663,Africa,Benin,BJ,,Benin - Comè,2017-01-26,16:53
Sternula albifrons,Animalia,GULLS_TERNS_AND_SKIMMERS_LARIDAE,Little Tern,,1,1.95139031702423,6.4565625414609,Africa,Benin,BJ,,Benin - Comè,2017-01-26,16:53
Sternula albifrons,Animalia,GULLS_TERNS_AND_SKIMMERS_LARIDAE,Little Tern,,220,1.95324554,6.4530791,Africa,Benin,BJ,,Benin - Comè,2017-01-26,17:01
Dendrocygna viduata,Animalia,DUCKS_GEESE_AND_SWANS_ANATIDAE,White-faced Whistling Duck,,900,1.95388045596511,6.44853763594951,Africa,Benin,BJ,,Benin - Comè,2017-01-26,17:08
Microcarbo africanus,Animalia,CORMORANTS_PHALACROCORACIDAE,Reed Cormorant,,1,1.95331296158295,6.44655021509406,Africa,Benin,BJ,,Benin - Comè,2017-01-26,17:11
Microcarbo africanus,Animalia,CORMORANTS_PHALACROCORACIDAE,Reed Cormorant,,1,1.95104861880154,6.44258803463782,Africa,Benin,BJ,,Benin - Comè,2017-01-26,17:15
Chlidonias hybrida,Animalia,GULLS_TERNS_AND_SKIMMERS_LARIDAE,Whiskered Tern,,1,1.9489318030492,6.44007519828233,Africa,Benin,BJ,,Benin - Comè,2017-01-26,17:18
Chlidonias hybrida,Animalia,GULLS_TERNS_AND_SKIMMERS_LARIDAE,Whiskered Tern,,3,1.94846363205091,6.43884935889696,Africa,Benin,BJ,,Benin - Comè,2017-01-26,17:19
Chlidonias hybrida,Animalia,GULLS_TERNS_AND_SKIMMERS_LARIDAE,Whiskered Tern,,4,1.9461817069205,6.43348897244572,Africa,Benin,BJ,,Benin - Comè,2017-01-26,17:22
Microcarbo africanus,Animalia,CORMORANTS_PHALACROCORACIDAE,Reed Cormorant,,1,1.94594097729823,6.43272780039474,Africa,Benin,BJ,,Benin - Comè,2017-01-26,17:23
Milvus aegyptius,Animalia,HAWKS_AND_EAGLES_ACCIPITRIDAE,Yellow-billed Kite,,2,1.94557048532442,6.43093618647577,Africa,Benin,BJ,,Benin - Comè,2017-01-26,17:24
Microcarbo africanus,Animalia,CORMORANTS_PHALACROCORACIDAE,Reed Cormorant,,1,1.94550852526243,6.43059146579625,Africa,Benin,BJ,,Benin - Comè,2017-01-26,17:24
Milvus aegyptius,Animalia,HAWKS_AND_EAGLES_ACCIPITRIDAE,Yellow-billed Kite,,1,1.94296557511857,6.42460973527934,Africa,Benin,BJ,,Benin - Comè,2017-01-26,17:28
Chlidonias hybrida,Animalia,GULLS_TERNS_AND_SKIMMERS_LARIDAE,Whiskered Tern,,2,1.94045641643091,6.40955540913167,Africa,Benin,BJ,,Benin - Comè,2017-01-26,17:34
Milvus aegyptius,Animalia,HAWKS_AND_EAGLES_ACCIPITRIDAE,Yellow-billed Kite,,1,1.94070584341772,6.40692828443772,Africa,Benin,BJ,,Benin - Comè,2017-01-26,17:35
Microcarbo africanus,Animalia,CORMORANTS_PHALACROCORACIDAE,Reed Cormorant,,30,1.94072778946653,6.40652085736977,Africa,Benin,BJ,,Benin - Comè,2017-01-26,17:35
Microcarbo africanus,Animalia,CORMORANTS_PHALACROCORACIDAE,Reed Cormorant,,10,1.9407736985864,6.40526163291574,Africa,Benin,BJ,,Benin - Comè,2017-01-26,17:36
Chlidonias hybrida,Animalia,GULLS_TERNS_AND_SKIMMERS_LARIDAE,Whiskered Tern,,1,1.94080407007075,6.40486272942454,Africa,Benin,BJ,,Benin - Comè,2017-01-26,17:36
Microcarbo africanus,Animalia,CORMORANTS_PHALACROCORACIDAE,Reed Cormorant,,6,1.9412060309331,6.40250664787891,Africa,Benin,BJ,,Benin - Comè,2017-01-26,17:37
Microcarbo africanus,Animalia,CORMORANTS_PHALACROCORACIDAE,Reed Cormorant,,22,1.94131592481099,6.4011074537188,Africa,Benin,BJ,,Benin - Comè,2017-01-26,17:38
Milvus aegyptius,Animalia,HAWKS_AND_EAGLES_ACCIPITRIDAE,Yellow-billed Kite,,1,1.94133497183451,6.40062761025143,Africa,Benin,BJ,,Benin - Comè,2017-01-26,17:38
Microcarbo africanus,Animalia,CORMORANTS_PHALACROCORACIDAE,Reed Cormorant,,12,1.94150455417262,6.39982498436154,Africa,Benin,BJ,,Benin - Comè,2017-01-26,17:38
Milvus aegyptius,Animalia,HAWKS_AND_EAGLES_ACCIPITRIDAE,Yellow-billed Kite,,1,1.94156755757001,6.39886416717787,Africa,Benin,BJ,,Benin - Comè,2017-01-26,17:38
Chlidonias hybrida,Animalia,GULLS_TERNS_AND_SKIMMERS_LARIDAE,Whiskered Tern,,1,1.94160881411871,6.39672075640761,Africa,Benin,BJ,,Benin - Comè,2017-01-26,17:41
Chlidonias hybrida,Animalia,GULLS_TERNS_AND_SKIMMERS_LARIDAE,Whiskered Tern,,1,1.94143224395228,6.39624188232594,Africa,Benin,BJ,,Benin - Comè,2017-01-26,17:41
Chlidonias hybrida,Animalia,GULLS_TERNS_AND_SKIMMERS_LARIDAE,Whiskered Tern,,3,1.94130730675913,6.39596436953793,Africa,Benin,BJ,,Benin - Comè,2017-01-26,17:42
Dicrurus occidentalis,Animalia,DRONGOS_DICRURIDAE,Western Square-tailed Drongo,,1,2.252426133491099,7.036702298237325,Africa,Benin,BJ,,Benin - Zogbodomey,2003-08-09,
Microcarbo africanus,Animalia,CORMORANTS_PHALACROCORACIDAE,Reed Cormorant,,3,2.36269753486071,6.42548049473771,Africa,Benin,BJ,,Benin - Abomey-Calavi,2017-01-25,09:19
Ardea intermedia,Animalia,HERONS_ARDEIDAE,Intermediate Egret,,1,2.36278529159703,6.42554124024087,Africa,Benin,BJ,,Benin - Abomey-Calavi,2017-01-25,09:19
Microcarbo africanus,Animalia,CORMORANTS_PHALACROCORACIDAE,Reed Cormorant,,1,2.36801907089087,6.42725106441966,Africa,Benin,BJ,,Benin - Abomey-Calavi,2017-01-25,09:23
Butorides striata,Animalia,HERONS_ARDEIDAE,Striated Heron,,1,2.37238708599312,6.43213823254546,Africa,Benin,BJ,,Benin - Sô-Ava,2017-01-25,09:27
Egretta ardesiaca,Animalia,HERONS_ARDEIDAE,Black Heron,,4,2.37267602754716,6.43219992349186,Africa,Benin,BJ,,Benin - Sô-Ava,2017-01-25,09:27
Microcarbo africanus,Animalia,CORMORANTS_PHALACROCORACIDAE,Reed Cormorant,,3,2.37283167768119,6.43222685426945,Africa,Benin,BJ,,Benin - Sô-Ava,2017-01-25,09:27
Microcarbo africanus,Animalia,CORMORANTS_PHALACROCORACIDAE,Reed Cormorant,,4,2.3764640821296,6.43611850955396,Africa,Benin,BJ,,Benin - Sô-Ava,2017-01-25,09:30
Microcarbo africanus,Animalia,CORMORANTS_PHALACROCORACIDAE,Reed Cormorant,,3,2.37956361930199,6.44792239122665,Africa,Benin,BJ,,Benin - Abomey-Calavi,2017-01-25,09:37
Microcarbo africanus,Animalia,CORMORANTS_PHALACROCORACIDAE,Reed Cormorant,,1,2.3821699757623,6.4534528682588,Africa,Benin,BJ,,Benin - Abomey-Calavi,2017-01-25,09:39
Gallinula chloropus,Animalia,RAILS_RALLIDAE,Common Moorhen,,1,2.3849050526708,6.45716834614506,Africa,Benin,BJ,,Benin - Abomey-Calavi,2017-01-25,09:42
Ceryle rudis,Animalia,KINGFISHERS_ALCEDINIDAE,Pied Kingfisher,,1,2.38510959733723,6.45742231192704,Africa,Benin,BJ,,Benin - Abomey-Calavi,2017-01-25,09:42
Ceryle rudis,Animalia,KINGFISHERS_ALCEDINIDAE,Pied Kingfisher,,6,2.38806998882602,6.46157541374024,Africa,Benin,BJ,,Benin - Abomey-Calavi,2017-01-25,09:45
Microcarbo africanus,Animalia,CORMORANTS_PHALACROCORACIDAE,Reed Cormorant,,2,2.38816927294618,6.46168795922555,Africa,Benin,BJ,,Benin - Abomey-Calavi,2017-01-25,09:45
Merops albicollis,Animalia,BEEEATERS_MEROPIDAE,White-throated Bee-eater,,1,2.38830261,6.46192445,Africa,Benin,BJ,,Benin - Abomey-Calavi,2017-01-25,09:45
Ardeola ralloides,Animalia,HERONS_ARDEIDAE,Squacco Heron,,5,2.38904977058217,6.46311321610747,Africa,Benin,BJ,,Benin - Abomey-Calavi,2017-01-25,09:47
Halcyon senegalensis,Animalia,KINGFISHERS_ALCEDINIDAE,Woodland Kingfisher,,1,2.38907185399208,6.46318362615883,Africa,Benin,BJ,,Benin - Abomey-Calavi,2017-01-25,09:47
Microcarbo africanus,Animalia,CORMORANTS_PHALACROCORACIDAE,Reed Cormorant,,10,2.38914253606024,6.46335325329914,Africa,Benin,BJ,,Benin - Abomey-Calavi,2017-01-25,09:48
Ceryle rudis,Animalia,KINGFISHERS_ALCEDINIDAE,Pied Kingfisher,,2,2.39151861646809,6.47619059490373,Africa,Benin,BJ,,Benin - Abomey-Calavi,2017-01-25,10:05
Ceryle rudis,Animalia,KINGFISHERS_ALCEDINIDAE,Pied Kingfisher,,4,2.39258657179189,6.47799623665454,Africa,Benin,BJ,,Benin - Abomey-Calavi,2017-01-25,10:09
Bubulcus ibis,Animalia,HERONS_ARDEIDAE,Western Cattle Egret,,90,2.39215102287017,6.47940754596869,Africa,Benin,BJ,,Benin - Abomey-Calavi,2017-01-25,10:11
Ceryle rudis,Animalia,KINGFISHERS_ALCEDINIDAE,Pied Kingfisher,,4,2.3920473638312,6.47947268177556,Africa,Benin,BJ,,Benin - Abomey-Calavi,2017-01-25,10:11
Ceryle rudis,Animalia,KINGFISHERS_ALCEDINIDAE,Pied Kingfisher,,10,2.39263536049905,6.4802918926273,Africa,Benin,BJ,,Benin - Abomey-Calavi,2017-01-25,10:13
Motacilla flava,Animalia,PIPITS_EN_WAGTAILS_MOTACILLIDAE,Western Yellow Wagtail,,2,2.39277395593635,6.48039558624799,Africa,Benin,BJ,,Benin - Abomey-Calavi,2017-01-25,10:14
Bubulcus ibis,Animalia,HERONS_ARDEIDAE,Western Cattle Egret,,30,2.39291721717618,6.48051104597176,Africa,Benin,BJ,,Benin - Abomey-Calavi,2017-01-25,10:14
Gallinula chloropus,Animalia,RAILS_RALLIDAE,Common Moorhen,,1,2.39517266504139,6.48275859393785,Africa,Benin,BJ,,Benin - Abomey-Calavi,2017-01-25,10:20
Vanellus spinosus,Animalia,PLOVERS_CHARADRIIDAE,Spur-winged Lapwing,,4,2.39606069171577,6.48391997110132,Africa,Benin,BJ,,Benin - Abomey-Calavi,2017-01-25,10:24
Ceryle rudis,Animalia,KINGFISHERS_ALCEDINIDAE,Pied Kingfisher,,10,2.39633499183825,6.48435063065456,Africa,Benin,BJ,,Benin - Abomey-Calavi,2017-01-25,10:24
Bubulcus ibis,Animalia,HERONS_ARDEIDAE,Western Cattle Egret,,5,2.39665285405817,6.48487651166496,Africa,Benin,BJ,,Benin - Abomey-Calavi,2017-01-25,10:25
Porphyrio madagascariensis,Animalia,RAILS_RALLIDAE,African Swamphen,,1,2.3970107,6.48636487,Africa,Benin,BJ,,Benin - Abomey-Calavi,2017-01-25,10:26
Halcyon senegalensis,Animalia,KINGFISHERS_ALCEDINIDAE,Woodland Kingfisher,,1,2.3970063659683,6.48712724608496,Africa,Benin,BJ,,Benin - Abomey-Calavi,2017-01-25,10:27
Ardea intermedia,Animalia,HERONS_ARDEIDAE,Intermediate Egret,,1,2.39741586084662,6.48805802220598,Africa,Benin,BJ,,Benin - Abomey-Calavi,2017-01-25,10:28
Bubulcus ibis,Animalia,HERONS_ARDEIDAE,Western Cattle Egret,,15,2.3974350174161,6.48808296894562,Africa,Benin,BJ,,Benin - Abomey-Calavi,2017-01-25,10:28
Ceryle rudis,Animalia,KINGFISHERS_ALCEDINIDAE,Pied Kingfisher,,2,2.39815730458735,6.49119104061548,Africa,Benin,BJ,,Benin - Abomey-Calavi,2017-01-25,10:32
Ceryle rudis,Animalia,KINGFISHERS_ALCEDINIDAE,Pied Kingfisher,,2,2.39905212612622,6.49316783722481,Africa,Benin,BJ,,Benin - Abomey-Calavi,2017-01-25,10:34
Falco tinnunculus,Animalia,CARACAS_AND_FALCONS_FALCONIDAE,Common Kestrel,,1,2.39943794012208,6.49591001326935,Africa,Benin,BJ,,Benin - Abomey-Calavi,2017-01-25,10:58
Halcyon senegalensis,Animalia,KINGFISHERS_ALCEDINIDAE,Woodland Kingfisher,,1,2.39909577365288,6.50171736400704,Africa,Benin,BJ,,Benin - Abomey-Calavi,2017-01-25,11:01
Ceryle rudis,Animalia,KINGFISHERS_ALCEDINIDAE,Pied Kingfisher,,2,2.4006859916382,6.50454238465589,Africa,Benin,BJ,,Benin - Abomey-Calavi,2017-01-25,11:04
Bubulcus ibis,Animalia,HERONS_ARDEIDAE,Western Cattle Egret,,6,2.4009049941396,6.50475633510965,Africa,Benin,BJ,,Benin - Abomey-Calavi,2017-01-25,11:04
Merops albicollis,Animalia,BEEEATERS_MEROPIDAE,White-throated Bee-eater,,1,2.4032299,6.50713756,Africa,Benin,BJ,,Benin - Abomey-Calavi,2017-01-25,11:06
Ardeola ralloides,Animalia,HERONS_ARDEIDAE,Squacco Heron,,1,2.40413349975964,6.50811706227633,Africa,Benin,BJ,,Benin - Abomey-Calavi,2017-01-25,11:07
Merops albicollis,Animalia,BEEEATERS_MEROPIDAE,White-throated Bee-eater,,2,2.40473167,6.50970713,Africa,Benin,BJ,,Benin - Abomey-Calavi,2017-01-25,11:08
Halcyon senegalensis,Animalia,KINGFISHERS_ALCEDINIDAE,Woodland Kingfisher,,1,2.40497312197183,6.51059337102941,Africa,Benin,BJ,,Benin - Abomey-Calavi,2017-01-25,11:09
Merops albicollis,Animalia,BEEEATERS_MEROPIDAE,White-throated Bee-eater,,4,2.40497077,6.51454123,Africa,Benin,BJ,,Benin - Abomey-Calavi,2017-01-25,11:11
Ceryle rudis,Animalia,KINGFISHERS_ALCEDINIDAE,Pied Kingfisher,,4,2.40480003853176,6.51590716955946,Africa,Benin,BJ,,Benin - Abomey-Calavi,2017-01-25,11:12
Ardeola ralloides,Animalia,HERONS_ARDEIDAE,Squacco Heron,,3,2.40437576358537,6.52363251686862,Africa,Benin,BJ,,Benin - Sô-Ava,2017-01-25,11:17
Microcarbo africanus,Animalia,CORMORANTS_PHALACROCORACIDAE,Reed Cormorant,,2,2.40437899692067,6.5236430546035,Africa,Benin,BJ,,Benin - Sô-Ava,2017-01-25,11:18
Halcyon senegalensis,Animalia,KINGFISHERS_ALCEDINIDAE,Woodland Kingfisher,,1,2.40438409121811,6.52390237191201,Africa,Benin,BJ,,Benin - Sô-Ava,2017-01-25,11:18
Halcyon senegalensis,Animalia,KINGFISHERS_ALCEDINIDAE,Woodland Kingfisher,,1,2.40514653149696,6.52525788830996,Africa,Benin,BJ,,Benin - Sô-Ava,2017-01-25,11:19
Halcyon senegalensis,Animalia,KINGFISHERS_ALCEDINIDAE,Woodland Kingfisher,,1,2.40567704236851,6.52748557575469,Africa,Benin,BJ,,Benin - Sô-Ava,2017-01-25,11:21
Halcyon senegalensis,Animalia,KINGFISHERS_ALCEDINIDAE,Woodland Kingfisher,,1,2.40562338507554,6.5281433415651,Africa,Benin,BJ,,Benin - Sô-Ava,2017-01-25,11:21
Halcyon senegalensis,Animalia,KINGFISHERS_ALCEDINIDAE,Woodland Kingfisher,,2,2.40536221191166,6.52902479692932,Africa,Benin,BJ,,Benin - Sô-Ava,2017-01-25,11:22
Ceryle rudis,Animalia,KINGFISHERS_ALCEDINIDAE,Pied Kingfisher,,2,2.40505288802938,6.52974272524203,Africa,Benin,BJ,,Benin - Sô-Ava,2017-01-25,11:23
Vanellus spinosus,Animalia,PLOVERS_CHARADRIIDAE,Spur-winged Lapwing,,2,2.40423212594066,6.53159115798819,Africa,Benin,BJ,,Benin - Sô-Ava,2017-01-25,11:24
Merops albicollis,Animalia,BEEEATERS_MEROPIDAE,White-throated Bee-eater,,4,2.40395428,6.53228607,Africa,Benin,BJ,,Benin - Sô-Ava,2017-01-25,11:25
Bubulcus ibis,Animalia,HERONS_ARDEIDAE,Western Cattle Egret,,1,2.40315389869319,6.53431866693527,Africa,Benin,BJ,,Benin - Sô-Ava,2017-01-25,11:26
Merops albicollis,Animalia,BEEEATERS_MEROPIDAE,White-throated Bee-eater,,2,2.40309512,6.53465552,Africa,Benin,BJ,,Benin - Sô-Ava,2017-01-25,11:26
Ceryle rudis,Animalia,KINGFISHERS_ALCEDINIDAE,Pied Kingfisher,,1,2.40783267008044,6.5143147215177,Africa,Benin,BJ,,Benin - Sô-Ava,2017-01-25,11:40
Ceryle rudis,Animalia,KINGFISHERS_ALCEDINIDAE,Pied Kingfisher,,2,2.40904076554176,6.51440576331823,Africa,Benin,BJ,,Benin - Sô-Ava,2017-01-25,11:41
Vanellus spinosus,Animalia,PLOVERS_CHARADRIIDAE,Spur-winged Lapwing,,2,2.41456141333945,6.51461952413236,Africa,Benin,BJ,,Benin - Sô-Ava,2017-01-25,11:45
Microcarbo africanus,Animalia,CORMORANTS_PHALACROCORACIDAE,Reed Cormorant,,1,2.41538506766005,6.51496693047422,Africa,Benin,BJ,,Benin - Sô-Ava,2017-01-25,11:45
Ceryle rudis,Animalia,KINGFISHERS_ALCEDINIDAE,Pied Kingfisher,,4,2.41562821302056,6.51512693617861,Africa,Benin,BJ,,Benin - Sô-Ava,2017-01-25,11:45
Ardea purpurea,Animalia,HERONS_ARDEIDAE,Purple Heron,,1,2.41654872223602,6.51580284656081,Africa,Benin,BJ,,Benin - Sô-Ava,2017-01-25,11:46
Halcyon senegalensis,Animalia,KINGFISHERS_ALCEDINIDAE,Woodland Kingfisher,,1,2.41773688641374,6.51643908466989,Africa,Benin,BJ,,Benin - Sô-Ava,2017-01-25,11:47
Ceryle rudis,Animalia,KINGFISHERS_ALCEDINIDAE,Pied Kingfisher,,1,2.4179388478374,6.51657916437932,Africa,Benin,BJ,,Benin - Sô-Ava,2017-01-25,11:48
Halcyon senegalensis,Animalia,KINGFISHERS_ALCEDINIDAE,Woodland Kingfisher,,1,2.42029365882554,6.51614890857085,Africa,Benin,BJ,,Benin - Sô-Ava,2017-01-25,11:50
Ardea purpurea,Animalia,HERONS_ARDEIDAE,Purple Heron,,1,2.42112332418483,6.51569573584988,Africa,Benin,BJ,,Benin - Sô-Ava,2017-01-25,11:50
Ceryle rudis,Animalia,KINGFISHERS_ALCEDINIDAE,Pied Kingfisher,,6,2.4214700784185,6.51561013605755,Africa,Benin,BJ,,Benin - Sô-Ava,2017-01-25,11:51
Ceryle rudis,Animalia,KINGFISHERS_ALCEDINIDAE,Pied Kingfisher,,8,2.42305195934224,6.51544852411198,Africa,Benin,BJ,,Benin - Sô-Ava,2017-01-25,11:53
Ceryle rudis,Animalia,KINGFISHERS_ALCEDINIDAE,Pied Kingfisher,,2,2.42496108280597,6.51532131651009,Africa,Benin,BJ,,Benin - Sô-Ava,2017-01-25,11:54
Ceryle rudis,Animalia,KINGFISHERS_ALCEDINIDAE,Pied Kingfisher,,2,2.42563423824064,6.51556878204018,Africa,Benin,BJ,,Benin - Sô-Ava,2017-01-25,11:54
Ceryle rudis,Animalia,KINGFISHERS_ALCEDINIDAE,Pied Kingfisher,,4,2.42843412559189,6.51647298525087,Africa,Benin,BJ,,Benin - Sô-Ava,2017-01-25,11:56
Merops albicollis,Animalia,BEEEATERS_MEROPIDAE,White-throated Bee-eater,,2,2.42870428,6.51614332,Africa,Benin,BJ,,Benin - Sô-Ava,2017-01-25,11:57
Halcyon senegalensis,Animalia,KINGFISHERS_ALCEDINIDAE,Woodland Kingfisher,,1,2.43073306787943,6.51211570863954,Africa,Benin,BJ,,Benin - Sô-Ava,2017-01-25,11:59
Ardea purpurea,Animalia,HERONS_ARDEIDAE,Purple Heron,,1,2.42935315908097,6.50727165443589,Africa,Benin,BJ,,Benin - Sô-Ava,2017-01-25,12:04
Ceryle rudis,Animalia,KINGFISHERS_ALCEDINIDAE,Pied Kingfisher,,2,2.43032281415367,6.50186283844095,Africa,Benin,BJ,,Benin - Sô-Ava,2017-01-25,12:09
Ardeola ralloides,Animalia,HERONS_ARDEIDAE,Squacco Heron,,1,2.43032215163567,6.50187943164653,Africa,Benin,BJ,,Benin - Sô-Ava,2017-01-25,12:09
Ceryle rudis,Animalia,KINGFISHERS_ALCEDINIDAE,Pied Kingfisher,,2,2.43028295307254,6.50192674789267,Africa,Benin,BJ,,Benin - Sô-Ava,2017-01-25,12:10
Ardea purpurea,Animalia,HERONS_ARDEIDAE,Purple Heron,,1,2.43080498123307,6.50153859629692,Africa,Benin,BJ,,Benin - Sô-Ava,2017-01-25,12:13
Ardea purpurea,Animalia,HERONS_ARDEIDAE,Purple Heron,,1,2.43091201563952,6.50147452381694,Africa,Benin,BJ,,Benin - Sô-Ava,2017-01-25,12:13
Ceryle rudis,Animalia,KINGFISHERS_ALCEDINIDAE,Pied Kingfisher,,6,2.43093099289709,6.5014372237061,Africa,Benin,BJ,,Benin - Sô-Ava,2017-01-25,12:13
Porphyrio alleni,Animalia,RAILS_RALLIDAE,Allen's Gallinule,,1,2.43130298540189,6.50113813715365,Africa,Benin,BJ,,Benin - Sô-Ava,2017-01-25,12:18
Ardea purpurea,Animalia,HERONS_ARDEIDAE,Purple Heron,,1,2.43299380019423,6.49985964155074,Africa,Benin,BJ,,Benin - Sô-Ava,2017-01-25,12:24
Ardeola ralloides,Animalia,HERONS_ARDEIDAE,Squacco Heron,,6,2.43298701706667,6.49835473620515,Africa,Benin,BJ,,Benin - Sô-Ava,2017-01-25,12:27
Ceryle rudis,Animalia,KINGFISHERS_ALCEDINIDAE,Pied Kingfisher,,2,2.43297006442003,6.49830664822445,Africa,Benin,BJ,,Benin - Sô-Ava,2017-01-25,12:27
Ardea alba,Animalia,HERONS_ARDEIDAE,Great Egret,,35,2.43295008058724,6.49829688659194,Africa,Benin,BJ,,Benin - Sô-Ava,2017-01-25,12:27
Ardea purpurea,Animalia,HERONS_ARDEIDAE,Purple Heron,,1,2.43292338764086,6.49830308359861,Africa,Benin,BJ,,Benin - Sô-Ava,2017-01-25,12:29
Microcarbo africanus,Animalia,CORMORANTS_PHALACROCORACIDAE,Reed Cormorant,,15,2.43291363323629,6.49831466203349,Africa,Benin,BJ,,Benin - Sô-Ava,2017-01-25,12:32
Merops albicollis,Animalia,BEEEATERS_MEROPIDAE,White-throated Bee-eater,,10,2.43290726,6.49830655,Africa,Benin,BJ,,Benin - Sô-Ava,2017-01-25,12:32
Microcarbo africanus,Animalia,CORMORANTS_PHALACROCORACIDAE,Reed Cormorant,,10,2.43074027810793,6.4930629181089,Africa,Benin,BJ,,Benin - Sô-Ava,2017-01-25,12:42
Ardea alba,Animalia,HERONS_ARDEIDAE,Great Egret,,10,2.43056236181193,6.48923655313944,Africa,Benin,BJ,,Benin - Sô-Ava,2017-01-25,12:45
Microcarbo africanus,Animalia,CORMORANTS_PHALACROCORACIDAE,Reed Cormorant,,8,2.43005562240053,6.48739515200259,Africa,Benin,BJ,,Benin - Sô-Ava,2017-01-25,12:49
Ceryle rudis,Animalia,KINGFISHERS_ALCEDINIDAE,Pied Kingfisher,,2,2.42979941745914,6.48673302051401,Africa,Benin,BJ,,Benin - Sô-Ava,2017-01-25,12:49
Ardea alba,Animalia,HERONS_ARDEIDAE,Great Egret,,1,2.42596398943489,6.48462968376348,Africa,Benin,BJ,,Benin - Sô-Ava,2017-01-25,12:51
Microcarbo africanus,Animalia,CORMORANTS_PHALACROCORACIDAE,Reed Cormorant,,4,2.42573292877408,6.48458563725988,Africa,Benin,BJ,,Benin - Sô-Ava,2017-01-25,12:52
Ceryle rudis,Animalia,KINGFISHERS_ALCEDINIDAE,Pied Kingfisher,,1,2.42319416488067,6.48443981806614,Africa,Benin,BJ,,Benin - Sô-Ava,2017-01-25,12:53
Microcarbo africanus,Animalia,CORMORANTS_PHALACROCORACIDAE,Reed Cormorant,,1,2.42306006464847,6.4844375117298,Africa,Benin,BJ,,Benin - Sô-Ava,2017-01-25,12:54
Merops albicollis,Animalia,BEEEATERS_MEROPIDAE,White-throated Bee-eater,,1,2.42115688,6.48466416,Africa,Benin,BJ,,Benin - Sô-Ava,2017-01-25,12:55
Bubulcus ibis,Animalia,HERONS_ARDEIDAE,Western Cattle Egret,,1,2.41945080265795,6.48597150166764,Africa,Benin,BJ,,Benin - Sô-Ava,2017-01-25,12:56
Bubulcus ibis,Animalia,HERONS_ARDEIDAE,Western Cattle Egret,,40,2.41728081540141,6.48751601699272,Africa,Benin,BJ,,Benin - Sô-Ava,2017-01-25,12:58
Merops albicollis,Animalia,BEEEATERS_MEROPIDAE,White-throated Bee-eater,,2,2.4169558,6.48774404,Africa,Benin,BJ,,Benin - Sô-Ava,2017-01-25,12:58
Ceryle rudis,Animalia,KINGFISHERS_ALCEDINIDAE,Pied Kingfisher,,2,2.41190095304504,6.4887231088898,Africa,Benin,BJ,,Benin - Sô-Ava,2017-01-25,13:01
Vanellus spinosus,Animalia,PLOVERS_CHARADRIIDAE,Spur-winged Lapwing,,2,2.41148889096575,6.48881137249617,Africa,Benin,BJ,,Benin - Sô-Ava,2017-01-25,13:01
Bubulcus ibis,Animalia,HERONS_ARDEIDAE,Western Cattle Egret,,80,2.41022997670881,6.48909318895379,Africa,Benin,BJ,,Benin - Abomey-Calavi,2017-01-25,13:02
Ceryle rudis,Animalia,KINGFISHERS_ALCEDINIDAE,Pied Kingfisher,,2,2.40829775644508,6.48956599228772,Africa,Benin,BJ,,Benin - Abomey-Calavi,2017-01-25,13:02
Vanellus spinosus,Animalia,PLOVERS_CHARADRIIDAE,Spur-winged Lapwing,,2,2.40815380480312,6.4885100580184,Africa,Benin,BJ,,Benin - Abomey-Calavi,2017-01-25,13:03
Vanellus spinosus,Animalia,PLOVERS_CHARADRIIDAE,Spur-winged Lapwing,,2,2.40784747402381,6.48488659144956,Africa,Benin,BJ,,Benin - Abomey-Calavi,2017-01-25,13:05
Bubulcus ibis,Animalia,HERONS_ARDEIDAE,Western Cattle Egret,,10,2.40779202584021,6.48426098088259,Africa,Benin,BJ,,Benin - Abomey-Calavi,2017-01-25,13:05
Ceryle rudis,Animalia,KINGFISHERS_ALCEDINIDAE,Pied Kingfisher,,10,2.40713875535546,6.4827325813074,Africa,Benin,BJ,,Benin - Abomey-Calavi,2017-01-25,13:06
Ceryle rudis,Animalia,KINGFISHERS_ALCEDINIDAE,Pied Kingfisher,,8,2.40657665788551,6.48183357790201,Africa,Benin,BJ,,Benin - Abomey-Calavi,2017-01-25,13:07
Bubulcus ibis,Animalia,HERONS_ARDEIDAE,Western Cattle Egret,,2,2.40620071200363,6.48143674664158,Africa,Benin,BJ,,Benin - Abomey-Calavi,2017-01-25,13:07
Ceryle rudis,Animalia,KINGFISHERS_ALCEDINIDAE,Pied Kingfisher,,6,2.40598963688238,6.48068323007133,Africa,Benin,BJ,,Benin - Abomey-Calavi,2017-01-25,13:07
Microcarbo africanus,Animalia,CORMORANTS_PHALACROCORACIDAE,Reed Cormorant,,1,2.40725461179408,6.4792359607063,Africa,Benin,BJ,,Benin - Abomey-Calavi,2017-01-25,13:08
Ceryle rudis,Animalia,KINGFISHERS_ALCEDINIDAE,Pied Kingfisher,,6,2.40746432554267,6.47912632199378,Africa,Benin,BJ,,Benin - Abomey-Calavi,2017-01-25,13:08
Bubulcus ibis,Animalia,HERONS_ARDEIDAE,Western Cattle Egret,,20,2.40776245931883,6.47896063967954,Africa,Benin,BJ,,Benin - Abomey-Calavi,2017-01-25,13:09
Ardea intermedia,Animalia,HERONS_ARDEIDAE,Intermediate Egret,,1,2.4090976738939,6.46641507173729,Africa,Benin,BJ,,Benin - Sô-Ava,2017-01-25,13:19
Halcyon senegalensis,Animalia,KINGFISHERS_ALCEDINIDAE,Woodland Kingfisher,,1,2.40912039274266,6.4661561807015,Africa,Benin,BJ,,Benin - Sô-Ava,2017-01-25,13:19
Ardea intermedia,Animalia,HERONS_ARDEIDAE,Intermediate Egret,,2,2.40897101721618,6.46529355635051,Africa,Benin,BJ,,Benin - Sô-Ava,2017-01-25,13:20
Microcarbo africanus,Animalia,CORMORANTS_PHALACROCORACIDAE,Reed Cormorant,,6,2.40893889713602,6.46522433276363,Africa,Benin,BJ,,Benin - Sô-Ava,2017-01-25,13:21
Ceryle rudis,Animalia,KINGFISHERS_ALCEDINIDAE,Pied Kingfisher,,20,2.40889883915295,6.46514954220174,Africa,Benin,BJ,,Benin - Sô-Ava,2017-01-25,13:21
Ardeola ralloides,Animalia,HERONS_ARDEIDAE,Squacco Heron,,3,2.40853254116207,6.46463275655119,Africa,Benin,BJ,,Benin - Sô-Ava,2017-01-25,13:31
Ceryle rudis,Animalia,KINGFISHERS_ALCEDINIDAE,Pied Kingfisher,,4,2.40739188370253,6.46199398695399,Africa,Benin,BJ,,Benin - Sô-Ava,2017-01-25,13:40
Microcarbo africanus,Animalia,CORMORANTS_PHALACROCORACIDAE,Reed Cormorant,,10,2.40674643946405,6.4602009612967,Africa,Benin,BJ,,Benin - Sô-Ava,2017-01-25,13:42
Ceryle rudis,Animalia,KINGFISHERS_ALCEDINIDAE,Pied Kingfisher,,1,2.40600473723746,6.45740419807503,Africa,Benin,BJ,,Benin - Sô-Ava,2017-01-25,13:44
Microcarbo africanus,Animalia,CORMORANTS_PHALACROCORACIDAE,Reed Cormorant,,1,2.39883402211303,6.45100369176339,Africa,Benin,BJ,,Benin - Sô-Ava,2017-01-25,13:49
Microcarbo africanus,Animalia,CORMORANTS_PHALACROCORACIDAE,Reed Cormorant,,1,2.39806305589098,6.45066980720588,Africa,Benin,BJ,,Benin - Sô-Ava,2017-01-25,13:50
Ceryle rudis,Animalia,KINGFISHERS_ALCEDINIDAE,Pied Kingfisher,,1,2.3954639395073,6.44926402139805,Africa,Benin,BJ,,Benin - Sô-Ava,2017-01-25,13:51
Microcarbo africanus,Animalia,CORMORANTS_PHALACROCORACIDAE,Reed Cormorant,,6,2.39399270913603,6.44889305468486,Africa,Benin,BJ,,Benin - Sô-Ava,2017-01-25,13:52
Ceryle rudis,Animalia,KINGFISHERS_ALCEDINIDAE,Pied Kingfisher,,1,2.39371250010959,6.44881640349925,Africa,Benin,BJ,,Benin - Sô-Ava,2017-01-25,13:52
Ardea intermedia,Animalia,HERONS_ARDEIDAE,Intermediate Egret,,1,2.38785940216637,6.44574569258682,Africa,Benin,BJ,,Benin - Sô-Ava,2017-01-25,13:56
Microcarbo africanus,Animalia,CORMORANTS_PHALACROCORACIDAE,Reed Cormorant,,4,2.38744844272763,6.44535301681643,Africa,Benin,BJ,,Benin - Sô-Ava,2017-01-25,13:56
Ceryle rudis,Animalia,KINGFISHERS_ALCEDINIDAE,Pied Kingfisher,,1,2.37904172463902,6.44057778096544,Africa,Benin,BJ,,Benin - Sô-Ava,2017-01-25,14:02
Ceryle rudis,Animalia,KINGFISHERS_ALCEDINIDAE,Pied Kingfisher,,1,2.3759449953847,6.43390601593543,Africa,Benin,BJ,,Benin - Sô-Ava,2017-01-25,14:05
Egretta ardesiaca,Animalia,HERONS_ARDEIDAE,Black Heron,,1,2.37265478907324,6.43227047565256,Africa,Benin,BJ,,Benin - Sô-Ava,2017-01-25,14:08
Microcarbo africanus,Animalia,CORMORANTS_PHALACROCORACIDAE,Reed Cormorant,,2,2.37231109075728,6.4322005494124,Africa,Benin,BJ,,Benin - Sô-Ava,2017-01-25,14:08
Butorides striata,Animalia,HERONS_ARDEIDAE,Striated Heron,,1,2.37141430575379,6.43178133126119,Africa,Benin,BJ,,Benin - Sô-Ava,2017-01-25,14:09
Egretta ardesiaca,Animalia,HERONS_ARDEIDAE,Black Heron,,2,2.37110015828679,6.43092889398577,Africa,Benin,BJ,,Benin - Sô-Ava,2017-01-25,14:10
Microcarbo africanus,Animalia,CORMORANTS_PHALACROCORACIDAE,Reed Cormorant,,2,2.37058928265797,6.42901487135121,Africa,Benin,BJ,,Benin - Sô-Ava,2017-01-25,14:12
Egretta ardesiaca,Animalia,HERONS_ARDEIDAE,Black Heron,,20,2.36984324230465,6.42705168904026,Africa,Benin,BJ,,Benin - Sô-Ava,2017-01-25,14:14
Ceryle rudis,Animalia,KINGFISHERS_ALCEDINIDAE,Pied Kingfisher,,1,2.36823686331441,6.42706662683946,Africa,Benin,BJ,,Benin - Sô-Ava,2017-01-25,14:15
Ardea purpurea,Animalia,HERONS_ARDEIDAE,Purple Heron,,1,2.36445125659547,6.4264490994056,Africa,Benin,BJ,,Benin - Abomey-Calavi,2017-01-25,14:18
Microcarbo africanus,Animalia,CORMORANTS_PHALACROCORACIDAE,Reed Cormorant,,3,2.36412662753742,6.42624386180977,Africa,Benin,BJ,,Benin - Abomey-Calavi,2017-01-25,14:19
Ardea alba,Animalia,HERONS_ARDEIDAE,Great Egret,,1,2.36044131246681,6.42429376281488,Africa,Benin,BJ,,Benin - Abomey-Calavi,2017-01-25,14:21
Microcarbo africanus,Animalia,CORMORANTS_PHALACROCORACIDAE,Reed Cormorant,,4,2.36026114207461,6.42435060093018,Africa,Benin,BJ,,Benin - Abomey-Calavi,2017-01-25,14:21
Ceryle rudis,Animalia,KINGFISHERS_ALCEDINIDAE,Pied Kingfisher,,1,2.36007021625887,6.42441710036118,Africa,Benin,BJ,,Benin - Abomey-Calavi,2017-01-25,14:22
Egretta ardesiaca,Animalia,HERONS_ARDEIDAE,Black Heron,,2,2.35625627475417,6.42127438420335,Africa,Benin,BJ,,Benin - Abomey-Calavi,2017-01-25,14:24
Ardea intermedia,Animalia,HERONS_ARDEIDAE,Intermediate Egret,,1,2.3559408124477,6.42105001019869,Africa,Benin,BJ,,Benin - Abomey-Calavi,2017-01-25,14:24
Microcarbo africanus,Animalia,CORMORANTS_PHALACROCORACIDAE,Reed Cormorant,,1,2.35551950410604,6.42081872112045,Africa,Benin,BJ,,Benin - Abomey-Calavi,2017-01-25,14:25
Egretta ardesiaca,Animalia,HERONS_ARDEIDAE,Black Heron,,5,2.35190278767977,6.42154623384956,Africa,Benin,BJ,,Benin - Abomey-Calavi,2017-01-25,14:30
Microcarbo africanus,Animalia,CORMORANTS_PHALACROCORACIDAE,Reed Cormorant,,3,2.36269753486071,6.42548049473771,Africa,Benin,BJ,,Benin - Abomey-Calavi,2017-01-25,09:19
Ardea intermedia,Animalia,HERONS_ARDEIDAE,Intermediate Egret,,1,2.36278529159703,6.42554124024087,Africa,Benin,BJ,,Benin - Abomey-Calavi,2017-01-25,09:19
Microcarbo africanus,Animalia,CORMORANTS_PHALACROCORACIDAE,Reed Cormorant,,1,2.36801907089087,6.42725106441966,Africa,Benin,BJ,,Benin - Abomey-Calavi,2017-01-25,09:23
Butorides striata,Animalia,HERONS_ARDEIDAE,Striated Heron,,1,2.37238708599312,6.43213823254546,Africa,Benin,BJ,,Benin - Sô-Ava,2017-01-25,09:27
Egretta ardesiaca,Animalia,HERONS_ARDEIDAE,Black Heron,,4,2.37267602754716,6.43219992349186,Africa,Benin,BJ,,Benin - Sô-Ava,2017-01-25,09:27
Microcarbo africanus,Animalia,CORMORANTS_PHALACROCORACIDAE,Reed Cormorant,,3,2.37283167768119,6.43222685426945,Africa,Benin,BJ,,Benin - Sô-Ava,2017-01-25,09:27
Microcarbo africanus,Animalia,CORMORANTS_PHALACROCORACIDAE,Reed Cormorant,,4,2.3764640821296,6.43611850955396,Africa,Benin,BJ,,Benin - Sô-Ava,2017-01-25,09:30
Microcarbo africanus,Animalia,CORMORANTS_PHALACROCORACIDAE,Reed Cormorant,,3,2.37956361930199,6.44792239122665,Africa,Benin,BJ,,Benin - Abomey-Calavi,2017-01-25,09:37
Microcarbo africanus,Animalia,CORMORANTS_PHALACROCORACIDAE,Reed Cormorant,,1,2.3821699757623,6.4534528682588,Africa,Benin,BJ,,Benin - Abomey-Calavi,2017-01-25,09:39
Gallinula chloropus,Animalia,RAILS_RALLIDAE,Common Moorhen,,1,2.3849050526708,6.45716834614506,Africa,Benin,BJ,,Benin - Abomey-Calavi,2017-01-25,09:42
Ceryle rudis,Animalia,KINGFISHERS_ALCEDINIDAE,Pied Kingfisher,,1,2.38510959733723,6.45742231192704,Africa,Benin,BJ,,Benin - Abomey-Calavi,2017-01-25,09:42
Ceryle rudis,Animalia,KINGFISHERS_ALCEDINIDAE,Pied Kingfisher,,6,2.38806998882602,6.46157541374024,Africa,Benin,BJ,,Benin - Abomey-Calavi,2017-01-25,09:45
Microcarbo africanus,Animalia,CORMORANTS_PHALACROCORACIDAE,Reed Cormorant,,2,2.38816927294618,6.46168795922555,Africa,Benin,BJ,,Benin - Abomey-Calavi,2017-01-25,09:45
Merops albicollis,Animalia,BEEEATERS_MEROPIDAE,White-throated Bee-eater,,1,2.38830261,6.46192445,Africa,Benin,BJ,,Benin - Abomey-Calavi,2017-01-25,09:45
Ardeola ralloides,Animalia,HERONS_ARDEIDAE,Squacco Heron,,5,2.38904977058217,6.46311321610747,Africa,Benin,BJ,,Benin - Abomey-Calavi,2017-01-25,09:47
Halcyon senegalensis,Animalia,KINGFISHERS_ALCEDINIDAE,Woodland Kingfisher,,1,2.38907185399208,6.46318362615883,Africa,Benin,BJ,,Benin - Abomey-Calavi,2017-01-25,09:47
Microcarbo africanus,Animalia,CORMORANTS_PHALACROCORACIDAE,Reed Cormorant,,10,2.38914253606024,6.46335325329914,Africa,Benin,BJ,,Benin - Abomey-Calavi,2017-01-25,09:48
Ceryle rudis,Animalia,KINGFISHERS_ALCEDINIDAE,Pied Kingfisher,,2,2.39151861646809,6.47619059490373,Africa,Benin,BJ,,Benin - Abomey-Calavi,2017-01-25,10:05
Ceryle rudis,Animalia,KINGFISHERS_ALCEDINIDAE,Pied Kingfisher,,4,2.39258657179189,6.47799623665454,Africa,Benin,BJ,,Benin - Abomey-Calavi,2017-01-25,10:09
Bubulcus ibis,Animalia,HERONS_ARDEIDAE,Western Cattle Egret,,90,2.39215102287017,6.47940754596869,Africa,Benin,BJ,,Benin - Abomey-Calavi,2017-01-25,10:11
Ceryle rudis,Animalia,KINGFISHERS_ALCEDINIDAE,Pied Kingfisher,,4,2.3920473638312,6.47947268177556,Africa,Benin,BJ,,Benin - Abomey-Calavi,2017-01-25,10:11
Ceryle rudis,Animalia,KINGFISHERS_ALCEDINIDAE,Pied Kingfisher,,10,2.39263536049905,6.4802918926273,Africa,Benin,BJ,,Benin - Abomey-Calavi,2017-01-25,10:13
Motacilla flava,Animalia,PIPITS_EN_WAGTAILS_MOTACILLIDAE,Western Yellow Wagtail,,2,2.39277395593635,6.48039558624799,Africa,Benin,BJ,,Benin - Abomey-Calavi,2017-01-25,10:14
Bubulcus ibis,Animalia,HERONS_ARDEIDAE,Western Cattle Egret,,30,2.39291721717618,6.48051104597176,Africa,Benin,BJ,,Benin - Abomey-Calavi,2017-01-25,10:14
Gallinula chloropus,Animalia,RAILS_RALLIDAE,Common Moorhen,,1,2.39517266504139,6.48275859393785,Africa,Benin,BJ,,Benin - Abomey-Calavi,2017-01-25,10:20
Vanellus spinosus,Animalia,PLOVERS_CHARADRIIDAE,Spur-winged Lapwing,,4,2.39606069171577,6.48391997110132,Africa,Benin,BJ,,Benin - Abomey-Calavi,2017-01-25,10:24
Ceryle rudis,Animalia,KINGFISHERS_ALCEDINIDAE,Pied Kingfisher,,10,2.39633499183825,6.48435063065456,Africa,Benin,BJ,,Benin - Abomey-Calavi,2017-01-25,10:24
Bubulcus ibis,Animalia,HERONS_ARDEIDAE,Western Cattle Egret,,5,2.39665285405817,6.48487651166496,Africa,Benin,BJ,,Benin - Abomey-Calavi,2017-01-25,10:25
Porphyrio madagascariensis,Animalia,RAILS_RALLIDAE,African Swamphen,,1,2.3970107,6.48636487,Africa,Benin,BJ,,Benin - Abomey-Calavi,2017-01-25,10:26
Halcyon senegalensis,Animalia,KINGFISHERS_ALCEDINIDAE,Woodland Kingfisher,,1,2.3970063659683,6.48712724608496,Africa,Benin,BJ,,Benin - Abomey-Calavi,2017-01-25,10:27
Ardea intermedia,Animalia,HERONS_ARDEIDAE,Intermediate Egret,,1,2.39741586084662,6.48805802220598,Africa,Benin,BJ,,Benin - Abomey-Calavi,2017-01-25,10:28
Bubulcus ibis,Animalia,HERONS_ARDEIDAE,Western Cattle Egret,,15,2.3974350174161,6.48808296894562,Africa,Benin,BJ,,Benin - Abomey-Calavi,2017-01-25,10:28
Ceryle rudis,Animalia,KINGFISHERS_ALCEDINIDAE,Pied Kingfisher,,2,2.39815730458735,6.49119104061548,Africa,Benin,BJ,,Benin - Abomey-Calavi,2017-01-25,10:32
Ceryle rudis,Animalia,KINGFISHERS_ALCEDINIDAE,Pied Kingfisher,,2,2.39905212612622,6.49316783722481,Africa,Benin,BJ,,Benin - Abomey-Calavi,2017-01-25,10:34
Falco tinnunculus,Animalia,CARACAS_AND_FALCONS_FALCONIDAE,Common Kestrel,,1,2.39943794012208,6.49591001326935,Africa,Benin,BJ,,Benin - Abomey-Calavi,2017-01-25,10:58
Halcyon senegalensis,Animalia,KINGFISHERS_ALCEDINIDAE,Woodland Kingfisher,,1,2.39909577365288,6.50171736400704,Africa,Benin,BJ,,Benin - Abomey-Calavi,2017-01-25,11:01
Ceryle rudis,Animalia,KINGFISHERS_ALCEDINIDAE,Pied Kingfisher,,2,2.4006859916382,6.50454238465589,Africa,Benin,BJ,,Benin - Abomey-Calavi,2017-01-25,11:04
Bubulcus ibis,Animalia,HERONS_ARDEIDAE,Western Cattle Egret,,6,2.4009049941396,6.50475633510965,Africa,Benin,BJ,,Benin - Abomey-Calavi,2017-01-25,11:04
Merops albicollis,Animalia,BEEEATERS_MEROPIDAE,White-throated Bee-eater,,1,2.4032299,6.50713756,Africa,Benin,BJ,,Benin - Abomey-Calavi,2017-01-25,11:06
Ardeola ralloides,Animalia,HERONS_ARDEIDAE,Squacco Heron,,1,2.40413349975964,6.50811706227633,Africa,Benin,BJ,,Benin - Abomey-Calavi,2017-01-25,11:07
Merops albicollis,Animalia,BEEEATERS_MEROPIDAE,White-throated Bee-eater,,2,2.40473167,6.50970713,Africa,Benin,BJ,,Benin - Abomey-Calavi,2017-01-25,11:08
Halcyon senegalensis,Animalia,KINGFISHERS_ALCEDINIDAE,Woodland Kingfisher,,1,2.40497312197183,6.51059337102941,Africa,Benin,BJ,,Benin - Abomey-Calavi,2017-01-25,11:09
Merops albicollis,Animalia,BEEEATERS_MEROPIDAE,White-throated Bee-eater,,4,2.40497077,6.51454123,Africa,Benin,BJ,,Benin - Abomey-Calavi,2017-01-25,11:11
Ceryle rudis,Animalia,KINGFISHERS_ALCEDINIDAE,Pied Kingfisher,,4,2.40480003853176,6.51590716955946,Africa,Benin,BJ,,Benin - Abomey-Calavi,2017-01-25,11:12
Ardeola ralloides,Animalia,HERONS_ARDEIDAE,Squacco Heron,,3,2.40437576358537,6.52363251686862,Africa,Benin,BJ,,Benin - Sô-Ava,2017-01-25,11:17
Microcarbo africanus,Animalia,CORMORANTS_PHALACROCORACIDAE,Reed Cormorant,,2,2.40437899692067,6.5236430546035,Africa,Benin,BJ,,Benin - Sô-Ava,2017-01-25,11:18
Halcyon senegalensis,Animalia,KINGFISHERS_ALCEDINIDAE,Woodland Kingfisher,,1,2.40438409121811,6.52390237191201,Africa,Benin,BJ,,Benin - Sô-Ava,2017-01-25,11:18
Halcyon senegalensis,Animalia,KINGFISHERS_ALCEDINIDAE,Woodland Kingfisher,,1,2.40514653149696,6.52525788830996,Africa,Benin,BJ,,Benin - Sô-Ava,2017-01-25,11:19
Halcyon senegalensis,Animalia,KINGFISHERS_ALCEDINIDAE,Woodland Kingfisher,,1,2.40567704236851,6.52748557575469,Africa,Benin,BJ,,Benin - Sô-Ava,2017-01-25,11:21
Halcyon senegalensis,Animalia,KINGFISHERS_ALCEDINIDAE,Woodland Kingfisher,,1,2.40562338507554,6.5281433415651,Africa,Benin,BJ,,Benin - Sô-Ava,2017-01-25,11:21
Halcyon senegalensis,Animalia,KINGFISHERS_ALCEDINIDAE,Woodland Kingfisher,,2,2.40536221191166,6.52902479692932,Africa,Benin,BJ,,Benin - Sô-Ava,2017-01-25,11:22
Ceryle rudis,Animalia,KINGFISHERS_ALCEDINIDAE,Pied Kingfisher,,2,2.40505288802938,6.52974272524203,Africa,Benin,BJ,,Benin - Sô-Ava,2017-01-25,11:23
Vanellus spinosus,Animalia,PLOVERS_CHARADRIIDAE,Spur-winged Lapwing,,2,2.40423212594066,6.53159115798819,Africa,Benin,BJ,,Benin - Sô-Ava,2017-01-25,11:24
Merops albicollis,Animalia,BEEEATERS_MEROPIDAE,White-throated Bee-eater,,4,2.40395428,6.53228607,Africa,Benin,BJ,,Benin - Sô-Ava,2017-01-25,11:25
Bubulcus ibis,Animalia,HERONS_ARDEIDAE,Western Cattle Egret,,1,2.40315389869319,6.53431866693527,Africa,Benin,BJ,,Benin - Sô-Ava,2017-01-25,11:26
Merops albicollis,Animalia,BEEEATERS_MEROPIDAE,White-throated Bee-eater,,2,2.40309512,6.53465552,Africa,Benin,BJ,,Benin - Sô-Ava,2017-01-25,11:26
Ceryle rudis,Animalia,KINGFISHERS_ALCEDINIDAE,Pied Kingfisher,,1,2.40783267008044,6.5143147215177,Africa,Benin,BJ,,Benin - Sô-Ava,2017-01-25,11:40
Ceryle rudis,Animalia,KINGFISHERS_ALCEDINIDAE,Pied Kingfisher,,2,2.40904076554176,6.51440576331823,Africa,Benin,BJ,,Benin - Sô-Ava,2017-01-25,11:41
Vanellus spinosus,Animalia,PLOVERS_CHARADRIIDAE,Spur-winged Lapwing,,2,2.41456141333945,6.51461952413236,Africa,Benin,BJ,,Benin - Sô-Ava,2017-01-25,11:45
Microcarbo africanus,Animalia,CORMORANTS_PHALACROCORACIDAE,Reed Cormorant,,1,2.41538506766005,6.51496693047422,Africa,Benin,BJ,,Benin - Sô-Ava,2017-01-25,11:45
Ceryle rudis,Animalia,KINGFISHERS_ALCEDINIDAE,Pied Kingfisher,,4,2.41562821302056,6.51512693617861,Africa,Benin,BJ,,Benin - Sô-Ava,2017-01-25,11:45
Ardea purpurea,Animalia,HERONS_ARDEIDAE,Purple Heron,,1,2.41654872223602,6.51580284656081,Africa,Benin,BJ,,Benin - Sô-Ava,2017-01-25,11:46
Halcyon senegalensis,Animalia,KINGFISHERS_ALCEDINIDAE,Woodland Kingfisher,,1,2.41773688641374,6.51643908466989,Africa,Benin,BJ,,Benin - Sô-Ava,2017-01-25,11:47
Ceryle rudis,Animalia,KINGFISHERS_ALCEDINIDAE,Pied Kingfisher,,1,2.4179388478374,6.51657916437932,Africa,Benin,BJ,,Benin - Sô-Ava,2017-01-25,11:48
Halcyon senegalensis,Animalia,KINGFISHERS_ALCEDINIDAE,Woodland Kingfisher,,1,2.42029365882554,6.51614890857085,Africa,Benin,BJ,,Benin - Sô-Ava,2017-01-25,11:50
Ardea purpurea,Animalia,HERONS_ARDEIDAE,Purple Heron,,1,2.42112332418483,6.51569573584988,Africa,Benin,BJ,,Benin - Sô-Ava,2017-01-25,11:50
Ceryle rudis,Animalia,KINGFISHERS_ALCEDINIDAE,Pied Kingfisher,,6,2.4214700784185,6.51561013605755,Africa,Benin,BJ,,Benin - Sô-Ava,2017-01-25,11:51
Ceryle rudis,Animalia,KINGFISHERS_ALCEDINIDAE,Pied Kingfisher,,8,2.42305195934224,6.51544852411198,Africa,Benin,BJ,,Benin - Sô-Ava,2017-01-25,11:53
Ceryle rudis,Animalia,KINGFISHERS_ALCEDINIDAE,Pied Kingfisher,,2,2.42496108280597,6.51532131651009,Africa,Benin,BJ,,Benin - Sô-Ava,2017-01-25,11:54
Ceryle rudis,Animalia,KINGFISHERS_ALCEDINIDAE,Pied Kingfisher,,2,2.42563423824064,6.51556878204018,Africa,Benin,BJ,,Benin - Sô-Ava,2017-01-25,11:54
Ceryle rudis,Animalia,KINGFISHERS_ALCEDINIDAE,Pied Kingfisher,,4,2.42843412559189,6.51647298525087,Africa,Benin,BJ,,Benin - Sô-Ava,2017-01-25,11:56
Merops albicollis,Animalia,BEEEATERS_MEROPIDAE,White-throated Bee-eater,,2,2.42870428,6.51614332,Africa,Benin,BJ,,Benin - Sô-Ava,2017-01-25,11:57
Halcyon senegalensis,Animalia,KINGFISHERS_ALCEDINIDAE,Woodland Kingfisher,,1,2.43073306787943,6.51211570863954,Africa,Benin,BJ,,Benin - Sô-Ava,2017-01-25,11:59
Ardea purpurea,Animalia,HERONS_ARDEIDAE,Purple Heron,,1,2.42935315908097,6.50727165443589,Africa,Benin,BJ,,Benin - Sô-Ava,2017-01-25,12:04
Ceryle rudis,Animalia,KINGFISHERS_ALCEDINIDAE,Pied Kingfisher,,2,2.43032281415367,6.50186283844095,Africa,Benin,BJ,,Benin - Sô-Ava,2017-01-25,12:09
Ardeola ralloides,Animalia,HERONS_ARDEIDAE,Squacco Heron,,1,2.43032215163567,6.50187943164653,Africa,Benin,BJ,,Benin - Sô-Ava,2017-01-25,12:09
Ceryle rudis,Animalia,KINGFISHERS_ALCEDINIDAE,Pied Kingfisher,,2,2.43028295307254,6.50192674789267,Africa,Benin,BJ,,Benin - Sô-Ava,2017-01-25,12:10
Ardea purpurea,Animalia,HERONS_ARDEIDAE,Purple Heron,,1,2.43080498123307,6.50153859629692,Africa,Benin,BJ,,Benin - Sô-Ava,2017-01-25,12:13
Ardea purpurea,Animalia,HERONS_ARDEIDAE,Purple Heron,,1,2.43091201563952,6.50147452381694,Africa,Benin,BJ,,Benin - Sô-Ava,2017-01-25,12:13
Ceryle rudis,Animalia,KINGFISHERS_ALCEDINIDAE,Pied Kingfisher,,6,2.43093099289709,6.5014372237061,Africa,Benin,BJ,,Benin - Sô-Ava,2017-01-25,12:13
Ardea purpurea,Animalia,HERONS_ARDEIDAE,Purple Heron,,1,2.43299380019423,6.49985964155074,Africa,Benin,BJ,,Benin - Sô-Ava,2017-01-25,12:24
Ardeola ralloides,Animalia,HERONS_ARDEIDAE,Squacco Heron,,6,2.43298701706667,6.49835473620515,Africa,Benin,BJ,,Benin - Sô-Ava,2017-01-25,12:27
Ceryle rudis,Animalia,KINGFISHERS_ALCEDINIDAE,Pied Kingfisher,,2,2.43297006442003,6.49830664822445,Africa,Benin,BJ,,Benin - Sô-Ava,2017-01-25,12:27
Ardea alba,Animalia,HERONS_ARDEIDAE,Great Egret,,35,2.43295008058724,6.49829688659194,Africa,Benin,BJ,,Benin - Sô-Ava,2017-01-25,12:27
Ardea purpurea,Animalia,HERONS_ARDEIDAE,Purple Heron,,1,2.43292338764086,6.49830308359861,Africa,Benin,BJ,,Benin - Sô-Ava,2017-01-25,12:29
Microcarbo africanus,Animalia,CORMORANTS_PHALACROCORACIDAE,Reed Cormorant,,15,2.43291363323629,6.49831466203349,Africa,Benin,BJ,,Benin - Sô-Ava,2017-01-25,12:32
Merops albicollis,Animalia,BEEEATERS_MEROPIDAE,White-throated Bee-eater,,10,2.43290726,6.49830655,Africa,Benin,BJ,,Benin - Sô-Ava,2017-01-25,12:32
Microcarbo africanus,Animalia,CORMORANTS_PHALACROCORACIDAE,Reed Cormorant,,10,2.43074027810793,6.4930629181089,Africa,Benin,BJ,,Benin - Sô-Ava,2017-01-25,12:42
Ardea alba,Animalia,HERONS_ARDEIDAE,Great Egret,,10,2.43056236181193,6.48923655313944,Africa,Benin,BJ,,Benin - Sô-Ava,2017-01-25,12:45
Microcarbo africanus,Animalia,CORMORANTS_PHALACROCORACIDAE,Reed Cormorant,,8,2.43005562240053,6.48739515200259,Africa,Benin,BJ,,Benin - Sô-Ava,2017-01-25,12:49
Ceryle rudis,Animalia,KINGFISHERS_ALCEDINIDAE,Pied Kingfisher,,2,2.42979941745914,6.48673302051401,Africa,Benin,BJ,,Benin - Sô-Ava,2017-01-25,12:49
Ardea alba,Animalia,HERONS_ARDEIDAE,Great Egret,,1,2.42596398943489,6.48462968376348,Africa,Benin,BJ,,Benin - Sô-Ava,2017-01-25,12:51
Microcarbo africanus,Animalia,CORMORANTS_PHALACROCORACIDAE,Reed Cormorant,,4,2.42573292877408,6.48458563725988,Africa,Benin,BJ,,Benin - Sô-Ava,2017-01-25,12:52
Ceryle rudis,Animalia,KINGFISHERS_ALCEDINIDAE,Pied Kingfisher,,1,2.42319416488067,6.48443981806614,Africa,Benin,BJ,,Benin - Sô-Ava,2017-01-25,12:53
Microcarbo africanus,Animalia,CORMORANTS_PHALACROCORACIDAE,Reed Cormorant,,1,2.42306006464847,6.4844375117298,Africa,Benin,BJ,,Benin - Sô-Ava,2017-01-25,12:54
Merops albicollis,Animalia,BEEEATERS_MEROPIDAE,White-throated Bee-eater,,1,2.42115688,6.48466416,Africa,Benin,BJ,,Benin - Sô-Ava,2017-01-25,12:55
Bubulcus ibis,Animalia,HERONS_ARDEIDAE,Western Cattle Egret,,1,2.41945080265795,6.48597150166764,Africa,Benin,BJ,,Benin - Sô-Ava,2017-01-25,12:56
Bubulcus ibis,Animalia,HERONS_ARDEIDAE,Western Cattle Egret,,40,2.41728081540141,6.48751601699272,Africa,Benin,BJ,,Benin - Sô-Ava,2017-01-25,12:58
Merops albicollis,Animalia,BEEEATERS_MEROPIDAE,White-throated Bee-eater,,2,2.4169558,6.48774404,Africa,Benin,BJ,,Benin - Sô-Ava,2017-01-25,12:58
Ceryle rudis,Animalia,KINGFISHERS_ALCEDINIDAE,Pied Kingfisher,,2,2.41190095304504,6.4887231088898,Africa,Benin,BJ,,Benin - Sô-Ava,2017-01-25,13:01
Vanellus spinosus,Animalia,PLOVERS_CHARADRIIDAE,Spur-winged Lapwing,,2,2.41148889096575,6.48881137249617,Africa,Benin,BJ,,Benin - Sô-Ava,2017-01-25,13:01
Bubulcus ibis,Animalia,HERONS_ARDEIDAE,Western Cattle Egret,,80,2.41022997670881,6.48909318895379,Africa,Benin,BJ,,Benin - Abomey-Calavi,2017-01-25,13:02
Ceryle rudis,Animalia,KINGFISHERS_ALCEDINIDAE,Pied Kingfisher,,2,2.40829775644508,6.48956599228772,Africa,Benin,BJ,,Benin - Abomey-Calavi,2017-01-25,13:02
Vanellus spinosus,Animalia,PLOVERS_CHARADRIIDAE,Spur-winged Lapwing,,2,2.40815380480312,6.4885100580184,Africa,Benin,BJ,,Benin - Abomey-Calavi,2017-01-25,13:03
Vanellus spinosus,Animalia,PLOVERS_CHARADRIIDAE,Spur-winged Lapwing,,2,2.40784747402381,6.48488659144956,Africa,Benin,BJ,,Benin - Abomey-Calavi,2017-01-25,13:05
Bubulcus ibis,Animalia,HERONS_ARDEIDAE,Western Cattle Egret,,10,2.40779202584021,6.48426098088259,Africa,Benin,BJ,,Benin - Abomey-Calavi,2017-01-25,13:05
Ceryle rudis,Animalia,KINGFISHERS_ALCEDINIDAE,Pied Kingfisher,,10,2.40713875535546,6.4827325813074,Africa,Benin,BJ,,Benin - Abomey-Calavi,2017-01-25,13:06
Ceryle rudis,Animalia,KINGFISHERS_ALCEDINIDAE,Pied Kingfisher,,8,2.40657665788551,6.48183357790201,Africa,Benin,BJ,,Benin - Abomey-Calavi,2017-01-25,13:07
Bubulcus ibis,Animalia,HERONS_ARDEIDAE,Western Cattle Egret,,2,2.40620071200363,6.48143674664158,Africa,Benin,BJ,,Benin - Abomey-Calavi,2017-01-25,13:07
Ceryle rudis,Animalia,KINGFISHERS_ALCEDINIDAE,Pied Kingfisher,,6,2.40598963688238,6.48068323007133,Africa,Benin,BJ,,Benin - Abomey-Calavi,2017-01-25,13:07
Microcarbo africanus,Animalia,CORMORANTS_PHALACROCORACIDAE,Reed Cormorant,,1,2.40725461179408,6.4792359607063,Africa,Benin,BJ,,Benin - Abomey-Calavi,2017-01-25,13:08
Ceryle rudis,Animalia,KINGFISHERS_ALCEDINIDAE,Pied Kingfisher,,6,2.40746432554267,6.47912632199378,Africa,Benin,BJ,,Benin - Abomey-Calavi,2017-01-25,13:08
Bubulcus ibis,Animalia,HERONS_ARDEIDAE,Western Cattle Egret,,20,2.40776245931883,6.47896063967954,Africa,Benin,BJ,,Benin - Abomey-Calavi,2017-01-25,13:09
Ardea intermedia,Animalia,HERONS_ARDEIDAE,Intermediate Egret,,1,2.4090976738939,6.46641507173729,Africa,Benin,BJ,,Benin - Sô-Ava,2017-01-25,13:19
Halcyon senegalensis,Animalia,KINGFISHERS_ALCEDINIDAE,Woodland Kingfisher,,1,2.40912039274266,6.4661561807015,Africa,Benin,BJ,,Benin - Sô-Ava,2017-01-25,13:19
Ardea intermedia,Animalia,HERONS_ARDEIDAE,Intermediate Egret,,2,2.40897101721618,6.46529355635051,Africa,Benin,BJ,,Benin - Sô-Ava,2017-01-25,13:20
Microcarbo africanus,Animalia,CORMORANTS_PHALACROCORACIDAE,Reed Cormorant,,6,2.40893889713602,6.46522433276363,Africa,Benin,BJ,,Benin - Sô-Ava,2017-01-25,13:21
Ceryle rudis,Animalia,KINGFISHERS_ALCEDINIDAE,Pied Kingfisher,,20,2.40889883915295,6.46514954220174,Africa,Benin,BJ,,Benin - Sô-Ava,2017-01-25,13:21
Ardeola ralloides,Animalia,HERONS_ARDEIDAE,Squacco Heron,,3,2.40853254116207,6.46463275655119,Africa,Benin,BJ,,Benin - Sô-Ava,2017-01-25,13:31
Ceryle rudis,Animalia,KINGFISHERS_ALCEDINIDAE,Pied Kingfisher,,4,2.40739188370253,6.46199398695399,Africa,Benin,BJ,,Benin - Sô-Ava,2017-01-25,13:40
Microcarbo africanus,Animalia,CORMORANTS_PHALACROCORACIDAE,Reed Cormorant,,10,2.40674643946405,6.4602009612967,Africa,Benin,BJ,,Benin - Sô-Ava,2017-01-25,13:42
Ceryle rudis,Animalia,KINGFISHERS_ALCEDINIDAE,Pied Kingfisher,,1,2.40600473723746,6.45740419807503,Africa,Benin,BJ,,Benin - Sô-Ava,2017-01-25,13:44
Microcarbo africanus,Animalia,CORMORANTS_PHALACROCORACIDAE,Reed Cormorant,,1,2.39883402211303,6.45100369176339,Africa,Benin,BJ,,Benin - Sô-Ava,2017-01-25,13:49
Microcarbo africanus,Animalia,CORMORANTS_PHALACROCORACIDAE,Reed Cormorant,,1,2.39806305589098,6.45066980720588,Africa,Benin,BJ,,Benin - Sô-Ava,2017-01-25,13:50
Ceryle rudis,Animalia,KINGFISHERS_ALCEDINIDAE,Pied Kingfisher,,1,2.3954639395073,6.44926402139805,Africa,Benin,BJ,,Benin - Sô-Ava,2017-01-25,13:51
Microcarbo africanus,Animalia,CORMORANTS_PHALACROCORACIDAE,Reed Cormorant,,6,2.39399270913603,6.44889305468486,Africa,Benin,BJ,,Benin - Sô-Ava,2017-01-25,13:52
Ceryle rudis,Animalia,KINGFISHERS_ALCEDINIDAE,Pied Kingfisher,,1,2.39371250010959,6.44881640349925,Africa,Benin,BJ,,Benin - Sô-Ava,2017-01-25,13:52
Ardea intermedia,Animalia,HERONS_ARDEIDAE,Intermediate Egret,,1,2.38785940216637,6.44574569258682,Africa,Benin,BJ,,Benin - Sô-Ava,2017-01-25,13:56
Microcarbo africanus,Animalia,CORMORANTS_PHALACROCORACIDAE,Reed Cormorant,,4,2.38744844272763,6.44535301681643,Africa,Benin,BJ,,Benin - Sô-Ava,2017-01-25,13:56
Ceryle rudis,Animalia,KINGFISHERS_ALCEDINIDAE,Pied Kingfisher,,1,2.37904172463902,6.44057778096544,Africa,Benin,BJ,,Benin - Sô-Ava,2017-01-25,14:02
Ceryle rudis,Animalia,KINGFISHERS_ALCEDINIDAE,Pied Kingfisher,,1,2.3759449953847,6.43390601593543,Africa,Benin,BJ,,Benin - Sô-Ava,2017-01-25,14:05
Egretta ardesiaca,Animalia,HERONS_ARDEIDAE,Black Heron,,1,2.37265478907324,6.43227047565256,Africa,Benin,BJ,,Benin - Sô-Ava,2017-01-25,14:08
Microcarbo africanus,Animalia,CORMORANTS_PHALACROCORACIDAE,Reed Cormorant,,2,2.37231109075728,6.4322005494124,Africa,Benin,BJ,,Benin - Sô-Ava,2017-01-25,14:08
Butorides striata,Animalia,HERONS_ARDEIDAE,Striated Heron,,1,2.37141430575379,6.43178133126119,Africa,Benin,BJ,,Benin - Sô-Ava,2017-01-25,14:09
Egretta ardesiaca,Animalia,HERONS_ARDEIDAE,Black Heron,,2,2.37110015828679,6.43092889398577,Africa,Benin,BJ,,Benin - Sô-Ava,2017-01-25,14:10
Microcarbo africanus,Animalia,CORMORANTS_PHALACROCORACIDAE,Reed Cormorant,,2,2.37058928265797,6.42901487135121,Africa,Benin,BJ,,Benin - Sô-Ava,2017-01-25,14:12
Egretta ardesiaca,Animalia,HERONS_ARDEIDAE,Black Heron,,20,2.36984324230465,6.42705168904026,Africa,Benin,BJ,,Benin - Sô-Ava,2017-01-25,14:14
Ceryle rudis,Animalia,KINGFISHERS_ALCEDINIDAE,Pied Kingfisher,,1,2.36823686331441,6.42706662683946,Africa,Benin,BJ,,Benin - Sô-Ava,2017-01-25,14:15
Ardea purpurea,Animalia,HERONS_ARDEIDAE,Purple Heron,,1,2.36445125659547,6.4264490994056,Africa,Benin,BJ,,Benin - Abomey-Calavi,2017-01-25,14:18
Microcarbo africanus,Animalia,CORMORANTS_PHALACROCORACIDAE,Reed Cormorant,,3,2.36412662753742,6.42624386180977,Africa,Benin,BJ,,Benin - Abomey-Calavi,2017-01-25,14:19
Ardea alba,Animalia,HERONS_ARDEIDAE,Great Egret,,1,2.36044131246681,6.42429376281488,Africa,Benin,BJ,,Benin - Abomey-Calavi,2017-01-25,14:21
Microcarbo africanus,Animalia,CORMORANTS_PHALACROCORACIDAE,Reed Cormorant,,4,2.36026114207461,6.42435060093018,Africa,Benin,BJ,,Benin - Abomey-Calavi,2017-01-25,14:21
Ceryle rudis,Animalia,KINGFISHERS_ALCEDINIDAE,Pied Kingfisher,,1,2.36007021625887,6.42441710036118,Africa,Benin,BJ,,Benin - Abomey-Calavi,2017-01-25,14:22
Egretta ardesiaca,Animalia,HERONS_ARDEIDAE,Black Heron,,2,2.35625627475417,6.42127438420335,Africa,Benin,BJ,,Benin - Abomey-Calavi,2017-01-25,14:24
Ardea intermedia,Animalia,HERONS_ARDEIDAE,Intermediate Egret,,1,2.3559408124477,6.42105001019869,Africa,Benin,BJ,,Benin - Abomey-Calavi,2017-01-25,14:24
Microcarbo africanus,Animalia,CORMORANTS_PHALACROCORACIDAE,Reed Cormorant,,1,2.35551950410604,6.42081872112045,Africa,Benin,BJ,,Benin - Abomey-Calavi,2017-01-25,14:25
Egretta ardesiaca,Animalia,HERONS_ARDEIDAE,Black Heron,,5,2.35190278767977,6.42154623384956,Africa,Benin,BJ,,Benin - Abomey-Calavi,2017-01-25,14:30
Microcarbo africanus,Animalia,CORMORANTS_PHALACROCORACIDAE,Reed Cormorant,,3,2.36269753486071,6.42548049473771,Africa,Benin,BJ,,Benin - Abomey-Calavi,2017-01-25,09:19
Ardea intermedia,Animalia,HERONS_ARDEIDAE,Intermediate Egret,,1,2.36278529159703,6.42554124024087,Africa,Benin,BJ,,Benin - Abomey-Calavi,2017-01-25,09:19
Microcarbo africanus,Animalia,CORMORANTS_PHALACROCORACIDAE,Reed Cormorant,,1,2.36801907089087,6.42725106441966,Africa,Benin,BJ,,Benin - Abomey-Calavi,2017-01-25,09:23
Butorides striata,Animalia,HERONS_ARDEIDAE,Striated Heron,,1,2.37238708599312,6.43213823254546,Africa,Benin,BJ,,Benin - Sô-Ava,2017-01-25,09:27
Egretta ardesiaca,Animalia,HERONS_ARDEIDAE,Black Heron,,4,2.37267602754716,6.43219992349186,Africa,Benin,BJ,,Benin - Sô-Ava,2017-01-25,09:27
Microcarbo africanus,Animalia,CORMORANTS_PHALACROCORACIDAE,Reed Cormorant,,3,2.37283167768119,6.43222685426945,Africa,Benin,BJ,,Benin - Sô-Ava,2017-01-25,09:27
Microcarbo africanus,Animalia,CORMORANTS_PHALACROCORACIDAE,Reed Cormorant,,4,2.3764640821296,6.43611850955396,Africa,Benin,BJ,,Benin - Sô-Ava,2017-01-25,09:30
Microcarbo africanus,Animalia,CORMORANTS_PHALACROCORACIDAE,Reed Cormorant,,3,2.37956361930199,6.44792239122665,Africa,Benin,BJ,,Benin - Abomey-Calavi,2017-01-25,09:37
Microcarbo africanus,Animalia,CORMORANTS_PHALACROCORACIDAE,Reed Cormorant,,1,2.3821699757623,6.4534528682588,Africa,Benin,BJ,,Benin - Abomey-Calavi,2017-01-25,09:39
Gallinula chloropus,Animalia,RAILS_RALLIDAE,Common Moorhen,,1,2.3849050526708,6.45716834614506,Africa,Benin,BJ,,Benin - Abomey-Calavi,2017-01-25,09:42
Ceryle rudis,Animalia,KINGFISHERS_ALCEDINIDAE,Pied Kingfisher,,1,2.38510959733723,6.45742231192704,Africa,Benin,BJ,,Benin - Abomey-Calavi,2017-01-25,09:42
Ceryle rudis,Animalia,KINGFISHERS_ALCEDINIDAE,Pied Kingfisher,,6,2.38806998882602,6.46157541374024,Africa,Benin,BJ,,Benin - Abomey-Calavi,2017-01-25,09:45
Microcarbo africanus,Animalia,CORMORANTS_PHALACROCORACIDAE,Reed Cormorant,,2,2.38816927294618,6.46168795922555,Africa,Benin,BJ,,Benin - Abomey-Calavi,2017-01-25,09:45
Merops albicollis,Animalia,BEEEATERS_MEROPIDAE,White-throated Bee-eater,,1,2.38830261,6.46192445,Africa,Benin,BJ,,Benin - Abomey-Calavi,2017-01-25,09:45
Ardeola ralloides,Animalia,HERONS_ARDEIDAE,Squacco Heron,,5,2.38904977058217,6.46311321610747,Africa,Benin,BJ,,Benin - Abomey-Calavi,2017-01-25,09:47
Halcyon senegalensis,Animalia,KINGFISHERS_ALCEDINIDAE,Woodland Kingfisher,,1,2.38907185399208,6.46318362615883,Africa,Benin,BJ,,Benin - Abomey-Calavi,2017-01-25,09:47
Microcarbo africanus,Animalia,CORMORANTS_PHALACROCORACIDAE,Reed Cormorant,,10,2.38914253606024,6.46335325329914,Africa,Benin,BJ,,Benin - Abomey-Calavi,2017-01-25,09:48
Ceryle rudis,Animalia,KINGFISHERS_ALCEDINIDAE,Pied Kingfisher,,2,2.39151861646809,6.47619059490373,Africa,Benin,BJ,,Benin - Abomey-Calavi,2017-01-25,10:05
Ceryle rudis,Animalia,KINGFISHERS_ALCEDINIDAE,Pied Kingfisher,,4,2.39258657179189,6.47799623665454,Africa,Benin,BJ,,Benin - Abomey-Calavi,2017-01-25,10:09
Bubulcus ibis,Animalia,HERONS_ARDEIDAE,Western Cattle Egret,,90,2.39215102287017,6.47940754596869,Africa,Benin,BJ,,Benin - Abomey-Calavi,2017-01-25,10:11
Ceryle rudis,Animalia,KINGFISHERS_ALCEDINIDAE,Pied Kingfisher,,4,2.3920473638312,6.47947268177556,Africa,Benin,BJ,,Benin - Abomey-Calavi,2017-01-25,10:11
Ceryle rudis,Animalia,KINGFISHERS_ALCEDINIDAE,Pied Kingfisher,,10,2.39263536049905,6.4802918926273,Africa,Benin,BJ,,Benin - Abomey-Calavi,2017-01-25,10:13
Motacilla flava,Animalia,PIPITS_EN_WAGTAILS_MOTACILLIDAE,Western Yellow Wagtail,,2,2.39277395593635,6.48039558624799,Africa,Benin,BJ,,Benin - Abomey-Calavi,2017-01-25,10:14
Bubulcus ibis,Animalia,HERONS_ARDEIDAE,Western Cattle Egret,,30,2.39291721717618,6.48051104597176,Africa,Benin,BJ,,Benin - Abomey-Calavi,2017-01-25,10:14
Gallinula chloropus,Animalia,RAILS_RALLIDAE,Common Moorhen,,1,2.39517266504139,6.48275859393785,Africa,Benin,BJ,,Benin - Abomey-Calavi,2017-01-25,10:20
Vanellus spinosus,Animalia,PLOVERS_CHARADRIIDAE,Spur-winged Lapwing,,4,2.39606069171577,6.48391997110132,Africa,Benin,BJ,,Benin - Abomey-Calavi,2017-01-25,10:24
Ceryle rudis,Animalia,KINGFISHERS_ALCEDINIDAE,Pied Kingfisher,,10,2.39633499183825,6.48435063065456,Africa,Benin,BJ,,Benin - Abomey-Calavi,2017-01-25,10:24
Bubulcus ibis,Animalia,HERONS_ARDEIDAE,Western Cattle Egret,,5,2.39665285405817,6.48487651166496,Africa,Benin,BJ,,Benin - Abomey-Calavi,2017-01-25,10:25
Porphyrio madagascariensis,Animalia,RAILS_RALLIDAE,African Swamphen,,1,2.3970107,6.48636487,Africa,Benin,BJ,,Benin - Abomey-Calavi,2017-01-25,10:26
Halcyon senegalensis,Animalia,KINGFISHERS_ALCEDINIDAE,Woodland Kingfisher,,1,2.3970063659683,6.48712724608496,Africa,Benin,BJ,,Benin - Abomey-Calavi,2017-01-25,10:27
Ardea intermedia,Animalia,HERONS_ARDEIDAE,Intermediate Egret,,1,2.39741586084662,6.48805802220598,Africa,Benin,BJ,,Benin - Abomey-Calavi,2017-01-25,10:28
Bubulcus ibis,Animalia,HERONS_ARDEIDAE,Western Cattle Egret,,15,2.3974350174161,6.48808296894562,Africa,Benin,BJ,,Benin - Abomey-Calavi,2017-01-25,10:28
Ceryle rudis,Animalia,KINGFISHERS_ALCEDINIDAE,Pied Kingfisher,,2,2.39815730458735,6.49119104061548,Africa,Benin,BJ,,Benin - Abomey-Calavi,2017-01-25,10:32
Ceryle rudis,Animalia,KINGFISHERS_ALCEDINIDAE,Pied Kingfisher,,2,2.39905212612622,6.49316783722481,Africa,Benin,BJ,,Benin - Abomey-Calavi,2017-01-25,10:34
Falco tinnunculus,Animalia,CARACAS_AND_FALCONS_FALCONIDAE,Common Kestrel,,1,2.39943794012208,6.49591001326935,Africa,Benin,BJ,,Benin - Abomey-Calavi,2017-01-25,10:58
Halcyon senegalensis,Animalia,KINGFISHERS_ALCEDINIDAE,Woodland Kingfisher,,1,2.39909577365288,6.50171736400704,Africa,Benin,BJ,,Benin - Abomey-Calavi,2017-01-25,11:01
Ceryle rudis,Animalia,KINGFISHERS_ALCEDINIDAE,Pied Kingfisher,,2,2.4006859916382,6.50454238465589,Africa,Benin,BJ,,Benin - Abomey-Calavi,2017-01-25,11:04
Bubulcus ibis,Animalia,HERONS_ARDEIDAE,Western Cattle Egret,,6,2.4009049941396,6.50475633510965,Africa,Benin,BJ,,Benin - Abomey-Calavi,2017-01-25,11:04
Merops albicollis,Animalia,BEEEATERS_MEROPIDAE,White-throated Bee-eater,,1,2.4032299,6.50713756,Africa,Benin,BJ,,Benin - Abomey-Calavi,2017-01-25,11:06
Ardeola ralloides,Animalia,HERONS_ARDEIDAE,Squacco Heron,,1,2.40413349975964,6.50811706227633,Africa,Benin,BJ,,Benin - Abomey-Calavi,2017-01-25,11:07
Merops albicollis,Animalia,BEEEATERS_MEROPIDAE,White-throated Bee-eater,,2,2.40473167,6.50970713,Africa,Benin,BJ,,Benin - Abomey-Calavi,2017-01-25,11:08
Halcyon senegalensis,Animalia,KINGFISHERS_ALCEDINIDAE,Woodland Kingfisher,,1,2.40497312197183,6.51059337102941,Africa,Benin,BJ,,Benin - Abomey-Calavi,2017-01-25,11:09
Merops albicollis,Animalia,BEEEATERS_MEROPIDAE,White-throated Bee-eater,,4,2.40497077,6.51454123,Africa,Benin,BJ,,Benin - Abomey-Calavi,2017-01-25,11:11
Ceryle rudis,Animalia,KINGFISHERS_ALCEDINIDAE,Pied Kingfisher,,4,2.40480003853176,6.51590716955946,Africa,Benin,BJ,,Benin - Abomey-Calavi,2017-01-25,11:12
Ardeola ralloides,Animalia,HERONS_ARDEIDAE,Squacco Heron,,3,2.40437576358537,6.52363251686862,Africa,Benin,BJ,,Benin - Sô-Ava,2017-01-25,11:17
Microcarbo africanus,Animalia,CORMORANTS_PHALACROCORACIDAE,Reed Cormorant,,2,2.40437899692067,6.5236430546035,Africa,Benin,BJ,,Benin - Sô-Ava,2017-01-25,11:18
Halcyon senegalensis,Animalia,KINGFISHERS_ALCEDINIDAE,Woodland Kingfisher,,1,2.40438409121811,6.52390237191201,Africa,Benin,BJ,,Benin - Sô-Ava,2017-01-25,11:18
Halcyon senegalensis,Animalia,KINGFISHERS_ALCEDINIDAE,Woodland Kingfisher,,1,2.40514653149696,6.52525788830996,Africa,Benin,BJ,,Benin - Sô-Ava,2017-01-25,11:19
Halcyon senegalensis,Animalia,KINGFISHERS_ALCEDINIDAE,Woodland Kingfisher,,1,2.40567704236851,6.52748557575469,Africa,Benin,BJ,,Benin - Sô-Ava,2017-01-25,11:21
Halcyon senegalensis,Animalia,KINGFISHERS_ALCEDINIDAE,Woodland Kingfisher,,1,2.40562338507554,6.5281433415651,Africa,Benin,BJ,,Benin - Sô-Ava,2017-01-25,11:21
Halcyon senegalensis,Animalia,KINGFISHERS_ALCEDINIDAE,Woodland Kingfisher,,2,2.40536221191166,6.52902479692932,Africa,Benin,BJ,,Benin - Sô-Ava,2017-01-25,11:22
Ceryle rudis,Animalia,KINGFISHERS_ALCEDINIDAE,Pied Kingfisher,,2,2.40505288802938,6.52974272524203,Africa,Benin,BJ,,Benin - Sô-Ava,2017-01-25,11:23
Vanellus spinosus,Animalia,PLOVERS_CHARADRIIDAE,Spur-winged Lapwing,,2,2.40423212594066,6.53159115798819,Africa,Benin,BJ,,Benin - Sô-Ava,2017-01-25,11:24
Merops albicollis,Animalia,BEEEATERS_MEROPIDAE,White-throated Bee-eater,,4,2.40395428,6.53228607,Africa,Benin,BJ,,Benin - Sô-Ava,2017-01-25,11:25
Bubulcus ibis,Animalia,HERONS_ARDEIDAE,Western Cattle Egret,,1,2.40315389869319,6.53431866693527,Africa,Benin,BJ,,Benin - Sô-Ava,2017-01-25,11:26
Merops albicollis,Animalia,BEEEATERS_MEROPIDAE,White-throated Bee-eater,,2,2.40309512,6.53465552,Africa,Benin,BJ,,Benin - Sô-Ava,2017-01-25,11:26
Ceryle rudis,Animalia,KINGFISHERS_ALCEDINIDAE,Pied Kingfisher,,1,2.40783267008044,6.5143147215177,Africa,Benin,BJ,,Benin - Sô-Ava,2017-01-25,11:40
Ceryle rudis,Animalia,KINGFISHERS_ALCEDINIDAE,Pied Kingfisher,,2,2.40904076554176,6.51440576331823,Africa,Benin,BJ,,Benin - Sô-Ava,2017-01-25,11:41
Vanellus spinosus,Animalia,PLOVERS_CHARADRIIDAE,Spur-winged Lapwing,,2,2.41456141333945,6.51461952413236,Africa,Benin,BJ,,Benin - Sô-Ava,2017-01-25,11:45
Microcarbo africanus,Animalia,CORMORANTS_PHALACROCORACIDAE,Reed Cormorant,,1,2.41538506766005,6.51496693047422,Africa,Benin,BJ,,Benin - Sô-Ava,2017-01-25,11:45
Ceryle rudis,Animalia,KINGFISHERS_ALCEDINIDAE,Pied Kingfisher,,4,2.41562821302056,6.51512693617861,Africa,Benin,BJ,,Benin - Sô-Ava,2017-01-25,11:45
Ardea purpurea,Animalia,HERONS_ARDEIDAE,Purple Heron,,1,2.41654872223602,6.51580284656081,Africa,Benin,BJ,,Benin - Sô-Ava,2017-01-25,11:46
Halcyon senegalensis,Animalia,KINGFISHERS_ALCEDINIDAE,Woodland Kingfisher,,1,2.41773688641374,6.51643908466989,Africa,Benin,BJ,,Benin - Sô-Ava,2017-01-25,11:47
Ceryle rudis,Animalia,KINGFISHERS_ALCEDINIDAE,Pied Kingfisher,,1,2.4179388478374,6.51657916437932,Africa,Benin,BJ,,Benin - Sô-Ava,2017-01-25,11:48
Halcyon senegalensis,Animalia,KINGFISHERS_ALCEDINIDAE,Woodland Kingfisher,,1,2.42029365882554,6.51614890857085,Africa,Benin,BJ,,Benin - Sô-Ava,2017-01-25,11:50
Ardea purpurea,Animalia,HERONS_ARDEIDAE,Purple Heron,,1,2.42112332418483,6.51569573584988,Africa,Benin,BJ,,Benin - Sô-Ava,2017-01-25,11:50
Ceryle rudis,Animalia,KINGFISHERS_ALCEDINIDAE,Pied Kingfisher,,6,2.4214700784185,6.51561013605755,Africa,Benin,BJ,,Benin - Sô-Ava,2017-01-25,11:51
Ceryle rudis,Animalia,KINGFISHERS_ALCEDINIDAE,Pied Kingfisher,,8,2.42305195934224,6.51544852411198,Africa,Benin,BJ,,Benin - Sô-Ava,2017-01-25,11:53
Ceryle rudis,Animalia,KINGFISHERS_ALCEDINIDAE,Pied Kingfisher,,2,2.42496108280597,6.51532131651009,Africa,Benin,BJ,,Benin - Sô-Ava,2017-01-25,11:54
Ceryle rudis,Animalia,KINGFISHERS_ALCEDINIDAE,Pied Kingfisher,,2,2.42563423824064,6.51556878204018,Africa,Benin,BJ,,Benin - Sô-Ava,2017-01-25,11:54
Ceryle rudis,Animalia,KINGFISHERS_ALCEDINIDAE,Pied Kingfisher,,4,2.42843412559189,6.51647298525087,Africa,Benin,BJ,,Benin - Sô-Ava,2017-01-25,11:56
Merops albicollis,Animalia,BEEEATERS_MEROPIDAE,White-throated Bee-eater,,2,2.42870428,6.51614332,Africa,Benin,BJ,,Benin - Sô-Ava,2017-01-25,11:57
Halcyon senegalensis,Animalia,KINGFISHERS_ALCEDINIDAE,Woodland Kingfisher,,1,2.43073306787943,6.51211570863954,Africa,Benin,BJ,,Benin - Sô-Ava,2017-01-25,11:59
Ardea purpurea,Animalia,HERONS_ARDEIDAE,Purple Heron,,1,2.42935315908097,6.50727165443589,Africa,Benin,BJ,,Benin - Sô-Ava,2017-01-25,12:04
Ceryle rudis,Animalia,KINGFISHERS_ALCEDINIDAE,Pied Kingfisher,,2,2.43032281415367,6.50186283844095,Africa,Benin,BJ,,Benin - Sô-Ava,2017-01-25,12:09
Ardeola ralloides,Animalia,HERONS_ARDEIDAE,Squacco Heron,,1,2.43032215163567,6.50187943164653,Africa,Benin,BJ,,Benin - Sô-Ava,2017-01-25,12:09
Ceryle rudis,Animalia,KINGFISHERS_ALCEDINIDAE,Pied Kingfisher,,2,2.43028295307254,6.50192674789267,Africa,Benin,BJ,,Benin - Sô-Ava,2017-01-25,12:10
Ardea purpurea,Animalia,HERONS_ARDEIDAE,Purple Heron,,1,2.43080498123307,6.50153859629692,Africa,Benin,BJ,,Benin - Sô-Ava,2017-01-25,12:13
Ardea purpurea,Animalia,HERONS_ARDEIDAE,Purple Heron,,1,2.43091201563952,6.50147452381694,Africa,Benin,BJ,,Benin - Sô-Ava,2017-01-25,12:13
Ceryle rudis,Animalia,KINGFISHERS_ALCEDINIDAE,Pied Kingfisher,,6,2.43093099289709,6.5014372237061,Africa,Benin,BJ,,Benin - Sô-Ava,2017-01-25,12:13
Ardea purpurea,Animalia,HERONS_ARDEIDAE,Purple Heron,,1,2.43299380019423,6.49985964155074,Africa,Benin,BJ,,Benin - Sô-Ava,2017-01-25,12:24
Ardeola ralloides,Animalia,HERONS_ARDEIDAE,Squacco Heron,,6,2.43298701706667,6.49835473620515,Africa,Benin,BJ,,Benin - Sô-Ava,2017-01-25,12:27
Ceryle rudis,Animalia,KINGFISHERS_ALCEDINIDAE,Pied Kingfisher,,2,2.43297006442003,6.49830664822445,Africa,Benin,BJ,,Benin - Sô-Ava,2017-01-25,12:27
Ardea alba,Animalia,HERONS_ARDEIDAE,Great Egret,,35,2.43295008058724,6.49829688659194,Africa,Benin,BJ,,Benin - Sô-Ava,2017-01-25,12:27
Ardea purpurea,Animalia,HERONS_ARDEIDAE,Purple Heron,,1,2.43292338764086,6.49830308359861,Africa,Benin,BJ,,Benin - Sô-Ava,2017-01-25,12:29
Microcarbo africanus,Animalia,CORMORANTS_PHALACROCORACIDAE,Reed Cormorant,,15,2.43291363323629,6.49831466203349,Africa,Benin,BJ,,Benin - Sô-Ava,2017-01-25,12:32
Merops albicollis,Animalia,BEEEATERS_MEROPIDAE,White-throated Bee-eater,,10,2.43290726,6.49830655,Africa,Benin,BJ,,Benin - Sô-Ava,2017-01-25,12:32
Microcarbo africanus,Animalia,CORMORANTS_PHALACROCORACIDAE,Reed Cormorant,,10,2.43074027810793,6.4930629181089,Africa,Benin,BJ,,Benin - Sô-Ava,2017-01-25,12:42
Ardea alba,Animalia,HERONS_ARDEIDAE,Great Egret,,10,2.43056236181193,6.48923655313944,Africa,Benin,BJ,,Benin - Sô-Ava,2017-01-25,12:45
Microcarbo africanus,Animalia,CORMORANTS_PHALACROCORACIDAE,Reed Cormorant,,8,2.43005562240053,6.48739515200259,Africa,Benin,BJ,,Benin - Sô-Ava,2017-01-25,12:49
Ceryle rudis,Animalia,KINGFISHERS_ALCEDINIDAE,Pied Kingfisher,,2,2.42979941745914,6.48673302051401,Africa,Benin,BJ,,Benin - Sô-Ava,2017-01-25,12:49
Ardea alba,Animalia,HERONS_ARDEIDAE,Great Egret,,1,2.42596398943489,6.48462968376348,Africa,Benin,BJ,,Benin - Sô-Ava,2017-01-25,12:51
Microcarbo africanus,Animalia,CORMORANTS_PHALACROCORACIDAE,Reed Cormorant,,4,2.42573292877408,6.48458563725988,Africa,Benin,BJ,,Benin - Sô-Ava,2017-01-25,12:52
Ceryle rudis,Animalia,KINGFISHERS_ALCEDINIDAE,Pied Kingfisher,,1,2.42319416488067,6.48443981806614,Africa,Benin,BJ,,Benin - Sô-Ava,2017-01-25,12:53
Microcarbo africanus,Animalia,CORMORANTS_PHALACROCORACIDAE,Reed Cormorant,,1,2.42306006464847,6.4844375117298,Africa,Benin,BJ,,Benin - Sô-Ava,2017-01-25,12:54
Merops albicollis,Animalia,BEEEATERS_MEROPIDAE,White-throated Bee-eater,,1,2.42115688,6.48466416,Africa,Benin,BJ,,Benin - Sô-Ava,2017-01-25,12:55
Bubulcus ibis,Animalia,HERONS_ARDEIDAE,Western Cattle Egret,,1,2.41945080265795,6.48597150166764,Africa,Benin,BJ,,Benin - Sô-Ava,2017-01-25,12:56
Bubulcus ibis,Animalia,HERONS_ARDEIDAE,Western Cattle Egret,,40,2.41728081540141,6.48751601699272,Africa,Benin,BJ,,Benin - Sô-Ava,2017-01-25,12:58
Merops albicollis,Animalia,BEEEATERS_MEROPIDAE,White-throated Bee-eater,,2,2.4169558,6.48774404,Africa,Benin,BJ,,Benin - Sô-Ava,2017-01-25,12:58
Ceryle rudis,Animalia,KINGFISHERS_ALCEDINIDAE,Pied Kingfisher,,2,2.41190095304504,6.4887231088898,Africa,Benin,BJ,,Benin - Sô-Ava,2017-01-25,13:01
Vanellus spinosus,Animalia,PLOVERS_CHARADRIIDAE,Spur-winged Lapwing,,2,2.41148889096575,6.48881137249617,Africa,Benin,BJ,,Benin - Sô-Ava,2017-01-25,13:01
Bubulcus ibis,Animalia,HERONS_ARDEIDAE,Western Cattle Egret,,80,2.41022997670881,6.48909318895379,Africa,Benin,BJ,,Benin - Abomey-Calavi,2017-01-25,13:02
Ceryle rudis,Animalia,KINGFISHERS_ALCEDINIDAE,Pied Kingfisher,,2,2.40829775644508,6.48956599228772,Africa,Benin,BJ,,Benin - Abomey-Calavi,2017-01-25,13:02
Vanellus spinosus,Animalia,PLOVERS_CHARADRIIDAE,Spur-winged Lapwing,,2,2.40815380480312,6.4885100580184,Africa,Benin,BJ,,Benin - Abomey-Calavi,2017-01-25,13:03
Vanellus spinosus,Animalia,PLOVERS_CHARADRIIDAE,Spur-winged Lapwing,,2,2.40784747402381,6.48488659144956,Africa,Benin,BJ,,Benin - Abomey-Calavi,2017-01-25,13:05
Bubulcus ibis,Animalia,HERONS_ARDEIDAE,Western Cattle Egret,,10,2.40779202584021,6.48426098088259,Africa,Benin,BJ,,Benin - Abomey-Calavi,2017-01-25,13:05
Ceryle rudis,Animalia,KINGFISHERS_ALCEDINIDAE,Pied Kingfisher,,10,2.40713875535546,6.4827325813074,Africa,Benin,BJ,,Benin - Abomey-Calavi,2017-01-25,13:06
Ceryle rudis,Animalia,KINGFISHERS_ALCEDINIDAE,Pied Kingfisher,,8,2.40657665788551,6.48183357790201,Africa,Benin,BJ,,Benin - Abomey-Calavi,2017-01-25,13:07
Bubulcus ibis,Animalia,HERONS_ARDEIDAE,Western Cattle Egret,,2,2.40620071200363,6.48143674664158,Africa,Benin,BJ,,Benin - Abomey-Calavi,2017-01-25,13:07
Ceryle rudis,Animalia,KINGFISHERS_ALCEDINIDAE,Pied Kingfisher,,6,2.40598963688238,6.48068323007133,Africa,Benin,BJ,,Benin - Abomey-Calavi,2017-01-25,13:07
Microcarbo africanus,Animalia,CORMORANTS_PHALACROCORACIDAE,Reed Cormorant,,1,2.40725461179408,6.4792359607063,Africa,Benin,BJ,,Benin - Abomey-Calavi,2017-01-25,13:08
Ceryle rudis,Animalia,KINGFISHERS_ALCEDINIDAE,Pied Kingfisher,,6,2.40746432554267,6.47912632199378,Africa,Benin,BJ,,Benin - Abomey-Calavi,2017-01-25,13:08
Bubulcus ibis,Animalia,HERONS_ARDEIDAE,Western Cattle Egret,,20,2.40776245931883,6.47896063967954,Africa,Benin,BJ,,Benin - Abomey-Calavi,2017-01-25,13:09
Ardea intermedia,Animalia,HERONS_ARDEIDAE,Intermediate Egret,,1,2.4090976738939,6.46641507173729,Africa,Benin,BJ,,Benin - Sô-Ava,2017-01-25,13:19
Halcyon senegalensis,Animalia,KINGFISHERS_ALCEDINIDAE,Woodland Kingfisher,,1,2.40912039274266,6.4661561807015,Africa,Benin,BJ,,Benin - Sô-Ava,2017-01-25,13:19
Ardea intermedia,Animalia,HERONS_ARDEIDAE,Intermediate Egret,,2,2.40897101721618,6.46529355635051,Africa,Benin,BJ,,Benin - Sô-Ava,2017-01-25,13:20
Microcarbo africanus,Animalia,CORMORANTS_PHALACROCORACIDAE,Reed Cormorant,,6,2.40893889713602,6.46522433276363,Africa,Benin,BJ,,Benin - Sô-Ava,2017-01-25,13:21
Ceryle rudis,Animalia,KINGFISHERS_ALCEDINIDAE,Pied Kingfisher,,20,2.40889883915295,6.46514954220174,Africa,Benin,BJ,,Benin - Sô-Ava,2017-01-25,13:21
Ardeola ralloides,Animalia,HERONS_ARDEIDAE,Squacco Heron,,3,2.40853254116207,6.46463275655119,Africa,Benin,BJ,,Benin - Sô-Ava,2017-01-25,13:31
Ceryle rudis,Animalia,KINGFISHERS_ALCEDINIDAE,Pied Kingfisher,,4,2.40739188370253,6.46199398695399,Africa,Benin,BJ,,Benin - Sô-Ava,2017-01-25,13:40
Microcarbo africanus,Animalia,CORMORANTS_PHALACROCORACIDAE,Reed Cormorant,,10,2.40674643946405,6.4602009612967,Africa,Benin,BJ,,Benin - Sô-Ava,2017-01-25,13:42
Ceryle rudis,Animalia,KINGFISHERS_ALCEDINIDAE,Pied Kingfisher,,1,2.40600473723746,6.45740419807503,Africa,Benin,BJ,,Benin - Sô-Ava,2017-01-25,13:44
Microcarbo africanus,Animalia,CORMORANTS_PHALACROCORACIDAE,Reed Cormorant,,1,2.39883402211303,6.45100369176339,Africa,Benin,BJ,,Benin - Sô-Ava,2017-01-25,13:49
Microcarbo africanus,Animalia,CORMORANTS_PHALACROCORACIDAE,Reed Cormorant,,1,2.39806305589098,6.45066980720588,Africa,Benin,BJ,,Benin - Sô-Ava,2017-01-25,13:50
Ceryle rudis,Animalia,KINGFISHERS_ALCEDINIDAE,Pied Kingfisher,,1,2.3954639395073,6.44926402139805,Africa,Benin,BJ,,Benin - Sô-Ava,2017-01-25,13:51
Microcarbo africanus,Animalia,CORMORANTS_PHALACROCORACIDAE,Reed Cormorant,,6,2.39399270913603,6.44889305468486,Africa,Benin,BJ,,Benin - Sô-Ava,2017-01-25,13:52
Ceryle rudis,Animalia,KINGFISHERS_ALCEDINIDAE,Pied Kingfisher,,1,2.39371250010959,6.44881640349925,Africa,Benin,BJ,,Benin - Sô-Ava,2017-01-25,13:52
Ardea intermedia,Animalia,HERONS_ARDEIDAE,Intermediate Egret,,1,2.38785940216637,6.44574569258682,Africa,Benin,BJ,,Benin - Sô-Ava,2017-01-25,13:56
Microcarbo africanus,Animalia,CORMORANTS_PHALACROCORACIDAE,Reed Cormorant,,4,2.38744844272763,6.44535301681643,Africa,Benin,BJ,,Benin - Sô-Ava,2017-01-25,13:56
Ceryle rudis,Animalia,KINGFISHERS_ALCEDINIDAE,Pied Kingfisher,,1,2.37904172463902,6.44057778096544,Africa,Benin,BJ,,Benin - Sô-Ava,2017-01-25,14:02
Ceryle rudis,Animalia,KINGFISHERS_ALCEDINIDAE,Pied Kingfisher,,1,2.3759449953847,6.43390601593543,Africa,Benin,BJ,,Benin - Sô-Ava,2017-01-25,14:05
Egretta ardesiaca,Animalia,HERONS_ARDEIDAE,Black Heron,,1,2.37265478907324,6.43227047565256,Africa,Benin,BJ,,Benin - Sô-Ava,2017-01-25,14:08
Microcarbo africanus,Animalia,CORMORANTS_PHALACROCORACIDAE,Reed Cormorant,,2,2.37231109075728,6.4322005494124,Africa,Benin,BJ,,Benin - Sô-Ava,2017-01-25,14:08
Butorides striata,Animalia,HERONS_ARDEIDAE,Striated Heron,,1,2.37141430575379,6.43178133126119,Africa,Benin,BJ,,Benin - Sô-Ava,2017-01-25,14:09
Egretta ardesiaca,Animalia,HERONS_ARDEIDAE,Black Heron,,2,2.37110015828679,6.43092889398577,Africa,Benin,BJ,,Benin - Sô-Ava,2017-01-25,14:10
Microcarbo africanus,Animalia,CORMORANTS_PHALACROCORACIDAE,Reed Cormorant,,2,2.37058928265797,6.42901487135121,Africa,Benin,BJ,,Benin - Sô-Ava,2017-01-25,14:12
Egretta ardesiaca,Animalia,HERONS_ARDEIDAE,Black Heron,,20,2.36984324230465,6.42705168904026,Africa,Benin,BJ,,Benin - Sô-Ava,2017-01-25,14:14
Ceryle rudis,Animalia,KINGFISHERS_ALCEDINIDAE,Pied Kingfisher,,1,2.36823686331441,6.42706662683946,Africa,Benin,BJ,,Benin - Sô-Ava,2017-01-25,14:15
Ardea purpurea,Animalia,HERONS_ARDEIDAE,Purple Heron,,1,2.36445125659547,6.4264490994056,Africa,Benin,BJ,,Benin - Abomey-Calavi,2017-01-25,14:18
Microcarbo africanus,Animalia,CORMORANTS_PHALACROCORACIDAE,Reed Cormorant,,3,2.36412662753742,6.42624386180977,Africa,Benin,BJ,,Benin - Abomey-Calavi,2017-01-25,14:19
Ardea alba,Animalia,HERONS_ARDEIDAE,Great Egret,,1,2.36044131246681,6.42429376281488,Africa,Benin,BJ,,Benin - Abomey-Calavi,2017-01-25,14:21
Microcarbo africanus,Animalia,CORMORANTS_PHALACROCORACIDAE,Reed Cormorant,,4,2.36026114207461,6.42435060093018,Africa,Benin,BJ,,Benin - Abomey-Calavi,2017-01-25,14:21
Ceryle rudis,Animalia,KINGFISHERS_ALCEDINIDAE,Pied Kingfisher,,1,2.36007021625887,6.42441710036118,Africa,Benin,BJ,,Benin - Abomey-Calavi,2017-01-25,14:22
Egretta ardesiaca,Animalia,HERONS_ARDEIDAE,Black Heron,,2,2.35625627475417,6.42127438420335,Africa,Benin,BJ,,Benin - Abomey-Calavi,2017-01-25,14:24
Ardea intermedia,Animalia,HERONS_ARDEIDAE,Intermediate Egret,,1,2.3559408124477,6.42105001019869,Africa,Benin,BJ,,Benin - Abomey-Calavi,2017-01-25,14:24
Microcarbo africanus,Animalia,CORMORANTS_PHALACROCORACIDAE,Reed Cormorant,,1,2.35551950410604,6.42081872112045,Africa,Benin,BJ,,Benin - Abomey-Calavi,2017-01-25,14:25
Egretta ardesiaca,Animalia,HERONS_ARDEIDAE,Black Heron,,5,2.35190278767977,6.42154623384956,Africa,Benin,BJ,,Benin - Abomey-Calavi,2017-01-25,14:30
Microcarbo africanus,Animalia,CORMORANTS_PHALACROCORACIDAE,Reed Cormorant,,1,2.59091831575381,6.4714073586002,Africa,Benin,BJ,,Benin - Porto-Novo,2017-01-24,15:13
Microcarbo africanus,Animalia,CORMORANTS_PHALACROCORACIDAE,Reed Cormorant,,1,2.59445189566168,6.46748482312903,Africa,Benin,BJ,,Benin - Porto-Novo,2017-01-24,15:16
Milvus aegyptius,Animalia,HAWKS_AND_EAGLES_ACCIPITRIDAE,Yellow-billed Kite,,1,2.59619577785629,6.46786311243559,Africa,Benin,BJ,,Benin - Porto-Novo,2017-01-24,15:17
Milvus aegyptius,Animalia,HAWKS_AND_EAGLES_ACCIPITRIDAE,Yellow-billed Kite,,1,2.59975866744811,6.46868897901588,Africa,Benin,BJ,,Benin - Porto-Novo,2017-01-24,15:20
Milvus aegyptius,Animalia,HAWKS_AND_EAGLES_ACCIPITRIDAE,Yellow-billed Kite,,4,2.60199194731494,6.46917247531372,Africa,Benin,BJ,,Benin - Porto-Novo,2017-01-24,15:22
Halcyon senegalensis,Animalia,KINGFISHERS_ALCEDINIDAE,Woodland Kingfisher,,1,2.60276024985502,6.46935639393668,Africa,Benin,BJ,,Benin - Porto-Novo,2017-01-24,15:22
Milvus aegyptius,Animalia,HAWKS_AND_EAGLES_ACCIPITRIDAE,Yellow-billed Kite,,2,2.60488148956104,6.46994104539677,Africa,Benin,BJ,,Benin - Porto-Novo,2017-01-24,15:24
Halcyon senegalensis,Animalia,KINGFISHERS_ALCEDINIDAE,Woodland Kingfisher,,1,2.61075159418657,6.46928191678534,Africa,Benin,BJ,,Benin - Porto-Novo,2017-01-24,15:29
Amaurornis flavirostra,Animalia,RAILS_RALLIDAE,Black Crake,,1,2.6126636401881,6.46848032387845,Africa,Benin,BJ,,Benin - Porto-Novo,2017-01-24,15:31
Corythornis cristatus,Animalia,KINGFISHERS_ALCEDINIDAE,Malachite Kingfisher,,1,2.61304277473714,6.46838452561079,Africa,Benin,BJ,,Benin - Porto-Novo,2017-01-24,15:31
Halcyon senegalensis,Animalia,KINGFISHERS_ALCEDINIDAE,Woodland Kingfisher,,1,2.61692815278973,6.46654348623546,Africa,Benin,BJ,,Benin - Porto-Novo,2017-01-24,15:40
Milvus aegyptius,Animalia,HAWKS_AND_EAGLES_ACCIPITRIDAE,Yellow-billed Kite,,1,2.61783728763646,6.46652765853875,Africa,Benin,BJ,,Benin - Porto-Novo,2017-01-24,15:40
Milvus aegyptius,Animalia,HAWKS_AND_EAGLES_ACCIPITRIDAE,Yellow-billed Kite,,1,2.61786995820807,6.46653321550026,Africa,Benin,BJ,,Benin - Porto-Novo,2017-01-24,15:42
Milvus aegyptius,Animalia,HAWKS_AND_EAGLES_ACCIPITRIDAE,Yellow-billed Kite,,1,2.61759348718034,6.46652786115506,Africa,Benin,BJ,,Benin - Porto-Novo,2017-01-24,15:54
Microcarbo africanus,Animalia,CORMORANTS_PHALACROCORACIDAE,Reed Cormorant,,1,2.61827659802363,6.46184854407898,Africa,Benin,BJ,,Benin - Porto-Novo,2017-01-24,16:01
Microcarbo africanus,Animalia,CORMORANTS_PHALACROCORACIDAE,Reed Cormorant,,3,2.61766636112872,6.46049675873645,Africa,Benin,BJ,,Benin - Porto-Novo,2017-01-24,16:07
Milvus aegyptius,Animalia,HAWKS_AND_EAGLES_ACCIPITRIDAE,Yellow-billed Kite,,6,2.61749407314193,6.46016269077445,Africa,Benin,BJ,,Benin - Porto-Novo,2017-01-24,16:08
Microcarbo africanus,Animalia,CORMORANTS_PHALACROCORACIDAE,Reed Cormorant,,2,2.61429245831684,6.45902970569614,Africa,Benin,BJ,,Benin - Porto-Novo,2017-01-24,16:29
Microcarbo africanus,Animalia,CORMORANTS_PHALACROCORACIDAE,Reed Cormorant,,3,2.61385780616978,6.45976361574369,Africa,Benin,BJ,,Benin - Porto-Novo,2017-01-24,16:30
Microcarbo africanus,Animalia,CORMORANTS_PHALACROCORACIDAE,Reed Cormorant,,1,2.60751389639716,6.45453079537014,Africa,Benin,BJ,,Benin - Porto-Novo,2017-01-24,16:41
Microcarbo africanus,Animalia,CORMORANTS_PHALACROCORACIDAE,Reed Cormorant,,1,2.60708292727313,6.45402810630161,Africa,Benin,BJ,,Benin - Porto-Novo,2017-01-24,16:47
Milvus aegyptius,Animalia,HAWKS_AND_EAGLES_ACCIPITRIDAE,Yellow-billed Kite,,2,2.6068860457792,6.45394504664514,Africa,Benin,BJ,,Benin - Porto-Novo,2017-01-24,16:47
Microcarbo africanus,Animalia,CORMORANTS_PHALACROCORACIDAE,Reed Cormorant,,2,2.60487389345493,6.45405175900893,Africa,Benin,BJ,,Benin - Porto-Novo,2017-01-24,16:52
Microcarbo africanus,Animalia,CORMORANTS_PHALACROCORACIDAE,Reed Cormorant,,2,2.60454486958549,6.45433493375836,Africa,Benin,BJ,,Benin - Porto-Novo,2017-01-24,16:53
Microcarbo africanus,Animalia,CORMORANTS_PHALACROCORACIDAE,Reed Cormorant,,8,2.59960779443747,6.45565014654559,Africa,Benin,BJ,,Benin - Porto-Novo,2017-01-24,16:59
Microcarbo africanus,Animalia,CORMORANTS_PHALACROCORACIDAE,Reed Cormorant,,1,2.59155680528644,6.45558359188452,Africa,Benin,BJ,,Benin - Porto-Novo,2017-01-24,17:08
Milvus aegyptius,Animalia,HAWKS_AND_EAGLES_ACCIPITRIDAE,Yellow-billed Kite,,1,2.59055755529924,6.45560782421156,Africa,Benin,BJ,,Benin - Porto-Novo,2017-01-24,17:10
Microcarbo africanus,Animalia,CORMORANTS_PHALACROCORACIDAE,Reed Cormorant,,3,2.58560418297898,6.45674055296254,Africa,Benin,BJ,,Benin - Aguégués,2017-01-24,17:20
Milvus aegyptius,Animalia,HAWKS_AND_EAGLES_ACCIPITRIDAE,Yellow-billed Kite,,2,2.58544181065736,6.45684788979316,Africa,Benin,BJ,,Benin - Aguégués,2017-01-24,17:20
Microcarbo africanus,Animalia,CORMORANTS_PHALACROCORACIDAE,Reed Cormorant,,4,2.57900763799466,6.45326657354566,Africa,Benin,BJ,,Benin - Aguégués,2017-01-24,17:30
Halcyon senegalensis,Animalia,KINGFISHERS_ALCEDINIDAE,Woodland Kingfisher,,1,2.57625443394149,6.45131396594549,Africa,Benin,BJ,,Benin - Aguégués,2017-01-24,17:32
Halcyon senegalensis,Animalia,KINGFISHERS_ALCEDINIDAE,Woodland Kingfisher,,1,2.57387289294022,6.45010285078263,Africa,Benin,BJ,,Benin - Aguégués,2017-01-24,17:34
Halcyon senegalensis,Animalia,KINGFISHERS_ALCEDINIDAE,Woodland Kingfisher,,2,2.57078044696966,6.44848555654858,Africa,Benin,BJ,,Benin - Aguégués,2017-01-24,17:36
Ceryle rudis,Animalia,KINGFISHERS_ALCEDINIDAE,Pied Kingfisher,,1,2.56995512111713,6.44791925132115,Africa,Benin,BJ,,Benin - Aguégués,2017-01-24,17:38
Ceryle rudis,Animalia,KINGFISHERS_ALCEDINIDAE,Pied Kingfisher,,1,2.57869162408341,6.45303035635335,Africa,Benin,BJ,,Benin - Aguégués,2017-01-24,17:44
Ceryle rudis,Animalia,KINGFISHERS_ALCEDINIDAE,Pied Kingfisher,,1,2.58015506166342,6.45406839821656,Africa,Benin,BJ,,Benin - Aguégués,2017-01-24,17:45
Pandion haliaetus,Animalia,OSPREY_PANDIONIDAE,Western Osprey,,1,2.58828392755305,6.46232064790211,Africa,Benin,BJ,,Benin - Aguégués,2017-01-24,17:54
Milvus aegyptius,Animalia,HAWKS_AND_EAGLES_ACCIPITRIDAE,Yellow-billed Kite,,2,2.58949823249873,6.46383023394722,Africa,Benin,BJ,,Benin - Porto-Novo,2017-01-24,17:55
Microcarbo africanus,Animalia,CORMORANTS_PHALACROCORACIDAE,Reed Cormorant,,330,2.58994619859855,6.46428391024097,Africa,Benin,BJ,,Benin - Porto-Novo,2017-01-24,17:56
Microcarbo africanus,Animalia,CORMORANTS_PHALACROCORACIDAE,Reed Cormorant,,2,2.59498240456801,6.46617730653623,Africa,Benin,BJ,,Benin - Porto-Novo,2017-01-24,18:00
Milvus aegyptius,Animalia,HAWKS_AND_EAGLES_ACCIPITRIDAE,Yellow-billed Kite,,1,2.59476679007171,6.46648087292245,Africa,Benin,BJ,,Benin - Porto-Novo,2017-01-24,18:00
Halcyon senegalensis,Animalia,KINGFISHERS_ALCEDINIDAE,Woodland Kingfisher,,1,2.59440048278395,6.46690993859869,Africa,Benin,BJ,,Benin - Porto-Novo,2017-01-24,18:01
Corythornis cristatus,Animalia,KINGFISHERS_ALCEDINIDAE,Malachite Kingfisher,,1,2.59181864029832,6.47011230085666,Africa,Benin,BJ,,Benin - Porto-Novo,2017-01-24,18:03
Halcyon senegalensis,Animalia,KINGFISHERS_ALCEDINIDAE,Woodland Kingfisher,,1,2.35064847553344,6.4219769762472,Africa,Benin,BJ,,Benin - Abomey-Calavi,2017-01-22,06:50
Ceryle rudis,Animalia,KINGFISHERS_ALCEDINIDAE,Pied Kingfisher,,25,2.35265644761473,6.42107487541155,Africa,Benin,BJ,,Benin - Abomey-Calavi,2017-01-22,08:27
Himantopus himantopus,Animalia,STILTS_AND_AVOCETS_RECURVIROSTRIDAE,Black-winged Stilt,,5,2.3552466284663,6.40939699811698,Africa,Benin,BJ,,Benin - Abomey-Calavi,2017-01-22,08:51
Ardea purpurea,Animalia,HERONS_ARDEIDAE,Purple Heron,,6,2.35379054311351,6.4110744646732,Africa,Benin,BJ,,Benin - Abomey-Calavi,2017-01-22,08:53
Ceryle rudis,Animalia,KINGFISHERS_ALCEDINIDAE,Pied Kingfisher,,30,2.35371716369172,6.41130145322701,Africa,Benin,BJ,,Benin - Abomey-Calavi,2017-01-22,08:53
Microcarbo africanus,Animalia,CORMORANTS_PHALACROCORACIDAE,Reed Cormorant,,20,2.35350031770726,6.41162123027038,Africa,Benin,BJ,,Benin - Abomey-Calavi,2017-01-22,08:53
Ardea purpurea,Animalia,HERONS_ARDEIDAE,Purple Heron,,1,2.35251649660163,6.41156077442478,Africa,Benin,BJ,,Benin - Abomey-Calavi,2017-01-22,08:56
Egretta ardesiaca,Animalia,HERONS_ARDEIDAE,Black Heron,,20,2.35238441038851,6.4111484974784,Africa,Benin,BJ,,Benin - Abomey-Calavi,2017-01-22,08:56
Microcarbo africanus,Animalia,CORMORANTS_PHALACROCORACIDAE,Reed Cormorant,,5,2.35100247202163,6.40917037274227,Africa,Benin,BJ,,Benin - Abomey-Calavi,2017-01-22,08:59
Ceryle rudis,Animalia,KINGFISHERS_ALCEDINIDAE,Pied Kingfisher,,20,2.35073092,6.40822775,Africa,Benin,BJ,,Benin - Abomey-Calavi,2017-01-22,09:00
Egretta ardesiaca,Animalia,HERONS_ARDEIDAE,Black Heron,,40,2.35127000620872,6.40673532720577,Africa,Benin,BJ,,Benin - Abomey-Calavi,2017-01-22,09:03
Egretta ardesiaca,Animalia,HERONS_ARDEIDAE,Black Heron,,10,2.35241237287564,6.40479237747722,Africa,Benin,BJ,,Benin - Abomey-Calavi,2017-01-22,09:07
Ardea purpurea,Animalia,HERONS_ARDEIDAE,Purple Heron,,6,2.35252169165367,6.4046850580733,Africa,Benin,BJ,,Benin - Abomey-Calavi,2017-01-22,09:08
Ardea purpurea,Animalia,HERONS_ARDEIDAE,Purple Heron,,2,2.35254201326767,6.40461270794897,Africa,Benin,BJ,,Benin - Abomey-Calavi,2017-01-22,09:08
Ceryle rudis,Animalia,KINGFISHERS_ALCEDINIDAE,Pied Kingfisher,,20,2.35270781664758,6.40423677992388,Africa,Benin,BJ,,Benin - Abomey-Calavi,2017-01-22,09:09
Bubulcus ibis,Animalia,HERONS_ARDEIDAE,Western Cattle Egret,,2,2.35300275863955,6.40386776473156,Africa,Benin,BJ,,Benin - Abomey-Calavi,2017-01-22,09:11
Ardeola ralloides,Animalia,HERONS_ARDEIDAE,Squacco Heron,,4,2.35307569815376,6.40379871002456,Africa,Benin,BJ,,Benin - Abomey-Calavi,2017-01-22,09:11
Ardeola ralloides,Animalia,HERONS_ARDEIDAE,Squacco Heron,,6,2.35370141789531,6.40311745276884,Africa,Benin,BJ,,Benin - Abomey-Calavi,2017-01-22,09:13
Himantopus himantopus,Animalia,STILTS_AND_AVOCETS_RECURVIROSTRIDAE,Black-winged Stilt,,30,2.35422122870317,6.40268964998848,Africa,Benin,BJ,,Benin - Abomey-Calavi,2017-01-22,09:17
Plegadis falcinellus,Animalia,IBISSES_AND_SPOONBILLS_THRESKIORNITHIDAE,Glossy Ibis,,3,2.35422585574764,6.40268946494394,Africa,Benin,BJ,,Benin - Abomey-Calavi,2017-01-22,09:17
Ardeola ralloides,Animalia,HERONS_ARDEIDAE,Squacco Heron,,20,2.35425786114806,6.4026857432883,Africa,Benin,BJ,,Benin - Abomey-Calavi,2017-01-22,09:17
Ardea intermedia,Animalia,HERONS_ARDEIDAE,Intermediate Egret,,1,2.35432478633557,6.40272558865825,Africa,Benin,BJ,,Benin - Abomey-Calavi,2017-01-22,09:17
Egretta ardesiaca,Animalia,HERONS_ARDEIDAE,Black Heron,,10,2.35460208867791,6.40299164944673,Africa,Benin,BJ,,Benin - Abomey-Calavi,2017-01-22,09:18
Egretta ardesiaca,Animalia,HERONS_ARDEIDAE,Black Heron,,10,2.35512120364942,6.40350207018064,Africa,Benin,BJ,,Benin - Abomey-Calavi,2017-01-22,09:20
Ardea intermedia,Animalia,HERONS_ARDEIDAE,Intermediate Egret,,4,2.35521718008269,6.40359861740171,Africa,Benin,BJ,,Benin - Abomey-Calavi,2017-01-22,09:21
Ceryle rudis,Animalia,KINGFISHERS_ALCEDINIDAE,Pied Kingfisher,,10,2.35576754087158,6.40366972279678,Africa,Benin,BJ,,Benin - Abomey-Calavi,2017-01-22,09:23
Ardea intermedia,Animalia,HERONS_ARDEIDAE,Intermediate Egret,,20,2.35689989158878,6.40479833428876,Africa,Benin,BJ,,Benin - Abomey-Calavi,2017-01-22,09:28
Porphyrio madagascariensis,Animalia,RAILS_RALLIDAE,African Swamphen,,1,2.35715284942048,6.40522602084307,Africa,Benin,BJ,,Benin - Abomey-Calavi,2017-01-22,09:28
Ardea purpurea,Animalia,HERONS_ARDEIDAE,Purple Heron,,5,2.35710666899335,6.40512727634157,Africa,Benin,BJ,,Benin - Abomey-Calavi,2017-01-22,09:29
Gallinula chloropus,Animalia,RAILS_RALLIDAE,Common Moorhen,,2,2.35454281743226,6.40191698407084,Africa,Benin,BJ,,Benin - Abomey-Calavi,2017-01-22,09:35
Gallinula chloropus,Animalia,RAILS_RALLIDAE,Common Moorhen,,1,2.35436887772472,6.40166827038496,Africa,Benin,BJ,,Benin - Abomey-Calavi,2017-01-22,09:36
Ardeola ralloides,Animalia,HERONS_ARDEIDAE,Squacco Heron,,10,2.35412193403891,6.40136677118235,Africa,Benin,BJ,,Benin - Abomey-Calavi,2017-01-22,09:36
Gallinula chloropus,Animalia,RAILS_RALLIDAE,Common Moorhen,,1,2.35288675568555,6.40136596809534,Africa,Benin,BJ,,Benin - Abomey-Calavi,2017-01-22,09:38
Gallinula chloropus,Animalia,RAILS_RALLIDAE,Common Moorhen,,1,2.35021747086104,6.40201603151646,Africa,Benin,BJ,,Benin - Abomey-Calavi,2017-01-22,09:40
Ardea purpurea,Animalia,HERONS_ARDEIDAE,Purple Heron,,1,2.34988908495312,6.40199103860358,Africa,Benin,BJ,,Benin - Abomey-Calavi,2017-01-22,09:40
Ardea purpurea,Animalia,HERONS_ARDEIDAE,Purple Heron,,2,2.34863211366518,6.40136881761747,Africa,Benin,BJ,,Benin - Abomey-Calavi,2017-01-22,09:41
Streptopelia semitorquata,Animalia,PIGEONS_AND_DOVES_COLUMBIDAE,Red-eyed Dove,,1,2.35361890475513,6.40065690214365,Africa,Benin,BJ,,Benin - Abomey-Calavi,2017-01-22,09:48
Porphyrio madagascariensis,Animalia,RAILS_RALLIDAE,African Swamphen,,4,2.35508236,6.40058975,Africa,Benin,BJ,,Benin - Abomey-Calavi,2017-01-22,09:53
Ceryle rudis,Animalia,KINGFISHERS_ALCEDINIDAE,Pied Kingfisher,,15,2.35505101231159,6.40063073241604,Africa,Benin,BJ,,Benin - Abomey-Calavi,2017-01-22,09:53
Ardea intermedia,Animalia,HERONS_ARDEIDAE,Intermediate Egret,,15,2.35609570979753,6.4009972802669,Africa,Benin,BJ,,Benin - Abomey-Calavi,2017-01-22,09:56
Himantopus himantopus,Animalia,STILTS_AND_AVOCETS_RECURVIROSTRIDAE,Black-winged Stilt,,10,2.35620776399605,6.40102507639106,Africa,Benin,BJ,,Benin - Abomey-Calavi,2017-01-22,09:56
Ardea purpurea,Animalia,HERONS_ARDEIDAE,Purple Heron,,1,2.35662599112883,6.40115260667228,Africa,Benin,BJ,,Benin - Abomey-Calavi,2017-01-22,09:57
Ardea alba,Animalia,HERONS_ARDEIDAE,Great Egret,,6,2.35747052915153,6.40145941724497,Africa,Benin,BJ,,Benin - Abomey-Calavi,2017-01-22,09:59
Ardea alba,Animalia,HERONS_ARDEIDAE,Great Egret,,1,2.35757708677039,6.40147228405083,Africa,Benin,BJ,,Benin - Abomey-Calavi,2017-01-22,09:59
Ardea alba,Animalia,HERONS_ARDEIDAE,Great Egret,,25,2.35787081954176,6.40131174210372,Africa,Benin,BJ,,Benin - Abomey-Calavi,2017-01-22,10:00
Ardea intermedia,Animalia,HERONS_ARDEIDAE,Intermediate Egret,,25,2.35790352193988,6.40128918153296,Africa,Benin,BJ,,Benin - Abomey-Calavi,2017-01-22,10:00
Motacilla flava,Animalia,PIPITS_EN_WAGTAILS_MOTACILLIDAE,Western Yellow Wagtail,,1,2.35932612202142,6.40068019919815,Africa,Benin,BJ,,Benin - Abomey-Calavi,2017-01-22,10:04
Ardea alba,Animalia,HERONS_ARDEIDAE,Great Egret,,10,2.35946279887038,6.40071470223104,Africa,Benin,BJ,,Benin - Abomey-Calavi,2017-01-22,10:05
Ceryle rudis,Animalia,KINGFISHERS_ALCEDINIDAE,Pied Kingfisher,,10,2.35970787303677,6.40084614703089,Africa,Benin,BJ,,Benin - Abomey-Calavi,2017-01-22,10:05
Microcarbo africanus,Animalia,CORMORANTS_PHALACROCORACIDAE,Reed Cormorant,,5,2.36035120912175,6.40103817718159,Africa,Benin,BJ,,Benin - Abomey-Calavi,2017-01-22,10:07
Ardea intermedia,Animalia,HERONS_ARDEIDAE,Intermediate Egret,,15,2.36043241186592,6.40098650494423,Africa,Benin,BJ,,Benin - Abomey-Calavi,2017-01-22,10:08
Ardeola ralloides,Animalia,HERONS_ARDEIDAE,Squacco Heron,,1,2.36047435081378,6.40100209992578,Africa,Benin,BJ,,Benin - Abomey-Calavi,2017-01-22,10:08
Egretta ardesiaca,Animalia,HERONS_ARDEIDAE,Black Heron,,1,2.36162490231267,6.40062883627181,Africa,Benin,BJ,,Benin - Abomey-Calavi,2017-01-22,10:12
Ardeola ralloides,Animalia,HERONS_ARDEIDAE,Squacco Heron,,1,2.36323188627162,6.40140896783713,Africa,Benin,BJ,,Benin - Abomey-Calavi,2017-01-22,10:16
Microcarbo africanus,Animalia,CORMORANTS_PHALACROCORACIDAE,Reed Cormorant,,1,2.37022942067052,6.40646164019251,Africa,Benin,BJ,,Benin - Sô-Ava,2017-01-22,10:20
Microcarbo africanus,Animalia,CORMORANTS_PHALACROCORACIDAE,Reed Cormorant,,1,2.37042869970721,6.40626847314027,Africa,Benin,BJ,,Benin - Sô-Ava,2017-01-22,10:20
Ceryle rudis,Animalia,KINGFISHERS_ALCEDINIDAE,Pied Kingfisher,,1,2.37186899987168,6.40477400022822,Africa,Benin,BJ,,Benin - Sô-Ava,2017-01-22,10:23
Microcarbo africanus,Animalia,CORMORANTS_PHALACROCORACIDAE,Reed Cormorant,,1,2.37398851181414,6.40442864315875,Africa,Benin,BJ,,Benin - Sô-Ava,2017-01-22,10:24
Microcarbo africanus,Animalia,CORMORANTS_PHALACROCORACIDAE,Reed Cormorant,,3,2.37680094256901,6.40379841891687,Africa,Benin,BJ,,Benin - Sô-Ava,2017-01-22,10:28
Ardea purpurea,Animalia,HERONS_ARDEIDAE,Purple Heron,,1,2.37703162767427,6.40388904463091,Africa,Benin,BJ,,Benin - Sô-Ava,2017-01-22,10:28
Ceryle rudis,Animalia,KINGFISHERS_ALCEDINIDAE,Pied Kingfisher,,2,2.37719426289034,6.40395741932672,Africa,Benin,BJ,,Benin - Sô-Ava,2017-01-22,10:29
Himantopus himantopus,Animalia,STILTS_AND_AVOCETS_RECURVIROSTRIDAE,Black-winged Stilt,,2,2.37736332835178,6.40403844052903,Africa,Benin,BJ,,Benin - Sô-Ava,2017-01-22,10:29
Ardea alba,Animalia,HERONS_ARDEIDAE,Great Egret,,1,2.37985431871536,6.40491953627598,Africa,Benin,BJ,,Benin - Sô-Ava,2017-01-22,10:32
Ardea intermedia,Animalia,HERONS_ARDEIDAE,Intermediate Egret,,5,2.38001158687629,6.40495636375651,Africa,Benin,BJ,,Benin - Sô-Ava,2017-01-22,10:32
Egretta ardesiaca,Animalia,HERONS_ARDEIDAE,Black Heron,,10,2.3813014268226,6.4052791865303,Africa,Benin,BJ,,Benin - Sô-Ava,2017-01-22,10:34
Ceryle rudis,Animalia,KINGFISHERS_ALCEDINIDAE,Pied Kingfisher,,5,2.38154323877995,6.40535394224899,Africa,Benin,BJ,,Benin - Sô-Ava,2017-01-22,10:35
Egretta ardesiaca,Animalia,HERONS_ARDEIDAE,Black Heron,,25,2.3823532102818,6.40613152453684,Africa,Benin,BJ,,Benin - Sô-Ava,2017-01-22,10:38
Ardea alba,Animalia,HERONS_ARDEIDAE,Great Egret,,10,2.38260438419763,6.40632176252746,Africa,Benin,BJ,,Benin - Sô-Ava,2017-01-22,10:38
Ardea intermedia,Animalia,HERONS_ARDEIDAE,Intermediate Egret,,10,2.38267865501783,6.40635864594579,Africa,Benin,BJ,,Benin - Sô-Ava,2017-01-22,10:39
Ardea alba,Animalia,HERONS_ARDEIDAE,Great Egret,,20,2.3837315170097,6.40653139454405,Africa,Benin,BJ,,Benin - Littoral,2017-01-22,10:41
Plegadis falcinellus,Animalia,IBISSES_AND_SPOONBILLS_THRESKIORNITHIDAE,Glossy Ibis,,1,2.38379241065344,6.40655490654086,Africa,Benin,BJ,,Benin - Littoral,2017-01-22,10:41
Himantopus himantopus,Animalia,STILTS_AND_AVOCETS_RECURVIROSTRIDAE,Black-winged Stilt,,10,2.38388151403655,6.40658008929112,Africa,Benin,BJ,,Benin - Littoral,2017-01-22,10:41
Ardea intermedia,Animalia,HERONS_ARDEIDAE,Intermediate Egret,,10,2.38401460283245,6.40666675829092,Africa,Benin,BJ,,Benin - Littoral,2017-01-22,10:42
Microcarbo africanus,Animalia,CORMORANTS_PHALACROCORACIDAE,Reed Cormorant,,5,2.38436861118285,6.40679269137981,Africa,Benin,BJ,,Benin - Littoral,2017-01-22,10:43
Ceryle rudis,Animalia,KINGFISHERS_ALCEDINIDAE,Pied Kingfisher,,20,2.38442250618762,6.40678957675847,Africa,Benin,BJ,,Benin - Littoral,2017-01-22,10:43
Ardea intermedia,Animalia,HERONS_ARDEIDAE,Intermediate Egret,,5,2.38550072036188,6.40635242561805,Africa,Benin,BJ,,Benin - Littoral,2017-01-22,10:46
Microcarbo africanus,Animalia,CORMORANTS_PHALACROCORACIDAE,Reed Cormorant,,1,2.38769086757573,6.40581640935448,Africa,Benin,BJ,,Benin - Littoral,2017-01-22,10:52
Ceryle rudis,Animalia,KINGFISHERS_ALCEDINIDAE,Pied Kingfisher,,1,2.38825062278552,6.4028388750848,Africa,Benin,BJ,,Benin - Littoral,2017-01-22,10:54
Ardeola ralloides,Animalia,HERONS_ARDEIDAE,Squacco Heron,,15,2.39179769747863,6.40013883684642,Africa,Benin,BJ,,Benin - Littoral,2017-01-22,11:02
Egretta ardesiaca,Animalia,HERONS_ARDEIDAE,Black Heron,,10,2.39184670174662,6.40008032802077,Africa,Benin,BJ,,Benin - Littoral,2017-01-22,11:03
Himantopus himantopus,Animalia,STILTS_AND_AVOCETS_RECURVIROSTRIDAE,Black-winged Stilt,,25,2.39188792588924,6.40003102553553,Africa,Benin,BJ,,Benin - Littoral,2017-01-22,11:03
Ceryle rudis,Animalia,KINGFISHERS_ALCEDINIDAE,Pied Kingfisher,,2,2.39202816697323,6.40002451269798,Africa,Benin,BJ,,Benin - Littoral,2017-01-22,11:03
Microcarbo africanus,Animalia,CORMORANTS_PHALACROCORACIDAE,Reed Cormorant,,4,2.39207168346134,6.40000290773914,Africa,Benin,BJ,,Benin - Littoral,2017-01-22,11:04
Ardea purpurea,Animalia,HERONS_ARDEIDAE,Purple Heron,,1,2.39220357075488,6.39996271871767,Africa,Benin,BJ,,Benin - Littoral,2017-01-22,11:04
Ardea alba,Animalia,HERONS_ARDEIDAE,Great Egret,,2,2.39303590650811,6.40066871399026,Africa,Benin,BJ,,Benin - Littoral,2017-01-22,11:06
Ardea intermedia,Animalia,HERONS_ARDEIDAE,Intermediate Egret,,8,2.39311048517269,6.40075092002678,Africa,Benin,BJ,,Benin - Littoral,2017-01-22,11:06
Egretta ardesiaca,Animalia,HERONS_ARDEIDAE,Black Heron,,10,2.39320202102689,6.40079710673962,Africa,Benin,BJ,,Benin - Littoral,2017-01-22,11:06
Ceryle rudis,Animalia,KINGFISHERS_ALCEDINIDAE,Pied Kingfisher,,6,2.39344084360825,6.40071257314624,Africa,Benin,BJ,,Benin - Littoral,2017-01-22,11:07
Ardeola ralloides,Animalia,HERONS_ARDEIDAE,Squacco Heron,,6,2.39357452120436,6.40065092511815,Africa,Benin,BJ,,Benin - Littoral,2017-01-22,11:07
Egretta ardesiaca,Animalia,HERONS_ARDEIDAE,Black Heron,,40,2.39335877294794,6.40115853356383,Africa,Benin,BJ,,Benin - Littoral,2017-01-22,11:09
Microcarbo africanus,Animalia,CORMORANTS_PHALACROCORACIDAE,Reed Cormorant,,10,2.39335877294794,6.40115853356383,Africa,Benin,BJ,,Benin - Littoral,2017-01-22,11:10
Ceryle rudis,Animalia,KINGFISHERS_ALCEDINIDAE,Pied Kingfisher,,4,2.39326264518619,6.40095640542226,Africa,Benin,BJ,,Benin - Littoral,2017-01-22,11:11
Ardeola ralloides,Animalia,HERONS_ARDEIDAE,Squacco Heron,,4,2.39433986121343,6.40021574818195,Africa,Benin,BJ,,Benin - Littoral,2017-01-22,11:12
Microcarbo africanus,Animalia,CORMORANTS_PHALACROCORACIDAE,Reed Cormorant,,1,2.39763387686018,6.40070816454073,Africa,Benin,BJ,,Benin - Littoral,2017-01-22,11:14
Ardea purpurea,Animalia,HERONS_ARDEIDAE,Purple Heron,,1,2.40014718514679,6.40062982237067,Africa,Benin,BJ,,Benin - Littoral,2017-01-22,11:17
Ceryle rudis,Animalia,KINGFISHERS_ALCEDINIDAE,Pied Kingfisher,,2,2.40960247430302,6.39689623594146,Africa,Benin,BJ,,Benin - Littoral,2017-01-22,11:24
Microcarbo africanus,Animalia,CORMORANTS_PHALACROCORACIDAE,Reed Cormorant,,1,2.42669739483901,6.39887429022881,Africa,Benin,BJ,,Benin - Littoral,2017-01-22,11:36
Microcarbo africanus,Animalia,CORMORANTS_PHALACROCORACIDAE,Reed Cormorant,,1,2.43422765766659,6.39311569841939,Africa,Benin,BJ,,Benin - Littoral,2017-01-22,11:41
Microcarbo africanus,Animalia,CORMORANTS_PHALACROCORACIDAE,Reed Cormorant,,6,2.42851659296937,6.40532327501821,Africa,Benin,BJ,,Benin - Sô-Ava,2017-01-22,11:46
Microcarbo africanus,Animalia,CORMORANTS_PHALACROCORACIDAE,Reed Cormorant,,10,2.42820131899175,6.40581478410942,Africa,Benin,BJ,,Benin - Sô-Ava,2017-01-22,11:47
Microcarbo africanus,Animalia,CORMORANTS_PHALACROCORACIDAE,Reed Cormorant,,8,2.42593017116546,6.40866788031532,Africa,Benin,BJ,,Benin - Sô-Ava,2017-01-22,11:48
Microcarbo africanus,Animalia,CORMORANTS_PHALACROCORACIDAE,Reed Cormorant,,1,2.42495564898928,6.41014766437455,Africa,Benin,BJ,,Benin - Sô-Ava,2017-01-22,11:48
Microcarbo africanus,Animalia,CORMORANTS_PHALACROCORACIDAE,Reed Cormorant,,8,2.42183744295478,6.41527773718603,Africa,Benin,BJ,,Benin - Sô-Ava,2017-01-22,11:50
Thalasseus sandvicensis,Animalia,GULLS_TERNS_AND_SKIMMERS_LARIDAE,Sandwich Tern,,2,2.41478082206945,6.42613925189112,Africa,Benin,BJ,,Benin - Sô-Ava,2017-01-22,11:53
Thalasseus sandvicensis,Animalia,GULLS_TERNS_AND_SKIMMERS_LARIDAE,Sandwich Tern,,1,2.41273130657356,6.43544869645221,Africa,Benin,BJ,,Benin - Sô-Ava,2017-01-22,11:56
Thalasseus sandvicensis,Animalia,GULLS_TERNS_AND_SKIMMERS_LARIDAE,Sandwich Tern,,1,2.41242965427725,6.43659161715703,Africa,Benin,BJ,,Benin - Sô-Ava,2017-01-22,11:56
Ardea alba,Animalia,HERONS_ARDEIDAE,Great Egret,,1,2.412460601292,6.43829075350511,Africa,Benin,BJ,,Benin - Sô-Ava,2017-01-22,11:57
Microcarbo africanus,Animalia,CORMORANTS_PHALACROCORACIDAE,Reed Cormorant,,6,2.41264534021616,6.43877772751626,Africa,Benin,BJ,,Benin - Sô-Ava,2017-01-22,11:57
Microcarbo africanus,Animalia,CORMORANTS_PHALACROCORACIDAE,Reed Cormorant,,5,2.41118517925521,6.44463419115667,Africa,Benin,BJ,,Benin - Sô-Ava,2017-01-22,11:59
Microcarbo africanus,Animalia,CORMORANTS_PHALACROCORACIDAE,Reed Cormorant,,2,2.40759411058986,6.45217688787889,Africa,Benin,BJ,,Benin - Sô-Ava,2017-01-22,12:01
Microcarbo africanus,Animalia,CORMORANTS_PHALACROCORACIDAE,Reed Cormorant,,1,2.39675951774244,6.46021307457384,Africa,Benin,BJ,,Benin - Sô-Ava,2017-01-22,12:08
Motacilla flava,Animalia,PIPITS_EN_WAGTAILS_MOTACILLIDAE,Western Yellow Wagtail,,1,2.39456238438896,6.46245913141184,Africa,Benin,BJ,,Benin - Abomey-Calavi,2017-01-22,12:11
Motacilla aguimp,Animalia,PIPITS_EN_WAGTAILS_MOTACILLIDAE,African Pied Wagtail,,1,2.3910522904779,6.46836756466567,Africa,Benin,BJ,,Benin - Abomey-Calavi,2017-01-22,12:21
Ceryle rudis,Animalia,KINGFISHERS_ALCEDINIDAE,Pied Kingfisher,,1,2.39074250261755,6.47118868524145,Africa,Benin,BJ,,Benin - Abomey-Calavi,2017-01-22,12:25
Bubulcus ibis,Animalia,HERONS_ARDEIDAE,Western Cattle Egret,,10,2.3904665121115,6.47428621610273,Africa,Benin,BJ,,Benin - Abomey-Calavi,2017-01-22,12:26
Motacilla flava flavissima,Animalia,PIPITS_EN_WAGTAILS_MOTACILLIDAE,Yellow-crowned Wagtail,,1,2.39141296953457,6.4760783778241,Africa,Benin,BJ,,Benin - Abomey-Calavi,2017-01-22,12:29
Bubulcus ibis,Animalia,HERONS_ARDEIDAE,Western Cattle Egret,,40,2.3927688170655,6.47868938737353,Africa,Benin,BJ,,Benin - Abomey-Calavi,2017-01-22,12:33
Merops albicollis,Animalia,BEEEATERS_MEROPIDAE,White-throated Bee-eater,,4,2.39266276,6.47898995,Africa,Benin,BJ,,Benin - Abomey-Calavi,2017-01-22,12:33
Vanellus spinosus,Animalia,PLOVERS_CHARADRIIDAE,Spur-winged Lapwing,,2,2.39253166435714,6.47912970843823,Africa,Benin,BJ,,Benin - Abomey-Calavi,2017-01-22,12:34
Bubulcus ibis,Animalia,HERONS_ARDEIDAE,Western Cattle Egret,,50,2.39219777456428,6.47936596618046,Africa,Benin,BJ,,Benin - Abomey-Calavi,2017-01-22,12:35
Ceryle rudis,Animalia,KINGFISHERS_ALCEDINIDAE,Pied Kingfisher,,4,2.39189642009206,6.47957016943406,Africa,Benin,BJ,,Benin - Abomey-Calavi,2017-01-22,12:35
Vanellus spinosus,Animalia,PLOVERS_CHARADRIIDAE,Spur-winged Lapwing,,2,2.39294342871535,6.48056709743742,Africa,Benin,BJ,,Benin - Abomey-Calavi,2017-01-22,12:36
Bubulcus ibis,Animalia,HERONS_ARDEIDAE,Western Cattle Egret,,60,2.39265722170335,6.48029571419763,Africa,Benin,BJ,,Benin - Abomey-Calavi,2017-01-22,12:38
Merops albicollis,Animalia,BEEEATERS_MEROPIDAE,White-throated Bee-eater,,8,2.39202168,6.47978052,Africa,Benin,BJ,,Benin - Abomey-Calavi,2017-01-22,12:38
Centropus senegalensis,Animalia,CUCKOOS_AND_COUCALS_CUCULIDAE,Senegal Coucal,,1,2.39184616521662,6.47688324705423,Africa,Benin,BJ,,Benin - Abomey-Calavi,2017-01-22,12:41
Ceryle rudis,Animalia,KINGFISHERS_ALCEDINIDAE,Pied Kingfisher,,2,2.38781504792283,6.46115068026077,Africa,Benin,BJ,,Benin - Abomey-Calavi,2017-01-22,12:56
Ardeola ralloides,Animalia,HERONS_ARDEIDAE,Squacco Heron,,1,2.38714909219119,6.46025564918743,Africa,Benin,BJ,,Benin - Abomey-Calavi,2017-01-22,12:56
Ceryle rudis,Animalia,KINGFISHERS_ALCEDINIDAE,Pied Kingfisher,,1,2.38419521914311,6.46022458198589,Africa,Benin,BJ,,Benin - Abomey-Calavi,2017-01-22,12:58
Motacilla flava,Animalia,PIPITS_EN_WAGTAILS_MOTACILLIDAE,Western Yellow Wagtail,,1,2.38266364945105,6.46151180237664,Africa,Benin,BJ,,Benin - Abomey-Calavi,2017-01-22,13:01
Gallinula chloropus,Animalia,RAILS_RALLIDAE,Common Moorhen,,1,2.38236831660292,6.46178880125965,Africa,Benin,BJ,,Benin - Abomey-Calavi,2017-01-22,13:01
Microcarbo africanus,Animalia,CORMORANTS_PHALACROCORACIDAE,Reed Cormorant,,1,2.38184494230306,6.46211615359256,Africa,Benin,BJ,,Benin - Abomey-Calavi,2017-01-22,13:02
Motacilla flava,Animalia,PIPITS_EN_WAGTAILS_MOTACILLIDAE,Western Yellow Wagtail,,1,2.38108092771521,6.46220756575424,Africa,Benin,BJ,,Benin - Abomey-Calavi,2017-01-22,13:03
Ardea purpurea,Animalia,HERONS_ARDEIDAE,Purple Heron,,1,2.37940724800244,6.46227569900448,Africa,Benin,BJ,,Benin - Abomey-Calavi,2017-01-22,13:05
Ceryle rudis,Animalia,KINGFISHERS_ALCEDINIDAE,Pied Kingfisher,,4,2.37929482033277,6.46226785562653,Africa,Benin,BJ,,Benin - Abomey-Calavi,2017-01-22,13:05
Egretta ardesiaca,Animalia,HERONS_ARDEIDAE,Black Heron,,2,2.37914874183673,6.46226104060015,Africa,Benin,BJ,,Benin - Abomey-Calavi,2017-01-22,13:05
Microcarbo africanus,Animalia,CORMORANTS_PHALACROCORACIDAE,Reed Cormorant,,4,2.37883338202745,6.46231252480047,Africa,Benin,BJ,,Benin - Abomey-Calavi,2017-01-22,13:06
Ardea intermedia,Animalia,HERONS_ARDEIDAE,Intermediate Egret,,2,2.37791209663516,6.46270519622021,Africa,Benin,BJ,,Benin - Abomey-Calavi,2017-01-22,13:07
Egretta ardesiaca,Animalia,HERONS_ARDEIDAE,Black Heron,,6,2.37770391126661,6.46277642609293,Africa,Benin,BJ,,Benin - Abomey-Calavi,2017-01-22,13:07
Microcarbo africanus,Animalia,CORMORANTS_PHALACROCORACIDAE,Reed Cormorant,,2,2.37750172185997,6.46284081326585,Africa,Benin,BJ,,Benin - Abomey-Calavi,2017-01-22,13:08
Microcarbo africanus,Animalia,CORMORANTS_PHALACROCORACIDAE,Reed Cormorant,,4,2.37521067058222,6.46438842219814,Africa,Benin,BJ,,Benin - Abomey-Calavi,2017-01-22,13:11
Microcarbo africanus,Animalia,CORMORANTS_PHALACROCORACIDAE,Reed Cormorant,,1,2.37113432203911,6.46517062633357,Africa,Benin,BJ,,Benin - Abomey-Calavi,2017-01-22,13:15
Ceryle rudis,Animalia,KINGFISHERS_ALCEDINIDAE,Pied Kingfisher,,2,2.36768129546245,6.46598470085567,Africa,Benin,BJ,,Benin - Abomey-Calavi,2017-01-22,13:19
Ardeola ralloides,Animalia,HERONS_ARDEIDAE,Squacco Heron,,1,2.36724271760536,6.46488484604843,Africa,Benin,BJ,,Benin - Abomey-Calavi,2017-01-22,13:21
Ardea alba,Animalia,HERONS_ARDEIDAE,Great Egret,,1,2.36730132137909,6.46478422191586,Africa,Benin,BJ,,Benin - Abomey-Calavi,2017-01-22,13:21
Ceryle rudis,Animalia,KINGFISHERS_ALCEDINIDAE,Pied Kingfisher,,2,2.36822275159868,6.46288344210014,Africa,Benin,BJ,,Benin - Abomey-Calavi,2017-01-22,13:24
Himantopus himantopus,Animalia,STILTS_AND_AVOCETS_RECURVIROSTRIDAE,Black-winged Stilt,,10,2.3676833943059,6.46107306887465,Africa,Benin,BJ,,Benin - Abomey-Calavi,2017-01-22,13:27
Egretta ardesiaca,Animalia,HERONS_ARDEIDAE,Black Heron,,10,2.36764207013615,6.46090880116448,Africa,Benin,BJ,,Benin - Abomey-Calavi,2017-01-22,13:28
Egretta ardesiaca,Animalia,HERONS_ARDEIDAE,Black Heron,,2,2.36815925694347,6.45857727841263,Africa,Benin,BJ,,Benin - Abomey-Calavi,2017-01-22,13:31
Ceryle rudis,Animalia,KINGFISHERS_ALCEDINIDAE,Pied Kingfisher,,2,2.36821341204536,6.45808943335106,Africa,Benin,BJ,,Benin - Abomey-Calavi,2017-01-22,13:31
Microcarbo africanus,Animalia,CORMORANTS_PHALACROCORACIDAE,Reed Cormorant,,2,2.36983958219986,6.45162372117027,Africa,Benin,BJ,,Benin - Abomey-Calavi,2017-01-22,13:38
Ceryle rudis,Animalia,KINGFISHERS_ALCEDINIDAE,Pied Kingfisher,,1,2.3693109418999,6.45095259092319,Africa,Benin,BJ,,Benin - Abomey-Calavi,2017-01-22,13:39
Microcarbo africanus,Animalia,CORMORANTS_PHALACROCORACIDAE,Reed Cormorant,,1,2.36703200787002,6.449054828265,Africa,Benin,BJ,,Benin - Abomey-Calavi,2017-01-22,13:42
Himantopus himantopus,Animalia,STILTS_AND_AVOCETS_RECURVIROSTRIDAE,Black-winged Stilt,,5,2.36680769036355,6.44890892018662,Africa,Benin,BJ,,Benin - Abomey-Calavi,2017-01-22,13:42
Microcarbo africanus,Animalia,CORMORANTS_PHALACROCORACIDAE,Reed Cormorant,,1,2.36579219102906,6.44825015407933,Africa,Benin,BJ,,Benin - Abomey-Calavi,2017-01-22,13:43
Microcarbo africanus,Animalia,CORMORANTS_PHALACROCORACIDAE,Reed Cormorant,,2,2.36382455701885,6.44791717159013,Africa,Benin,BJ,,Benin - Abomey-Calavi,2017-01-22,13:45
Bubulcus ibis,Animalia,HERONS_ARDEIDAE,Western Cattle Egret,,10,2.36247311720998,6.44771710399699,Africa,Benin,BJ,,Benin - Abomey-Calavi,2017-01-22,13:47
Egretta ardesiaca,Animalia,HERONS_ARDEIDAE,Black Heron,,1,2.36308085028277,6.44752464238483,Africa,Benin,BJ,,Benin - Abomey-Calavi,2017-01-22,13:50
Ardeola ralloides,Animalia,HERONS_ARDEIDAE,Squacco Heron,,4,2.36330738565776,6.44664402078298,Africa,Benin,BJ,,Benin - Abomey-Calavi,2017-01-22,13:52
Ardea alba,Animalia,HERONS_ARDEIDAE,Great Egret,,1,2.36349220587319,6.44475159909322,Africa,Benin,BJ,,Benin - Abomey-Calavi,2017-01-22,13:56
Egretta ardesiaca,Animalia,HERONS_ARDEIDAE,Black Heron,,6,2.36321669677276,6.44358737077084,Africa,Benin,BJ,,Benin - Abomey-Calavi,2017-01-22,13:58
Egretta ardesiaca,Animalia,HERONS_ARDEIDAE,Black Heron,,10,2.36262132393129,6.44253788491374,Africa,Benin,BJ,,Benin - Abomey-Calavi,2017-01-22,13:59
Egretta ardesiaca,Animalia,HERONS_ARDEIDAE,Black Heron,,10,2.36144935378648,6.44144832829758,Africa,Benin,BJ,,Benin - Abomey-Calavi,2017-01-22,14:01
Ardea purpurea,Animalia,HERONS_ARDEIDAE,Purple Heron,,1,2.36113123728631,6.44082263441037,Africa,Benin,BJ,,Benin - Abomey-Calavi,2017-01-22,14:02
Himantopus himantopus,Animalia,STILTS_AND_AVOCETS_RECURVIROSTRIDAE,Black-winged Stilt,,2,2.3607901097118,6.44004768020961,Africa,Benin,BJ,,Benin - Abomey-Calavi,2017-01-22,14:03
Egretta ardesiaca,Animalia,HERONS_ARDEIDAE,Black Heron,,6,2.3606414628027,6.43980367895783,Africa,Benin,BJ,,Benin - Abomey-Calavi,2017-01-22,14:03
Ardea intermedia,Animalia,HERONS_ARDEIDAE,Intermediate Egret,,8,2.36049950096245,6.43931434136848,Africa,Benin,BJ,,Benin - Abomey-Calavi,2017-01-22,14:04
Egretta ardesiaca,Animalia,HERONS_ARDEIDAE,Black Heron,,30,2.36010745023643,6.43784917080681,Africa,Benin,BJ,,Benin - Abomey-Calavi,2017-01-22,14:05
Ceryle rudis,Animalia,KINGFISHERS_ALCEDINIDAE,Pied Kingfisher,,4,2.35980246189399,6.43741678913735,Africa,Benin,BJ,,Benin - Abomey-Calavi,2017-01-22,14:10
Himantopus himantopus,Animalia,STILTS_AND_AVOCETS_RECURVIROSTRIDAE,Black-winged Stilt,,1,2.35927620540976,6.4357844474214,Africa,Benin,BJ,,Benin - Abomey-Calavi,2017-01-22,14:14
Egretta ardesiaca,Animalia,HERONS_ARDEIDAE,Black Heron,,30,2.35825758712073,6.43506248101781,Africa,Benin,BJ,,Benin - Abomey-Calavi,2017-01-22,14:17
Ceryle rudis,Animalia,KINGFISHERS_ALCEDINIDAE,Pied Kingfisher,,4,2.35747359400752,6.43458306765092,Africa,Benin,BJ,,Benin - Abomey-Calavi,2017-01-22,14:18
Ardea alba,Animalia,HERONS_ARDEIDAE,Great Egret,,6,2.35691699401545,6.43464027492724,Africa,Benin,BJ,,Benin - Abomey-Calavi,2017-01-22,14:18
Ardea purpurea,Animalia,HERONS_ARDEIDAE,Purple Heron,,1,2.35688245898104,6.4335811480263,Africa,Benin,BJ,,Benin - Abomey-Calavi,2017-01-22,14:19
Himantopus himantopus,Animalia,STILTS_AND_AVOCETS_RECURVIROSTRIDAE,Black-winged Stilt,,2,2.35710273910884,6.43275925199874,Africa,Benin,BJ,,Benin - Abomey-Calavi,2017-01-22,14:20
Microcarbo africanus,Animalia,CORMORANTS_PHALACROCORACIDAE,Reed Cormorant,,1,2.35729541218226,6.42953984710518,Africa,Benin,BJ,,Benin - Abomey-Calavi,2017-01-22,14:23
Ceryle rudis,Animalia,KINGFISHERS_ALCEDINIDAE,Pied Kingfisher,,1,2.35728409941213,6.42937023412744,Africa,Benin,BJ,,Benin - Abomey-Calavi,2017-01-22,14:23
Ceryle rudis,Animalia,KINGFISHERS_ALCEDINIDAE,Pied Kingfisher,,2,2.35726799740947,6.42823326594028,Africa,Benin,BJ,,Benin - Abomey-Calavi,2017-01-22,14:24
Egretta ardesiaca,Animalia,HERONS_ARDEIDAE,Black Heron,,10,2.35679580845711,6.42669624979681,Africa,Benin,BJ,,Benin - Abomey-Calavi,2017-01-22,14:26
Ardea intermedia,Animalia,HERONS_ARDEIDAE,Intermediate Egret,,5,2.35672517073381,6.42631966685455,Africa,Benin,BJ,,Benin - Abomey-Calavi,2017-01-22,14:27
Egretta ardesiaca,Animalia,HERONS_ARDEIDAE,Black Heron,,20,2.35433171197532,6.42675145046289,Africa,Benin,BJ,,Benin - Abomey-Calavi,2017-01-22,14:30
Himantopus himantopus,Animalia,STILTS_AND_AVOCETS_RECURVIROSTRIDAE,Black-winged Stilt,,2,2.35426126011804,6.42678769850739,Africa,Benin,BJ,,Benin - Abomey-Calavi,2017-01-22,14:30
Ceryle rudis,Animalia,KINGFISHERS_ALCEDINIDAE,Pied Kingfisher,,2,2.35419862500659,6.42679172716667,Africa,Benin,BJ,,Benin - Abomey-Calavi,2017-01-22,14:30
Ardea purpurea,Animalia,HERONS_ARDEIDAE,Purple Heron,,1,2.35244650987921,6.42747510067395,Africa,Benin,BJ,,Benin - Abomey-Calavi,2017-01-22,14:33
Egretta ardesiaca,Animalia,HERONS_ARDEIDAE,Black Heron,,4,2.35238438640617,6.42749859438021,Africa,Benin,BJ,,Benin - Abomey-Calavi,2017-01-22,14:34
Ardea alba,Animalia,HERONS_ARDEIDAE,Great Egret,,6,2.35238523185325,6.42750476624457,Africa,Benin,BJ,,Benin - Abomey-Calavi,2017-01-22,14:34
Ceryle rudis,Animalia,KINGFISHERS_ALCEDINIDAE,Pied Kingfisher,,2,2.35239913767379,6.42749481955143,Africa,Benin,BJ,,Benin - Abomey-Calavi,2017-01-22,14:34
Ardeola ralloides,Animalia,HERONS_ARDEIDAE,Squacco Heron,,1,2.35306353093724,6.42720711175115,Africa,Benin,BJ,,Benin - Abomey-Calavi,2017-01-22,14:35
Ceryle rudis,Animalia,KINGFISHERS_ALCEDINIDAE,Pied Kingfisher,,1,2.35871363432618,6.42365123924559,Africa,Benin,BJ,,Benin - Abomey-Calavi,2017-01-22,14:40
Microcarbo africanus,Animalia,CORMORANTS_PHALACROCORACIDAE,Reed Cormorant,,1,2.35682701771116,6.42184599622232,Africa,Benin,BJ,,Benin - Abomey-Calavi,2017-01-22,14:42
Egretta ardesiaca,Animalia,HERONS_ARDEIDAE,Black Heron,,2,2.35291463956739,6.42088427063671,Africa,Benin,BJ,,Benin - Abomey-Calavi,2017-01-22,14:46
Ceryle rudis,Animalia,KINGFISHERS_ALCEDINIDAE,Pied Kingfisher,,1,2.35231804443118,6.42133208218072,Africa,Benin,BJ,,Benin - Abomey-Calavi,2017-01-22,14:47
Ceryle rudis,Animalia,KINGFISHERS_ALCEDINIDAE,Pied Kingfisher,,40,2.35089321,6.42206624,Africa,Benin,BJ,,Benin - Abomey-Calavi,2017-01-22,14:49
Halcyon senegalensis,Animalia,KINGFISHERS_ALCEDINIDAE,Woodland Kingfisher,,1,2.35068085,6.42248572,Africa,Benin,BJ,,Benin - Abomey-Calavi,2017-01-21,
Microcarbo africanus,Animalia,CORMORANTS_PHALACROCORACIDAE,Reed Cormorant,,20,2.35244483,6.42326014,Africa,Benin,BJ,,Benin - Abomey-Calavi,2017-01-21,10:00
Ardea alba,Animalia,HERONS_ARDEIDAE,Great Egret,,30,2.35240014,6.42359185,Africa,Benin,BJ,,Benin - Abomey-Calavi,2017-01-21,10:00
Ixobrychus sturmii,Animalia,HERONS_ARDEIDAE,Dwarf Bittern,,1,2.35049508,6.42247414,Africa,Benin,BJ,,Benin - Abomey-Calavi,2017-01-21,19:46
Egretta ardesiaca,Animalia,HERONS_ARDEIDAE,Black Heron,,200,2.35049507522616,6.42247414270046,Africa,Benin,BJ,,Benin - Abomey-Calavi,2017-01-21,19:46
Ardea intermedia,Animalia,HERONS_ARDEIDAE,Intermediate Egret,,50,2.35049507522616,6.42247414270046,Africa,Benin,BJ,,Benin - Abomey-Calavi,2017-01-21,19:47
Ardea purpurea,Animalia,HERONS_ARDEIDAE,Purple Heron,,25,2.35051178987607,6.42238942439904,Africa,Benin,BJ,,Benin - Abomey-Calavi,2017-01-21,19:49
Butorides striata,Animalia,HERONS_ARDEIDAE,Striated Heron,,10,2.35050338,6.42238966,Africa,Benin,BJ,,Benin - Abomey-Calavi,2017-01-21,19:50
Nycticorax nycticorax,Animalia,HERONS_ARDEIDAE,Black-crowned Night Heron,,10,2.35050620303681,6.42238943570136,Africa,Benin,BJ,,Benin - Abomey-Calavi,2017-01-21,19:51
Ardeola ralloides,Animalia,HERONS_ARDEIDAE,Squacco Heron,,30,2.35051669095964,6.42239182492504,Africa,Benin,BJ,,Benin - Abomey-Calavi,2017-01-21,19:52
Himantopus himantopus,Animalia,STILTS_AND_AVOCETS_RECURVIROSTRIDAE,Black-winged Stilt,,7,2.35051062319909,6.42239586518782,Africa,Benin,BJ,,Benin - Abomey-Calavi,2017-01-21,19:52
Ceryle rudis,Animalia,KINGFISHERS_ALCEDINIDAE,Pied Kingfisher,,75,2.35049545926698,6.42240449484251,Africa,Benin,BJ,,Benin - Abomey-Calavi,2017-01-21,19:55
Pycnonotus barbatus,Animalia,BULBULS_PYCNONOTIDAE,Common Bulbul,,15,2.35056913372693,6.4223891070566,Africa,Benin,BJ,,Benin - Abomey-Calavi,2017-01-21,21:47
Lamprotornis purpureus,Animalia,STARLINGS_STURNIDAE,Purple Starling,,2,2.35063594620694,6.42236685794351,Africa,Benin,BJ,,Benin - Abomey-Calavi,2017-01-21,21:54
Motacilla flava,Animalia,PIPITS_EN_WAGTAILS_MOTACILLIDAE,Western Yellow Wagtail,,2,2.35063914972476,6.42239231503628,Africa,Benin,BJ,,Benin - Abomey-Calavi,2017-01-21,21:55
Streptopelia semitorquata,Animalia,PIGEONS_AND_DOVES_COLUMBIDAE,Red-eyed Dove,,2,2.35064284033688,6.42243290037623,Africa,Benin,BJ,,Benin - Abomey-Calavi,2017-01-21,21:58
Spilopelia senegalensis,Animalia,PIGEONS_AND_DOVES_COLUMBIDAE,Laughing Dove,,20,2.35064284033688,6.42243290037623,Africa,Benin,BJ,,Benin - Abomey-Calavi,2017-01-21,21:59
Columba guinea,Animalia,PIGEONS_AND_DOVES_COLUMBIDAE,Speckled Pigeon,,8,2.35067179350913,6.42239872420401,Africa,Benin,BJ,,Benin - Abomey-Calavi,2017-01-21,21:59
Sternula balaenarum,Animalia,GULLS_TERNS_AND_SKIMMERS_LARIDAE,Damara Tern,,1,2.41881609,6.34199983,Africa,Benin,BJ,,Benin - Littoral,2012-09-11,
Sternula balaenarum,Animalia,GULLS_TERNS_AND_SKIMMERS_LARIDAE,Damara Tern,,1,2.41881609,6.34199983,Africa,Benin,BJ,,Benin - Littoral,2011-09-05,
Sternula balaenarum,Animalia,GULLS_TERNS_AND_SKIMMERS_LARIDAE,Damara Tern,,2,2.41881609,6.34199983,Africa,Benin,BJ,,Benin - Littoral,2011-08-30,
Sternula balaenarum,Animalia,GULLS_TERNS_AND_SKIMMERS_LARIDAE,Damara Tern,,3,2.41881609,6.34199983,Africa,Benin,BJ,,Benin - Littoral,2010-09-17,
Sternula balaenarum,Animalia,GULLS_TERNS_AND_SKIMMERS_LARIDAE,Damara Tern,,11,2.41881609,6.34199983,Africa,Benin,BJ,,Benin - Littoral,2010-09-15,
Sternula balaenarum,Animalia,GULLS_TERNS_AND_SKIMMERS_LARIDAE,Damara Tern,,12,2.41881609,6.34199983,Africa,Benin,BJ,,Benin - Littoral,2010-09-14,
Sternula balaenarum,Animalia,GULLS_TERNS_AND_SKIMMERS_LARIDAE,Damara Tern,,18,2.41881609,6.34199983,Africa,Benin,BJ,,Benin - Littoral,2010-09-13,
Sternula balaenarum,Animalia,GULLS_TERNS_AND_SKIMMERS_LARIDAE,Damara Tern,,53,2.41881609,6.34199983,Africa,Benin,BJ,,Benin - Littoral,2010-09-11,
Sternula balaenarum,Animalia,GULLS_TERNS_AND_SKIMMERS_LARIDAE,Damara Tern,,1,2.41881609,6.34199983,Africa,Benin,BJ,,Benin - Littoral,2010-09-09,
Falco ardosiaceus,Animalia,CARACAS_AND_FALCONS_FALCONIDAE,Grey Kestrel,,1,1.5845,11.4103,Africa,Benin,BJ,,Benin - Boucle de la Pendjari NP,2016-08-10,20:58
Bucorvus abyssinicus,Animalia,GROUND_HORNBILLS_BUCORVIDAE,Abyssinian Ground Hornbill,,1,1.5845,11.4104,Africa,Benin,BJ,,Benin - Boucle de la Pendjari NP,2016-08-10,20:58
Balearica pavonina,Animalia,CRANES_GRUIDAE,Black Crowned Crane,,1,1.5848,11.4102,Africa,Benin,BJ,,Benin - Boucle de la Pendjari NP,2016-08-10,20:51
Numida meleagris,Animalia,GUINEAFOWL_NUMIDIDAE,Helmeted Guineafowl,,1,1.5844,11.4104,Africa,Benin,BJ,,Benin - Boucle de la Pendjari NP,2016-08-10,15:59
Dicrurus divaricatus divaricatus,Animalia,DRONGOS_DICRURIDAE,Glossy-backed Drongo ssp divaricatus,,1,1.5737,11.2982,Africa,Benin,BJ,,Benin - Boucle de la Pendjari NP,2016-08-10,14:19
Camaroptera brevicaudata,Animalia,CISTICOLAS_AND_ALLIES_CISTICOLIDAE,Grey-backed Camaroptera,,1,1.5737,11.2982,Africa,Benin,BJ,,Benin - Boucle de la Pendjari NP,2016-08-10,14:17
Coracias naevius,Animalia,ROLLERS_CORACIIDAE,Purple Roller,,1,1.5737,11.2983,Africa,Benin,BJ,,Benin - Boucle de la Pendjari NP,2016-08-10,14:12
Pternistis bicalcaratus,Animalia,FRANCOLINS_QUAILS_PARTRIDGES_AND_PHEASANTS_PHASIANIDAE,Double-spurred Spurfowl,,1,1.5737,11.2983,Africa,Benin,BJ,,Benin - Boucle de la Pendjari NP,2016-08-10,14:08
Scopus umbretta,Animalia,HAMERKOP_SCOPIDAE,Hamerkop,,1,1.5742,11.2982,Africa,Benin,BJ,,Benin - Boucle de la Pendjari NP,2016-08-10,14:06
Vidua macroura,Animalia,INDIGOBIRDS_AND_WHYDAHS_VIDUIDAE,Pin-tailed Whydah,,1,1.8319,6.2791,Africa,Benin,BJ,,Benin - Grand-Popo,2016-08-06,17:28
Lanius humeralis,Animalia,SHRIKES_LANIIDAE,Northern Fiscal,,1,2.0873,6.3462,Africa,Benin,BJ,,Benin - Ouidah,2016-08-03,18:04
Turdus pelios,Animalia,THRUSHES_TURDIDAE,African Thrush,,1,2.089,6.3498,Africa,Benin,BJ,,Benin - Ouidah,2016-08-02,15:35
Halcyon leucocephala,Animalia,KINGFISHERS_ALCEDINIDAE,Grey-headed Kingfisher,,1,2.0893,6.3498,Africa,Benin,BJ,,Benin - Ouidah,2016-08-02,15:32
Turdus pelios,Animalia,THRUSHES_TURDIDAE,African Thrush,,1,2.6154506765306,6.5040969996926,Africa,Benin,BJ,,Benin - Akpro-Missérété,2016-05-19,13:00
Merops pusillus,Animalia,BEEEATERS_MEROPIDAE,Little Bee-eater,,1,1.49033368488123,11.218990000000048,Africa,Benin,BJ,,Benin - Boucle de la Pendjari NP,2012-05-22,08:56
Coracias abyssinicus,Animalia,ROLLERS_CORACIIDAE,Abyssinian Roller,,1,1.4648621343076,11.12302513112,Africa,Benin,BJ,,Benin - Boucle de la Pendjari NP,2012-05-21,11:22
Alcelaphus buselaphus,Animalia,BOVIDS_BOVIDAE,Hartebeest,,1,1.49033368488123,11.218990000000048,Africa,Benin,BJ,,Benin - Boucle de la Pendjari NP,2012-05-22,12:51
