scientificName,kingdom,family,vernacularName,previousIdentifications,individualCount,longitudeDecimal,latitudeDecimal,continent,country,countryCode,stateProvince,locality,eventDate,eventTime
Carpodacus pulcherrimus pulcherrimus,Animalia,FINCHES_FRINGILLIDAE,Himalayan Beautiful Rosefinch ssp pulcherrimus,,4,90.7603526115,27.5058289795,Asia,Bhutan,BT,,Bhutan - Chhoekhor,2014-12-21,
Nucifraga caryocatactes macella,Animalia,CROWS_AND_JAYS_CORVIDAE,Spotted Nutcracker ssp macella,,10,89.2004603148,27.4275456052,Asia,Bhutan,BT,,Bhutan - Bji,2014-12-16,15:00
Heterophasia picaoides picaoides,Animalia,Leiothrichidae,Long-tailed Sibia ssp picaoides,,10,91.5471303463,26.9146176951,Asia,Bhutan,BT,,Bhutan - Orong,2014-12-29,09:30
Yungipicus canicapillus semicoronatus,Animalia,WOODPECKERS_PICIDAE,Grey-capped Pygmy Woodpecker ssp semicoronatus,,1,91.473416297,26.8488048665,Asia,Bhutan,BT,,Bhutan - Orong,2014-12-29,11:51
Dicrurus aeneus aeneus,Animalia,DRONGOS_DICRURIDAE,Bronzed Drongo ssp aeneus,,4,91.4801234007,26.8328006771,Asia,Bhutan,BT,,Bhutan - Orong,2014-12-29,13:40
Pycnonotus striatus striatus,Animalia,BULBULS_PYCNONOTIDAE,Striated Bulbul ssp striatus,,4,91.4703655243,27.3009859815,Asia,Bhutan,BT,,Bhutan - Drametse,2014-12-27,
Pycnonotus cafer bengalensis,Animalia,BULBULS_PYCNONOTIDAE,Red-vented Bulbul ssp bengalensis,,20,91.5057689534,27.2724588016,Asia,Bhutan,BT,,Bhutan - Kanglung,2014-12-27,08:45
Parus monticolus yunnanensis,Animalia,TITS_PARIDAE,Green-backed Tit ssp yunnanensis,,6,91.5057689534,27.2724588016,Asia,Bhutan,BT,,Bhutan - Kanglung,2014-12-27,08:45
Buteo burmanicus,Animalia,HAWKS_AND_EAGLES_ACCIPITRIDAE,Himalayan Buzzard,,2,91.5057689534,27.2724588016,Asia,Bhutan,BT,,Bhutan - Kanglung,2014-12-27,08:45
Heterophasia capistrata bayleyi,Animalia,Leiothrichidae,Rufous Sibia ssp bayleyi,,25,91.329203546,27.3113065499,Asia,Bhutan,BT,,Bhutan - Sherimuhung,2014-12-26,10:50
Pterorhinus albogularis albogularis,Animalia,Leiothrichidae,White-throated Laughingthrush ssp albogularis,,50,91.329203546,27.3113065499,Asia,Bhutan,BT,,Bhutan - Sherimuhung,2014-12-26,10:50
Garrulax leucolophus leucolophus,Animalia,Leiothrichidae,White-crested Laughingthrush ssp leucolophus,,6,91.329203546,27.3113065499,Asia,Bhutan,BT,,Bhutan - Sherimuhung,2014-12-26,10:50
Grammatoptila striata cranbrooki,Animalia,Leiothrichidae,Striated Laughingthrush ssp cranbrooki,,4,91.329203546,27.3113065499,Asia,Bhutan,BT,,Bhutan - Sherimuhung,2014-12-26,10:50
Streptopelia orientalis orientalis,Animalia,PIGEONS_AND_DOVES_COLUMBIDAE,Oriental Turtle Dove ssp orientalis,,15,91.2629771233,27.2631686921,Asia,Bhutan,BT,,Bhutan - Mongar,2014-12-26,09:30
Psilopogon virens magnificus,Animalia,Megalaimidae,Great Barbet ssp magnifica,,1,91.2635457516,27.2624597721,Asia,Bhutan,BT,,Bhutan - Mongar,2014-12-26,07:50
Phoenicurus hodgsoni,Animalia,OLD_WORLD_FLYCATCHERS_MUSCICAPIDAE,Hodgson's Redstart,,2,91.2233565109,27.2896063063,Asia,Bhutan,BT,,Bhutan - Chali,2014-12-25,16:58
Pycnonotus leucogenys,Animalia,BULBULS_PYCNONOTIDAE,Himalayan Bulbul,,6,91.2233565109,27.2896063063,Asia,Bhutan,BT,,Bhutan - Chali,2014-12-25,16:58
Trochalopteron imbricatum,Animalia,Leiothrichidae,Bhutan Laughingthrush,,6,91.2643504143,27.2613375797,Asia,Bhutan,BT,,Bhutan - Mongar,2014-12-26,08:10
Semnopithecus schistaceus,Animalia,OLD_WORLD_MONKEYS_CERCOPITHECIDAE,Nepal Grey Langur,,10,89.5745158195,27.0083548002,Asia,Bhutan,BT,,Bhutan - Bjachho,2014-12-15,
Macaca assamensis,Animalia,OLD_WORLD_MONKEYS_CERCOPITHECIDAE,Assam Macaque,,10,90.2481150627,27.5186178654,Asia,Bhutan,BT,,Bhutan - Sephu,2014-12-20,13:40
Macaca mulatta,Animalia,OLD_WORLD_MONKEYS_CERCOPITHECIDAE,Rhesus Macaque,,10,89.3972687423,26.855929415,Asia,Bhutan,BT,,Bhutan - Phuentsholing,2014-12-15,09:21
Pycnonotus flaviventris flaviventris,Animalia,BULBULS_PYCNONOTIDAE,Black-crested Bulbul ssp flaviventris,,4,91.1911153793,27.2725209052,Asia,Bhutan,BT,,Bhutan - Saleng,2014-12-25,13:09
Passer montanus tibetanus,Animalia,OLD_WORLD_SPARROWS_PASSERIDAE,Eurasian Tree Sparrow ssp tibetanus,,20,91.1592936516,27.3028354938,Asia,Bhutan,BT,,Bhutan - Tsamang,2014-12-25,11:10
Aceros nipalensis,Animalia,HORNBILLS_BUCEROTIDAE,Rufous-necked Hornbill,,2,91.1639246081,27.303455744,Asia,Bhutan,BT,,Bhutan - Tsamang,2014-12-25,08:25
Glaucidium brodiei brodiei,Animalia,OWLS_STRIGIDAE,Collared Owlet ssp brodiei,,1,91.163649559,27.2924560654,Asia,Bhutan,BT,,Bhutan - Saleng,2014-12-24,10:55
Macropygia unchall tusalia,Animalia,PIGEONS_AND_DOVES_COLUMBIDAE,Barred Cuckoo-Dove ssp tusalia,,4,91.2046122551,27.2802576689,Asia,Bhutan,BT,,Bhutan - Saleng,2014-12-23,09:35
Treron sphenurus sphenurus,Animalia,PIGEONS_AND_DOVES_COLUMBIDAE,Wedge-tailed Green Pigeon ssp sphenurus,,2,91.1613535881,27.292869266,Asia,Bhutan,BT,,Bhutan - Saleng,2014-12-24,10:47
Loxia curvirostra himalayensis,Animalia,FINCHES_FRINGILLIDAE,Red Crossbill ssp himalayensis,,12,91.0345602036,27.3518336464,Asia,Bhutan,BT,,Bhutan - Saleng,2014-12-22,15:23
Ianthocincla ocellata ocellata,Animalia,Leiothrichidae,Spotted Laughingthrush ssp ocellata,,2,91.0381951843,27.3430200794,Asia,Bhutan,BT,,Bhutan - Saleng,2014-12-23,07:49
Pyrrhocorax pyrrhocorax himalayanus,Animalia,CROWS_AND_JAYS_CORVIDAE,Red-billed Chough ssp himalayanus,,1,91.0186659397,27.3730618656,Asia,Bhutan,BT,,Bhutan - Saleng,2014-12-22,15:01
Monticola rufiventris,Animalia,OLD_WORLD_FLYCATCHERS_MUSCICAPIDAE,Chestnut-bellied Rock Thrush,,1,90.016951561,27.5054166133,Asia,Bhutan,BT,,Bhutan - Nyisho,2014-12-19,07:55
Grus nigricollis,Animalia,CRANES_GRUIDAE,Black-necked Crane,,200,90.1753306389,27.50867108,Asia,Bhutan,BT,,Bhutan - Dangchhu,2014-12-19,15:45
Corvus macrorhynchos tibetosinensis,Animalia,CROWS_AND_JAYS_CORVIDAE,Large-billed Crow ssp tibetosinensis,,20,90.1773905754,27.5238953768,Asia,Bhutan,BT,,Bhutan - Dangchhu,2014-12-19,15:20
Yuhina gularis gularis,Animalia,WHITEEYES_ZOSTEROPIDAE,Stripe-throated Yuhina ssp gularis,,1,90.1520061493,27.5439691955,Asia,Bhutan,BT,,Bhutan - Nyisho,2014-12-19,12:17
Chloris spinoides,Animalia,FINCHES_FRINGILLIDAE,Yellow-breasted Greenfinch,,10,90.0480084701,27.496695018,Asia,Bhutan,BT,,Bhutan - Nyisho,2014-12-19,10:13
Parus monticolus yunnanensis,Animalia,TITS_PARIDAE,Green-backed Tit ssp yunnanensis,,10,90.0480084701,27.496695018,Asia,Bhutan,BT,,Bhutan - Nyisho,2014-12-19,10:13
Phoenicurus leucocephalus,Animalia,OLD_WORLD_FLYCATCHERS_MUSCICAPIDAE,White-capped Redstart,,6,89.7672430686,27.6990639395,Asia,Bhutan,BT,,Bhutan - Goenshari,2014-12-18,09:16
Enicurus maculatus guttatus,Animalia,OLD_WORLD_FLYCATCHERS_MUSCICAPIDAE,Spotted Forktail ssp guttatus,,2,89.7672430686,27.6990639395,Asia,Bhutan,BT,,Bhutan - Goenshari,2014-12-18,09:16
Phoenicurus fuliginosus fuliginosus,Animalia,OLD_WORLD_FLYCATCHERS_MUSCICAPIDAE,Plumbeous Water Redstart ssp fuliginosus,,4,89.3657632888,27.4506865803,Asia,Bhutan,BT,,Bhutan - Tsento,2014-12-16,12:44
Enicurus scouleri,Animalia,OLD_WORLD_FLYCATCHERS_MUSCICAPIDAE,Little Forktail,,1,89.3657632888,27.4506865803,Asia,Bhutan,BT,,Bhutan - Tsento,2014-12-16,12:44
Cinclus pallasii dorjei,Animalia,DIPPERS_CINCLIDAE,Brown Dipper ssp dorjei,,4,89.3657632888,27.4506865803,Asia,Bhutan,BT,,Bhutan - Tsento,2014-12-16,12:44
Ibidorhyncha struthersii,Animalia,IBISBILL_IBIDORHYNCHIDAE,Ibisbill,,2,89.3657632888,27.4506865803,Asia,Bhutan,BT,,Bhutan - Tsento,2014-12-16,12:44
Ardea insignis,Animalia,HERONS_ARDEIDAE,White-bellied Heron,,3,89.8689097166,27.6192070018,Asia,Bhutan,BT,,Bhutan - Chhubu,2014-12-18,
Lanius schach tricolor,Animalia,SHRIKES_LANIIDAE,Long-tailed Shrike ssp tricolor,,1,89.5779705048,26.9979352958,Asia,Bhutan,BT,,Bhutan - Bjachho,2014-12-15,13:00
Dicrurus leucophaeus longicaudatus,Animalia,DRONGOS_DICRURIDAE,Ashy Drongo ssp longicaudatus,,4,89.4000149891,26.851258639,Asia,Bhutan,BT,,Bhutan - Phuentsholing,2014-12-15,09:21
Dicrurus hottentottus hottentottus,Animalia,DRONGOS_DICRURIDAE,Hair-crested Drongo ssp hottentottus,,2,89.4000149891,26.851258639,Asia,Bhutan,BT,,Bhutan - Phuentsholing,2014-12-15,09:21
Pericrocotus brevirostris brevirostris,Animalia,CUCKOOSHRIKES_CAMPEPHAGIDAE,Short-billed Minivet ssp brevirostris,,1,89.4000149891,26.851258639,Asia,Bhutan,BT,,Bhutan - Phuentsholing,2014-12-15,09:21
Saxicola ferreus,Animalia,OLD_WORLD_FLYCATCHERS_MUSCICAPIDAE,Grey Bush Chat,,1,91.5488790377,26.9285776976,Asia,Bhutan,BT,,Bhutan - Orong,2014-12-29,06:50
Psilopogon franklinii franklinii,Animalia,Megalaimidae,Golden-throated Barbet ssp franklinii,,1,91.5481176965,26.9454141588,Asia,Bhutan,BT,,Bhutan - Orong,2014-12-28,11:20
Ictinaetus malaiensis perniger,Animalia,HAWKS_AND_EAGLES_ACCIPITRIDAE,Black Eagle ssp perniger,,3,91.5185831272,26.990812718,Asia,Bhutan,BT,,Bhutan - Orong,2014-12-28,08:02
Dendrocitta formosae himalayana,Animalia,CROWS_AND_JAYS_CORVIDAE,Grey Treepie ssp himalayana,,1,91.5057689534,27.2724588016,Asia,Bhutan,BT,,Bhutan - Kanglung,2014-12-27,08:45
Chloris spinoides spinoides,Animalia,FINCHES_FRINGILLIDAE,Yellow-breasted Greenfinch ssp spinoides,,20,91.2632024288,27.2622563156,Asia,Bhutan,BT,,Bhutan - Mongar,2014-12-26,09:30
Lanius tephronotus tephronotus,Animalia,SHRIKES_LANIIDAE,Grey-backed Shrike ssp tephronotus,,1,91.2233565109,27.2896063063,Asia,Bhutan,BT,,Bhutan - Chali,2014-12-25,16:58
Monticola solitarius pandoo,Animalia,OLD_WORLD_FLYCATCHERS_MUSCICAPIDAE,Blue Rock Thrush ssp pandoo,,2,91.1586070061,27.3016151882,Asia,Bhutan,BT,,Bhutan - Tsamang,2014-12-25,13:21
Actinodura nipalensis,Animalia,Leiothrichidae,Hoary-throated Barwing,,6,91.0381951843,27.3430200794,Asia,Bhutan,BT,,Bhutan - Saleng,2014-12-23,07:05
Urocissa flavirostris flavirostris,Animalia,CROWS_AND_JAYS_CORVIDAE,Yellow-billed Blue Magpie ssp flavirostris,,4,91.0186659397,27.3730618656,Asia,Bhutan,BT,,Bhutan - Saleng,2014-12-22,15:01
Passer cinnamomeus cinnamomeus,Animalia,OLD_WORLD_SPARROWS_PASSERIDAE,Russet Sparrow ssp cinnamomeus,,2,90.9105875963,27.4774763674,Asia,Bhutan,BT,,Bhutan - Aura,2014-12-22,09:47
Indicator xanthonotus,Animalia,HONEYGUIDES_INDICATORIDAE,Yellow-rumped Honeyguide,,1,90.517103076,27.3850274188,Asia,Bhutan,BT,,Bhutan - Bjakteng,2014-12-21,10:47
Gyps himalayensis,Animalia,HAWKS_AND_EAGLES_ACCIPITRIDAE,Himalayan Vulture,,6,90.2206707001,27.5423456737,Asia,Bhutan,BT,,Bhutan - Dangchhu,2014-12-20,11:01
Nisaetus nipalensis nipalensis,Animalia,HAWKS_AND_EAGLES_ACCIPITRIDAE,Mountain Hawk-Eagle ssp nipalensis,,1,90.0480084701,27.496695018,Asia,Bhutan,BT,,Bhutan - Nyisho,2014-12-19,10:13
Tichodroma muraria nepalensis,Animalia,Tichodromidae,Wallcreeper ssp nepalensis,,1,89.7672430686,27.6990639395,Asia,Bhutan,BT,,Bhutan - Goenshari,2014-12-18,09:16
Spilornis cheela cheela,Animalia,HAWKS_AND_EAGLES_ACCIPITRIDAE,Crested Serpent Eagle ssp cheela,,1,89.8724913662,27.5281157007,Asia,Bhutan,BT,,Bhutan - Guma,2014-12-17,14:31
Aquila nipalensis nipalensis,Animalia,HAWKS_AND_EAGLES_ACCIPITRIDAE,Steppe Eagle ssp nipalensis,,3,89.4000149891,26.851258639,Asia,Bhutan,BT,,Bhutan - Phuentsholing,2014-12-15,09:21
Nisaetus nipalensis,Animalia,HAWKS_AND_EAGLES_ACCIPITRIDAE,Mountain Hawk-Eagle,,1,91.54632568,26.92696764,Asia,Bhutan,BT,,Bhutan - Orong,2010-11-18,
Passer montanus,Animalia,OLD_WORLD_SPARROWS_PASSERIDAE,Eurasian Tree Sparrow,,2,91.58890630117524,27.28843200000003,Asia,Bhutan,BT,,Bhutan - Samkhar,2010-11-17,
Pycnonotus cafer,Animalia,BULBULS_PYCNONOTIDAE,Red-vented Bulbul,,2,91.58896595386298,27.28812549999998,Asia,Bhutan,BT,,Bhutan - Samkhar,2010-11-17,
Zosterops palpebrosus,Animalia,WHITEEYES_ZOSTEROPIDAE,Indian White-eye,,1,91.58896595386298,27.28812549999998,Asia,Bhutan,BT,,Bhutan - Samkhar,2010-11-17,
Aceros nipalensis,Animalia,HORNBILLS_BUCEROTIDAE,Rufous-necked Hornbill,,2,91.32521724570964,27.314668500000067,Asia,Bhutan,BT,,Bhutan - Sherimuhung,2010-11-16,
Corvus macrorhynchos,Animalia,CROWS_AND_JAYS_CORVIDAE,Large-billed Crow,,1,90.75136185,27.54526293,Asia,Bhutan,BT,,Bhutan - Chhoekhor,2010-11-13,
Nucifraga caryocatactes,Animalia,CROWS_AND_JAYS_CORVIDAE,Spotted Nutcracker,,1,90.760202407837,27.504236607402,Asia,Bhutan,BT,,Bhutan - Chhoekhor,2010-11-12,
Alauda gulgula,Animalia,LARKS_ALAUDIDAE,Oriental Skylark,,1,90.25093068655823,27.40409950000003,Asia,Bhutan,BT,,Bhutan - Phobji,2010-11-11,
Passer montanus,Animalia,OLD_WORLD_SPARROWS_PASSERIDAE,Eurasian Tree Sparrow,,10,90.218653678894,27.410480924681,Asia,Bhutan,BT,,Bhutan - Phobji,2010-11-11,
Corvus macrorhynchos,Animalia,CROWS_AND_JAYS_CORVIDAE,Large-billed Crow,,2,90.213890075684,27.40632824209,Asia,Bhutan,BT,,Bhutan - Phobji,2010-11-11,
Phoenicurus frontalis,Animalia,OLD_WORLD_FLYCATCHERS_MUSCICAPIDAE,Blue-fronted Redstart,,1,90.220670700073,27.409795171342,Asia,Bhutan,BT,,Bhutan - Phobji,2010-11-10,
Grus nigricollis,Animalia,CRANES_GRUIDAE,Black-necked Crane,,4,90.25093068655823,27.40409950000003,Asia,Bhutan,BT,,Bhutan - Phobji,2010-11-10,
Acridotheres tristis,Animalia,STARLINGS_STURNIDAE,Common Myna,,1,89.863271713257,27.582013760664,Asia,Bhutan,BT,,Bhutan - Chhubu,2010-11-09,
Phoenicurus frontalis,Animalia,OLD_WORLD_FLYCATCHERS_MUSCICAPIDAE,Blue-fronted Redstart,,1,89.609985351562,27.518015241966,Asia,Bhutan,BT,,Bhutan - Kawang,2010-11-08,
Aegithalos iouschistos,Animalia,LONGTAILED_TITS_AEGITHALIDAE,Rufous-fronted Bushtit,,1,89.637987613678,27.571438694929,Asia,Bhutan,BT,,Bhutan - Kawang,2010-11-08,
Phoenicurus frontalis,Animalia,OLD_WORLD_FLYCATCHERS_MUSCICAPIDAE,Blue-fronted Redstart,,1,89.306686520576,27.376535790354,Asia,Bhutan,BT,,Bhutan - Katsho,2010-11-06,
Parus monticolus,Animalia,TITS_PARIDAE,Green-backed Tit,,1,89.327259063721,27.501686228887,Asia,Bhutan,BT,,Bhutan - Tsento,2010-11-06,
Nucifraga caryocatactes,Animalia,CROWS_AND_JAYS_CORVIDAE,Spotted Nutcracker,,1,89.327259063721,27.501686228887,Asia,Bhutan,BT,,Bhutan - Tsento,2010-11-06,
Orthetrum taeniolatum,Animalia,SKIMMERS_LIBELLULIDAE,Small Skimmer,,1,90.670652433716,27.150034584192,Asia,Bhutan,BT,,Bhutan - Trong,2010-05-08,
Trithemis festiva,Animalia,SKIMMERS_LIBELLULIDAE,Indigo Dropwing,,1,90.670652433716,27.150034584192,Asia,Bhutan,BT,,Bhutan - Trong,2010-05-08,
Corvus macrorhynchos,Animalia,CROWS_AND_JAYS_CORVIDAE,Large-billed Crow,,1,90.75555229187,27.55750858006,Asia,Bhutan,BT,,Bhutan - Chhoekhor,2010-05-13,
Nucifraga caryocatactes,Animalia,CROWS_AND_JAYS_CORVIDAE,Spotted Nutcracker,,1,90.75555229187,27.55750858006,Asia,Bhutan,BT,,Bhutan - Chhoekhor,2010-05-13,
Caprimulgus jotaka hazarae,Animalia,NIGHTJARS_CAPRIMULGIDAE,Grey Nightjar ssp hazarae,,1,89.617995262146,27.478838387864,Asia,Bhutan,BT,,Bhutan - Kawang,2010-05-04,
Corvus macrorhynchos,Animalia,CROWS_AND_JAYS_CORVIDAE,Large-billed Crow,,1,90.662425994873,27.581836598917,Asia,Bhutan,BT,,Bhutan - Chhoekhor,2010-05-11,
Brachypteryx cruralis,Animalia,OLD_WORLD_FLYCATCHERS_MUSCICAPIDAE,Himalayan Shortwing,,1,90.643028259277,27.586553213553,Asia,Bhutan,BT,,Bhutan - Chhoekhor,2010-05-11,
Brachypteryx cruralis,Animalia,OLD_WORLD_FLYCATCHERS_MUSCICAPIDAE,Himalayan Shortwing,,1,90.643028259277,27.595073035434,Asia,Bhutan,BT,,Bhutan - Chhoekhor,2010-05-11,
Horornis brunnescens,Animalia,Cettidae,Hume's Bush Warbler,,1,90.643028259277,27.595073035434,Asia,Bhutan,BT,,Bhutan - Chhoekhor,2010-05-11,
Motacilla alba alboides,Animalia,PIPITS_EN_WAGTAILS_MOTACILLIDAE,White Wagtail ssp alboides,,2,89.63573456,27.47339971,Asia,Bhutan,BT,,Bhutan,2010-11-11,
Urocissa flavirostris,Animalia,CROWS_AND_JAYS_CORVIDAE,Yellow-billed Blue Magpie,,4,89.5179748535,27.2741611174,Asia,Bhutan,BT,,Bhutan,2010-11-06,
Garrulax affinis,Animalia,Leiothrichidae,,,6,89.5179748535,27.2741611174,Asia,Bhutan,BT,,Bhutan,2010-11-06,
Phoenicurus hodgsoni,Animalia,OLD_WORLD_FLYCATCHERS_MUSCICAPIDAE,Hodgson's Redstart,,1,89.51797485,27.27416112,Asia,Bhutan,BT,,Bhutan,2010-11-06,
Pericrocotus ethologus,Animalia,CUCKOOSHRIKES_CAMPEPHAGIDAE,Long-tailed Minivet,,1,89.5179748535,27.2741611174,Asia,Bhutan,BT,,Bhutan,2010-11-06,
Junonia hierta,Animalia,BRUSHFOOTED_BUTTERFLIES_NYMPHALIDAE,Yellow Pansy,,1,90.5337810516,27.3670414815,Asia,Bhutan,BT,,Bhutan,2010-05-07,
Corvus macrorhynchos,Animalia,CROWS_AND_JAYS_CORVIDAE,Large-billed Crow,,4,90.6760025024,27.5505898973,Asia,Bhutan,BT,,Bhutan,2010-05-12,
Nucifraga caryocatactes,Animalia,CROWS_AND_JAYS_CORVIDAE,Spotted Nutcracker,,1,90.6760025024,27.5505898973,Asia,Bhutan,BT,,Bhutan,2010-05-12,
Horornis brunnescens,Animalia,Cettidae,Hume's Bush Warbler,,1,90.6833839417,27.5431320668,Asia,Bhutan,BT,,Bhutan,2010-05-12,
Palpopleura sexmaculata,Animalia,SKIMMERS_LIBELLULIDAE,Asian Widow,,1,89.87188755,27.59125752,Asia,Bhutan,BT,,Bhutan - Chhubu,2019-12-18,13:45
Crocothemis erythraea/servilia,Animalia,SKIMMERS_LIBELLULIDAE,Broad/Oriental Scarlet,,4,89.87166282,27.59057762,Asia,Bhutan,BT,,Bhutan - Chhubu,2019-12-18,14:30
Pseudagrion rubriceps,Animalia,POND_DAMSELS_COENAGRIONIDAE,Orange-faced Sprite,,1,88.91464949,26.99305656,Asia,Bhutan,BT,,Bhutan,2020-04-19,
Orthetrum pruinosum neglectum,Animalia,SKIMMERS_LIBELLULIDAE,,,1,88.91727805,26.99489686,Asia,Bhutan,BT,,Bhutan,2020-04-19,
Trithemis festiva,Animalia,SKIMMERS_LIBELLULIDAE,Indigo Dropwing,,1,88.91968131,26.99489686,Asia,Bhutan,BT,,Bhutan,2020-04-19,
Sitta formosa,Animalia,NUTHATCHES_SITTIDAE,Beautiful Nuthatch,,1,91.15861981280862,27.31656635128956,Asia,Bhutan,BT,,Bhutan - Tsamang,2020-03-12,16:24
Buceros bicornis,Animalia,HORNBILLS_BUCEROTIDAE,Great Hornbill,,1,90.9623947143555,26.7863578796387,Asia,Bhutan,BT,,Bhutan - Taklai,2020-01-10,14:51
Spilornis cheela,Animalia,HAWKS_AND_EAGLES_ACCIPITRIDAE,Crested Serpent Eagle,,1,91.0756759643555,26.8004684448242,Asia,Bhutan,BT,,Bhutan,2020-01-11,11:39
Coenagrion exclamationis,Animalia,POND_DAMSELS_COENAGRIONIDAE,,,2,90.809658,27.154133,Asia,Bhutan,BT,,Bhutan - Nangkor,2019-05-19,15:31
Sitta formosa,Animalia,NUTHATCHES_SITTIDAE,Beautiful Nuthatch,,2,91.1565475463867,27.3171672821045,Asia,Bhutan,BT,,Bhutan - Tsamang,2019-11-16,06:38
Phoenicurus leucocephalus,Animalia,OLD_WORLD_FLYCATCHERS_MUSCICAPIDAE,White-capped Redstart,,1,91.1507797241211,27.2705516815186,Asia,Bhutan,BT,,Bhutan - Saleng,2019-11-15,16:29
Ketupa flavipes,Animalia,OWLS_STRIGIDAE,Tawny Fish Owl,,1,91.1438903808594,27.2730808258057,Asia,Bhutan,BT,,Bhutan - Saleng,2019-11-15,17:14
Sitta formosa,Animalia,NUTHATCHES_SITTIDAE,Beautiful Nuthatch,,2,91.1316680908203,27.3163585662842,Asia,Bhutan,BT,,Bhutan - Saleng,2019-11-13,15:41
Harpactes wardi,Animalia,TROGONS_TROGONIDAE,Ward's Trogon,,3,91.11746216,27.3483429,Asia,Bhutan,BT,,Bhutan - Tsamang,2019-11-14,10:37
Harpactes wardi,Animalia,TROGONS_TROGONIDAE,Ward's Trogon,,2,91.1145248413086,27.3468494415283,Asia,Bhutan,BT,,Bhutan - Tsamang,2019-11-14,11:34
Sitta formosa,Animalia,NUTHATCHES_SITTIDAE,Beautiful Nuthatch,,3,91.1586303710938,27.3165969848633,Asia,Bhutan,BT,,Bhutan - Tsamang,2019-11-14,15:02
Sitta formosa,Animalia,NUTHATCHES_SITTIDAE,Beautiful Nuthatch,,3,91.1572799682617,27.3169384002686,Asia,Bhutan,BT,,Bhutan - Tsamang,2019-11-14,16:57
Grus nigricollis,Animalia,CRANES_GRUIDAE,Black-necked Crane,,46,90.1644287109375,27.473201751709,Asia,Bhutan,BT,,Bhutan - Gangte,2019-11-11,07:26
Phoenicurus hodgsoni,Animalia,OLD_WORLD_FLYCATCHERS_MUSCICAPIDAE,Hodgson's Redstart,,1,89.8697052001953,27.5677223205566,Asia,Bhutan,BT,,Bhutan - Chhubu,2019-11-10,06:57
Haliaeetus leucoryphus,Animalia,HAWKS_AND_EAGLES_ACCIPITRIDAE,Pallas's Fish Eagle,,1,89.8732604980469,27.5715427398682,Asia,Bhutan,BT,,Bhutan - Chhubu,2019-11-10,09:22
Ardea insignis,Animalia,HERONS_ARDEIDAE,White-bellied Heron,,2,89.8700485229492,27.6098136901855,Asia,Bhutan,BT,,Bhutan - Chhubu,2019-11-10,10:49
Grus nigricollis,Animalia,CRANES_GRUIDAE,Black-necked Crane,,50,90.1699829101563,27.4646167755127,Asia,Bhutan,BT,,Bhutan - Gangte,2019-11-10,15:31
Phoenicurus frontalis,Animalia,OLD_WORLD_FLYCATCHERS_MUSCICAPIDAE,Blue-fronted Redstart,,1,89.7249221801758,27.4881362915039,Asia,Bhutan,BT,,Bhutan - Chang,2019-11-09,08:05
Phoenicurus frontalis,Animalia,OLD_WORLD_FLYCATCHERS_MUSCICAPIDAE,Blue-fronted Redstart,,3,89.7522811889648,27.505989074707,Asia,Bhutan,BT,,Bhutan - Toepaisa,2019-11-09,11:29
Cholornis unicolor,Animalia,OLD_WORLD_WARBLERS_SYLVIIDAE,Brown Parrotbill,,4,89.7516403198242,27.5061836242676,Asia,Bhutan,BT,,Bhutan - Toepaisa,2019-11-09,12:09
Ardea insignis,Animalia,HERONS_ARDEIDAE,White-bellied Heron,,1,89.87122198,27.53933578,Asia,Bhutan,BT,,Bhutan - Talo,2019-11-09,15:14
Haliaeetus leucoryphus,Animalia,HAWKS_AND_EAGLES_ACCIPITRIDAE,Pallas's Fish Eagle,,1,89.868034362793,27.5404815673828,Asia,Bhutan,BT,,Bhutan - Talo,2019-11-09,15:14
Phoenicurus hodgsoni,Animalia,OLD_WORLD_FLYCATCHERS_MUSCICAPIDAE,Hodgson's Redstart,,4,89.8689193725586,27.5837898254395,Asia,Bhutan,BT,,Bhutan - Chhubu,2019-11-09,16:07
Streptopelia orientalis agricola,Animalia,PIGEONS_AND_DOVES_COLUMBIDAE,Oriental Turtle Dove ssp agricola,,2,89.635139465332,27.4706630706787,Asia,Bhutan,BT,,Bhutan - Kawang,2019-10-26,07:07
Streptopelia orientalis agricola,Animalia,PIGEONS_AND_DOVES_COLUMBIDAE,Oriental Turtle Dove ssp agricola,,1,89.631706237793,27.4799900054932,Asia,Bhutan,BT,,Bhutan - Kawang,2019-10-26,15:06
Phoenicurus hodgsoni,Animalia,OLD_WORLD_FLYCATCHERS_MUSCICAPIDAE,Hodgson's Redstart,,1,89.85667419,27.59485817,Asia,Bhutan,BT,,Bhutan - Chhubu,2019-11-01,14:05
Vanellus duvaucelii,Animalia,PLOVERS_CHARADRIIDAE,River Lapwing,,2,89.6460418701172,27.4322738647461,Asia,Bhutan,BT,,Bhutan - Chang,2019-11-03,11:23
Pernis ptilorhynchus,Animalia,HAWKS_AND_EAGLES_ACCIPITRIDAE,Crested Honey Buzzard,,1,89.75286512,27.50708306,Asia,Bhutan,BT,,Bhutan - Toepaisa,2019-10-23,
Phoenicurus frontalis,Animalia,OLD_WORLD_FLYCATCHERS_MUSCICAPIDAE,Blue-fronted Redstart,,1,89.75223598,27.50749339,Asia,Bhutan,BT,,Bhutan - Toepaisa,2019-10-23,
Heterophasia capistrata bayleyi,Animalia,Leiothrichidae,Rufous Sibia ssp bayleyi,,1,89.75223598,27.50749339,Asia,Bhutan,BT,,Bhutan - Toepaisa,2019-10-23,
Fulvetta vinipectus chumbiensis,Animalia,OLD_WORLD_WARBLERS_SYLVIIDAE,White-browed Fulvetta ssp chumbiensis,,3,89.75223598,27.50749339,Asia,Bhutan,BT,,Bhutan - Toepaisa,2019-10-23,
Pterorhinus albogularis,Animalia,Leiothrichidae,White-throated Laughingthrush,,1,89.75223598,27.50749339,Asia,Bhutan,BT,,Bhutan - Toepaisa,2019-10-23,
Cholornis unicolor,Animalia,OLD_WORLD_WARBLERS_SYLVIIDAE,Brown Parrotbill,,1,89.75223598,27.50749339,Asia,Bhutan,BT,,Bhutan - Toepaisa,2019-10-23,
Glaucidium brodiei brodiei,Animalia,OWLS_STRIGIDAE,Collared Owlet ssp brodiei,,1,89.75223598,27.50749339,Asia,Bhutan,BT,,Bhutan - Toepaisa,2019-10-23,
Urocissa flavirostris flavirostris,Animalia,CROWS_AND_JAYS_CORVIDAE,Yellow-billed Blue Magpie ssp flavirostris,,1,89.75223598,27.50749339,Asia,Bhutan,BT,,Bhutan - Toepaisa,2019-10-23,
Macaca mulatta,Animalia,OLD_WORLD_MONKEYS_CERCOPITHECIDAE,Rhesus Macaque,,1,90.50771713,27.50444977,Asia,Bhutan,BT,,Bhutan - Nubi,2010-11-12,
Tamiops macclellandii,Animalia,SQUIRRELS_CHIPMUNKS_AND_PRAIRIEDOGS_SCIURIDAE,Himalayan Striped Squirrel,,1,89.63544845,27.49311602,Asia,Bhutan,BT,,Bhutan - Kawang,2010-08-01,
Sympetrum fonscolombii,Animalia,SKIMMERS_LIBELLULIDAE,Red-veined Darter,,15,89.63395216,27.50369507,Asia,Bhutan,BT,,Bhutan - Kawang,2019-08-13,
Crocothemis spec.,Animalia,SKIMMERS_LIBELLULIDAE,,,1,89.83601906,27.61895946,Asia,Bhutan,BT,,Bhutan - Chhubu,2019-08-11,
Diplacodes trivialis,Animalia,SKIMMERS_LIBELLULIDAE,Chalky Percher,,1,89.83651795,27.61899559,Asia,Bhutan,BT,,Bhutan - Chhubu,2019-08-10,
Aeshnidae spec.,Animalia,DARNERS_AESHNIDAE,,,1,89.6380234,27.51625015,Asia,Bhutan,BT,,Bhutan - Kawang,2019-04-08,15:20
Libellulidae indet.,Animalia,SKIMMERS_LIBELLULIDAE,,,1,89.6385958,27.50815693,Asia,Bhutan,BT,,Bhutan - Kawang,2019-03-28,11:40
Gomphidae spec.,Animalia,CLUBTAILS_GOMPHIDAE,,,1,89.64093314,27.50690824,Asia,Bhutan,BT,,Bhutan - Kawang,2019-04-04,13:10
Anisoptera indet.,Animalia,DRAGONFLIES_ODONATA,Dragonfly unknown,,1,89.63479671,27.50993188,Asia,Bhutan,BT,,Bhutan - Kawang,2019-03-20,12:30
Gomphidae spec.,Animalia,CLUBTAILS_GOMPHIDAE,,,1,89.64485591,27.52287724,Asia,Bhutan,BT,,Bhutan - Kawang,2019-02-27,15:30
Aeshnidae spec.,Animalia,DARNERS_AESHNIDAE,,,1,89.63304254,27.53851106,Asia,Bhutan,BT,,Bhutan - Kawang,2019-03-31,10:45
Vanellus duvaucelii,Animalia,PLOVERS_CHARADRIIDAE,River Lapwing,,2,89.64119914,27.51952571,Asia,Bhutan,BT,,Bhutan - Kawang,2019-03-04,
Megaceryle lugubris,Animalia,KINGFISHERS_ALCEDINIDAE,Crested Kingfisher,,1,89.64033501,27.50003272,Asia,Bhutan,BT,,Bhutan - Kawang,2019-03-04,
Gomphidae spec.,Animalia,CLUBTAILS_GOMPHIDAE,,,1,89.64517778,27.52525111,Asia,Bhutan,BT,,Bhutan - Kawang,2019-03-24,13:50
Gomphidae spec.,Animalia,CLUBTAILS_GOMPHIDAE,,,1,89.64876519,27.53586398,Asia,Bhutan,BT,,Bhutan - Kawang,2019-04-06,11:30
Gomphidae spec.,Animalia,CLUBTAILS_GOMPHIDAE,,,1,89.6456874,27.52693991,Asia,Bhutan,BT,,Bhutan - Kawang,2019-03-10,14:20
Gomphidae spec.,Animalia,CLUBTAILS_GOMPHIDAE,,,1,89.63666889,27.52637147,Asia,Bhutan,BT,,Bhutan - Kawang,2019-03-09,12:10
Epiophlebia laidlawi,Animalia,Epiophlebiidae,,,1,89.63440779,27.53737422,Asia,Bhutan,BT,,Bhutan - Kawang,2019-03-24,09:40
Epiophlebia laidlawi,Animalia,Epiophlebiidae,,,1,89.63427099,27.537662,Asia,Bhutan,BT,,Bhutan - Kawang,2019-04-07,12:25
Epiophlebia laidlawi,Animalia,Epiophlebiidae,,,1,89.63395005,27.51003176,Asia,Bhutan,BT,,Bhutan - Kawang,2019-04-07,14:10
Gomphidae spec.,Animalia,CLUBTAILS_GOMPHIDAE,,,1,89.56779781,27.37282483,Asia,Bhutan,BT,,Bhutan - Mewang,2019-04-13,10:30
Gomphidae spec.,Animalia,CLUBTAILS_GOMPHIDAE,,,1,89.63517314,27.53689138,Asia,Bhutan,BT,,Bhutan - Kawang,2019-04-13,12:20
Gomphidae spec.,Animalia,CLUBTAILS_GOMPHIDAE,,,1,89.66579185,27.44114973,Asia,Bhutan,BT,,Bhutan - Chang,2019-04-28,14:00
Epiophlebia laidlawi,Animalia,Epiophlebiidae,,,1,89.64280398,27.52028097,Asia,Bhutan,BT,,Bhutan - Kawang,2019-04-27,14:35
Gomphidae spec.,Animalia,CLUBTAILS_GOMPHIDAE,,,2,89.63853034,27.52589337,Asia,Bhutan,BT,,Bhutan - Kawang,2019-03-02,11:15
Libellulidae indet.,Animalia,SKIMMERS_LIBELLULIDAE,,,1,89.64107936,27.50085346,Asia,Bhutan,BT,,Bhutan - Kawang,2019-04-08,09:45
Anax spec.,Animalia,DARNERS_AESHNIDAE,,,1,89.64439994,27.5218449,Asia,Bhutan,BT,,Bhutan - Kawang,2019-03-04,10:25
Libellulidae indet.,Animalia,SKIMMERS_LIBELLULIDAE,,,2,89.63998687,27.50736725,Asia,Bhutan,BT,,Bhutan - Kawang,2019-03-11,13:30
Vestalis gracilis,Animalia,BROADWINGED_DAMSELS_CALOPTERYGIDAE,,,1,92.10540357,26.90413684,Asia,Bhutan,BT,,Bhutan - Hastina pur,2019-02-10,13:20
Vestalis gracilis,Animalia,BROADWINGED_DAMSELS_CALOPTERYGIDAE,,,1,92.10442456,26.90282846,Asia,Bhutan,BT,,Bhutan - Hastina pur,2019-02-10,13:40
Indolestes cyaneus,Animalia,SPREADWINGS_LESTIDAE,,,3,89.63920982,27.49793786,Asia,Bhutan,BT,,Bhutan - Kawang,2019-03-20,10:10
Indolestes cyaneus,Animalia,SPREADWINGS_LESTIDAE,,,12,89.63939938,27.52000621,Asia,Bhutan,BT,,Bhutan - Kawang,2019-03-24,10:20
Ceriagrion olivaceum,Animalia,POND_DAMSELS_COENAGRIONIDAE,,,2,92.10525881,26.90497389,Asia,Bhutan,BT,,Bhutan - Hastina pur,2019-02-10,12:50
Trithemis festiva,Animalia,SKIMMERS_LIBELLULIDAE,Indigo Dropwing,,3,89.62728392,27.50350371,Asia,Bhutan,BT,,Bhutan - Kawang,2019-04-12,12:15
Crocothemis erythraea/servilia,Animalia,SKIMMERS_LIBELLULIDAE,Broad/Oriental Scarlet,,2,89.63914725,27.49888832,Asia,Bhutan,BT,,Bhutan - Kawang,2019-04-13,11:10
Orthetrum triangulare,Animalia,SKIMMERS_LIBELLULIDAE,Lesser Blue Skimmer,,1,89.63981889,27.51978473,Asia,Bhutan,BT,,Bhutan - Kawang,2019-04-17,12:20
Orthetrum pruinosum,Animalia,SKIMMERS_LIBELLULIDAE,,,4,89.64210304,27.52048671,Asia,Bhutan,BT,,Bhutan - Kawang,2019-03-29,11:45
Orthetrum triangulare,Animalia,SKIMMERS_LIBELLULIDAE,Lesser Blue Skimmer,,3,89.63768721,27.50887091,Asia,Bhutan,BT,,Bhutan - Kawang,2019-03-05,10:19
Neurothemis intermedia,Animalia,SKIMMERS_LIBELLULIDAE,,,1,89.63770242,27.50886852,Asia,Bhutan,BT,,Bhutan - Kawang,2019-05-13,10:40
Orthetrum sabina,Animalia,SKIMMERS_LIBELLULIDAE,Slender Skimmer,,3,89.63924737,27.49895734,Asia,Bhutan,BT,,Bhutan - Kawang,2019-05-13,15:15
Troglodytes troglodytes,Animalia,WRENS_TROGLODYTIDAE,Eurasian Wren,,1,89.7491455078125,27.4900989532471,Asia,Bhutan,BT,,Bhutan - Toepaisa,2018-10-31,09:57
Pterorhinus albogularis,Animalia,Leiothrichidae,White-throated Laughingthrush,,1,89.7514266967773,27.5082130432129,Asia,Bhutan,BT,,Bhutan - Toepaisa,2018-10-31,12:42
Vanellus duvaucelii,Animalia,PLOVERS_CHARADRIIDAE,River Lapwing,,1,89.6512832641602,27.4353847503662,Asia,Bhutan,BT,,Bhutan - Chang,2018-10-31,17:18
Aiolopus thalassinus,Animalia,SHORTHORNED_GRASSHOPPERS_ACRIDIDAE,,,1,89.64250183,27.47027779,Asia,Bhutan,BT,,Bhutan - Kawang,2018-10-28,09:15
Aiolopus thalassinus,Animalia,SHORTHORNED_GRASSHOPPERS_ACRIDIDAE,,,1,89.64272308,27.47053909,Asia,Bhutan,BT,,Bhutan - Kawang,2018-10-28,09:21
Aiolopus thalassinus,Animalia,SHORTHORNED_GRASSHOPPERS_ACRIDIDAE,,,1,89.64317322,27.47137833,Asia,Bhutan,BT,,Bhutan - Kawang,2018-10-28,09:33
Eristalis spec.,Animalia,HOVER_FLIES_OR_FLOWER_FLIES_SYRPHIDAE,,,1,89.6376113891602,27.469970703125,Asia,Bhutan,BT,,Bhutan - Kawang,2018-10-27,10:18
Eristalis spec.,Animalia,HOVER_FLIES_OR_FLOWER_FLIES_SYRPHIDAE,,,1,89.6375732421875,27.4699630737305,Asia,Bhutan,BT,,Bhutan - Kawang,2018-10-27,10:19
Ephemera spec.,Animalia,EPHEMERIDAE,,,1,89.63038635,27.60456467,Asia,Bhutan,BT,,Bhutan - Kawang,2018-10-27,14:16
Eristalis tenax,Animalia,HOVER_FLIES_OR_FLOWER_FLIES_SYRPHIDAE,Drone Fly,,1,89.6516647338867,27.4197216033936,Asia,Bhutan,BT,,Bhutan - Chang,2018-05-06,11:58
Eristalis cerealis,Animalia,HOVER_FLIES_OR_FLOWER_FLIES_SYRPHIDAE,,,1,89.6376586912227,27.4699583047458,Asia,Bhutan,BT,,Bhutan - Kawang,2018-05-06,12:17
Cheilosia spec.,Animalia,HOVER_FLIES_OR_FLOWER_FLIES_SYRPHIDAE,,,1,90.2446622568715,27.5298314751616,Asia,Bhutan,BT,,Bhutan - Sephu,2018-05-05,11:00
Cheilosia spec.,Animalia,HOVER_FLIES_OR_FLOWER_FLIES_SYRPHIDAE,,,1,90.2448704305015,27.5306359729734,Asia,Bhutan,BT,,Bhutan - Sephu,2018-05-05,10:49
Cheilosia spec.,Animalia,HOVER_FLIES_OR_FLOWER_FLIES_SYRPHIDAE,,,1,90.2018861546935,27.5388740636375,Asia,Bhutan,BT,,Bhutan - Dangchhu,2018-05-05,09:43
Muntiacus vaginalis,Animalia,DEER_CERVIDAE,Northern Red Muntjac,,1,90.172443445421,27.5138800460923,Asia,Bhutan,BT,,Bhutan - Dangchhu,2018-05-04,15:57
Eupeodes spec.,Animalia,HOVER_FLIES_OR_FLOWER_FLIES_SYRPHIDAE,,,1,90.1651200989532,27.4715665736208,Asia,Bhutan,BT,,Bhutan - Gangte,2018-05-04,12:03
Eupeodes spec.,Animalia,HOVER_FLIES_OR_FLOWER_FLIES_SYRPHIDAE,,,1,90.165204062924,27.4717082612468,Asia,Bhutan,BT,,Bhutan - Gangte,2018-05-04,12:00
Issoria lathonia,Animalia,BRUSHFOOTED_BUTTERFLIES_NYMPHALIDAE,Queen of Spain Fritillary,,1,90.2446421081267,27.5296886135097,Asia,Bhutan,BT,,Bhutan - Sephu,2018-05-03,13:29
Apis mellifera,Animalia,Apidae,Western Honey Bee,,1,90.2447283516796,27.52966724557,Asia,Bhutan,BT,,Bhutan - Sephu,2018-05-03,12:09
Platycheirus albimanus,Animalia,HOVER_FLIES_OR_FLOWER_FLIES_SYRPHIDAE,,,1,90.2446729222136,27.5297135190361,Asia,Bhutan,BT,,Bhutan - Sephu,2018-05-03,12:04
Cheilosia spec.,Animalia,HOVER_FLIES_OR_FLOWER_FLIES_SYRPHIDAE,,,1,90.2021702139635,27.5382949576028,Asia,Bhutan,BT,,Bhutan - Dangchhu,2018-05-03,11:19
Cheilosia illustrata,Animalia,HOVER_FLIES_OR_FLOWER_FLIES_SYRPHIDAE,,,1,90.2023067918323,27.5384184155621,Asia,Bhutan,BT,,Bhutan - Dangchhu,2018-05-03,11:02
Cheilosia spec.,Animalia,HOVER_FLIES_OR_FLOWER_FLIES_SYRPHIDAE,,,3,90.2020841262121,27.5382462828666,Asia,Bhutan,BT,,Bhutan - Dangchhu,2018-05-03,10:55
Baccha elongata,Animalia,HOVER_FLIES_OR_FLOWER_FLIES_SYRPHIDAE,,,1,90.0695602328174,27.4979970517776,Asia,Bhutan,BT,,Bhutan - Nyisho,2018-05-02,12:13
Sulphogaeana sulphurea,Animalia,CICADIDAE,,,1,89.7905868364568,27.5215210345858,Asia,Bhutan,BT,,Bhutan - Toepaisa,2018-05-01,11:44
Eristalis tenax,Animalia,HOVER_FLIES_OR_FLOWER_FLIES_SYRPHIDAE,Drone Fly,,2,89.790505030028,27.521645723107,Asia,Bhutan,BT,,Bhutan - Toepaisa,2018-05-01,10:45
Apis laboriosa,Animalia,Apidae,Himalayan Honey Bee,,1,89.86083221,27.5830555,Asia,Bhutan,BT,,Bhutan - Chhubu,2018-05-01,10:50
Apis mellifera,Animalia,Apidae,Western Honey Bee,,1,89.8622812612048,27.5830759759468,Asia,Bhutan,BT,,Bhutan - Chhubu,2018-05-01,10:50
Trithemis aurora,Animalia,SKIMMERS_LIBELLULIDAE,Crimson Dropwing,,1,90.0484782184029,27.2679793689003,Asia,Bhutan,BT,,Bhutan - Athang,2018-04-29,13:26
Vanessa cardui,Animalia,BRUSHFOOTED_BUTTERFLIES_NYMPHALIDAE,Painted Lady,,1,89.66362293,27.44139892,Asia,Bhutan,BT,,Bhutan - Chang,2018-04-26,10:57
Diplacodes trivialis,Animalia,SKIMMERS_LIBELLULIDAE,Chalky Percher,,1,89.861946105957,27.5883331298828,Asia,Bhutan,BT,,Bhutan - Chhubu,2018-04-27,15:08
Eristalis tenax,Animalia,HOVER_FLIES_OR_FLOWER_FLIES_SYRPHIDAE,Drone Fly,,1,89.8750097469241,27.505912844453,Asia,Bhutan,BT,,Bhutan - Guma,2018-04-28,10:50
Pseudagrion rubriceps,Animalia,POND_DAMSELS_COENAGRIONIDAE,Orange-faced Sprite,,1,89.8627777099609,27.5827770233154,Asia,Bhutan,BT,,Bhutan - Chhubu,2018-04-28,16:08
Eristalinus spec.,Animalia,HOVER_FLIES_OR_FLOWER_FLIES_SYRPHIDAE,,,1,89.7994274831046,27.6372207344492,Asia,Bhutan,BT,,Bhutan - Chhubu,2018-04-28,14:55
Episyrphus spec.,Animalia,HOVER_FLIES_OR_FLOWER_FLIES_SYRPHIDAE,,,1,89.7994527620259,27.6371958560742,Asia,Bhutan,BT,,Bhutan - Chhubu,2018-04-28,14:50
Cheilosia spec.,Animalia,HOVER_FLIES_OR_FLOWER_FLIES_SYRPHIDAE,,,2,89.7993285621413,27.6373077619224,Asia,Bhutan,BT,,Bhutan - Chhubu,2018-04-28,14:29
Temnostoma spec.,Animalia,HOVER_FLIES_OR_FLOWER_FLIES_SYRPHIDAE,,,1,89.7993517747405,27.6372070567586,Asia,Bhutan,BT,,Bhutan - Chhubu,2018-04-28,14:25
Eristalinus spec.,Animalia,HOVER_FLIES_OR_FLOWER_FLIES_SYRPHIDAE,,,1,89.7995363391158,27.637355149146,Asia,Bhutan,BT,,Bhutan - Chhubu,2018-04-28,14:16
Eristalinus spec.,Animalia,HOVER_FLIES_OR_FLOWER_FLIES_SYRPHIDAE,,,1,89.8004853933059,27.6349863265147,Asia,Bhutan,BT,,Bhutan - Chhubu,2018-04-28,14:14
Episyrphus spec.,Animalia,HOVER_FLIES_OR_FLOWER_FLIES_SYRPHIDAE,,,1,89.8044500717601,27.6331812121378,Asia,Bhutan,BT,,Bhutan - Chhubu,2018-04-28,12:30
Palpopleura sexmaculata,Animalia,SKIMMERS_LIBELLULIDAE,Asian Widow,,1,89.8698452962101,27.5201701648819,Asia,Bhutan,BT,,Bhutan - Guma,2018-04-28,11:34
Eristalis tenax,Animalia,HOVER_FLIES_OR_FLOWER_FLIES_SYRPHIDAE,Drone Fly,,1,89.8702196445572,27.5194364298683,Asia,Bhutan,BT,,Bhutan - Guma,2018-04-28,11:19
Eristalis tenax,Animalia,HOVER_FLIES_OR_FLOWER_FLIES_SYRPHIDAE,Drone Fly,,1,89.8749906439898,27.5059133716357,Asia,Bhutan,BT,,Bhutan - Guma,2018-04-28,10:41
Dicrurus leucophaeus,Animalia,DRONGOS_DICRURIDAE,Ashy Drongo,,1,89.8197283828849,27.5220537709469,Asia,Bhutan,BT,,Bhutan - Talo,2018-04-27,14:41
Apis laboriosa,Animalia,Apidae,Himalayan Honey Bee,,20,89.7912987830225,27.5078040224572,Asia,Bhutan,BT,,Bhutan - Toepaisa,2018-04-27,11:34
Triglyphus primus,Animalia,HOVER_FLIES_OR_FLOWER_FLIES_SYRPHIDAE,,,1,89.6495444181046,27.42497232678,Asia,Bhutan,BT,,Bhutan - Chang,2018-04-26,12:05
Eumerus spec.,Animalia,HOVER_FLIES_OR_FLOWER_FLIES_SYRPHIDAE,,,1,89.6495392849789,27.4251278513101,Asia,Bhutan,BT,,Bhutan - Chang,2018-04-26,12:03
Megachilidae indet.,Animalia,MEGACHILIDAE,Megachilidae unknown,,1,89.6497944420139,27.4250969648649,Asia,Bhutan,BT,,Bhutan - Chang,2018-04-26,11:57
Eristalis tenax,Animalia,HOVER_FLIES_OR_FLOWER_FLIES_SYRPHIDAE,Drone Fly,,1,89.6378504355168,27.4700331850067,Asia,Bhutan,BT,,Bhutan - Kawang,2018-04-26,09:23
Xanthandrus spec.,Animalia,HOVER_FLIES_OR_FLOWER_FLIES_SYRPHIDAE,,,1,89.593,27.4798,Asia,Bhutan,BT,,Bhutan - Kawang,2018-04-25,12:50
Criorhina spec.,Animalia,HOVER_FLIES_OR_FLOWER_FLIES_SYRPHIDAE,,,1,89.5931,27.4797,Asia,Bhutan,BT,,Bhutan - Kawang,2018-04-25,12:46
Eristalis spec.,Animalia,HOVER_FLIES_OR_FLOWER_FLIES_SYRPHIDAE,,,1,89.5947,27.4787,Asia,Bhutan,BT,,Bhutan - Kawang,2018-04-25,11:43
Dasysyrphus spec.,Animalia,HOVER_FLIES_OR_FLOWER_FLIES_SYRPHIDAE,,,1,89.5948,27.4787,Asia,Bhutan,BT,,Bhutan - Kawang,2018-04-25,11:40
Bombus festivus,Animalia,Apidae,,,1,89.5947,27.4786,Asia,Bhutan,BT,,Bhutan - Kawang,2018-04-25,11:37
Apis cerana,Animalia,Apidae,Asiatic Honeybee,,1,89.6378,27.47,Asia,Bhutan,BT,,Bhutan - Kawang,2018-04-25,09:43
Apis laboriosa,Animalia,Apidae,Himalayan Honey Bee,,20,89.6379,27.47,Asia,Bhutan,BT,,Bhutan - Kawang,2018-04-25,09:33
Horornis brunnescens,Animalia,Cettidae,Hume's Bush Warbler,,1,89.615,27.4819,Asia,Bhutan,BT,,Bhutan - Kawang,2018-04-24,16:48
Eristalis tenax,Animalia,HOVER_FLIES_OR_FLOWER_FLIES_SYRPHIDAE,Drone Fly,,1,89.6509,27.4248,Asia,Bhutan,BT,,Bhutan - Chang,2018-04-24,14:07
Grus nigricollis,Animalia,CRANES_GRUIDAE,Black-necked Crane,,1,90.25108566,27.40645168,Asia,Bhutan,BT,,Bhutan - Phobji,2010-11-11,
Epiophlebia laidlawi,Animalia,Epiophlebiidae,,,1,89.36739083,27.42302278,Asia,Bhutan,BT,,Bhutan - Lamgong,2017-05-09,08:56
Buceros bicornis,Animalia,HORNBILLS_BUCEROTIDAE,Great Hornbill,,1,90.96417932,26.78745514,Asia,Bhutan,BT,,Bhutan - Taklai,2017-04-12,17:32
Phoenicurus frontalis,Animalia,OLD_WORLD_FLYCATCHERS_MUSCICAPIDAE,Blue-fronted Redstart,,1,89.75251649,27.50725879,Asia,Bhutan,BT,,Bhutan - Toepaisa,2017-04-05,16:00
Coccinella septempunctata,Animalia,LADYBIRDS_LADYBUGS_OR_LADY_BEETLES_COCCINELLIDAE,7-spot Ladybird,,1,89.62660484,27.47472951,Asia,Bhutan,BT,,Bhutan - Kawang,2017-04-04,07:17
Diplacodes trivialis,Animalia,SKIMMERS_LIBELLULIDAE,Chalky Percher,,20,89.88236162,27.59236166,Asia,Bhutan,BT,,Bhutan - Toewang,2016-08-11,10:46
Palpopleura sexmaculata,Animalia,SKIMMERS_LIBELLULIDAE,Asian Widow,,1,89.88233711,27.59238869,Asia,Bhutan,BT,,Bhutan - Toewang,2016-08-11,10:49
Diplacodes trivialis,Animalia,SKIMMERS_LIBELLULIDAE,Chalky Percher,,5,89.89565938,27.59432387,Asia,Bhutan,BT,,Bhutan - Toewang,2016-08-11,11:39
Palpopleura sexmaculata,Animalia,SKIMMERS_LIBELLULIDAE,Asian Widow,,1,89.8955005,27.59439889,Asia,Bhutan,BT,,Bhutan - Toewang,2016-08-11,11:45
Diplacodes trivialis,Animalia,SKIMMERS_LIBELLULIDAE,Chalky Percher,,1,89.89844761,27.59444619,Asia,Bhutan,BT,,Bhutan - Toewang,2016-08-11,12:44
Gomphidae spec.,Animalia,CLUBTAILS_GOMPHIDAE,,,2,89.64301311,27.51670561,Asia,Bhutan,BT,,Bhutan - Kawang,2016-08-10,10:16
Indolestes cyaneus,Animalia,SPREADWINGS_LESTIDAE,,,1,89.62504393,27.54193984,Asia,Bhutan,BT,,Bhutan - Kawang,2016-08-10,12:16
Gomphidae spec.,Animalia,CLUBTAILS_GOMPHIDAE,,,1,89.6250328,27.54193773,Asia,Bhutan,BT,,Bhutan - Kawang,2016-08-10,12:17
Apis laboriosa,Animalia,Apidae,Himalayan Honey Bee,,1,89.6354267,27.47852048,Asia,Bhutan,BT,,Bhutan - Kawang,2016-08-02,12:54
Dicrurus hottentottus,Animalia,DRONGOS_DICRURIDAE,Hair-crested Drongo,,1,90.68991922,27.14055209,Asia,Bhutan,BT,,Bhutan - Trong,2015-10-15,08:33
Aethopyga nipalensis koelzi,Animalia,SUNBIRDS_NECTARINIIDAE,Green-tailed Sunbird ssp koelzi,,1,90.1793150604,27.5299268267,Asia,Bhutan,BT,,Bhutan - Dangchhu,2015-05-04,10:50
Streptopelia orientalis,Animalia,PIGEONS_AND_DOVES_COLUMBIDAE,Oriental Turtle Dove,,1,89.4003,27.4289,Asia,Bhutan,BT,,Bhutan - Lamgong,2015-05-09,18:17
Dendrocitta formosae,Animalia,CROWS_AND_JAYS_CORVIDAE,Grey Treepie,,1,89.8691,27.6211,Asia,Bhutan,BT,,Bhutan - Chhubu,2015-05-08,12:18
Vanellus duvaucelii,Animalia,PLOVERS_CHARADRIIDAE,River Lapwing,,1,89.8726,27.575,Asia,Bhutan,BT,,Bhutan - Chhubu,2015-05-08,10:58
Vanellus duvaucelii,Animalia,PLOVERS_CHARADRIIDAE,River Lapwing,,2,89.8725,27.5998,Asia,Bhutan,BT,,Bhutan - Chhubu,2015-05-08,08:58
Vanellus duvaucelii,Animalia,PLOVERS_CHARADRIIDAE,River Lapwing,,2,89.8678,27.6268,Asia,Bhutan,BT,,Bhutan - Chhubu,2015-05-08,07:19
Ibidorhyncha struthersii,Animalia,IBISBILL_IBIDORHYNCHIDAE,Ibisbill,,1,89.8677,27.6266,Asia,Bhutan,BT,,Bhutan - Chhubu,2015-05-08,06:32
Acridotheres tristis,Animalia,STARLINGS_STURNIDAE,Common Myna,,10,89.8676,27.6267,Asia,Bhutan,BT,,Bhutan - Chhubu,2015-05-08,06:21
Ibidorhyncha struthersii,Animalia,IBISBILL_IBIDORHYNCHIDAE,Ibisbill,,2,89.8697,27.6183,Asia,Bhutan,BT,,Bhutan - Chhubu,2015-05-08,05:21
Pterorhinus albogularis,Animalia,Leiothrichidae,White-throated Laughingthrush,,3,91.0311,27.3468,Asia,Bhutan,BT,,Bhutan - Saleng,2015-05-06,17:04
Corvus macrorhynchos,Animalia,CROWS_AND_JAYS_CORVIDAE,Large-billed Crow,,3,91.0311,27.3468,Asia,Bhutan,BT,,Bhutan - Saleng,2015-05-06,17:04
Aethopyga gouldiae gouldiae,Animalia,SUNBIRDS_NECTARINIIDAE,Mrs. Gould's Sunbird ssp gouldiae,,2,91.0311,27.3468,Asia,Bhutan,BT,,Bhutan - Saleng,2015-05-06,17:04
Machlolophus spilonotus spilonotus,Animalia,TITS_PARIDAE,Yellow-cheeked Tit ssp spilonotus,,2,91.1289,27.3219,Asia,Bhutan,BT,,Bhutan - Saleng,2015-05-06,12:43
Actinodura cyanouroptera cyanouroptera,Animalia,Leiothrichidae,Blue-winged Minla ssp cyanouroptera,,6,91.1289,27.3219,Asia,Bhutan,BT,,Bhutan - Saleng,2015-05-06,12:43
Spelaeornis caudatus,Animalia,BABBLERS_TIMALIIDAE,Rufous-throated Wren-Babbler,,2,91.1255,27.3402,Asia,Bhutan,BT,,Bhutan - Saleng,2015-05-06,11:22
Apus leuconyx,Animalia,SWIFTS_APODIDAE,Blyth's Swift,,15,91.1255,27.3402,Asia,Bhutan,BT,,Bhutan - Saleng,2015-05-06,11:22
Lioparus chrysotis chrysotis,Animalia,OLD_WORLD_WARBLERS_SYLVIIDAE,Golden-breasted Fulvetta ssp chrysotis,,4,91.1039,27.3355,Asia,Bhutan,BT,,Bhutan - Saleng,2015-05-06,08:50
Yuhina flavicollis flavicollis,Animalia,WHITEEYES_ZOSTEROPIDAE,Whiskered Yuhina ssp flavicollis,,10,91.1039,27.3355,Asia,Bhutan,BT,,Bhutan - Saleng,2015-05-06,08:50
Columba hodgsonii,Animalia,PIGEONS_AND_DOVES_COLUMBIDAE,Speckled Wood Pigeon,,34,91.0639,27.3127,Asia,Bhutan,BT,,Bhutan - Saleng,2015-05-06,07:27
Corvus macrorhynchos,Animalia,CROWS_AND_JAYS_CORVIDAE,Large-billed Crow,,1,91.0639,27.3127,Asia,Bhutan,BT,,Bhutan - Saleng,2015-05-06,07:27
Loxia curvirostra himalayensis,Animalia,FINCHES_FRINGILLIDAE,Red Crossbill ssp himalayensis,,8,91.0391,27.3418,Asia,Bhutan,BT,,Bhutan - Saleng,2015-05-06,06:50
Apus leuconyx,Animalia,SWIFTS_APODIDAE,Blyth's Swift,,4,91.0391,27.3418,Asia,Bhutan,BT,,Bhutan - Saleng,2015-05-06,06:50
Columba hodgsonii,Animalia,PIGEONS_AND_DOVES_COLUMBIDAE,Speckled Wood Pigeon,,3,91.0391,27.3418,Asia,Bhutan,BT,,Bhutan - Saleng,2015-05-06,06:50
Pterorhinus albogularis,Animalia,Leiothrichidae,White-throated Laughingthrush,,10,91.0391,27.3418,Asia,Bhutan,BT,,Bhutan - Saleng,2015-05-06,06:50
Corvus macrorhynchos,Animalia,CROWS_AND_JAYS_CORVIDAE,Large-billed Crow,,15,91.0354,27.3484,Asia,Bhutan,BT,,Bhutan - Saleng,2015-05-06,05:20
Tragopan satyra,Animalia,FRANCOLINS_QUAILS_PARTRIDGES_AND_PHEASANTS_PHASIANIDAE,Satyr Tragopan,,2,91.0354,27.3484,Asia,Bhutan,BT,,Bhutan - Saleng,2015-05-05,17:09
Pterorhinus albogularis,Animalia,Leiothrichidae,White-throated Laughingthrush,,10,91.0354,27.3484,Asia,Bhutan,BT,,Bhutan - Saleng,2015-05-05,17:09
Corvus macrorhynchos,Animalia,CROWS_AND_JAYS_CORVIDAE,Large-billed Crow,,1,91.0354,27.3484,Asia,Bhutan,BT,,Bhutan - Saleng,2015-05-05,17:09
Ficedula strophiata,Animalia,OLD_WORLD_FLYCATCHERS_MUSCICAPIDAE,Rufous-gorgeted Flycatcher,,1,91.003,27.3864,Asia,Bhutan,BT,,Bhutan - Jare,2015-05-05,14:34
Periparus ater,Animalia,TITS_PARIDAE,Coal Tit,,2,91.0,27.3864,Asia,Bhutan,BT,,Bhutan - Aura,2015-05-05,14:13
Periparus ater,Animalia,TITS_PARIDAE,Coal Tit,,1,90.9853,27.3868,Asia,Bhutan,BT,,Bhutan - Aura,2015-05-05,13:43
Lophophanes dichrous,Animalia,TITS_PARIDAE,Grey Crested Tit,,2,90.9853,27.3868,Asia,Bhutan,BT,,Bhutan - Aura,2015-05-05,13:43
Phoenicurus leucocephalus,Animalia,OLD_WORLD_FLYCATCHERS_MUSCICAPIDAE,White-capped Redstart,,1,90.9853,27.3868,Asia,Bhutan,BT,,Bhutan - Aura,2015-05-05,13:43
Lophophanes dichrous,Animalia,TITS_PARIDAE,Grey Crested Tit,,1,90.9871,27.3921,Asia,Bhutan,BT,,Bhutan - Aura,2015-05-05,13:05
Periparus ater,Animalia,TITS_PARIDAE,Coal Tit,,1,90.986,27.4058,Asia,Bhutan,BT,,Bhutan - Jare,2015-05-05,11:45
Ficedula strophiata,Animalia,OLD_WORLD_FLYCATCHERS_MUSCICAPIDAE,Rufous-gorgeted Flycatcher,,1,90.986,27.4058,Asia,Bhutan,BT,,Bhutan - Jare,2015-05-05,11:45
Lophophanes dichrous,Animalia,TITS_PARIDAE,Grey Crested Tit,,1,90.986,27.4058,Asia,Bhutan,BT,,Bhutan - Jare,2015-05-05,11:45
Nucifraga caryocatactes,Animalia,CROWS_AND_JAYS_CORVIDAE,Spotted Nutcracker,,1,90.9074,27.4316,Asia,Bhutan,BT,,Bhutan - Aura,2015-05-05,10:16
Pica bottanensis,Animalia,CROWS_AND_JAYS_CORVIDAE,Black-rumped Magpie,,1,90.9111,27.4793,Asia,Bhutan,BT,,Bhutan - Aura,2015-05-05,08:57
Periparus rubidiventris,Animalia,TITS_PARIDAE,Rufous-vented Tit,,1,90.8698,27.4978,Asia,Bhutan,BT,,Bhutan - Aura,2015-05-05,08:23
Nucifraga caryocatactes,Animalia,CROWS_AND_JAYS_CORVIDAE,Spotted Nutcracker,,1,90.8662,27.5013,Asia,Bhutan,BT,,Bhutan - Aura,2015-05-05,07:51
Nucifraga caryocatactes,Animalia,CROWS_AND_JAYS_CORVIDAE,Spotted Nutcracker,,1,90.8683,27.5088,Asia,Bhutan,BT,,Bhutan - Aura,2015-05-05,07:40
Nucifraga caryocatactes,Animalia,CROWS_AND_JAYS_CORVIDAE,Spotted Nutcracker,,1,90.8558,27.5036,Asia,Bhutan,BT,,Bhutan - Tang,2015-05-05,07:04
Pica bottanensis,Animalia,CROWS_AND_JAYS_CORVIDAE,Black-rumped Magpie,,1,90.8385,27.498,Asia,Bhutan,BT,,Bhutan - Tang,2015-05-05,06:52
Nucifraga caryocatactes,Animalia,CROWS_AND_JAYS_CORVIDAE,Spotted Nutcracker,,1,90.8163,27.5028,Asia,Bhutan,BT,,Bhutan - Tang,2015-05-05,06:36
Pica bottanensis,Animalia,CROWS_AND_JAYS_CORVIDAE,Black-rumped Magpie,,1,90.7541,27.5043,Asia,Bhutan,BT,,Bhutan - Chhoekhor,2015-05-07,10:07
Pica bottanensis,Animalia,CROWS_AND_JAYS_CORVIDAE,Black-rumped Magpie,,3,90.8264,27.4721,Asia,Bhutan,BT,,Bhutan - Aura,2015-05-07,09:45
Motacilla alba alboides,Animalia,PIPITS_EN_WAGTAILS_MOTACILLIDAE,White Wagtail ssp alboides,,1,90.906,27.4676,Asia,Bhutan,BT,,Bhutan - Aura,2015-05-07,09:08
Ithaginis cruentus tibetanus,Animalia,FRANCOLINS_QUAILS_PARTRIDGES_AND_PHEASANTS_PHASIANIDAE,Blood Pheasant ssp tibetanus,,2,90.9247,27.4119,Asia,Bhutan,BT,,Bhutan - Aura,2015-05-07,08:27
Lophophanes dichrous,Animalia,TITS_PARIDAE,Grey Crested Tit,,3,90.965,27.4301,Asia,Bhutan,BT,,Bhutan - Aura,2015-05-07,07:56
Motacilla alba alboides,Animalia,PIPITS_EN_WAGTAILS_MOTACILLIDAE,White Wagtail ssp alboides,,1,90.9651,27.4289,Asia,Bhutan,BT,,Bhutan - Aura,2015-05-07,07:41
Ficedula strophiata,Animalia,OLD_WORLD_FLYCATCHERS_MUSCICAPIDAE,Rufous-gorgeted Flycatcher,,2,90.965,27.429,Asia,Bhutan,BT,,Bhutan - Aura,2015-05-07,07:40
Carpodacus thura thura,Animalia,FINCHES_FRINGILLIDAE,Himalayan White-browed Rosefinch ssp thura,,5,90.9652,27.4291,Asia,Bhutan,BT,,Bhutan - Aura,2015-05-07,07:39
Periparus ater,Animalia,TITS_PARIDAE,Coal Tit,,1,90.9836,27.3899,Asia,Bhutan,BT,,Bhutan - Aura,2015-05-07,07:05
Ithaginis cruentus tibetanus,Animalia,FRANCOLINS_QUAILS_PARTRIDGES_AND_PHEASANTS_PHASIANIDAE,Blood Pheasant ssp tibetanus,,2,90.9791,27.3906,Asia,Bhutan,BT,,Bhutan - Aura,2015-05-07,07:00
Phoenicurus leucocephalus,Animalia,OLD_WORLD_FLYCATCHERS_MUSCICAPIDAE,White-capped Redstart,,1,90.9937,27.3849,Asia,Bhutan,BT,,Bhutan - Aura,2015-05-07,06:44
Tragopan satyra,Animalia,FRANCOLINS_QUAILS_PARTRIDGES_AND_PHEASANTS_PHASIANIDAE,Satyr Tragopan,,2,90.9992,27.3867,Asia,Bhutan,BT,,Bhutan - Aura,2015-05-07,06:39
Pterorhinus albogularis,Animalia,Leiothrichidae,White-throated Laughingthrush,,3,91.0142,27.387,Asia,Bhutan,BT,,Bhutan - Jare,2015-05-07,06:20
Corvus macrorhynchos,Animalia,CROWS_AND_JAYS_CORVIDAE,Large-billed Crow,,26,91.0345,27.3507,Asia,Bhutan,BT,,Bhutan - Saleng,2015-05-07,05:51
Aceros nipalensis,Animalia,HORNBILLS_BUCEROTIDAE,Rufous-necked Hornbill,,2,91.1336,27.3133,Asia,Bhutan,BT,,Bhutan - Saleng,2015-05-06,14:18
Pomatorhinus ruficollis godwini,Animalia,BABBLERS_TIMALIIDAE,Streak-breasted Scimitar Babbler ssp godwini,,2,91.1039,27.3355,Asia,Bhutan,BT,,Bhutan - Saleng,2015-05-06,08:50
Apus leuconyx,Animalia,SWIFTS_APODIDAE,Blyth's Swift,,20,91.0923,27.337,Asia,Bhutan,BT,,Bhutan - Saleng,2015-05-06,08:12
Delichon nipalense nipalense,Animalia,SWALLOWS_HIRUNDINIDAE,Nepal House Martin ssp nipalense,,60,91.0923,27.337,Asia,Bhutan,BT,,Bhutan - Saleng,2015-05-06,08:11
Brachypteryx cruralis,Animalia,OLD_WORLD_FLYCATCHERS_MUSCICAPIDAE,Himalayan Shortwing,,2,91.0391,27.3418,Asia,Bhutan,BT,,Bhutan - Saleng,2015-05-06,06:50
Actinodura nipalensis,Animalia,Leiothrichidae,Hoary-throated Barwing,,2,91.0354,27.3484,Asia,Bhutan,BT,,Bhutan - Saleng,2015-05-05,17:09
Ficedula strophiata,Animalia,OLD_WORLD_FLYCATCHERS_MUSCICAPIDAE,Rufous-gorgeted Flycatcher,,1,91.0,27.3864,Asia,Bhutan,BT,,Bhutan - Aura,2015-05-05,14:13
Ithaginis cruentus tibetanus,Animalia,FRANCOLINS_QUAILS_PARTRIDGES_AND_PHEASANTS_PHASIANIDAE,Blood Pheasant ssp tibetanus,,4,90.9074,27.4316,Asia,Bhutan,BT,,Bhutan - Aura,2015-05-05,10:16
Mycerobas carnipes carnipes,Animalia,FINCHES_FRINGILLIDAE,White-winged Grosbeak ssp carnipes,,2,90.8984,27.4952,Asia,Bhutan,BT,,Bhutan - Aura,2015-05-05,08:46
Ianthocincla ocellata,Animalia,Leiothrichidae,Spotted Laughingthrush,,1,90.8698,27.4978,Asia,Bhutan,BT,,Bhutan - Aura,2015-05-05,08:23
Mycerobas carnipes carnipes,Animalia,FINCHES_FRINGILLIDAE,White-winged Grosbeak ssp carnipes,,1,90.8558,27.5036,Asia,Bhutan,BT,,Bhutan - Tang,2015-05-05,07:04
Nucifraga caryocatactes,Animalia,CROWS_AND_JAYS_CORVIDAE,Spotted Nutcracker,,1,90.8082,27.5123,Asia,Bhutan,BT,,Bhutan - Tang,2015-05-05,06:33
Pica bottanensis,Animalia,CROWS_AND_JAYS_CORVIDAE,Black-rumped Magpie,,2,90.8075,27.5311,Asia,Bhutan,BT,,Bhutan - Tang,2015-05-05,06:25
Pica bottanensis,Animalia,CROWS_AND_JAYS_CORVIDAE,Black-rumped Magpie,,1,90.7447,27.5549,Asia,Bhutan,BT,,Bhutan - Chhoekhor,2015-05-05,05:44
Tragopan satyra,Animalia,FRANCOLINS_QUAILS_PARTRIDGES_AND_PHEASANTS_PHASIANIDAE,Satyr Tragopan,,2,90.6662,27.5298,Asia,Bhutan,BT,,Bhutan - Chhume,2015-05-04,18:36
Lophophorus impejanus,Animalia,FRANCOLINS_QUAILS_PARTRIDGES_AND_PHEASANTS_PHASIANIDAE,Himalayan Monal,,10,90.6878,27.5326,Asia,Bhutan,BT,,Bhutan - Chhoekhor,2015-05-04,17:19
Pica bottanensis,Animalia,CROWS_AND_JAYS_CORVIDAE,Black-rumped Magpie,,1,90.6577,27.5083,Asia,Bhutan,BT,,Bhutan - Chhume,2015-05-04,16:30
Ficedula strophiata,Animalia,OLD_WORLD_FLYCATCHERS_MUSCICAPIDAE,Rufous-gorgeted Flycatcher,,1,90.1807,27.5295,Asia,Bhutan,BT,,Bhutan - Dangchhu,2015-05-04,11:08
Yuhina gularis,Animalia,WHITEEYES_ZOSTEROPIDAE,Stripe-throated Yuhina,,4,90.1804,27.5298,Asia,Bhutan,BT,,Bhutan - Dangchhu,2015-05-04,11:04
Actinodura nipalensis,Animalia,Leiothrichidae,Hoary-throated Barwing,,1,90.1805,27.5298,Asia,Bhutan,BT,,Bhutan - Dangchhu,2015-05-04,11:03
Sitta himalayensis,Animalia,NUTHATCHES_SITTIDAE,White-tailed Nuthatch,,2,90.1192,27.5461,Asia,Bhutan,BT,,Bhutan - Nyisho,2015-05-04,08:36
Monticola cinclorhyncha,Animalia,OLD_WORLD_FLYCATCHERS_MUSCICAPIDAE,Blue-capped Rock Thrush,,1,90.0941,27.5114,Asia,Bhutan,BT,,Bhutan - Nyisho,2015-05-04,08:02
Eumyias thalassinus,Animalia,OLD_WORLD_FLYCATCHERS_MUSCICAPIDAE,Verditer Flycatcher,,1,90.0941,27.5114,Asia,Bhutan,BT,,Bhutan - Nyisho,2015-05-04,08:02
Phoenicurus fuliginosus,Animalia,OLD_WORLD_FLYCATCHERS_MUSCICAPIDAE,Plumbeous Water Redstart,,1,90.0947,27.5115,Asia,Bhutan,BT,,Bhutan - Nyisho,2015-05-04,07:39
Heterophasia capistrata,Animalia,Leiothrichidae,Rufous Sibia,,3,90.0948,27.5116,Asia,Bhutan,BT,,Bhutan - Nyisho,2015-05-04,07:39
Indicator xanthonotus,Animalia,HONEYGUIDES_INDICATORIDAE,Yellow-rumped Honeyguide,,1,90.0948,27.5116,Asia,Bhutan,BT,,Bhutan - Nyisho,2015-05-04,07:39
Indicator xanthonotus,Animalia,HONEYGUIDES_INDICATORIDAE,Yellow-rumped Honeyguide,,1,90.0813,27.5025,Asia,Bhutan,BT,,Bhutan - Nyisho,2015-05-04,07:22
Dendrocitta formosae,Animalia,CROWS_AND_JAYS_CORVIDAE,Grey Treepie,,1,89.8695,27.6184,Asia,Bhutan,BT,,Bhutan - Chhubu,2015-05-03,17:44
Vanellus duvaucelii,Animalia,PLOVERS_CHARADRIIDAE,River Lapwing,,2,89.8702,27.6116,Asia,Bhutan,BT,,Bhutan - Chhubu,2015-05-03,16:44
Acridotheres tristis,Animalia,STARLINGS_STURNIDAE,Common Myna,,20,89.8662,27.6423,Asia,Bhutan,BT,,Bhutan - Chhubu,2015-05-03,14:57
Acridotheres tristis,Animalia,STARLINGS_STURNIDAE,Common Myna,,15,89.8689,27.6208,Asia,Bhutan,BT,,Bhutan - Chhubu,2015-05-03,14:03
Dendrocitta formosae,Animalia,CROWS_AND_JAYS_CORVIDAE,Grey Treepie,,1,89.869,27.6209,Asia,Bhutan,BT,,Bhutan - Chhubu,2015-05-03,14:03
Ibidorhyncha struthersii,Animalia,IBISBILL_IBIDORHYNCHIDAE,Ibisbill,,4,89.8696,27.6182,Asia,Bhutan,BT,,Bhutan - Chhubu,2015-05-03,13:48
Vanellus duvaucelii,Animalia,PLOVERS_CHARADRIIDAE,River Lapwing,,4,89.8696,27.6182,Asia,Bhutan,BT,,Bhutan - Chhubu,2015-05-03,13:48
Cinclus pallasii,Animalia,DIPPERS_CINCLIDAE,Brown Dipper,,1,89.7921,27.5083,Asia,Bhutan,BT,,Bhutan - Toepaisa,2015-05-03,11:07
Minla ignotincta,Animalia,Leiothrichidae,Red-tailed Minla,,4,89.7609,27.4924,Asia,Bhutan,BT,,Bhutan - Toepaisa,2015-05-03,09:11
Certhia discolor,Animalia,TREECREEPERS_CERTHIIDAE,Sikkim Treecreeper,,1,89.76,27.4914,Asia,Bhutan,BT,,Bhutan - Toepaisa,2015-05-03,08:52
Passer cinnamomeus,Animalia,OLD_WORLD_SPARROWS_PASSERIDAE,Russet Sparrow,,4,89.749,27.4907,Asia,Bhutan,BT,,Bhutan - Toepaisa,2015-05-03,07:15
Naemorhedus goral,Animalia,BOVIDS_BOVIDAE,Himalayan Goral,,1,89.4985164329,27.3298375213,Asia,Bhutan,BT,,Bhutan - Shapa,2015-05-03,05:10
Streptopelia orientalis,Animalia,PIGEONS_AND_DOVES_COLUMBIDAE,Oriental Turtle Dove,,3,89.4028,27.4354,Asia,Bhutan,BT,,Bhutan - Lamgong,2015-05-02,16:43
Porzana bicolor,Animalia,RAILS_RALLIDAE,Black-tailed Crake,,1,89.4028,27.4354,Asia,Bhutan,BT,,Bhutan - Lamgong,2015-05-02,16:43
Porzana bicolor,Animalia,RAILS_RALLIDAE,Black-tailed Crake,,1,89.3686,27.4483,Asia,Bhutan,BT,,Bhutan - Tsento,2015-05-02,16:15
Phylloscopus reguloides,Animalia,LEAF_WARBLERS_AND_ALLIES_PHYLLOSCOPIDAE,Blyth's Leaf Warbler,,1,89.3209,27.5034,Asia,Bhutan,BT,,Bhutan - Tsento,2015-05-02,15:10
Saxicola ferreus,Animalia,OLD_WORLD_FLYCATCHERS_MUSCICAPIDAE,Grey Bush Chat,,1,89.3614,27.4824,Asia,Bhutan,BT,,Bhutan - Tsento,2015-05-02,13:24
Phylloscopus reguloides,Animalia,LEAF_WARBLERS_AND_ALLIES_PHYLLOSCOPIDAE,Blyth's Leaf Warbler,,1,89.3614,27.4824,Asia,Bhutan,BT,,Bhutan - Tsento,2015-05-02,13:24
Ficedula superciliaris aestigma,Animalia,OLD_WORLD_FLYCATCHERS_MUSCICAPIDAE,Ultramarine Flycatcher ssp aestigma,,2,89.3614,27.4824,Asia,Bhutan,BT,,Bhutan - Tsento,2015-05-02,13:24
Streptopelia orientalis,Animalia,PIGEONS_AND_DOVES_COLUMBIDAE,Oriental Turtle Dove,,18,89.3614,27.4824,Asia,Bhutan,BT,,Bhutan - Tsento,2015-05-02,13:24
Streptopelia orientalis,Animalia,PIGEONS_AND_DOVES_COLUMBIDAE,Oriental Turtle Dove,,2,89.3492,27.4775,Asia,Bhutan,BT,,Bhutan - Tsento,2015-05-02,13:08
