scientificName,kingdom,family,vernacularName,previousIdentifications,individualCount,longitudeDecimal,latitudeDecimal,continent,country,countryCode,stateProvince,locality,eventDate,eventTime
Passer griseus,Animalia,OLD_WORLD_SPARROWS_PASSERIDAE,Northern Grey-headed Sparrow,,2,29.3932771683,-3.37169187792,Africa,Burundi,BI,,Burundi - Bujumbura Rural,2014-07-29,09:30
Spilopelia senegalensis,Animalia,PIGEONS_AND_DOVES_COLUMBIDAE,Laughing Dove,,2,29.3932825327,-3.37168116765,Africa,Burundi,BI,,Burundi - Bujumbura Rural,2014-07-29,09:30
Colius striatus,Animalia,MOUSEBIRDS_COLIIDAE,Speckled Mousebird,,6,29.3932825327,-3.37168116765,Africa,Burundi,BI,,Burundi - Bujumbura Rural,2014-07-29,09:30
Python natalensis,Animalia,PYTHONIDAE,Southern African Python,,1,29.2721119802,-3.34233460104,Africa,Burundi,BI,,Burundi - Bujumbura Rural,2014-06-08,
Python natalensis,Animalia,PYTHONIDAE,Southern African Python,,1,29.272622522,-3.34259701037,Africa,Burundi,BI,,Burundi - Bujumbura Rural,2014-05-24,
Pelecanus rufescens,Animalia,PELICANS_PELECANIDAE,Pink-backed Pelican,,1,29.2677792907,-3.35603334532,Africa,Burundi,BI,,Burundi - Rusizi NP,2014-04-12,
Porphyrio madagascariensis,Animalia,RAILS_RALLIDAE,African Swamphen,,15,29.2571319267,-3.34234531163,Africa,Burundi,BI,,Burundi - Bujumbura Rural,2014-02-22,
Cercopithecus mitis doggetti,Animalia,OLD_WORLD_MONKEYS_CERCOPITHECIDAE,Doggett's Blue Monkey,,5,30.1259782165,-3.90415984193,Africa,Burundi,BI,,Burundi - Rutana,2014-02-09,
Phoenicopterus roseus,Animalia,FLAMINGOS_PHOENICOPTERIDAE,Greater Flamingo,,2,29.2677792907,-3.35603334532,Africa,Burundi,BI,,Burundi - Rusizi NP,2014-02-02,
Passer domesticus,Animalia,OLD_WORLD_SPARROWS_PASSERIDAE,House Sparrow,,10,29.0432820003,-2.73240290893,Africa,Burundi,BI,,Burundi - Cibitoke,2013-12-08,
Corythornis cristatus,Animalia,KINGFISHERS_ALCEDINIDAE,Malachite Kingfisher,,1,29.3496788666,-3.38803560403,Africa,Burundi,BI,,Burundi - Bujumbura Rural,2013-12-01,
Halcyon senegalensis,Animalia,KINGFISHERS_ALCEDINIDAE,Woodland Kingfisher,,5,29.2683365196,-3.35327004878,Africa,Burundi,BI,,Burundi - Rusizi NP,2013-12-01,
Dendrocygna bicolor,Animalia,DUCKS_GEESE_AND_SWANS_ANATIDAE,Fulvous Whistling Duck,,350,29.2715551704,-3.35348425809,Africa,Burundi,BI,,Burundi - Rusizi NP,2013-12-01,
Dendrocygna viduata,Animalia,DUCKS_GEESE_AND_SWANS_ANATIDAE,White-faced Whistling Duck,,100,29.2715551704,-3.35348425809,Africa,Burundi,BI,,Burundi - Rusizi NP,2013-12-01,
Platalea alba,Animalia,IBISSES_AND_SPOONBILLS_THRESKIORNITHIDAE,African Spoonbill,,1,29.2677571625,-3.35588339919,Africa,Burundi,BI,,Burundi - Rusizi NP,2013-12-01,
Platalea alba,Animalia,IBISSES_AND_SPOONBILLS_THRESKIORNITHIDAE,African Spoonbill,,9,29.2715551704,-3.35359136273,Africa,Burundi,BI,,Burundi - Rusizi NP,2013-12-01,
Phalacrocorax lucidus,Animalia,CORMORANTS_PHALACROCORACIDAE,White-breasted Cormorant,,1,29.2715840042,-3.35359136273,Africa,Burundi,BI,,Burundi - Rusizi NP,2013-12-01,
Vanellus spinosus,Animalia,PLOVERS_CHARADRIIDAE,Spur-winged Lapwing,,2,29.2715840042,-3.35359136273,Africa,Burundi,BI,,Burundi - Rusizi NP,2013-12-01,
Actitis hypoleucos,Animalia,SANDPIPERS_AND_ALLIES_SCOLOPACIDAE,Common Sandpiper,,20,29.2715840042,-3.35359136273,Africa,Burundi,BI,,Burundi - Rusizi NP,2013-12-01,
Rynchops flavirostris,Animalia,GULLS_TERNS_AND_SKIMMERS_LARIDAE,African Skimmer,,8,29.2715840042,-3.35359136273,Africa,Burundi,BI,,Burundi - Rusizi NP,2013-12-01,
Hirundo smithii,Animalia,SWALLOWS_HIRUNDINIDAE,Wire-tailed Swallow,,5,29.3498218618,-3.38782140232,Africa,Burundi,BI,,Burundi - Bujumbura Rural,2013-12-01,
Phalacrocorax lucidus,Animalia,CORMORANTS_PHALACROCORACIDAE,White-breasted Cormorant,,2,29.3253279291,-3.35757564697,Africa,Burundi,BI,,Burundi - Bujumbura Rural,2013-11-17,
Motacilla aguimp,Animalia,PIPITS_EN_WAGTAILS_MOTACILLIDAE,African Pied Wagtail,,2,29.3253279291,-3.35757564697,Africa,Burundi,BI,,Burundi - Bujumbura Rural,2013-11-17,
Egretta garzetta,Animalia,HERONS_ARDEIDAE,Little Egret,,1,29.3253279291,-3.35757564697,Africa,Burundi,BI,,Burundi - Bujumbura Rural,2013-11-17,
Actitis hypoleucos,Animalia,SANDPIPERS_AND_ALLIES_SCOLOPACIDAE,Common Sandpiper,,5,29.3253279291,-3.35757564697,Africa,Burundi,BI,,Burundi - Bujumbura Rural,2013-11-17,
Halcyon senegalensis,Animalia,KINGFISHERS_ALCEDINIDAE,Woodland Kingfisher,,2,29.2715766281,-3.35350567902,Africa,Burundi,BI,,Burundi - Rusizi NP,2013-11-10,
Actitis hypoleucos,Animalia,SANDPIPERS_AND_ALLIES_SCOLOPACIDAE,Common Sandpiper,,10,29.2727782577,-3.35164205646,Africa,Burundi,BI,,Burundi - Rusizi NP,2013-11-10,
Vanellus spinosus,Animalia,PLOVERS_CHARADRIIDAE,Spur-winged Lapwing,,6,29.2727782577,-3.35164205646,Africa,Burundi,BI,,Burundi - Rusizi NP,2013-11-10,
Dendrocygna bicolor,Animalia,DUCKS_GEESE_AND_SWANS_ANATIDAE,Fulvous Whistling Duck,,40,29.2716195434,-3.35365562551,Africa,Burundi,BI,,Burundi - Rusizi NP,2013-11-10,
Dendrocygna viduata,Animalia,DUCKS_GEESE_AND_SWANS_ANATIDAE,White-faced Whistling Duck,,100,29.2716195434,-3.35365562551,Africa,Burundi,BI,,Burundi - Rusizi NP,2013-11-10,
Sarkidiornis melanotos,Animalia,DUCKS_GEESE_AND_SWANS_ANATIDAE,Knob-billed Duck,,1,29.2716195434,-3.35365562551,Africa,Burundi,BI,,Burundi - Rusizi NP,2013-11-10,
Platalea alba,Animalia,IBISSES_AND_SPOONBILLS_THRESKIORNITHIDAE,African Spoonbill,,12,29.2716195434,-3.35365562551,Africa,Burundi,BI,,Burundi - Rusizi NP,2013-11-10,
Phalacrocorax lucidus,Animalia,CORMORANTS_PHALACROCORACIDAE,White-breasted Cormorant,,20,29.2719806358,-3.35320578597,Africa,Burundi,BI,,Burundi - Rusizi NP,2013-11-10,
Colius striatus,Animalia,MOUSEBIRDS_COLIIDAE,Speckled Mousebird,,2,29.3480372429,-3.40886256603,Africa,Burundi,BI,,Burundi - Bujumbura Rural,2013-09-21,14:54
Ploceus baglafecht,Animalia,WEAVERS_PLOCEIDAE,Baglafecht Weaver,,1,29.3480372429,-3.40886256603,Africa,Burundi,BI,,Burundi - Bujumbura Rural,2013-09-21,14:53
Lamprotornis purpuroptera,Animalia,STARLINGS_STURNIDAE,Rüppell's Starling,,1,29.2726403474,-3.34476786476,Africa,Burundi,BI,,Burundi - Rusizi NP,2013-09-21,10:18
Macronyx croceus,Animalia,PIPITS_EN_WAGTAILS_MOTACILLIDAE,Yellow-throated Longclaw,,1,29.2671239375,-3.35551487088,Africa,Burundi,BI,,Burundi - Rusizi NP,2013-09-21,09:34
Phalacrocorax lucidus,Animalia,CORMORANTS_PHALACROCORACIDAE,White-breasted Cormorant,,50,29.2680358882,-3.35690160448,Africa,Burundi,BI,,Burundi - Rusizi NP,2013-09-21,09:22
Vanellus spinosus,Animalia,PLOVERS_CHARADRIIDAE,Spur-winged Lapwing,,1,29.2680358882,-3.35690160448,Africa,Burundi,BI,,Burundi - Rusizi NP,2013-09-21,09:22
Colius striatus,Animalia,MOUSEBIRDS_COLIIDAE,Speckled Mousebird,,1,29.2666536569,-3.35550009933,Africa,Burundi,BI,,Burundi - Rusizi NP,2013-09-21,09:08
Anastomus lamelligerus,Animalia,STORKS_CICONIIDAE,African Openbill,,2,29.3503734469,-3.40411447492,Africa,Burundi,BI,,Burundi - Bujumbura Rural,2013-09-20,17:47
Lanius humeralis,Animalia,SHRIKES_LANIIDAE,Northern Fiscal,,1,29.3503734469,-3.40411447492,Africa,Burundi,BI,,Burundi - Bujumbura Rural,2013-09-20,11:08
Hirundo smithii,Animalia,SWALLOWS_HIRUNDINIDAE,Wire-tailed Swallow,,2,29.3478280297,-3.4094259048,Africa,Burundi,BI,,Burundi - Bujumbura Rural,2013-09-20,07:47
Spilopelia senegalensis,Animalia,PIGEONS_AND_DOVES_COLUMBIDAE,Laughing Dove,,1,29.3478280297,-3.4094259048,Africa,Burundi,BI,,Burundi - Bujumbura Rural,2013-09-20,07:46
Motacilla aguimp,Animalia,PIPITS_EN_WAGTAILS_MOTACILLIDAE,African Pied Wagtail,,1,29.3478280297,-3.4094259048,Africa,Burundi,BI,,Burundi - Bujumbura Rural,2013-09-20,07:46
Ptyonoprogne fuligula,Animalia,SWALLOWS_HIRUNDINIDAE,Rock Martin,,1,29.3478280297,-3.4094259048,Africa,Burundi,BI,,Burundi - Bujumbura Rural,2013-09-20,07:45
Dendrocygna viduata,Animalia,DUCKS_GEESE_AND_SWANS_ANATIDAE,White-faced Whistling Duck,,137,29.271401,-3.353155,Africa,Burundi,BI,,Burundi - Rusizi NP,2013-10-30,09:21
Dendrocygna bicolor,Animalia,DUCKS_GEESE_AND_SWANS_ANATIDAE,Fulvous Whistling Duck,,20,29.271401,-3.353155,Africa,Burundi,BI,,Burundi - Rusizi NP,2013-10-30,09:22
Vanellus spinosus,Animalia,PLOVERS_CHARADRIIDAE,Spur-winged Lapwing,,1,29.271362,-3.353111,Africa,Burundi,BI,,Burundi - Rusizi NP,2013-10-30,09:22
Phalacrocorax lucidus,Animalia,CORMORANTS_PHALACROCORACIDAE,White-breasted Cormorant,,18,29.271362,-3.353111,Africa,Burundi,BI,,Burundi - Rusizi NP,2013-10-30,09:23
Actitis hypoleucos,Animalia,SANDPIPERS_AND_ALLIES_SCOLOPACIDAE,Common Sandpiper,,3,29.271356,-3.353126,Africa,Burundi,BI,,Burundi - Rusizi NP,2013-10-30,09:23
Platalea alba,Animalia,IBISSES_AND_SPOONBILLS_THRESKIORNITHIDAE,African Spoonbill,,5,29.271541,-3.353125,Africa,Burundi,BI,,Burundi - Rusizi NP,2013-10-30,09:26
Sarkidiornis melanotos,Animalia,DUCKS_GEESE_AND_SWANS_ANATIDAE,Knob-billed Duck,,2,29.271282,-3.35313,Africa,Burundi,BI,,Burundi - Rusizi NP,2013-10-30,09:57
Sarkidiornis melanotos,Animalia,DUCKS_GEESE_AND_SWANS_ANATIDAE,Knob-billed Duck,,1,29.266953,-3.355983,Africa,Burundi,BI,,Burundi - Rusizi NP,2013-10-30,11:34
Dendrocygna viduata,Animalia,DUCKS_GEESE_AND_SWANS_ANATIDAE,White-faced Whistling Duck,,63,29.266988,-3.355991,Africa,Burundi,BI,,Burundi - Rusizi NP,2013-10-30,11:35
Platalea alba,Animalia,IBISSES_AND_SPOONBILLS_THRESKIORNITHIDAE,African Spoonbill,,53,29.266983,-3.355983,Africa,Burundi,BI,,Burundi - Rusizi NP,2013-10-30,11:36
Dendrocygna bicolor,Animalia,DUCKS_GEESE_AND_SWANS_ANATIDAE,Fulvous Whistling Duck,,48,29.266969,-3.355976,Africa,Burundi,BI,,Burundi - Rusizi NP,2013-10-30,11:37
Vanellus spinosus,Animalia,PLOVERS_CHARADRIIDAE,Spur-winged Lapwing,,5,29.266944,-3.355974,Africa,Burundi,BI,,Burundi - Rusizi NP,2013-10-30,11:38
Actitis hypoleucos,Animalia,SANDPIPERS_AND_ALLIES_SCOLOPACIDAE,Common Sandpiper,,1,29.266937,-3.355944,Africa,Burundi,BI,,Burundi - Rusizi NP,2013-10-30,11:43
Phoenicopterus roseus,Animalia,FLAMINGOS_PHOENICOPTERIDAE,Greater Flamingo,,8,29.266953,-3.35596,Africa,Burundi,BI,,Burundi - Rusizi NP,2013-10-30,11:46
Ploceus cucullatus,Animalia,WEAVERS_PLOCEIDAE,Village Weaver,,20,29.272946,-3.343938,Africa,Burundi,BI,,Burundi - Bujumbura Rural,2013-10-26,08:02
Pycnonotus tricolor,Animalia,BULBULS_PYCNONOTIDAE,Dark-capped Bulbul,,1,29.272643,-3.344874,Africa,Burundi,BI,,Burundi - Rusizi NP,2013-10-26,08:09
Actitis hypoleucos,Animalia,SANDPIPERS_AND_ALLIES_SCOLOPACIDAE,Common Sandpiper,,1,29.272418,-3.345541,Africa,Burundi,BI,,Burundi - Rusizi NP,2013-10-26,08:10
Lanius humeralis,Animalia,SHRIKES_LANIIDAE,Northern Fiscal,,1,29.27233,-3.346871,Africa,Burundi,BI,,Burundi - Rusizi NP,2013-10-26,08:17
Colius striatus,Animalia,MOUSEBIRDS_COLIIDAE,Speckled Mousebird,,1,29.272919,-3.347519,Africa,Burundi,BI,,Burundi - Rusizi NP,2013-10-26,08:19
Colius striatus,Animalia,MOUSEBIRDS_COLIIDAE,Speckled Mousebird,,1,29.272796,-3.348661,Africa,Burundi,BI,,Burundi - Rusizi NP,2013-10-26,08:25
Dendrocygna viduata,Animalia,DUCKS_GEESE_AND_SWANS_ANATIDAE,White-faced Whistling Duck,,151,29.271578,-3.352658,Africa,Burundi,BI,,Burundi - Rusizi NP,2013-10-26,08:43
Dendrocygna bicolor,Animalia,DUCKS_GEESE_AND_SWANS_ANATIDAE,Fulvous Whistling Duck,,2,29.271373,-3.353175,Africa,Burundi,BI,,Burundi - Rusizi NP,2013-10-26,08:51
Phalacrocorax lucidus,Animalia,CORMORANTS_PHALACROCORACIDAE,White-breasted Cormorant,,3,29.271222,-3.353122,Africa,Burundi,BI,,Burundi - Rusizi NP,2013-10-26,09:05
Platalea alba,Animalia,IBISSES_AND_SPOONBILLS_THRESKIORNITHIDAE,African Spoonbill,,30,29.266882,-3.355862,Africa,Burundi,BI,,Burundi - Rusizi NP,2013-10-26,09:33
Dendrocygna viduata,Animalia,DUCKS_GEESE_AND_SWANS_ANATIDAE,White-faced Whistling Duck,,152,29.266931,-3.355908,Africa,Burundi,BI,,Burundi - Rusizi NP,2013-10-26,09:39
Dendrocygna bicolor,Animalia,DUCKS_GEESE_AND_SWANS_ANATIDAE,Fulvous Whistling Duck,,43,29.266912,-3.355929,Africa,Burundi,BI,,Burundi - Rusizi NP,2013-10-26,09:40
Corythornis cristatus,Animalia,KINGFISHERS_ALCEDINIDAE,Malachite Kingfisher,,1,29.361668,-3.384217,Africa,Burundi,BI,,Burundi - Bujumbura Rural,2013-10-26,09:44
Ploceus cucullatus,Animalia,WEAVERS_PLOCEIDAE,Village Weaver,,20,29.266896,-3.355935,Africa,Burundi,BI,,Burundi - Rusizi NP,2013-10-26,09:45
Pycnonotus tricolor,Animalia,BULBULS_PYCNONOTIDAE,Dark-capped Bulbul,,2,29.266391,-3.356011,Africa,Burundi,BI,,Burundi - Rusizi NP,2013-10-26,09:52
Halcyon senegalensis,Animalia,KINGFISHERS_ALCEDINIDAE,Woodland Kingfisher,,1,29.266948,-3.35562,Africa,Burundi,BI,,Burundi - Rusizi NP,2013-10-26,10:00
Pelecanus rufescens,Animalia,PELICANS_PELECANIDAE,Pink-backed Pelican,,1,29.2680358882,-3.35690160448,Africa,Burundi,BI,,Burundi - Rusizi NP,2013-09-21,09:22
Dendrocygna bicolor,Animalia,DUCKS_GEESE_AND_SWANS_ANATIDAE,Fulvous Whistling Duck,,10,29.2680358882,-3.35690160448,Africa,Burundi,BI,,Burundi - Rusizi NP,2013-09-21,09:29
Ploceus cucullatus,Animalia,WEAVERS_PLOCEIDAE,Village Weaver,,2,29.2726403474,-3.34476786476,Africa,Burundi,BI,,Burundi - Rusizi NP,2013-09-21,10:10
Platalea alba,Animalia,IBISSES_AND_SPOONBILLS_THRESKIORNITHIDAE,African Spoonbill,,10,29.2680358882,-3.35690160448,Africa,Burundi,BI,,Burundi - Rusizi NP,2013-09-21,09:22
Rynchops flavirostris,Animalia,GULLS_TERNS_AND_SKIMMERS_LARIDAE,African Skimmer,,10,29.2680358882,-3.35690160448,Africa,Burundi,BI,,Burundi - Rusizi NP,2013-09-21,09:23
Actitis hypoleucos,Animalia,SANDPIPERS_AND_ALLIES_SCOLOPACIDAE,Common Sandpiper,,1,29.2714852097,-3.35306753177,Africa,Burundi,BI,,Burundi - Rusizi NP,2013-09-21,08:00
Mycteria ibis,Animalia,STORKS_CICONIIDAE,Yellow-billed Stork,,1,29.2680215833,-3.35340000208,Africa,Burundi,BI,,Burundi - Rusizi NP,2013-09-21,09:03
Corvus albus,Animalia,CROWS_AND_JAYS_CORVIDAE,Pied Crow,,1,29.2713242772,-3.35293900613,Africa,Burundi,BI,,Burundi - Rusizi NP,2013-09-21,08:09
Eurystomus glaucurus,Animalia,ROLLERS_CORACIIDAE,Broad-billed Roller,,1,29.2710292342,-3.35305146606,Africa,Burundi,BI,,Burundi - Rusizi NP,2013-09-21,08:40
Sarkidiornis melanotos,Animalia,DUCKS_GEESE_AND_SWANS_ANATIDAE,Knob-billed Duck,,10,29.2715495807,-3.35341963968,Africa,Burundi,BI,,Burundi - Rusizi NP,2013-09-21,07:41
Egretta garzetta,Animalia,HERONS_ARDEIDAE,Little Egret,,3,29.2715495807,-3.35341963968,Africa,Burundi,BI,,Burundi - Rusizi NP,2013-09-21,07:41
Dendrocygna viduata,Animalia,DUCKS_GEESE_AND_SWANS_ANATIDAE,White-faced Whistling Duck,,20,29.2715495807,-3.35341963968,Africa,Burundi,BI,,Burundi - Rusizi NP,2013-09-21,07:41
Passer griseus,Animalia,OLD_WORLD_SPARROWS_PASSERIDAE,Northern Grey-headed Sparrow,,1,29.3477475634,-3.40944196957,Africa,Burundi,BI,,Burundi - Bujumbura Rural,2013-09-22,08:53
Milvus aegyptius,Animalia,HAWKS_AND_EAGLES_ACCIPITRIDAE,Yellow-billed Kite,,1,29.6319579799,-3.13210587099,Africa,Burundi,BI,,Burundi - Muramvya,2013-09-17,
Cephonodes hylas,Animalia,Sphingidae,,,1,29.931915665123324,-3.3786113262199997,Africa,Burundi,BI,,Burundi,2013-09-17,
Motacilla aguimp,Animalia,PIPITS_EN_WAGTAILS_MOTACILLIDAE,African Pied Wagtail,,1,29.412082322901824,-3.4960537662502773,Africa,Burundi,BI,,Burundi - Bujumbura Rural,2013-09-17,
Zizeeria knysna,Animalia,GOSSAMERWINGED_BUTTERFLIES_LYCAENIDAE,African Grass Blue,,1,29.3541097632,-3.38741584661,Africa,Burundi,BI,,Burundi - Bujumbura Rural,2013-09-17,
Rynchops flavirostris,Animalia,GULLS_TERNS_AND_SKIMMERS_LARIDAE,African Skimmer,,14,29.2676284164,-3.35650966186,Africa,Burundi,BI,,Burundi - Rusizi NP,2013-09-15,
Corvus albus,Animalia,CROWS_AND_JAYS_CORVIDAE,Pied Crow,,5,29.2690519975,-3.3530921363,Africa,Burundi,BI,,Burundi - Rusizi NP,2013-09-15,
Pycnonotus tricolor,Animalia,BULBULS_PYCNONOTIDAE,Dark-capped Bulbul,,15,29.2690519975,-3.3530921363,Africa,Burundi,BI,,Burundi - Rusizi NP,2013-09-15,
Macronyx croceus,Animalia,PIPITS_EN_WAGTAILS_MOTACILLIDAE,Yellow-throated Longclaw,,2,29.2690519975,-3.3530921363,Africa,Burundi,BI,,Burundi - Rusizi NP,2013-09-15,
Halcyon senegalensis,Animalia,KINGFISHERS_ALCEDINIDAE,Woodland Kingfisher,,1,29.2667774843,-3.35457255939,Africa,Burundi,BI,,Burundi - Rusizi NP,2013-09-15,
Colius striatus,Animalia,MOUSEBIRDS_COLIIDAE,Speckled Mousebird,,50,29.2672924684,-3.35534371167,Africa,Burundi,BI,,Burundi - Rusizi NP,2013-09-15,
Actitis hypoleucos,Animalia,SANDPIPERS_AND_ALLIES_SCOLOPACIDAE,Common Sandpiper,,15,29.2725281404,-3.35386328974,Africa,Burundi,BI,,Burundi - Rusizi NP,2013-09-15,
Vanellus spinosus,Animalia,PLOVERS_CHARADRIIDAE,Spur-winged Lapwing,,2,29.2713265108,-3.3535443554,Africa,Burundi,BI,,Burundi - Rusizi NP,2013-09-15,
Vanellus spinosus,Animalia,PLOVERS_CHARADRIIDAE,Spur-winged Lapwing,,3,29.2673353838,-3.35525802812,Africa,Burundi,BI,,Burundi - Rusizi NP,2013-09-15,
Dendrocygna bicolor,Animalia,DUCKS_GEESE_AND_SWANS_ANATIDAE,Fulvous Whistling Duck,,50,29.2715840029,-3.35358719726,Africa,Burundi,BI,,Burundi - Rusizi NP,2013-09-15,
Dendrocygna bicolor,Animalia,DUCKS_GEESE_AND_SWANS_ANATIDAE,Fulvous Whistling Duck,,100,29.2677216219,-3.35602441952,Africa,Burundi,BI,,Burundi - Rusizi NP,2013-09-15,
Dendrocygna viduata,Animalia,DUCKS_GEESE_AND_SWANS_ANATIDAE,White-faced Whistling Duck,,400,29.2677216219,-3.35602441952,Africa,Burundi,BI,,Burundi - Rusizi NP,2013-09-15,
Dendrocygna viduata,Animalia,DUCKS_GEESE_AND_SWANS_ANATIDAE,White-faced Whistling Duck,,500,29.2715840029,-3.35358243691,Africa,Burundi,BI,,Burundi - Rusizi NP,2013-09-15,
Sarkidiornis melanotos,Animalia,DUCKS_GEESE_AND_SWANS_ANATIDAE,Knob-billed Duck,,30,29.2718844103,-3.35208297088,Africa,Burundi,BI,,Burundi - Rusizi NP,2013-09-15,
Sarkidiornis melanotos,Animalia,DUCKS_GEESE_AND_SWANS_ANATIDAE,Knob-billed Duck,,40,29.2677645372,-3.35593873602,Africa,Burundi,BI,,Burundi - Rusizi NP,2013-09-15,
Platalea alba,Animalia,IBISSES_AND_SPOONBILLS_THRESKIORNITHIDAE,African Spoonbill,,15,29.2677645372,-3.35593873602,Africa,Burundi,BI,,Burundi - Rusizi NP,2013-09-15,
Platalea alba,Animalia,IBISSES_AND_SPOONBILLS_THRESKIORNITHIDAE,African Spoonbill,,20,29.2719273269,-3.35360147831,Africa,Burundi,BI,,Burundi - Rusizi NP,2013-09-15,
Phoenicopterus roseus,Animalia,FLAMINGOS_PHOENICOPTERIDAE,Greater Flamingo,,30,29.2720131563,-3.35341106817,Africa,Burundi,BI,,Burundi - Rusizi NP,2013-09-15,
Phoenicopterus roseus,Animalia,FLAMINGOS_PHOENICOPTERIDAE,Greater Flamingo,,5,29.2680220293,-3.35636715212,Africa,Burundi,BI,,Burundi - Rusizi NP,2013-09-15,
Phalacrocorax lucidus,Animalia,CORMORANTS_PHALACROCORACIDAE,White-breasted Cormorant,,100,29.2680220293,-3.35636715212,Africa,Burundi,BI,,Burundi - Rusizi NP,2013-09-15,
Pelecanus rufescens,Animalia,PELICANS_PELECANIDAE,Pink-backed Pelican,,4,29.2680220293,-3.3535824356,Africa,Burundi,BI,,Burundi - Rusizi NP,2013-09-15,
Eurystomus glaucurus,Animalia,ROLLERS_CORACIIDAE,Broad-billed Roller,,1,29.2693450302,-3.35265389864,Africa,Burundi,BI,,Burundi - Rusizi NP,2013-09-15,
Upupa africana,Animalia,HOOPOES_UPUPIDAE,African Hoopoe,,1,29.3583423172,-3.40288833125,Africa,Burundi,BI,,Burundi - Bujumbura Rural,2013-08-31,
Pelecanus rufescens,Animalia,PELICANS_PELECANIDAE,Pink-backed Pelican,,5,29.2726998031,-3.34780352732,Africa,Burundi,BI,,Burundi - Rusizi NP,2013-09-02,
Platalea alba,Animalia,IBISSES_AND_SPOONBILLS_THRESKIORNITHIDAE,African Spoonbill,,10,29.2721419036,-3.35367287835,Africa,Burundi,BI,,Burundi - Rusizi NP,2013-08-16,
Phoenicopterus roseus,Animalia,FLAMINGOS_PHOENICOPTERIDAE,Greater Flamingo,,15,29.2668351531,-3.36716379974,Africa,Burundi,BI,,Burundi - Bujumbura Rural,2013-08-16,
Pelecanus rufescens,Animalia,PELICANS_PELECANIDAE,Pink-backed Pelican,,4,29.2675070412,-3.35615294475,Africa,Burundi,BI,,Burundi - Rusizi NP,2013-08-24,
Halcyon senegalensis,Animalia,KINGFISHERS_ALCEDINIDAE,Woodland Kingfisher,,2,29.27158534003,-3.3517991418123,Africa,Burundi,BI,,Burundi - Rusizi NP,2013-05-31,
Glaucidium perlatum,Animalia,OWLS_STRIGIDAE,Pearl-spotted Owlet,,1,29.272485225083,-3.3450283098307,Africa,Burundi,BI,,Burundi - Rusizi NP,2013-05-31,
Vanellus spinosus,Animalia,PLOVERS_CHARADRIIDAE,Spur-winged Lapwing,,2,29.26760762668,-3.3554157090755,Africa,Burundi,BI,,Burundi - Rusizi NP,2013-05-31,
Dendrocygna viduata,Animalia,DUCKS_GEESE_AND_SWANS_ANATIDAE,White-faced Whistling Duck,,200,29.26760762668,-3.3554157090755,Africa,Burundi,BI,,Burundi - Rusizi NP,2013-05-31,
Sarkidiornis melanotos,Animalia,DUCKS_GEESE_AND_SWANS_ANATIDAE,Knob-billed Duck,,30,29.26760762668,-3.3554157090755,Africa,Burundi,BI,,Burundi - Rusizi NP,2013-05-31,
Phoenicopterus roseus,Animalia,FLAMINGOS_PHOENICOPTERIDAE,Greater Flamingo,,25,29.2676076267,-3.35541570908,Africa,Burundi,BI,,Burundi - Rusizi NP,2013-05-31,
Lophaetus occipitalis,Animalia,HAWKS_AND_EAGLES_ACCIPITRIDAE,Long-crested Eagle,,1,30.3844657982677,-3.1337699999999415,Africa,Burundi,BI,,Burundi - Ruvubu NP,2013-05-19,
Treron calvus,Animalia,PIGEONS_AND_DOVES_COLUMBIDAE,African Green Pigeon,,10,30.3844657982677,-3.1337699999999415,Africa,Burundi,BI,,Burundi - Ruvubu NP,2013-05-19,
Upupa africana,Animalia,HOOPOES_UPUPIDAE,African Hoopoe,,1,29.357575206086,-3.3933129835703,Africa,Burundi,BI,,Burundi - Bujumbura Rural,2013-04-17,
Rynchops flavirostris,Animalia,GULLS_TERNS_AND_SKIMMERS_LARIDAE,African Skimmer,,25,29.266920983791,-3.3544910412345,Africa,Burundi,BI,,Burundi - Rusizi NP,2013-03-30,
Vanellus spinosus,Animalia,PLOVERS_CHARADRIIDAE,Spur-winged Lapwing,,2,29.266920983791,-3.3544910412345,Africa,Burundi,BI,,Burundi - Rusizi NP,2013-03-30,
Dendrocygna bicolor,Animalia,DUCKS_GEESE_AND_SWANS_ANATIDAE,Fulvous Whistling Duck,,100,29.266920983791,-3.3544910412345,Africa,Burundi,BI,,Burundi - Rusizi NP,2013-03-30,
Sarkidiornis melanotos,Animalia,DUCKS_GEESE_AND_SWANS_ANATIDAE,Knob-billed Duck,,1,29.266920983791,-3.3544910412345,Africa,Burundi,BI,,Burundi - Rusizi NP,2013-03-30,
Halcyon senegalensis,Animalia,KINGFISHERS_ALCEDINIDAE,Woodland Kingfisher,,20,29.266920983791,-3.3544910412345,Africa,Burundi,BI,,Burundi - Rusizi NP,2013-03-30,
Platalea alba,Animalia,IBISSES_AND_SPOONBILLS_THRESKIORNITHIDAE,African Spoonbill,,10,29.266920983791,-3.3544910412345,Africa,Burundi,BI,,Burundi - Rusizi NP,2013-03-30,
Phoenicopterus roseus,Animalia,FLAMINGOS_PHOENICOPTERIDAE,Greater Flamingo,,15,29.2669209838,-3.35449104123,Africa,Burundi,BI,,Burundi - Rusizi NP,2013-03-30,
Crithagra frontalis,Animalia,FINCHES_FRINGILLIDAE,Western Citril,,1,29.710134367087,-3.9557222926537,Africa,Burundi,BI,,Burundi - Bururi,2012-11-24,
Ploceus baglafecht,Animalia,WEAVERS_PLOCEIDAE,Baglafecht Weaver,,1,29.357446813737,-3.3933213404508,Africa,Burundi,BI,,Burundi - Bujumbura Rural,2012-11-12,
Platalea alba,Animalia,IBISSES_AND_SPOONBILLS_THRESKIORNITHIDAE,African Spoonbill,,2,29.262205115519,-3.357381436915,Africa,Burundi,BI,,Burundi - Bujumbura Rural,2012-11-10,
Halcyon senegalensis,Animalia,KINGFISHERS_ALCEDINIDAE,Woodland Kingfisher,,1,29.262205115519,-3.357381436915,Africa,Burundi,BI,,Burundi - Bujumbura Rural,2012-11-10,
Dendrocygna viduata,Animalia,DUCKS_GEESE_AND_SWANS_ANATIDAE,White-faced Whistling Duck,,100,29.262205115519,-3.357381436915,Africa,Burundi,BI,,Burundi - Bujumbura Rural,2012-11-10,
Dendrocygna bicolor,Animalia,DUCKS_GEESE_AND_SWANS_ANATIDAE,Fulvous Whistling Duck,,100,29.262205115519,-3.357381436915,Africa,Burundi,BI,,Burundi - Bujumbura Rural,2012-11-10,
Phalacrocorax lucidus,Animalia,CORMORANTS_PHALACROCORACIDAE,White-breasted Cormorant,,1,29.262205115519,-3.357381436915,Africa,Burundi,BI,,Burundi - Bujumbura Rural,2012-11-10,
Pycnonotus tricolor,Animalia,BULBULS_PYCNONOTIDAE,Dark-capped Bulbul,,1,29.357649385929,-3.3933129835692,Africa,Burundi,BI,,Burundi - Bujumbura Rural,2012-11-09,
Motacilla aguimp,Animalia,PIPITS_EN_WAGTAILS_MOTACILLIDAE,African Pied Wagtail,,1,29.349402023672,-3.3878808573556,Africa,Burundi,BI,,Burundi - Bujumbura Rural,2012-11-07,
Corythornis cristatus,Animalia,KINGFISHERS_ALCEDINIDAE,Malachite Kingfisher,,2,29.349402023672,-3.3878808573556,Africa,Burundi,BI,,Burundi - Bujumbura Rural,2012-11-07,
Ardeola ralloides,Animalia,HERONS_ARDEIDAE,Squacco Heron,,1,29.349402023672,-3.3878808573556,Africa,Burundi,BI,,Burundi - Bujumbura Rural,2012-11-08,
Egretta garzetta,Animalia,HERONS_ARDEIDAE,Little Egret,,15,29.349402023672,-3.3878808573556,Africa,Burundi,BI,,Burundi - Bujumbura Rural,2012-11-07,
Spilopelia senegalensis,Animalia,PIGEONS_AND_DOVES_COLUMBIDAE,Laughing Dove,,2,29.357554556882,-3.393471180701,Africa,Burundi,BI,,Burundi - Bujumbura Rural,2012-11-08,
Colius striatus,Animalia,MOUSEBIRDS_COLIIDAE,Speckled Mousebird,,5,29.357554556882,-3.393471180701,Africa,Burundi,BI,,Burundi - Bujumbura Rural,2012-11-08,
Passer griseus,Animalia,OLD_WORLD_SPARROWS_PASSERIDAE,Northern Grey-headed Sparrow,,5,29.357554556882,-3.393471180701,Africa,Burundi,BI,,Burundi - Bujumbura Rural,2012-11-08,
Megaceryle maxima,Animalia,KINGFISHERS_ALCEDINIDAE,Giant Kingfisher,,2,29.349801834396,-3.3878694978269,Africa,Burundi,BI,,Burundi - Bujumbura Rural,2012-11-08,
Lanius humeralis,Animalia,SHRIKES_LANIIDAE,Northern Fiscal,,4,29.357670460758,-3.3936047313526,Africa,Burundi,BI,,Burundi - Bujumbura Rural,2012-11-08,
Aterica galene,Animalia,BRUSHFOOTED_BUTTERFLIES_NYMPHALIDAE,Forest Glade Nymph,,1,29.581046775483294,-3.8666309683289697,Africa,Burundi,BI,,Burundi - Bururi,2013-12-30,
Tuxentius margaritaceus,Animalia,GOSSAMERWINGED_BUTTERFLIES_LYCAENIDAE,,,1,29.581046775483294,-3.8666309683289697,Africa,Burundi,BI,,Burundi - Bururi,2013-12-30,
Junonia terea,Animalia,BRUSHFOOTED_BUTTERFLIES_NYMPHALIDAE,Soldier Commodore,,1,30.093842316593268,-3.8856230057772336,Africa,Burundi,BI,,Burundi - Rutana,2013-12-26,
Lanius collurio,Animalia,SHRIKES_LANIIDAE,Red-backed Shrike,,1,29.412082322901824,-3.4960537662502773,Africa,Burundi,BI,,Burundi - Bujumbura Rural,2014-05-04,
Corvus albus,Animalia,CROWS_AND_JAYS_CORVIDAE,Pied Crow,,1,29.412082322901824,-3.4960537662502773,Africa,Burundi,BI,,Burundi - Bujumbura Rural,2014-05-04,
Colius striatus,Animalia,MOUSEBIRDS_COLIIDAE,Speckled Mousebird,,1,29.412082322901824,-3.4960537662502773,Africa,Burundi,BI,,Burundi - Bujumbura Rural,2014-05-03,
Phoenicopterus roseus,Animalia,FLAMINGOS_PHOENICOPTERIDAE,Greater Flamingo,,2,29.26759288,-3.35716211,Africa,Burundi,BI,,Burundi - Rusizi NP,2013-06-20,
Rynchops flavirostris,Animalia,GULLS_TERNS_AND_SKIMMERS_LARIDAE,African Skimmer,,7,29.26759288,-3.35716211,Africa,Burundi,BI,,Burundi - Rusizi NP,2013-06-20,
Sarkidiornis melanotos,Animalia,DUCKS_GEESE_AND_SWANS_ANATIDAE,Knob-billed Duck,,10,29.2686671,-3.35646444,Africa,Burundi,BI,,Burundi - Rusizi NP,2013-06-20,
Dendrocygna bicolor,Animalia,DUCKS_GEESE_AND_SWANS_ANATIDAE,Fulvous Whistling Duck,,10,29.2686671,-3.35646444,Africa,Burundi,BI,,Burundi - Rusizi NP,2013-06-20,
Dendrocygna viduata,Animalia,DUCKS_GEESE_AND_SWANS_ANATIDAE,White-faced Whistling Duck,,10,29.2686671,-3.35646444,Africa,Burundi,BI,,Burundi - Rusizi NP,2013-06-20,
Junonia natalica,Animalia,BRUSHFOOTED_BUTTERFLIES_NYMPHALIDAE,Natal pansy,,1,29.412082322901824,-3.4960537662502773,Africa,Burundi,BI,,Burundi - Bujumbura Rural,2011-08-06,
Utetheisa pulchella,Animalia,EREBIDAE,Crimson Speckled,,1,29.412082322901824,-3.4960537662502773,Africa,Burundi,BI,,Burundi - Bujumbura Rural,2011-08-08,
Urota spec.,Animalia,Saturniidae,,,1,29.59602355,-4.3408426,Africa,Burundi,BI,,Burundi - Makamba,2013-12-29,
Vanellus spinosus,Animalia,PLOVERS_CHARADRIIDAE,Spur-winged Lapwing,,1,29.27459383740092,-3.346784999999926,Africa,Burundi,BI,,Burundi - Rusizi NP,2011-08-07,
Syllepte ovialis,Animalia,Crambidae,,,1,29.412082322901824,-3.4960537662502773,Africa,Burundi,BI,,Burundi - Bujumbura Rural,2014-01-04,
Nephele comma,Animalia,Sphingidae,,,1,29.412082322901824,-3.4960537662502773,Africa,Burundi,BI,,Burundi - Bujumbura Rural,2014-01-04,
Maruca vitrata,Animalia,Crambidae,Bean Pod Borer,,1,29.412082322901824,-3.4960537662502773,Africa,Burundi,BI,,Burundi - Bujumbura Rural,2014-01-04,
Nephele comma,Animalia,Sphingidae,,,1,29.412082322901824,-3.4960537662502773,Africa,Burundi,BI,,Burundi - Bujumbura Rural,2014-01-04,
Hippotion eson,Animalia,Sphingidae,Common Striped Hawk,,1,29.412082322901824,-3.4960537662502773,Africa,Burundi,BI,,Burundi - Bujumbura Rural,2014-01-04,
Nephele comma,Animalia,Sphingidae,,,1,29.412082322901824,-3.4960537662502773,Africa,Burundi,BI,,Burundi - Bujumbura Rural,2014-01-04,
Palpita vitrealis,Animalia,Crambidae,,,1,29.412082322901824,-3.4960537662502773,Africa,Burundi,BI,,Burundi - Bujumbura Rural,2014-01-04,
Ctenoplusia limbirena,Animalia,Noctuidae,,,1,29.412082322901824,-3.4960537662502773,Africa,Burundi,BI,,Burundi - Bujumbura Rural,2014-01-04,
Omiodes indicata,Animalia,Crambidae,Bean-leaf Webworm Moth,,1,29.412082322901824,-3.4960537662502773,Africa,Burundi,BI,,Burundi - Bujumbura Rural,2014-01-04,
Cadarena pudoraria,Animalia,Crambidae,,,1,29.412082322901824,-3.4960537662502773,Africa,Burundi,BI,,Burundi - Bujumbura Rural,2014-01-04,
Chrysodeixis acuta,Animalia,Noctuidae,Tunbridge Wells Gem,,1,29.412082322901824,-3.4960537662502773,Africa,Burundi,BI,,Burundi - Bujumbura Rural,2014-01-04,
Nephele comma,Animalia,Sphingidae,,,1,29.412082322901824,-3.4960537662502773,Africa,Burundi,BI,,Burundi - Bujumbura Rural,2014-01-04,
Sphingomorpha chlorea,Animalia,EREBIDAE,Sundowner Moth,,1,29.412082322901824,-3.4960537662502773,Africa,Burundi,BI,,Burundi - Bujumbura Rural,2014-01-04,
Spoladea recurvalis,Animalia,Crambidae,,,1,29.412082322901824,-3.4960537662502773,Africa,Burundi,BI,,Burundi - Bujumbura Rural,2014-01-04,
Acraea amicitiae,Animalia,BRUSHFOOTED_BUTTERFLIES_NYMPHALIDAE,,,1,29.581046775483294,-3.8666309683289697,Africa,Burundi,BI,,Burundi - Bururi,2014-01-03,
Ploceus baglafecht,Animalia,WEAVERS_PLOCEIDAE,Baglafecht Weaver,,1,29.3501543981,-3.3903389832,Africa,Burundi,BI,,Burundi - Bujumbura Rural,2013-12-25,
Ploceus cucullatus,Animalia,WEAVERS_PLOCEIDAE,Village Weaver,,1,29.3501543981,-3.3903389832,Africa,Burundi,BI,,Burundi - Bujumbura Rural,2013-12-24,
Passer griseus,Animalia,OLD_WORLD_SPARROWS_PASSERIDAE,Northern Grey-headed Sparrow,,1,29.3501543981,-3.3903389832,Africa,Burundi,BI,,Burundi - Bujumbura Rural,2013-12-24,
Lamprotornis purpuroptera,Animalia,STARLINGS_STURNIDAE,Rüppell's Starling,,6,29.3501543981,-3.3903389832,Africa,Burundi,BI,,Burundi - Bujumbura Rural,2013-12-31,
Lamprotornis purpuroptera,Animalia,STARLINGS_STURNIDAE,Rüppell's Starling,,3,29.3501543981,-3.3903389832,Africa,Burundi,BI,,Burundi - Bujumbura Rural,2013-12-25,
Laniarius major,Animalia,HELMETSHRIKES_BUSHSHRIKES_MALACONOTIDAE,Tropical Boubou,,1,29.412082322901824,-3.4960537662502773,Africa,Burundi,BI,,Burundi - Bujumbura Rural,2013-12-25,
Lanius humeralis,Animalia,SHRIKES_LANIIDAE,Northern Fiscal,,1,29.412082322901824,-3.4960537662502773,Africa,Burundi,BI,,Burundi - Bujumbura Rural,2013-12-25,
Turdoides hartlaubii,Animalia,Leiothrichidae,Hartlaub's Babbler,,10,29.395955865517408,-3.113288886233917,Africa,Burundi,BI,,Burundi - Bubanza,2013-12-31,
Cisticola marginatus,Animalia,CISTICOLAS_AND_ALLIES_CISTICOLIDAE,Winding Cisticola,,2,30.101755220462245,-3.1426680844492907,Africa,Burundi,BI,,Burundi - Karuzi,2013-12-28,
Pycnonotus tricolor,Animalia,BULBULS_PYCNONOTIDAE,Dark-capped Bulbul,,1,29.412082322901824,-3.4960537662502773,Africa,Burundi,BI,,Burundi - Bujumbura Rural,2013-12-25,
Upupa africana,Animalia,HOOPOES_UPUPIDAE,African Hoopoe,,1,29.3500900251,-3.39041752275,Africa,Burundi,BI,,Burundi - Bujumbura Rural,2013-12-25,
Corythornis cristatus,Animalia,KINGFISHERS_ALCEDINIDAE,Malachite Kingfisher,,1,29.349789619,-3.38794421139,Africa,Burundi,BI,,Burundi - Bujumbura Rural,2013-12-31,
Corythornis cristatus,Animalia,KINGFISHERS_ALCEDINIDAE,Malachite Kingfisher,,1,29.3501329418,-3.39017190653,Africa,Burundi,BI,,Burundi - Bujumbura Rural,2013-12-25,
Megaceryle maxima,Animalia,KINGFISHERS_ALCEDINIDAE,Giant Kingfisher,,1,29.3496823293,-3.38810271986,Africa,Burundi,BI,,Burundi - Bujumbura Rural,2013-12-26,
Megaceryle maxima,Animalia,KINGFISHERS_ALCEDINIDAE,Giant Kingfisher,,1,29.3496823293,-3.38810271986,Africa,Burundi,BI,,Burundi - Bujumbura Rural,2013-12-24,
Actitis hypoleucos,Animalia,SANDPIPERS_AND_ALLIES_SCOLOPACIDAE,Common Sandpiper,,1,29.3500685687,-3.39027900713,Africa,Burundi,BI,,Burundi - Bujumbura Rural,2013-12-25,
Pelecanus rufescens,Animalia,PELICANS_PELECANIDAE,Pink-backed Pelican,,1,29.3499612807,-3.39026615493,Africa,Burundi,BI,,Burundi - Bujumbura Rural,2013-12-25,
