scientificName,kingdom,family,vernacularName,previousIdentifications,individualCount,longitudeDecimal,latitudeDecimal,continent,country,countryCode,stateProvince,locality,eventDate,eventTime
Platysteira concreta,Animalia,WATTLEEYES_BATISES_PLATYSTEIRIDAE,Yellow-bellied Wattle-eye,,1,9.68882195354657,4.83009124522547,Africa,Cameroon,CM,,Cameroon - Koupé-Manengouba,2014-12-02,07:43
Platysteira castanea,Animalia,WATTLEEYES_BATISES_PLATYSTEIRIDAE,Chestnut Wattle-eye,,1,9.69414086531816,4.82882801142638,Africa,Cameroon,CM,,Cameroon - Koupé-Manengouba,2014-12-02,08:10
Platysteira concreta,Animalia,WATTLEEYES_BATISES_PLATYSTEIRIDAE,Yellow-bellied Wattle-eye,,3,9.70305775873726,4.82355264234228,Africa,Cameroon,CM,,Cameroon - Koupé-Manengouba,2014-12-02,09:26
Platysteira concreta,Animalia,WATTLEEYES_BATISES_PLATYSTEIRIDAE,Yellow-bellied Wattle-eye,,1,9.69915877813753,4.82455749052746,Africa,Cameroon,CM,,Cameroon - Koupé-Manengouba,2014-12-03,15:18
Cossypha isabellae,Animalia,OLD_WORLD_FLYCATCHERS_MUSCICAPIDAE,Mountain Robin-Chat,,1,9.21808872113206,4.17040953529536,Africa,Cameroon,CM,,Cameroon,2014-11-22,11:04
Zosterops melanocephalus,Animalia,WHITEEYES_ZOSTEROPIDAE,Mount Cameroon Speirops,,4,9.20455798655616,4.18228373953114,Africa,Cameroon,CM,,Cameroon,2014-11-22,14:39
Perodicticus edwardsi,Animalia,LORIS_LORISIDAE,Milne-Edwards's Potto,,1,9.19843243924863,4.15609497992874,Africa,Cameroon,CM,,Cameroon,2014-11-23,20:02
Cossypha isabellae,Animalia,OLD_WORLD_FLYCATCHERS_MUSCICAPIDAE,Mountain Robin-Chat,,1,9.20641025732278,4.15385407952505,Africa,Cameroon,CM,,Cameroon,2014-11-24,13:22
Colius striatus,Animalia,MOUSEBIRDS_COLIIDAE,Speckled Mousebird,,1,11.514308501,3.85831378164,Africa,Cameroon,CM,,Cameroon - Mfoundi,2012-05-06,
Dendrohyrax dorsalis,Animalia,HYRAXES_PROCAVIIDAE,Western Tree Hyrax,,1,12.247948395333704,2.919335500000045,Africa,Cameroon,CM,,Cameroon - Dja-et-Lobo,2002-08-05,
Eidolon helvum,Animalia,OLD_WORLD_FRUITEATING_BATS_PTEROPODIDAE,African Straw-coloured Fruit Bat,,500,11.4977884293,3.84303732298,Africa,Cameroon,CM,,Cameroon - Mfoundi,2002-08-04,
Podica senegalensis,Animalia,FINFOOTS_HELIORNITHIDAE,African Finfoot,,1,9.90099430086,2.86882772819,Africa,Cameroon,CM,,Cameroon,2011-07-16,
Anhinga rufa,Animalia,ANHINGAS_ANHINGIDAE,African Darter,,1,9.90099430086,2.86882772819,Africa,Cameroon,CM,,Cameroon,2011-07-16,
Elminia longicauda,Animalia,Stenostiridae,African Blue Flycatcher,,1,9.93155002596,4.95672826037,Africa,Cameroon,CM,,Cameroon - Moungo,2011-07-10,
Halcyon senegalensis,Animalia,KINGFISHERS_ALCEDINIDAE,Woodland Kingfisher,,2,9.93155002596,4.95672826037,Africa,Cameroon,CM,,Cameroon - Moungo,2011-07-10,
Glareola nuchalis,Animalia,COURSERS_AND_PRATINCOLES_GLAREOLIDAE,Rock Pratincole,,1,8.91033649447,4.99760063009,Africa,Cameroon,CM,,Cameroon,2011-07-10,
Saxicola torquatus,Animalia,OLD_WORLD_FLYCATCHERS_MUSCICAPIDAE,African Stonechat,,1,9.22911167147,4.17456016292,Africa,Cameroon,CM,,Cameroon,2011-07-01,10:00
Colius striatus,Animalia,MOUSEBIRDS_COLIIDAE,Speckled Mousebird,,1,9.22911167147,4.17456016292,Africa,Cameroon,CM,,Cameroon,2011-07-01,10:00
Columba sjostedti,Animalia,PIGEONS_AND_DOVES_COLUMBIDAE,Cameroon Olive Pigeon,,2,9.13023471834,4.14305763914,Africa,Cameroon,CM,,Cameroon,2011-07-03,07:52
Eidolon helvum,Animalia,OLD_WORLD_FRUITEATING_BATS_PTEROPODIDAE,African Straw-coloured Fruit Bat,,100,9.69268798828,4.03413829155,Africa,Cameroon,CM,,Cameroon,2009-03-08,
Melierax metabates,Animalia,HAWKS_AND_EAGLES_ACCIPITRIDAE,Dark Chanting Goshawk,,1,13.0078125,9.2430926451,Africa,Cameroon,CM,,Cameroon,2008-12-29,
Sporopipes frontalis,Animalia,WEAVERS_PLOCEIDAE,Speckle-fronted Weaver,,1,14.3481445312,12.4902136625,Africa,Cameroon,CM,,Cameroon,2008-12-26,
Euodice cantans,Animalia,WAXBILLS_MUNIAS_ALLIES_ESTRILDIDAE,African Silverbill,,1,14.4360351562,12.511665401,Africa,Cameroon,CM,,Cameroon,2008-12-26,
Hirundo nigrita,Animalia,SWALLOWS_HIRUNDINIDAE,White-bibbed Swallow,,1,9.9755859375,3.03081212266,Africa,Cameroon,CM,,Cameroon,2009-01-06,
Grafisia torquata,Animalia,STARLINGS_STURNIDAE,White-collared Starling,,1,13.6834716797,7.23714814257,Africa,Cameroon,CM,,Cameroon,2009-01-02,
Crinifer piscator,Animalia,TURACOS_MUSOPHAGIDAE,Western Plantain-eater,,1,13.7823486328,8.98274904162,Africa,Cameroon,CM,,Cameroon,2008-12-31,
Vanellus senegallus,Animalia,PLOVERS_CHARADRIIDAE,African Wattled Lapwing,,1,13.6779785156,7.24259751095,Africa,Cameroon,CM,,Cameroon,2009-01-03,
Ploceus cucullatus,Animalia,WEAVERS_PLOCEIDAE,Village Weaver,,1,9.99755859375,2.8991526985,Africa,Cameroon,CM,,Cameroon,2009-01-06,
Dicrurus sharpei,Animalia,DRONGOS_DICRURIDAE,Sharpe's Drongo,,1,12.7432535037,5.68580436033,Africa,Cameroon,CM,,Cameroon,2009-01-01,
Vanellus spinosus,Animalia,PLOVERS_CHARADRIIDAE,Spur-winged Lapwing,,1,13.7768554688,9.01530233342,Africa,Cameroon,CM,,Cameroon,2008-12-31,
Merops bulocki,Animalia,BEEEATERS_MEROPIDAE,Red-throated Bee-eater,,1,13.88671875,8.21149032342,Africa,Cameroon,CM,,Cameroon,2008-12-23,
Passer griseus,Animalia,OLD_WORLD_SPARROWS_PASSERIDAE,Northern Grey-headed Sparrow,,1,9.95361328125,3.00886997885,Africa,Cameroon,CM,,Cameroon,2009-01-06,
Ardea goliath,Animalia,HERONS_ARDEIDAE,Goliath Heron,,1,13.8647460938,8.41803628077,Africa,Cameroon,CM,,Cameroon,2008-12-23,
Dicrurus divaricatus divaricatus,Animalia,DRONGOS_DICRURIDAE,Glossy-backed Drongo ssp divaricatus,,1,12.7432535037,5.68580436033,Africa,Cameroon,CM,,Cameroon,2009-01-01,
Pluvianus aegyptius,Animalia,Pluvianidae,Egyptian Plover,,1,13.8098144531,8.36369265184,Africa,Cameroon,CM,,Cameroon,2008-12-23,
Lanius humeralis,Animalia,SHRIKES_LANIIDAE,Northern Fiscal,,1,10.4974365234,6.20199475422,Africa,Cameroon,CM,,Cameroon,2008-12-19,
Emberiza goslingi,Animalia,BUNTINGS_EMBERIZIDAE,Gosling's Bunting,,1,13.8208007812,8.99360046428,Africa,Cameroon,CM,,Cameroon,2008-12-31,
Lonchura cucullata,Animalia,WAXBILLS_MUNIAS_ALLIES_ESTRILDIDAE,Bronze Mannikin,,1,9.95361328125,2.92109701871,Africa,Cameroon,CM,,Cameroon,2009-01-06,
Elanus caeruleus,Animalia,HAWKS_AND_EAGLES_ACCIPITRIDAE,Black-winged Kite,,1,12.7432535037,5.68580436033,Africa,Cameroon,CM,,Cameroon,2009-01-01,
Lagonosticta rubricata,Animalia,WAXBILLS_MUNIAS_ALLIES_ESTRILDIDAE,African Firefinch,,1,13.8208007812,8.99360046428,Africa,Cameroon,CM,,Cameroon,2008-12-31,
Coracias abyssinicus,Animalia,ROLLERS_CORACIIDAE,Abyssinian Roller,,1,14.5678710938,12.5545635286,Africa,Cameroon,CM,,Cameroon,2008-12-25,
Bucorvus abyssinicus,Animalia,GROUND_HORNBILLS_BUCORVIDAE,Abyssinian Ground Hornbill,,1,13.8537597656,8.37999653849,Africa,Cameroon,CM,,Cameroon,2008-12-23,
Podica senegalensis,Animalia,FINFOOTS_HELIORNITHIDAE,African Finfoot,,1,9.8984027,2.8804654,Africa,Cameroon,CM,,Cameroon - Sud,2011-02-27,06:00
Colius striatus,Animalia,MOUSEBIRDS_COLIIDAE,Speckled Mousebird,,10,11.51283467,3.88496905,Africa,Cameroon,CM,,Cameroon - Lekié,2014-04-25,18:06
Coracias abyssinicus,Animalia,ROLLERS_CORACIIDAE,Abyssinian Roller,,10,14.60397899,11.34911105,Africa,Cameroon,CM,,Cameroon - Waza NP,2006-01-18,
Numida meleagris galeatus,Animalia,GUINEAFOWL_NUMIDIDAE,Helmeted Guineafowl ssp galeatus,,40,14.60397899,11.34911105,Africa,Cameroon,CM,,Cameroon - Waza NP,2006-01-18,
Polyboroides typus,Animalia,HAWKS_AND_EAGLES_ACCIPITRIDAE,African Harrier-Hawk,,1,10.31397,5.16459,Africa,Cameroon,CM,,Cameroon - Haut-Nkam,2019-08-12,11:13
Buccanodon duchaillui,Animalia,Lybiidae,Yellow-spotted Barbet,,1,10.31397,5.16459,Africa,Cameroon,CM,,Cameroon - Haut-Nkam,2019-08-12,11:07
Estrilda nonnula,Animalia,WAXBILLS_MUNIAS_ALLIES_ESTRILDIDAE,Black-crowned Waxbill,,1,10.27745,5.1454,Africa,Cameroon,CM,,Cameroon - Haut-Nkam,2019-08-12,08:38
Megaceryle maxima,Animalia,KINGFISHERS_ALCEDINIDAE,Giant Kingfisher,,2,10.27745,5.1454,Africa,Cameroon,CM,,Cameroon - Haut-Nkam,2019-08-12,08:07
Cyanomitra verticalis,Animalia,SUNBIRDS_NECTARINIIDAE,Green-headed Sunbird,,1,10.2775,5.14566,Africa,Cameroon,CM,,Cameroon - Haut-Nkam,2019-08-11,15:14
Cyanomitra verticalis,Animalia,SUNBIRDS_NECTARINIIDAE,Green-headed Sunbird,,1,10.2775,5.14566,Africa,Cameroon,CM,,Cameroon - Haut-Nkam,2019-08-11,15:07
Colius striatus,Animalia,MOUSEBIRDS_COLIIDAE,Speckled Mousebird,,1,10.2775,5.14566,Africa,Cameroon,CM,,Cameroon - Haut-Nkam,2019-08-11,14:58
Ploceus cucullatus,Animalia,WEAVERS_PLOCEIDAE,Village Weaver,,1,10.2775,5.14566,Africa,Cameroon,CM,,Cameroon - Haut-Nkam,2019-08-11,12:40
Ploceus cucullatus,Animalia,WEAVERS_PLOCEIDAE,Village Weaver,,1,10.2775,5.14566,Africa,Cameroon,CM,,Cameroon - Haut-Nkam,2019-08-11,12:21
Ploceus nigerrimus,Animalia,WEAVERS_PLOCEIDAE,Vieillot's Black Weaver,,1,10.2775,5.14566,Africa,Cameroon,CM,,Cameroon - Haut-Nkam,2019-08-11,12:20
Cinnyris cupreus,Animalia,SUNBIRDS_NECTARINIIDAE,Copper Sunbird,,1,10.63162,5.28499,Africa,Cameroon,CM,,Cameroon - Noun,2019-08-11,08:36
Sylvietta brachyura,Animalia,Macrosphenidae,Northern Crombec,,1,10.63162,5.28499,Africa,Cameroon,CM,,Cameroon - Noun,2019-08-11,08:30
Melaniparus albiventris,Animalia,TITS_PARIDAE,White-bellied Tit,,1,10.6315,5.28493,Africa,Cameroon,CM,,Cameroon - Noun,2019-08-11,08:13
Uraeginthus bengalus,Animalia,WAXBILLS_MUNIAS_ALLIES_ESTRILDIDAE,Red-cheeked Cordon-bleu,,1,10.63259,5.28521,Africa,Cameroon,CM,,Cameroon - Noun,2019-08-11,07:54
Apalis flavida,Animalia,CISTICOLAS_AND_ALLIES_CISTICOLIDAE,Yellow-breasted Apalis,,1,10.64389,5.62311,Africa,Cameroon,CM,,Cameroon - Noun,2019-08-10,16:04
Chrysococcyx klaas,Animalia,CUCKOOS_AND_COUCALS_CUCULIDAE,Klaas's Cuckoo,,1,10.64497,5.62307,Africa,Cameroon,CM,,Cameroon - Noun,2019-08-10,15:40
Melaniparus albiventris,Animalia,TITS_PARIDAE,White-bellied Tit,,2,10.64498,5.62311,Africa,Cameroon,CM,,Cameroon - Noun,2019-08-10,15:23
Melaenornis edolioides,Animalia,OLD_WORLD_FLYCATCHERS_MUSCICAPIDAE,Northern Black Flycatcher,,1,10.645,5.62313,Africa,Cameroon,CM,,Cameroon - Noun,2019-08-10,15:15
Gypohierax angolensis,Animalia,HAWKS_AND_EAGLES_ACCIPITRIDAE,Palm-nut Vulture,,1,10.63961506,5.63644324,Africa,Cameroon,CM,,Cameroon - Noun,2019-08-10,12:56
Halcyon senegalensis,Animalia,KINGFISHERS_ALCEDINIDAE,Woodland Kingfisher,,1,10.63615,5.63659,Africa,Cameroon,CM,,Cameroon - Noun,2019-08-10,11:16
Crithagra mozambica,Animalia,FINCHES_FRINGILLIDAE,Yellow-fronted Canary,,1,10.6453,5.62262,Africa,Cameroon,CM,,Cameroon - Noun,2019-08-10,08:47
Dendrocygna viduata,Animalia,DUCKS_GEESE_AND_SWANS_ANATIDAE,White-faced Whistling Duck,,1,10.63676,5.62775,Africa,Cameroon,CM,,Cameroon - Noun,2019-08-10,07:59
Apalis flavida,Animalia,CISTICOLAS_AND_ALLIES_CISTICOLIDAE,Yellow-breasted Apalis,,1,10.63676,5.62775,Africa,Cameroon,CM,,Cameroon - Noun,2019-08-10,07:45
Macronyx croceus,Animalia,PIPITS_EN_WAGTAILS_MOTACILLIDAE,Yellow-throated Longclaw,,1,10.63649,5.62809,Africa,Cameroon,CM,,Cameroon - Noun,2019-08-10,06:58
Euplectes ardens,Animalia,WEAVERS_PLOCEIDAE,Red-collared Widowbird,,1,10.63649,5.62809,Africa,Cameroon,CM,,Cameroon - Noun,2019-08-10,06:55
Euplectes macroura,Animalia,WEAVERS_PLOCEIDAE,Yellow-mantled Widowbird,,1,10.63649,5.62809,Africa,Cameroon,CM,,Cameroon - Noun,2019-08-10,06:46
Falco ardosiaceus,Animalia,CARACAS_AND_FALCONS_FALCONIDAE,Grey Kestrel,,1,10.63171,5.63648,Africa,Cameroon,CM,,Cameroon - Noun,2019-08-09,18:27
Ardea purpurea,Animalia,HERONS_ARDEIDAE,Purple Heron,,1,10.63069,5.63543,Africa,Cameroon,CM,,Cameroon - Noun,2019-08-09,18:14
Galerida modesta,Animalia,LARKS_ALAUDIDAE,Sun Lark,,4,10.63069,5.63543,Africa,Cameroon,CM,,Cameroon - Noun,2019-08-09,17:54
Scopus umbretta,Animalia,HAMERKOP_SCOPIDAE,Hamerkop,,2,10.63222,5.63515,Africa,Cameroon,CM,,Cameroon - Noun,2019-08-09,17:38
Lanius humeralis,Animalia,SHRIKES_LANIIDAE,Northern Fiscal,,1,10.65414,5.68415,Africa,Cameroon,CM,,Cameroon - Noun,2019-08-09,10:56
Cinnyris coccinigastrus,Animalia,SUNBIRDS_NECTARINIIDAE,Splendid Sunbird,,2,10.65414,5.68415,Africa,Cameroon,CM,,Cameroon - Noun,2019-08-09,10:39
Ploceus baglafecht,Animalia,WEAVERS_PLOCEIDAE,Baglafecht Weaver,,1,10.65346,5.6841,Africa,Cameroon,CM,,Cameroon - Noun,2019-08-09,10:28
Euplectes macroura,Animalia,WEAVERS_PLOCEIDAE,Yellow-mantled Widowbird,,1,10.65346,5.6841,Africa,Cameroon,CM,,Cameroon - Noun,2019-08-09,10:27
Cyanomitra verticalis,Animalia,SUNBIRDS_NECTARINIIDAE,Green-headed Sunbird,,2,10.64905,5.68534,Africa,Cameroon,CM,,Cameroon - Noun,2019-08-09,09:16
Pogoniulus chrysoconus,Animalia,Lybiidae,Yellow-fronted Tinkerbird,,1,10.6491,5.68492,Africa,Cameroon,CM,,Cameroon - Noun,2019-08-09,08:37
Eremomela pusilla,Animalia,CISTICOLAS_AND_ALLIES_CISTICOLIDAE,Senegal Eremomela,,1,10.64843,5.6856,Africa,Cameroon,CM,,Cameroon - Noun,2019-08-09,08:20
Crinifer piscator,Animalia,TURACOS_MUSOPHAGIDAE,Western Plantain-eater,,1,10.64843,5.6856,Africa,Cameroon,CM,,Cameroon - Noun,2019-08-09,08:18
Chlorophoneus sulfureopectus,Animalia,HELMETSHRIKES_BUSHSHRIKES_MALACONOTIDAE,Orange-breasted Bushshrike,,1,10.64898,5.68501,Africa,Cameroon,CM,,Cameroon - Noun,2019-08-09,07:45
Turdoides plebejus,Animalia,Leiothrichidae,Brown Babbler,,1,10.64816,5.68596,Africa,Cameroon,CM,,Cameroon - Noun,2019-08-09,07:20
Pogoniulus bilineatus,Animalia,Lybiidae,Yellow-rumped Tinkerbird,,1,10.63745,5.62835,Africa,Cameroon,CM,,Cameroon - Noun,2019-08-08,16:32
Sylvietta virens,Animalia,Macrosphenidae,Green Crombec,,1,10.63459,5.63611,Africa,Cameroon,CM,,Cameroon - Noun,2019-08-08,16:22
Buphagus africanus,Animalia,Buphagidae,Yellow-billed Oxpecker,,2,10.63593,5.63623,Africa,Cameroon,CM,,Cameroon - Noun,2019-08-08,12:24
Treron calvus,Animalia,PIGEONS_AND_DOVES_COLUMBIDAE,African Green Pigeon,,1,10.63617,5.63649,Africa,Cameroon,CM,,Cameroon - Noun,2019-08-08,12:04
Apalis bamendae,Animalia,CISTICOLAS_AND_ALLIES_CISTICOLIDAE,Bamenda Apalis,,1,10.64531,5.6464,Africa,Cameroon,CM,,Cameroon - Noun,2019-08-08,09:52
Hyliota flavigaster,Animalia,Hyliotidae,Yellow-bellied Hyliota,,1,10.64491,5.64595,Africa,Cameroon,CM,,Cameroon - Noun,2019-08-08,09:44
Lybius bidentatus,Animalia,Lybiidae,Double-toothed Barbet,,1,10.64337,5.64477,Africa,Cameroon,CM,,Cameroon - Noun,2019-08-08,09:14
Euplectes macroura,Animalia,WEAVERS_PLOCEIDAE,Yellow-mantled Widowbird,,1,10.64146,5.64333,Africa,Cameroon,CM,,Cameroon - Noun,2019-08-08,08:44
Euplectes macroura,Animalia,WEAVERS_PLOCEIDAE,Yellow-mantled Widowbird,,1,10.63996,5.63932,Africa,Cameroon,CM,,Cameroon - Noun,2019-08-08,08:00
Vidua macroura,Animalia,INDIGOBIRDS_AND_WHYDAHS_VIDUIDAE,Pin-tailed Whydah,,2,10.63918,5.63951,Africa,Cameroon,CM,,Cameroon - Noun,2019-08-08,07:37
Galerida modesta,Animalia,LARKS_ALAUDIDAE,Sun Lark,,1,10.63033,5.63529,Africa,Cameroon,CM,,Cameroon - Noun,2019-08-07,17:29
Buphagus africanus,Animalia,Buphagidae,Yellow-billed Oxpecker,,4,10.63033,5.63529,Africa,Cameroon,CM,,Cameroon - Noun,2019-08-07,17:25
Halcyon senegalensis,Animalia,KINGFISHERS_ALCEDINIDAE,Woodland Kingfisher,,1,10.63581,5.6361,Africa,Cameroon,CM,,Cameroon - Noun,2019-08-07,15:37
Ploceus nigerrimus,Animalia,WEAVERS_PLOCEIDAE,Vieillot's Black Weaver,,1,10.63532,5.63557,Africa,Cameroon,CM,,Cameroon - Noun,2019-08-07,12:57
Ispidina picta,Animalia,KINGFISHERS_ALCEDINIDAE,African Pygmy Kingfisher,,1,10.64514,5.62345,Africa,Cameroon,CM,,Cameroon - Noun,2019-08-07,09:26
Cinnyris cupreus,Animalia,SUNBIRDS_NECTARINIIDAE,Copper Sunbird,,2,10.64084,5.62458,Africa,Cameroon,CM,,Cameroon - Noun,2019-08-07,08:51
Ploceus baglafecht,Animalia,WEAVERS_PLOCEIDAE,Baglafecht Weaver,,1,10.63969,5.62571,Africa,Cameroon,CM,,Cameroon - Noun,2019-08-07,07:32
Lanius humeralis,Animalia,SHRIKES_LANIIDAE,Northern Fiscal,,1,10.63969,5.62571,Africa,Cameroon,CM,,Cameroon - Noun,2019-08-07,07:25
Euplectes hordeaceus,Animalia,WEAVERS_PLOCEIDAE,Black-winged Red Bishop,,1,10.63969,5.62571,Africa,Cameroon,CM,,Cameroon - Noun,2019-08-07,07:08
Melocichla mentalis,Animalia,Macrosphenidae,Moustached Grass Warbler,,1,10.63969,5.62571,Africa,Cameroon,CM,,Cameroon - Noun,2019-08-07,06:50
Amandava subflava,Animalia,WAXBILLS_MUNIAS_ALLIES_ESTRILDIDAE,Orange-breasted Waxbill,,1,10.63969,5.62571,Africa,Cameroon,CM,,Cameroon - Noun,2019-08-07,06:50
Euplectes macroura,Animalia,WEAVERS_PLOCEIDAE,Yellow-mantled Widowbird,,1,10.63969,5.62571,Africa,Cameroon,CM,,Cameroon - Noun,2019-08-07,06:48
Psalidoprocne pristoptera,Animalia,SWALLOWS_HIRUNDINIDAE,Black Saw-wing,,1,10.64452,5.64377,Africa,Cameroon,CM,,Cameroon - Noun,2019-08-06,08:14
Pytilia hypogrammica,Animalia,WAXBILLS_MUNIAS_ALLIES_ESTRILDIDAE,Yellow-winged Pytilia,,2,10.64208,5.63977,Africa,Cameroon,CM,,Cameroon - Noun,2019-08-06,07:44
Cinnyris venustus,Animalia,SUNBIRDS_NECTARINIIDAE,Variable Sunbird,,1,10.64212,5.63984,Africa,Cameroon,CM,,Cameroon - Noun,2019-08-06,07:39
Lamprotornis splendidus,Animalia,STARLINGS_STURNIDAE,Splendid Starling,,6,10.64212,5.63984,Africa,Cameroon,CM,,Cameroon - Noun,2019-08-06,06:44
Lanius humeralis,Animalia,SHRIKES_LANIIDAE,Northern Fiscal,,1,10.63625,5.63635,Africa,Cameroon,CM,,Cameroon - Noun,2019-08-05,17:14
Ceryle rudis,Animalia,KINGFISHERS_ALCEDINIDAE,Pied Kingfisher,,1,10.6367,5.63661,Africa,Cameroon,CM,,Cameroon - Noun,2019-08-05,13:52
Bubulcus ibis,Animalia,HERONS_ARDEIDAE,Western Cattle Egret,,4,10.63186,5.63408,Africa,Cameroon,CM,,Cameroon - Noun,2019-08-05,13:39
Microcarbo africanus,Animalia,CORMORANTS_PHALACROCORACIDAE,Reed Cormorant,,1,10.63688,5.63628,Africa,Cameroon,CM,,Cameroon - Noun,2019-08-05,13:33
Estrilda nonnula,Animalia,WAXBILLS_MUNIAS_ALLIES_ESTRILDIDAE,Black-crowned Waxbill,,1,10.63495,5.63578,Africa,Cameroon,CM,,Cameroon - Noun,2019-08-05,12:21
Ardea purpurea,Animalia,HERONS_ARDEIDAE,Purple Heron,,1,10.6364,5.63666,Africa,Cameroon,CM,,Cameroon - Noun,2019-08-05,12:01
Ploceus cucullatus,Animalia,WEAVERS_PLOCEIDAE,Village Weaver,,1,10.6364,5.63666,Africa,Cameroon,CM,,Cameroon - Noun,2019-08-05,11:37
Actitis hypoleucos,Animalia,SANDPIPERS_AND_ALLIES_SCOLOPACIDAE,Common Sandpiper,,1,10.6364,5.63666,Africa,Cameroon,CM,,Cameroon - Noun,2019-08-05,11:34
Macronyx croceus,Animalia,PIPITS_EN_WAGTAILS_MOTACILLIDAE,Yellow-throated Longclaw,,1,10.64559,5.6343,Africa,Cameroon,CM,,Cameroon - Noun,2019-08-05,09:33
Quelea erythrops,Animalia,WEAVERS_PLOCEIDAE,Red-headed Quelea,,1,10.64559,5.6343,Africa,Cameroon,CM,,Cameroon - Noun,2019-08-05,09:24
Lophoceros fasciatus,Animalia,HORNBILLS_BUCEROTIDAE,African Pied Hornbill,,1,10.64367,5.63261,Africa,Cameroon,CM,,Cameroon - Noun,2019-08-05,08:13
Colius striatus,Animalia,MOUSEBIRDS_COLIIDAE,Speckled Mousebird,,1,10.64367,5.63261,Africa,Cameroon,CM,,Cameroon - Noun,2019-08-05,08:12
Oenanthe familiaris,Animalia,OLD_WORLD_FLYCATCHERS_MUSCICAPIDAE,Familiar Chat,,1,10.64241,5.63307,Africa,Cameroon,CM,,Cameroon - Noun,2019-08-05,07:53
Atimastillas flavicollis flavigula,Animalia,BULBULS_PYCNONOTIDAE,Yellow-throated Leaflove ssp flavigula,,1,10.64216,5.63299,Africa,Cameroon,CM,,Cameroon - Noun,2019-08-05,07:33
Euplectes macroura,Animalia,WEAVERS_PLOCEIDAE,Yellow-mantled Widowbird,,1,10.64216,5.63298,Africa,Cameroon,CM,,Cameroon - Noun,2019-08-05,07:31
Tauraco persa,Animalia,TURACOS_MUSOPHAGIDAE,Guinea Turaco,,1,10.64279,5.63295,Africa,Cameroon,CM,,Cameroon - Noun,2019-08-05,07:22
Tchagra australis,Animalia,HELMETSHRIKES_BUSHSHRIKES_MALACONOTIDAE,Brown-crowned Tchagra,,1,10.64265,5.63301,Africa,Cameroon,CM,,Cameroon - Noun,2019-08-05,07:12
Actitis hypoleucos,Animalia,SANDPIPERS_AND_ALLIES_SCOLOPACIDAE,Common Sandpiper,,1,10.63645,5.6367,Africa,Cameroon,CM,,Cameroon - Noun,2019-08-04,17:12
Hirundo smithii,Animalia,SWALLOWS_HIRUNDINIDAE,Wire-tailed Swallow,,2,10.63645,5.6367,Africa,Cameroon,CM,,Cameroon - Noun,2019-08-04,16:33
Nettapus auritus,Animalia,DUCKS_GEESE_AND_SWANS_ANATIDAE,African Pygmy Goose,,2,10.63645,5.6367,Africa,Cameroon,CM,,Cameroon - Noun,2019-08-04,13:26
Passer griseus,Animalia,OLD_WORLD_SPARROWS_PASSERIDAE,Northern Grey-headed Sparrow,,1,10.63645,5.6367,Africa,Cameroon,CM,,Cameroon - Noun,2019-08-04,12:40
Ceryle rudis,Animalia,KINGFISHERS_ALCEDINIDAE,Pied Kingfisher,,1,10.63645,5.6367,Africa,Cameroon,CM,,Cameroon - Noun,2019-08-04,12:16
Corvus albus,Animalia,CROWS_AND_JAYS_CORVIDAE,Pied Crow,,1,10.6361,5.62927,Africa,Cameroon,CM,,Cameroon - Noun,2019-08-04,09:58
Hypergerus atriceps,Animalia,CISTICOLAS_AND_ALLIES_CISTICOLIDAE,Oriole Warbler,,1,10.636,5.62922,Africa,Cameroon,CM,,Cameroon - Noun,2019-08-04,09:53
Nesocharis capistrata,Animalia,WAXBILLS_MUNIAS_ALLIES_ESTRILDIDAE,Grey-headed Oliveback,,1,10.63318,5.62886,Africa,Cameroon,CM,,Cameroon - Noun,2019-08-04,09:35
Emberiza cabanisi,Animalia,BUNTINGS_EMBERIZIDAE,Cabanis's Bunting,,1,10.63242,5.62837,Africa,Cameroon,CM,,Cameroon - Noun,2019-08-04,09:22
Ploceus ocularis,Animalia,WEAVERS_PLOCEIDAE,Spectacled Weaver,,1,10.63102,5.62832,Africa,Cameroon,CM,,Cameroon - Noun,2019-08-04,09:11
Falco ardosiaceus,Animalia,CARACAS_AND_FALCONS_FALCONIDAE,Grey Kestrel,,1,10.63102,5.62832,Africa,Cameroon,CM,,Cameroon - Noun,2019-08-04,08:56
Crithagra mozambica,Animalia,FINCHES_FRINGILLIDAE,Yellow-fronted Canary,,1,10.62987,5.62829,Africa,Cameroon,CM,,Cameroon - Noun,2019-08-04,08:34
Melaenornis edolioides,Animalia,OLD_WORLD_FLYCATCHERS_MUSCICAPIDAE,Northern Black Flycatcher,,2,10.63187,5.62837,Africa,Cameroon,CM,,Cameroon - Noun,2019-08-04,08:24
Euplectes hordeaceus,Animalia,WEAVERS_PLOCEIDAE,Black-winged Red Bishop,,1,10.6334,5.62947,Africa,Cameroon,CM,,Cameroon - Noun,2019-08-04,08:13
Euplectes hordeaceus,Animalia,WEAVERS_PLOCEIDAE,Black-winged Red Bishop,,1,10.6334,5.62943,Africa,Cameroon,CM,,Cameroon - Noun,2019-08-04,08:12
Anthus leucophrys,Animalia,PIPITS_EN_WAGTAILS_MOTACILLIDAE,Plain-backed Pipit,,1,10.6339,5.63045,Africa,Cameroon,CM,,Cameroon - Noun,2019-08-04,08:04
Turdoides plebejus,Animalia,Leiothrichidae,Brown Babbler,,2,10.63394,5.63045,Africa,Cameroon,CM,,Cameroon - Noun,2019-08-04,08:04
Falco ardosiaceus,Animalia,CARACAS_AND_FALCONS_FALCONIDAE,Grey Kestrel,,1,10.63633,5.63649,Africa,Cameroon,CM,,Cameroon - Noun,2019-08-04,07:16
Ploceus ocularis,Animalia,WEAVERS_PLOCEIDAE,Spectacled Weaver,,1,10.63633,5.63649,Africa,Cameroon,CM,,Cameroon - Noun,2019-08-04,07:08
Gypohierax angolensis,Animalia,HAWKS_AND_EAGLES_ACCIPITRIDAE,Palm-nut Vulture,,1,10.63587,5.63705,Africa,Cameroon,CM,,Cameroon - Noun,2019-08-04,07:04
Actophilornis africanus,Animalia,JACANAS_JACANIDAE,African Jacana,,1,10.63689,5.63628,Africa,Cameroon,CM,,Cameroon - Noun,2019-08-03,14:21
Actitis hypoleucos,Animalia,SANDPIPERS_AND_ALLIES_SCOLOPACIDAE,Common Sandpiper,,1,10.63689,5.63628,Africa,Cameroon,CM,,Cameroon - Noun,2019-08-03,14:19
Streptopelia semitorquata,Animalia,PIGEONS_AND_DOVES_COLUMBIDAE,Red-eyed Dove,,1,10.63689,5.63628,Africa,Cameroon,CM,,Cameroon - Noun,2019-08-03,14:02
Megaceryle maxima,Animalia,KINGFISHERS_ALCEDINIDAE,Giant Kingfisher,,2,10.63689,5.63628,Africa,Cameroon,CM,,Cameroon - Noun,2019-08-03,13:19
Nettapus auritus,Animalia,DUCKS_GEESE_AND_SWANS_ANATIDAE,African Pygmy Goose,,2,10.63689,5.63628,Africa,Cameroon,CM,,Cameroon - Noun,2019-08-03,13:19
Bubulcus ibis,Animalia,HERONS_ARDEIDAE,Western Cattle Egret,,10,10.63242,5.63607,Africa,Cameroon,CM,,Cameroon - Noun,2019-08-03,11:41
Lonchura cucullata,Animalia,WAXBILLS_MUNIAS_ALLIES_ESTRILDIDAE,Bronze Mannikin,,1,10.63439,5.63618,Africa,Cameroon,CM,,Cameroon - Noun,2019-08-03,11:34
Ploceus cucullatus,Animalia,WEAVERS_PLOCEIDAE,Village Weaver,,1,10.63575,5.63602,Africa,Cameroon,CM,,Cameroon - Noun,2019-08-03,11:12
Estrilda nonnula,Animalia,WAXBILLS_MUNIAS_ALLIES_ESTRILDIDAE,Black-crowned Waxbill,,2,10.63575,5.63602,Africa,Cameroon,CM,,Cameroon - Noun,2019-08-03,11:08
Turdus pelios,Animalia,THRUSHES_TURDIDAE,African Thrush,,1,10.63631,5.63664,Africa,Cameroon,CM,,Cameroon - Noun,2019-08-03,10:51
Vidua macroura,Animalia,INDIGOBIRDS_AND_WHYDAHS_VIDUIDAE,Pin-tailed Whydah,,1,10.6445,5.64283,Africa,Cameroon,CM,,Cameroon - Noun,2019-08-03,09:21
Nettapus auritus,Animalia,DUCKS_GEESE_AND_SWANS_ANATIDAE,African Pygmy Goose,,1,10.64278,5.6404,Africa,Cameroon,CM,,Cameroon - Noun,2019-08-03,09:12
Halcyon senegalensis,Animalia,KINGFISHERS_ALCEDINIDAE,Woodland Kingfisher,,1,10.64278,5.6404,Africa,Cameroon,CM,,Cameroon - Noun,2019-08-03,09:06
Vidua macroura,Animalia,INDIGOBIRDS_AND_WHYDAHS_VIDUIDAE,Pin-tailed Whydah,,1,10.64217,5.63987,Africa,Cameroon,CM,,Cameroon - Noun,2019-08-03,08:58
Hypergerus atriceps,Animalia,CISTICOLAS_AND_ALLIES_CISTICOLIDAE,Oriole Warbler,,1,10.64012,5.63932,Africa,Cameroon,CM,,Cameroon - Noun,2019-08-03,08:46
Pogoniulus chrysoconus,Animalia,Lybiidae,Yellow-fronted Tinkerbird,,1,10.64012,5.63932,Africa,Cameroon,CM,,Cameroon - Noun,2019-08-03,08:43
Laniarius major,Animalia,HELMETSHRIKES_BUSHSHRIKES_MALACONOTIDAE,Tropical Boubou,,1,10.64003,5.6393,Africa,Cameroon,CM,,Cameroon - Noun,2019-08-03,08:33
Lybius vieilloti,Animalia,Lybiidae,Vieillot's Barbet,,1,10.6389,5.63967,Africa,Cameroon,CM,,Cameroon - Noun,2019-08-03,08:25
Pogoniulus chrysoconus,Animalia,Lybiidae,Yellow-fronted Tinkerbird,,1,10.63782,5.63901,Africa,Cameroon,CM,,Cameroon - Noun,2019-08-03,08:05
Nesocharis capistrata,Animalia,WAXBILLS_MUNIAS_ALLIES_ESTRILDIDAE,Grey-headed Oliveback,,2,10.63782,5.63901,Africa,Cameroon,CM,,Cameroon - Noun,2019-08-03,08:03
Pycnonotus barbatus,Animalia,BULBULS_PYCNONOTIDAE,Common Bulbul,,2,10.63689,5.63785,Africa,Cameroon,CM,,Cameroon - Noun,2019-08-03,07:57
Euplectes macroura,Animalia,WEAVERS_PLOCEIDAE,Yellow-mantled Widowbird,,1,10.6365,5.63861,Africa,Cameroon,CM,,Cameroon - Noun,2019-08-03,07:53
Bubulcus ibis,Animalia,HERONS_ARDEIDAE,Western Cattle Egret,,1,10.63522,5.63808,Africa,Cameroon,CM,,Cameroon - Noun,2019-08-03,06:56
Atimastillas flavicollis,Animalia,BULBULS_PYCNONOTIDAE,Yellow-throated Leaflove,,1,10.6365,5.63861,Africa,Cameroon,CM,,Cameroon - Noun,2019-08-03,07:35
Crinifer piscator,Animalia,TURACOS_MUSOPHAGIDAE,Western Plantain-eater,,2,10.64367,5.64165,Africa,Cameroon,CM,,Cameroon - Noun,2019-08-03,09:16
Hypergerus atriceps,Animalia,CISTICOLAS_AND_ALLIES_CISTICOLIDAE,Oriole Warbler,,1,10.6365,5.63861,Africa,Cameroon,CM,,Cameroon - Noun,2019-08-03,07:21
Halcyon senegalensis,Animalia,KINGFISHERS_ALCEDINIDAE,Woodland Kingfisher,,1,10.6365,5.63861,Africa,Cameroon,CM,,Cameroon - Noun,2019-08-03,07:43
Colius striatus,Animalia,MOUSEBIRDS_COLIIDAE,Speckled Mousebird,,1,10.63564,5.63842,Africa,Cameroon,CM,,Cameroon - Noun,2019-08-03,07:06
Dendropicos goertae,Animalia,WOODPECKERS_PICIDAE,African Grey Woodpecker,,1,10.63564,5.63842,Africa,Cameroon,CM,,Cameroon - Noun,2019-08-03,07:05
Cinnyris cupreus,Animalia,SUNBIRDS_NECTARINIIDAE,Copper Sunbird,,1,10.63518,5.63756,Africa,Cameroon,CM,,Cameroon - Noun,2019-08-03,06:52
Nilaus afer,Animalia,HELMETSHRIKES_BUSHSHRIKES_MALACONOTIDAE,Brubru,,1,10.63263,5.28533,Africa,Cameroon,CM,,Cameroon - Noun,2019-08-02,16:24
Eremomela pusilla,Animalia,CISTICOLAS_AND_ALLIES_CISTICOLIDAE,Senegal Eremomela,,1,10.66727,5.08377,Africa,Cameroon,CM,,Cameroon - Ndé,2019-08-02,14:33
Euplectes macroura,Animalia,WEAVERS_PLOCEIDAE,Yellow-mantled Widowbird,,1,10.69745,5.02665,Africa,Cameroon,CM,,Cameroon - Ndé,2019-08-02,10:35
Streptopelia semitorquata,Animalia,PIGEONS_AND_DOVES_COLUMBIDAE,Red-eyed Dove,,1,10.69745,5.02665,Africa,Cameroon,CM,,Cameroon - Ndé,2019-08-02,10:34
Eurystomus gularis,Animalia,ROLLERS_CORACIIDAE,Blue-throated Roller,,2,11.48241,3.37694,Africa,Cameroon,CM,,Cameroon - Nyong-et-Soo,2019-08-01,11:25
Pogoniulus scolopaceus,Animalia,Lybiidae,Speckled Tinkerbird,,1,11.48356,3.38355,Africa,Cameroon,CM,,Cameroon - Nyong-et-Soo,2019-08-01,09:21
Halcyon chelicuti,Animalia,KINGFISHERS_ALCEDINIDAE,Striped Kingfisher,,1,11.49742,3.90536,Africa,Cameroon,CM,,Cameroon - Lekié,2019-07-31,10:15
Merops pusillus,Animalia,BEEEATERS_MEROPIDAE,Little Bee-eater,,1,11.49672,3.9054,Africa,Cameroon,CM,,Cameroon - Lekié,2019-07-31,09:49
Schistolais leucopogon,Animalia,CISTICOLAS_AND_ALLIES_CISTICOLIDAE,White-chinned Prinia,,2,11.49672,3.9054,Africa,Cameroon,CM,,Cameroon - Lekié,2019-07-31,09:44
Corvus albus,Animalia,CROWS_AND_JAYS_CORVIDAE,Pied Crow,,3,11.49641,3.90549,Africa,Cameroon,CM,,Cameroon - Lekié,2019-07-31,09:32
Ploceus nigerrimus,Animalia,WEAVERS_PLOCEIDAE,Vieillot's Black Weaver,,1,11.49584,3.90576,Africa,Cameroon,CM,,Cameroon - Lekié,2019-07-31,09:02
Streptopelia semitorquata,Animalia,PIGEONS_AND_DOVES_COLUMBIDAE,Red-eyed Dove,,1,11.49584,3.90576,Africa,Cameroon,CM,,Cameroon - Lekié,2019-07-31,08:59
Ispidina lecontei,Animalia,KINGFISHERS_ALCEDINIDAE,African Dwarf Kingfisher,,1,11.49576,3.90631,Africa,Cameroon,CM,,Cameroon - Lekié,2019-07-31,08:43
Terpsiphone viridis,Animalia,MONARCHS_MONARCHIDAE,African Paradise Flycatcher,,1,11.49539,3.90652,Africa,Cameroon,CM,,Cameroon - Lekié,2019-07-31,08:28
Ploceus cucullatus,Animalia,WEAVERS_PLOCEIDAE,Village Weaver,,1,11.49539,3.90652,Africa,Cameroon,CM,,Cameroon - Lekié,2019-07-31,08:21
Cossypha niveicapilla,Animalia,OLD_WORLD_FLYCATCHERS_MUSCICAPIDAE,Snowy-crowned Robin-Chat,,1,11.49536,3.90805,Africa,Cameroon,CM,,Cameroon - Lekié,2019-07-31,08:10
Lonchura cucullata,Animalia,WAXBILLS_MUNIAS_ALLIES_ESTRILDIDAE,Bronze Mannikin,,1,11.49536,3.90805,Africa,Cameroon,CM,,Cameroon - Lekié,2019-07-31,08:06
Halcyon senegalensis,Animalia,KINGFISHERS_ALCEDINIDAE,Woodland Kingfisher,,2,11.49862,3.90702,Africa,Cameroon,CM,,Cameroon - Lekié,2019-07-31,07:40
Kaupifalco monogrammicus,Animalia,HAWKS_AND_EAGLES_ACCIPITRIDAE,Lizard Buzzard,,1,11.49854,3.90712,Africa,Cameroon,CM,,Cameroon - Lekié,2019-07-31,07:40
Lanius mackinnoni,Animalia,SHRIKES_LANIIDAE,Mackinnon's Shrike,,1,11.49912,3.90593,Africa,Cameroon,CM,,Cameroon - Lekié,2019-07-31,07:26
Euplectes capensis phoenicomerus,Animalia,WEAVERS_PLOCEIDAE,Yellow Bishop ssp phoenicomerus,,1,9.18983459,4.19901023,Africa,Cameroon,CM,,Cameroon - Sud-Ouest,2003-12-24,
Milvus aegyptius parasitus,Animalia,HAWKS_AND_EAGLES_ACCIPITRIDAE,Yellow-billed Kite ssp parasitus,,1,8.91217232,4.97419135,Africa,Cameroon,CM,,Cameroon - Sud-Ouest,2003-12-20,
Himantopus himantopus,Animalia,STILTS_AND_AVOCETS_RECURVIROSTRIDAE,Black-winged Stilt,,1,14.61914062,11.33659153,Africa,Cameroon,CM,,Cameroon - Waza NP,2003-12-06,
Dendrocygna viduata,Animalia,DUCKS_GEESE_AND_SWANS_ANATIDAE,White-faced Whistling Duck,,1,14.61914062,11.33659153,Africa,Cameroon,CM,,Cameroon - Waza NP,2003-12-06,
Coracias abyssinicus,Animalia,ROLLERS_CORACIIDAE,Abyssinian Roller,,1,14.61914062,11.33659153,Africa,Cameroon,CM,,Cameroon - Waza NP,2003-12-06,
Coracias abyssinicus,Animalia,ROLLERS_CORACIIDAE,Abyssinian Roller,,1,14.61914062,11.33659153,Africa,Cameroon,CM,,Cameroon - Waza NP,2003-12-06,
Leptoptilos crumenifer,Animalia,STORKS_CICONIIDAE,Marabou Stork,,1,14.61914062,11.33659153,Africa,Cameroon,CM,,Cameroon - Waza NP,2003-12-06,
Leptoptilos crumenifer,Animalia,STORKS_CICONIIDAE,Marabou Stork,,1,14.61914062,11.33659153,Africa,Cameroon,CM,,Cameroon - Waza NP,2003-12-06,
Numida meleagris galeatus,Animalia,GUINEAFOWL_NUMIDIDAE,Helmeted Guineafowl ssp galeatus,,1,14.61914062,11.33659153,Africa,Cameroon,CM,,Cameroon - Waza NP,2003-12-06,
Numida meleagris galeatus,Animalia,GUINEAFOWL_NUMIDIDAE,Helmeted Guineafowl ssp galeatus,,1,14.61914062,11.33659153,Africa,Cameroon,CM,,Cameroon - Waza NP,2003-12-06,
Ephippiorhynchus senegalensis,Animalia,STORKS_CICONIIDAE,Saddle-billed Stork,,1,14.61914062,11.33659153,Africa,Cameroon,CM,,Cameroon - Waza NP,2003-12-06,
Ephippiorhynchus senegalensis,Animalia,STORKS_CICONIIDAE,Saddle-billed Stork,,1,14.61914062,11.33659153,Africa,Cameroon,CM,,Cameroon - Waza NP,2003-12-06,
Erythrocebus patas,Animalia,OLD_WORLD_MONKEYS_CERCOPITHECIDAE,Patas Monkey,,1,14.61914062,11.33659153,Africa,Cameroon,CM,,Cameroon - Waza NP,2003-12-06,
Nandinia binotata,Animalia,AFRICAN_PALM_CIVET_NANDINIIDAE,African Palm Civet,,1,11.521732128940014,3.8042625771562246,Africa,Cameroon,CM,,Cameroon - Mfoundi,2019-04-25,16:52
Passer griseus,Animalia,OLD_WORLD_SPARROWS_PASSERIDAE,Northern Grey-headed Sparrow,,1,11.523147868003251,3.883034158501665,Africa,Cameroon,CM,,Cameroon - Mfoundi,2019-04-24,15:40
Ploceus bannermani,Animalia,WEAVERS_PLOCEIDAE,Bannerman's Weaver,,1,10.10595,5.86249,Africa,Cameroon,CM,,Cameroon - Mezam,2018-04-12,
Zosterops melanocephalus,Animalia,WHITEEYES_ZOSTEROPIDAE,Mount Cameroon Speirops,,4,9.18915,4.16878,Africa,Cameroon,CM,,Cameroon,2018-04-09,
Platysteira laticincta,Animalia,WATTLEEYES_BATISES_PLATYSTEIRIDAE,Banded Wattle-eye,,1,10.197858,5.861874,Africa,Cameroon,CM,,Cameroon - Mezam,2018-04-12,
Ploceus cucullatus,Animalia,WEAVERS_PLOCEIDAE,Village Weaver,,4,11.5213344,3.8689867,Africa,Cameroon,CM,,Cameroon - Mfoundi,2019-04-02,
Ploceus cucullatus,Animalia,WEAVERS_PLOCEIDAE,Village Weaver,,1,9.90342774,2.93849352,Africa,Cameroon,CM,,Cameroon,2015-04-17,
Corythornis cristatus,Animalia,KINGFISHERS_ALCEDINIDAE,Malachite Kingfisher,,1,9.90342774,2.93849352,Africa,Cameroon,CM,,Cameroon,2015-04-17,
Passer griseus,Animalia,OLD_WORLD_SPARROWS_PASSERIDAE,Northern Grey-headed Sparrow,,5,9.90389022,2.93820188,Africa,Cameroon,CM,,Cameroon,2015-04-16,
Actitis hypoleucos,Animalia,SANDPIPERS_AND_ALLIES_SCOLOPACIDAE,Common Sandpiper,,1,9.89805796,2.88475573,Africa,Cameroon,CM,,Cameroon,2015-04-16,
Merops variegatus,Animalia,BEEEATERS_MEROPIDAE,Blue-breasted Bee-eater,,1,9.9040078,2.93904108,Africa,Cameroon,CM,,Cameroon,2015-04-15,
Azanus mirza,Animalia,GOSSAMERWINGED_BUTTERFLIES_LYCAENIDAE,Pale Babul Blue,,1,8.84532237,5.02309195,Africa,Cameroon,CM,,Cameroon - Korup NP,2015-04-12,
Junonia sophia,Animalia,BRUSHFOOTED_BUTTERFLIES_NYMPHALIDAE,Little Comodore,,1,8.84532237,5.02309195,Africa,Cameroon,CM,,Cameroon - Korup NP,2015-04-12,
Pseudoneptis bugandensis ianthe,Animalia,BRUSHFOOTED_BUTTERFLIES_NYMPHALIDAE,,,1,8.84532237,5.02309195,Africa,Cameroon,CM,,Cameroon - Korup NP,2015-04-12,
Protogoniomorpha parhassus,Animalia,BRUSHFOOTED_BUTTERFLIES_NYMPHALIDAE,Forest mother-of-pearl,,1,8.84532237,5.02309195,Africa,Cameroon,CM,,Cameroon - Korup NP,2015-04-12,
Junonia terea,Animalia,BRUSHFOOTED_BUTTERFLIES_NYMPHALIDAE,Soldier Commodore,,1,9.40985334,4.64991357,Africa,Cameroon,CM,,Cameroon - Meme,2015-04-11,
Papilio demodocus,Animalia,SWALLOWTAILS_PAPILIONIDAE,Christmas Butterfly,,1,9.40935525,4.65216429,Africa,Cameroon,CM,,Cameroon - Meme,2015-04-11,
Zonocerus variegatus,Animalia,Pyrgomorphidae,Variegated grasshopper,,15,9.41002044,4.6496064,Africa,Cameroon,CM,,Cameroon - Meme,2015-04-11,
Caladium bicolor,Plantae,ARACEAE,Elephant's-ear,,1,9.41059416,4.64893886,Africa,Cameroon,CM,,Cameroon - Meme,2015-04-11,
Milvus aegyptius,Animalia,HAWKS_AND_EAGLES_ACCIPITRIDAE,Yellow-billed Kite,,2,10.51884913,6.19342559,Africa,Cameroon,CM,,Cameroon - Bui,2015-04-08,
Junonia sophia,Animalia,BRUSHFOOTED_BUTTERFLIES_NYMPHALIDAE,Little Comodore,,1,10.58398551,6.39898869,Africa,Cameroon,CM,,Cameroon - Bui,2015-04-08,
Junonia oenone,Animalia,BRUSHFOOTED_BUTTERFLIES_NYMPHALIDAE,Dark Blue Pansy,,1,10.58398551,6.39898869,Africa,Cameroon,CM,,Cameroon - Bui,2015-04-08,
Elminia longicauda,Animalia,Stenostiridae,African Blue Flycatcher,,1,10.58398551,6.39898869,Africa,Cameroon,CM,,Cameroon - Bui,2015-04-07,
Necrosyrtes monachus,Animalia,HAWKS_AND_EAGLES_ACCIPITRIDAE,Hooded Vulture,,2,10.58398551,6.39898869,Africa,Cameroon,CM,,Cameroon - Bui,2015-04-07,
Uraeginthus bengalus,Animalia,WAXBILLS_MUNIAS_ALLIES_ESTRILDIDAE,Red-cheeked Cordon-bleu,,2,10.58398551,6.39898869,Africa,Cameroon,CM,,Cameroon - Bui,2015-04-07,
Corvus albus,Animalia,CROWS_AND_JAYS_CORVIDAE,Pied Crow,,2,10.58398551,6.39898869,Africa,Cameroon,CM,,Cameroon - Bui,2015-04-07,
Platysteira castanea,Animalia,WATTLEEYES_BATISES_PLATYSTEIRIDAE,Chestnut Wattle-eye,,4,11.51373088,4.13926769,Africa,Cameroon,CM,,Cameroon - Lekié,2012-03-19,
Platysteira castanea,Animalia,WATTLEEYES_BATISES_PLATYSTEIRIDAE,Chestnut Wattle-eye,,1,11.41150519,3.96936502,Africa,Cameroon,CM,,Cameroon - Lekié,2012-03-18,
Platysteira castanea,Animalia,WATTLEEYES_BATISES_PLATYSTEIRIDAE,Chestnut Wattle-eye,,1,8.82900237,5.03052123,Africa,Cameroon,CM,,Cameroon - Korup NP,2012-03-24,
Platysteira castanea,Animalia,WATTLEEYES_BATISES_PLATYSTEIRIDAE,Chestnut Wattle-eye,,1,8.81595611,5.01894442,Africa,Cameroon,CM,,Cameroon - Korup NP,2012-03-26,
Hemidactylus mabouia,Animalia,Gekkonidae,Tropical House Gecko,,1,9.44091795,4.63857086,Africa,Cameroon,CM,,Cameroon - Meme,2014-11-24,
Chamaeleo montium,Animalia,Chamaeleonidae,Cameroon Sailfin Chameleon,,3,9.20196532,4.16276053,Africa,Cameroon,CM,,Cameroon,2014-11-23,
Oriolus brachyrynchus,Animalia,ORIOLES_AND_FIG_BIRDS_ORIOLIDAE,Western Oriole,,1,11.46674507,3.39974897,Africa,Cameroon,CM,,Cameroon - Nyong-et-Soo,2017-08-10,11:27
Microcarbo africanus,Animalia,CORMORANTS_PHALACROCORACIDAE,Reed Cormorant,,1,9.05370285,4.05711916,Africa,Cameroon,CM,,Cameroon,2017-08-03,21:12
Psalidoprocne pristoptera,Animalia,SWALLOWS_HIRUNDINIDAE,Black Saw-wing,,1,10.63171096,5.63654771,Africa,Cameroon,CM,,Cameroon - Noun,2017-07-29,18:31
Hirundo smithii,Animalia,SWALLOWS_HIRUNDINIDAE,Wire-tailed Swallow,,1,10.63169952,5.63653864,Africa,Cameroon,CM,,Cameroon - Noun,2017-07-29,18:31
Passer griseus,Animalia,OLD_WORLD_SPARROWS_PASSERIDAE,Northern Grey-headed Sparrow,,1,10.63170244,5.6365381,Africa,Cameroon,CM,,Cameroon - Noun,2017-07-29,18:32
Ploceus cucullatus,Animalia,WEAVERS_PLOCEIDAE,Village Weaver,,1,10.63170362,5.63652992,Africa,Cameroon,CM,,Cameroon - Noun,2017-07-29,18:32
Buphagus africanus,Animalia,Buphagidae,Yellow-billed Oxpecker,,1,10.63170362,5.63652992,Africa,Cameroon,CM,,Cameroon - Noun,2017-07-29,18:32
Nettapus auritus,Animalia,DUCKS_GEESE_AND_SWANS_ANATIDAE,African Pygmy Goose,,1,10.63171404,5.6365339,Africa,Cameroon,CM,,Cameroon - Noun,2017-07-29,18:32
Actophilornis africanus,Animalia,JACANAS_JACANIDAE,African Jacana,,1,10.63171404,5.6365339,Africa,Cameroon,CM,,Cameroon - Noun,2017-07-29,18:32
Bubulcus ibis,Animalia,HERONS_ARDEIDAE,Western Cattle Egret,,1,10.63171382,5.6365352,Africa,Cameroon,CM,,Cameroon - Noun,2017-07-29,18:32
Scopus umbretta,Animalia,HAMERKOP_SCOPIDAE,Hamerkop,,1,10.63150157,5.63654146,Africa,Cameroon,CM,,Cameroon - Noun,2017-07-29,18:37
Pycnonotus barbatus,Animalia,BULBULS_PYCNONOTIDAE,Common Bulbul,,1,10.63150157,5.63654146,Africa,Cameroon,CM,,Cameroon - Noun,2017-07-29,18:37
Corvus albus,Animalia,CROWS_AND_JAYS_CORVIDAE,Pied Crow,,1,10.63150157,5.63654146,Africa,Cameroon,CM,,Cameroon - Noun,2017-07-29,18:37
Eremomela pusilla,Animalia,CISTICOLAS_AND_ALLIES_CISTICOLIDAE,Senegal Eremomela,,1,10.64452893,5.64378135,Africa,Cameroon,CM,,Cameroon - Noun,2017-07-30,10:36
Streptopelia semitorquata,Animalia,PIGEONS_AND_DOVES_COLUMBIDAE,Red-eyed Dove,,1,10.64452893,5.64378135,Africa,Cameroon,CM,,Cameroon - Noun,2017-07-30,10:36
Lophoceros fasciatus,Animalia,HORNBILLS_BUCEROTIDAE,African Pied Hornbill,,1,10.64452893,5.64378135,Africa,Cameroon,CM,,Cameroon - Noun,2017-07-30,10:36
Cinnyris cupreus,Animalia,SUNBIRDS_NECTARINIIDAE,Copper Sunbird,,1,10.64452893,5.64378135,Africa,Cameroon,CM,,Cameroon - Noun,2017-07-30,10:36
Lamprotornis splendidus,Animalia,STARLINGS_STURNIDAE,Splendid Starling,,1,10.64449754,5.643899,Africa,Cameroon,CM,,Cameroon - Noun,2017-07-30,10:36
Laniarius major,Animalia,HELMETSHRIKES_BUSHSHRIKES_MALACONOTIDAE,Tropical Boubou,,1,10.64448439,5.64398086,Africa,Cameroon,CM,,Cameroon - Noun,2017-07-30,10:36
Macronyx croceus,Animalia,PIPITS_EN_WAGTAILS_MOTACILLIDAE,Yellow-throated Longclaw,,1,10.64448439,5.64398086,Africa,Cameroon,CM,,Cameroon - Noun,2017-07-30,10:36
Crithagra mozambica,Animalia,FINCHES_FRINGILLIDAE,Yellow-fronted Canary,,1,10.64448439,5.64398086,Africa,Cameroon,CM,,Cameroon - Noun,2017-07-30,10:36
Turdus pelios,Animalia,THRUSHES_TURDIDAE,African Thrush,,1,10.63565074,5.63874783,Africa,Cameroon,CM,,Cameroon - Noun,2017-07-31,06:03
Nettapus auritus,Animalia,DUCKS_GEESE_AND_SWANS_ANATIDAE,African Pygmy Goose,,1,10.639181,5.6394703,Africa,Cameroon,CM,,Cameroon - Noun,2017-07-31,06:15
Vidua macroura,Animalia,INDIGOBIRDS_AND_WHYDAHS_VIDUIDAE,Pin-tailed Whydah,,1,10.64002619,5.6392754,Africa,Cameroon,CM,,Cameroon - Noun,2017-07-31,06:23
Crithagra mozambica,Animalia,FINCHES_FRINGILLIDAE,Yellow-fronted Canary,,1,10.64042379,5.63936172,Africa,Cameroon,CM,,Cameroon - Noun,2017-07-31,06:27
Halcyon senegalensis,Animalia,KINGFISHERS_ALCEDINIDAE,Woodland Kingfisher,,1,10.64104166,5.63946605,Africa,Cameroon,CM,,Cameroon - Noun,2017-07-31,06:31
Apalis bamendae,Animalia,CISTICOLAS_AND_ALLIES_CISTICOLIDAE,Bamenda Apalis,,1,10.64454296,5.64237236,Africa,Cameroon,CM,,Cameroon - Noun,2017-07-31,07:35
Psalidoprocne pristoptera,Animalia,SWALLOWS_HIRUNDINIDAE,Black Saw-wing,,1,10.64454285,5.64237234,Africa,Cameroon,CM,,Cameroon - Noun,2017-07-31,07:35
Macronyx croceus,Animalia,PIPITS_EN_WAGTAILS_MOTACILLIDAE,Yellow-throated Longclaw,,1,10.64449161,5.64234835,Africa,Cameroon,CM,,Cameroon - Noun,2017-07-31,07:40
Ploceus baglafecht,Animalia,WEAVERS_PLOCEIDAE,Baglafecht Weaver,,1,10.64449161,5.64234835,Africa,Cameroon,CM,,Cameroon - Noun,2017-07-31,07:40
Pogoniulus bilineatus,Animalia,Lybiidae,Yellow-rumped Tinkerbird,,1,10.64449746,5.64233854,Africa,Cameroon,CM,,Cameroon - Noun,2017-07-31,07:41
Colius striatus,Animalia,MOUSEBIRDS_COLIIDAE,Speckled Mousebird,,1,10.64449746,5.64233854,Africa,Cameroon,CM,,Cameroon - Noun,2017-07-31,07:41
Lamprotornis splendidus,Animalia,STARLINGS_STURNIDAE,Splendid Starling,,1,10.64449746,5.64233854,Africa,Cameroon,CM,,Cameroon - Noun,2017-07-31,07:41
Passer griseus,Animalia,OLD_WORLD_SPARROWS_PASSERIDAE,Northern Grey-headed Sparrow,,1,10.64451077,5.64232601,Africa,Cameroon,CM,,Cameroon - Noun,2017-07-31,07:45
Pycnonotus barbatus,Animalia,BULBULS_PYCNONOTIDAE,Common Bulbul,,1,10.64456653,5.644299,Africa,Cameroon,CM,,Cameroon - Noun,2017-07-31,08:14
Estrilda nonnula,Animalia,WAXBILLS_MUNIAS_ALLIES_ESTRILDIDAE,Black-crowned Waxbill,,1,10.64456653,5.644299,Africa,Cameroon,CM,,Cameroon - Noun,2017-07-31,08:14
Turdoides plebejus,Animalia,Leiothrichidae,Brown Babbler,,1,10.64457351,5.64493523,Africa,Cameroon,CM,,Cameroon - Noun,2017-07-31,08:29
Ploceus nigerrimus,Animalia,WEAVERS_PLOCEIDAE,Vieillot's Black Weaver,,1,10.64449895,5.64405979,Africa,Cameroon,CM,,Cameroon - Noun,2017-07-31,08:34
Nesocharis capistrata,Animalia,WAXBILLS_MUNIAS_ALLIES_ESTRILDIDAE,Grey-headed Oliveback,,1,10.64455649,5.64310689,Africa,Cameroon,CM,,Cameroon - Noun,2017-07-31,08:39
Pogoniulus chrysoconus,Animalia,Lybiidae,Yellow-fronted Tinkerbird,,1,10.64275529,5.64032647,Africa,Cameroon,CM,,Cameroon - Noun,2017-07-31,08:45
Streptopelia semitorquata,Animalia,PIGEONS_AND_DOVES_COLUMBIDAE,Red-eyed Dove,,1,10.64059012,5.63935124,Africa,Cameroon,CM,,Cameroon - Noun,2017-07-31,08:49
Turdus pelios,Animalia,THRUSHES_TURDIDAE,African Thrush,,1,10.63615696,5.63647594,Africa,Cameroon,CM,,Cameroon - Noun,2017-07-31,17:08
Corvus albus,Animalia,CROWS_AND_JAYS_CORVIDAE,Pied Crow,,1,10.63615696,5.63647594,Africa,Cameroon,CM,,Cameroon - Noun,2017-07-31,17:08
Lonchura cucullata,Animalia,WAXBILLS_MUNIAS_ALLIES_ESTRILDIDAE,Bronze Mannikin,,1,10.63615696,5.63647594,Africa,Cameroon,CM,,Cameroon - Noun,2017-07-31,17:08
Vidua macroura,Animalia,INDIGOBIRDS_AND_WHYDAHS_VIDUIDAE,Pin-tailed Whydah,,1,10.63615696,5.63647594,Africa,Cameroon,CM,,Cameroon - Noun,2017-07-31,17:08
Bubulcus ibis,Animalia,HERONS_ARDEIDAE,Western Cattle Egret,,1,10.63614466,5.63647974,Africa,Cameroon,CM,,Cameroon - Noun,2017-07-31,17:09
Scopus umbretta,Animalia,HAMERKOP_SCOPIDAE,Hamerkop,,1,10.63617483,5.63650189,Africa,Cameroon,CM,,Cameroon - Noun,2017-07-31,17:10
Actitis hypoleucos,Animalia,SANDPIPERS_AND_ALLIES_SCOLOPACIDAE,Common Sandpiper,,1,10.63614824,5.63649916,Africa,Cameroon,CM,,Cameroon - Noun,2017-07-31,17:14
Ploceus cucullatus,Animalia,WEAVERS_PLOCEIDAE,Village Weaver,,1,10.63614875,5.63649905,Africa,Cameroon,CM,,Cameroon - Noun,2017-07-31,17:14
Crinifer piscator,Animalia,TURACOS_MUSOPHAGIDAE,Western Plantain-eater,,1,10.63618909,5.63655082,Africa,Cameroon,CM,,Cameroon - Noun,2017-07-31,17:16
Porphyrio madagascariensis,Animalia,RAILS_RALLIDAE,African Swamphen,,1,10.63974219,5.93425607,Africa,Cameroon,CM,,Cameroon - Ngo-Ketunjia,2017-07-28,13:41
Platysteira tonsa,Animalia,WATTLEEYES_BATISES_PLATYSTEIRIDAE,White-spotted Wattle-eye,,1,9.842,2.6095,Africa,Cameroon,CM,,Cameroon,2017-04-18,16:39
Platysteira laticincta,Animalia,WATTLEEYES_BATISES_PLATYSTEIRIDAE,Banded Wattle-eye,,1,10.2006,5.8606,Africa,Cameroon,CM,,Cameroon - Mezam,2017-04-16,09:21
Tauraco bannermani,Animalia,TURACOS_MUSOPHAGIDAE,Bannerman's Turaco,,1,10.2004,5.861,Africa,Cameroon,CM,,Cameroon - Mezam,2017-04-16,08:53
Ploceus bannermani,Animalia,WEAVERS_PLOCEIDAE,Bannerman's Weaver,,1,10.1584,5.8553,Africa,Cameroon,CM,,Cameroon - Mezam,2017-04-15,17:32
Zosterops melanocephalus,Animalia,WHITEEYES_ZOSTEROPIDAE,Mount Cameroon Speirops,,1,9.2037,4.1796,Africa,Cameroon,CM,,Cameroon,2017-04-11,15:06
Cossypha isabellae,Animalia,OLD_WORLD_FLYCATCHERS_MUSCICAPIDAE,Mountain Robin-Chat,,1,9.2237,4.1683,Africa,Cameroon,CM,,Cameroon,2017-04-11,08:58
Platysteira castanea,Animalia,WATTLEEYES_BATISES_PLATYSTEIRIDAE,Chestnut Wattle-eye,,1,12.48367307,3.17726438,Africa,Cameroon,CM,,Cameroon - Dja-et-Lobo,2002-08-17,
Thamnolaea coronata,Animalia,OLD_WORLD_FLYCATCHERS_MUSCICAPIDAE,White-crowned Cliff Chat,,1,13.440718150787182,9.173845000000028,Africa,Cameroon,CM,,Cameroon - Bénoué,1996-11-15,
Lanius humeralis,Animalia,SHRIKES_LANIIDAE,Northern Fiscal,,1,11.5361166,3.87519449,Africa,Cameroon,CM,,Cameroon - Mfoundi,2003-01-28,
Ploceus nigerrimus,Animalia,WEAVERS_PLOCEIDAE,Vieillot's Black Weaver,,1,11.496,3.9136,Africa,Cameroon,CM,,Cameroon - Lekié,2016-11-15,12:05
Schistolais leucopogon,Animalia,CISTICOLAS_AND_ALLIES_CISTICOLIDAE,White-chinned Prinia,,1,11.4972,3.9135,Africa,Cameroon,CM,,Cameroon - Lekié,2016-11-15,08:30
Terpsiphone viridis,Animalia,MONARCHS_MONARCHIDAE,African Paradise Flycatcher,,1,11.4981,3.9135,Africa,Cameroon,CM,,Cameroon - Lekié,2016-11-15,08:25
Cossypha niveicapilla,Animalia,OLD_WORLD_FLYCATCHERS_MUSCICAPIDAE,Snowy-crowned Robin-Chat,,1,11.5015,3.9136,Africa,Cameroon,CM,,Cameroon - Lekié,2016-11-15,07:41
Merops pusillus,Animalia,BEEEATERS_MEROPIDAE,Little Bee-eater,,1,11.5015,3.9137,Africa,Cameroon,CM,,Cameroon - Lekié,2016-11-15,07:32
Lonchura cucullata,Animalia,WAXBILLS_MUNIAS_ALLIES_ESTRILDIDAE,Bronze Mannikin,,1,11.5016,3.9093,Africa,Cameroon,CM,,Cameroon - Lekié,2016-11-15,06:42
Halcyon senegalensis,Animalia,KINGFISHERS_ALCEDINIDAE,Woodland Kingfisher,,1,11.5124,3.9,Africa,Cameroon,CM,,Cameroon - Lekié,2016-11-14,17:19
Streptopelia semitorquata,Animalia,PIGEONS_AND_DOVES_COLUMBIDAE,Red-eyed Dove,,1,11.5124,3.9001,Africa,Cameroon,CM,,Cameroon - Lekié,2016-11-14,16:47
Colius striatus,Animalia,MOUSEBIRDS_COLIIDAE,Speckled Mousebird,,1,11.5125,3.9,Africa,Cameroon,CM,,Cameroon - Lekié,2016-11-14,16:31
Corvus albus,Animalia,CROWS_AND_JAYS_CORVIDAE,Pied Crow,,1,11.5125,3.9,Africa,Cameroon,CM,,Cameroon - Lekié,2016-11-14,16:07
Passer griseus,Animalia,OLD_WORLD_SPARROWS_PASSERIDAE,Northern Grey-headed Sparrow,,1,11.5125,3.9,Africa,Cameroon,CM,,Cameroon - Lekié,2016-11-14,16:06
Crithagra mozambica,Animalia,FINCHES_FRINGILLIDAE,Yellow-fronted Canary,,1,10.2685442660004,6.11323747783899,Africa,Cameroon,CM,,Cameroon - Mezam,2016-11-08,06:32
Euplectes capensis,Animalia,WEAVERS_PLOCEIDAE,Yellow Bishop,,1,10.26850881055,6.11307013314217,Africa,Cameroon,CM,,Cameroon - Mezam,2016-11-08,06:35
Prinia subflava,Animalia,CISTICOLAS_AND_ALLIES_CISTICOLIDAE,Tawny-flanked Prinia,,1,10.2712689712644,6.1115809623152,Africa,Cameroon,CM,,Cameroon - Mezam,2016-11-08,07:42
Turdus pelios,Animalia,THRUSHES_TURDIDAE,African Thrush,,1,10.2664725948125,6.11695376224816,Africa,Cameroon,CM,,Cameroon - Mezam,2016-11-08,10:07
Emberiza goslingi,Animalia,BUNTINGS_EMBERIZIDAE,Gosling's Bunting,,1,10.29764640145,6.09202870633453,Africa,Cameroon,CM,,Cameroon - Mezam,2016-11-10,07:03
Pogoniulus coryphaea,Animalia,Lybiidae,Western Tinkerbird,,2,10.292458254844,6.08904101885855,Africa,Cameroon,CM,,Cameroon - Mezam,2016-11-10,11:05
Tyto alba,Animalia,BARN_OWLS_TYTONIDAE,Western Barn Owl,,1,10.2946972288191,6.09014286193997,Africa,Cameroon,CM,,Cameroon - Mezam,2016-11-10,21:11
Platysteira laticincta,Animalia,WATTLEEYES_BATISES_PLATYSTEIRIDAE,Banded Wattle-eye,,1,10.2986118290573,6.09047629404813,Africa,Cameroon,CM,,Cameroon - Mezam,2016-11-11,16:27
Cryptospiza reichenovii,Animalia,WAXBILLS_MUNIAS_ALLIES_ESTRILDIDAE,Red-faced Crimsonwing,,1,10.3076332714409,6.0926296049729,Africa,Cameroon,CM,,Cameroon - Mezam,2016-11-13,14:03
Nesocharis shelleyi,Animalia,WAXBILLS_MUNIAS_ALLIES_ESTRILDIDAE,Shelley's Oliveback,,1,10.302982321009,6.08925350010395,Africa,Cameroon,CM,,Cameroon - Mezam,2016-11-14,12:42
Oreolais pulcher,Animalia,CISTICOLAS_AND_ALLIES_CISTICOLIDAE,Black-collared Apalis,,1,10.2969304192811,6.09053362626582,Africa,Cameroon,CM,,Cameroon - Mezam,2016-11-15,07:20
Lanius humeralis,Animalia,SHRIKES_LANIIDAE,Northern Fiscal,,1,10.3319314029068,6.09216566663235,Africa,Cameroon,CM,,Cameroon - Mezam,2016-11-15,12:20
Crithagra mozambica,Animalia,FINCHES_FRINGILLIDAE,Yellow-fronted Canary,,1,10.24319563061,6.1351321823895,Africa,Cameroon,CM,,Cameroon - Mezam,2016-11-30,10:51
Laniarius major,Animalia,HELMETSHRIKES_BUSHSHRIKES_MALACONOTIDAE,Tropical Boubou,,1,10.2649926021695,6.11501896753907,Africa,Cameroon,CM,,Cameroon - Mezam,2016-12-01,09:22
Crithagra mozambica,Animalia,FINCHES_FRINGILLIDAE,Yellow-fronted Canary,,1,10.26849917,6.11324561,Africa,Cameroon,CM,,Cameroon - Mezam,2016-11-08,06:32
Euplectes capensis,Animalia,WEAVERS_PLOCEIDAE,Yellow Bishop,,1,10.26862175,6.11310819,Africa,Cameroon,CM,,Cameroon - Mezam,2016-11-08,06:45
Prinia subflava,Animalia,CISTICOLAS_AND_ALLIES_CISTICOLIDAE,Tawny-flanked Prinia,,1,10.27130493,6.11158224,Africa,Cameroon,CM,,Cameroon - Mezam,2016-11-08,07:42
Turdus pelios,Animalia,THRUSHES_TURDIDAE,African Thrush,,1,10.26652353,6.11698081,Africa,Cameroon,CM,,Cameroon - Mezam,2016-11-08,10:07
Oreolais pulcher,Animalia,CISTICOLAS_AND_ALLIES_CISTICOLIDAE,Black-collared Apalis,,2,10.29518074,6.08850317,Africa,Cameroon,CM,,Cameroon - Mezam,2016-11-09,12:11
Emberiza goslingi,Animalia,BUNTINGS_EMBERIZIDAE,Gosling's Bunting,,2,10.29781484,6.09204109,Africa,Cameroon,CM,,Cameroon - Mezam,2016-11-10,06:53
Crithagra mozambica,Animalia,FINCHES_FRINGILLIDAE,Yellow-fronted Canary,,1,10.30303952,6.08934765,Africa,Cameroon,CM,,Cameroon - Mezam,2016-11-10,16:51
Platysteira laticincta,Animalia,WATTLEEYES_BATISES_PLATYSTEIRIDAE,Banded Wattle-eye,,1,10.29879583,6.09038148,Africa,Cameroon,CM,,Cameroon - Mezam,2016-11-11,16:27
Pogoniulus coryphaea,Animalia,Lybiidae,Western Tinkerbird,,1,10.30716197,6.09298292,Africa,Cameroon,CM,,Cameroon - Mezam,2016-11-12,09:05
Crithagra mozambica,Animalia,FINCHES_FRINGILLIDAE,Yellow-fronted Canary,,1,10.30720773,6.09300585,Africa,Cameroon,CM,,Cameroon - Mezam,2016-11-12,10:23
Cryptospiza reichenovii,Animalia,WAXBILLS_MUNIAS_ALLIES_ESTRILDIDAE,Red-faced Crimsonwing,,1,10.3080148,6.09240752,Africa,Cameroon,CM,,Cameroon - Mezam,2016-11-13,12:40
Nesocharis shelleyi,Animalia,WAXBILLS_MUNIAS_ALLIES_ESTRILDIDAE,Shelley's Oliveback,,1,10.30302956,6.08910452,Africa,Cameroon,CM,,Cameroon - Mezam,2016-11-14,13:43
Prinia subflava,Animalia,CISTICOLAS_AND_ALLIES_CISTICOLIDAE,Tawny-flanked Prinia,,1,10.30302956,6.08910452,Africa,Cameroon,CM,,Cameroon - Mezam,2016-11-14,14:15
Lanius humeralis,Animalia,SHRIKES_LANIIDAE,Northern Fiscal,,1,10.33194201,6.09216516,Africa,Cameroon,CM,,Cameroon - Mezam,2016-11-15,12:19
Pogoniulus coryphaea,Animalia,Lybiidae,Western Tinkerbird,,1,10.2921119,6.08916718,Africa,Cameroon,CM,,Cameroon - Mezam,2016-11-16,17:23
Prinia subflava,Animalia,CISTICOLAS_AND_ALLIES_CISTICOLIDAE,Tawny-flanked Prinia,,1,10.30229097,6.09183293,Africa,Cameroon,CM,,Cameroon - Mezam,2016-11-17,10:46
Platysteira laticincta,Animalia,WATTLEEYES_BATISES_PLATYSTEIRIDAE,Banded Wattle-eye,,1,10.30224775,6.09183259,Africa,Cameroon,CM,,Cameroon - Mezam,2016-11-18,10:08
Euplectes capensis,Animalia,WEAVERS_PLOCEIDAE,Yellow Bishop,,1,10.30224383,6.09179393,Africa,Cameroon,CM,,Cameroon - Mezam,2016-11-18,10:09
Emberiza goslingi,Animalia,BUNTINGS_EMBERIZIDAE,Gosling's Bunting,,5,10.30015498,6.09551071,Africa,Cameroon,CM,,Cameroon - Mezam,2016-11-18,17:26
Thamnolaea coronata,Animalia,OLD_WORLD_FLYCATCHERS_MUSCICAPIDAE,White-crowned Cliff Chat,,1,10.29797813,6.09280485,Africa,Cameroon,CM,,Cameroon - Mezam,2016-11-18,18:01
Turdus pelios,Animalia,THRUSHES_TURDIDAE,African Thrush,,1,10.30229359,6.09185244,Africa,Cameroon,CM,,Cameroon - Mezam,2016-11-19,10:08
Oreolais pulcher,Animalia,CISTICOLAS_AND_ALLIES_CISTICOLIDAE,Black-collared Apalis,,1,10.30222357,6.09189731,Africa,Cameroon,CM,,Cameroon - Mezam,2016-11-19,10:40
Platysteira laticincta,Animalia,WATTLEEYES_BATISES_PLATYSTEIRIDAE,Banded Wattle-eye,,1,10.29539224,6.09384809,Africa,Cameroon,CM,,Cameroon - Mezam,2016-11-22,09:22
Pogoniulus coryphaea,Animalia,Lybiidae,Western Tinkerbird,,1,10.30147059,6.0965855,Africa,Cameroon,CM,,Cameroon - Mezam,2016-11-23,07:53
Oreolais pulcher,Animalia,CISTICOLAS_AND_ALLIES_CISTICOLIDAE,Black-collared Apalis,,1,10.30147059,6.0965855,Africa,Cameroon,CM,,Cameroon - Mezam,2016-11-23,07:54
Nesocharis shelleyi,Animalia,WAXBILLS_MUNIAS_ALLIES_ESTRILDIDAE,Shelley's Oliveback,,1,10.30664273,6.09656606,Africa,Cameroon,CM,,Cameroon - Mezam,2016-11-24,08:04
Crithagra mozambica,Animalia,FINCHES_FRINGILLIDAE,Yellow-fronted Canary,,1,10.33831692,6.08623201,Africa,Cameroon,CM,,Cameroon - Mezam,2016-11-25,13:10
Pogoniulus coryphaea,Animalia,Lybiidae,Western Tinkerbird,,1,10.29777485,6.09305436,Africa,Cameroon,CM,,Cameroon - Mezam,2016-11-26,16:03
Emberiza goslingi,Animalia,BUNTINGS_EMBERIZIDAE,Gosling's Bunting,,1,10.29777485,6.09305436,Africa,Cameroon,CM,,Cameroon - Mezam,2016-11-26,16:03
Oreolais pulcher,Animalia,CISTICOLAS_AND_ALLIES_CISTICOLIDAE,Black-collared Apalis,,1,10.29777485,6.09305436,Africa,Cameroon,CM,,Cameroon - Mezam,2016-11-26,16:10
Euplectes capensis,Animalia,WEAVERS_PLOCEIDAE,Yellow Bishop,,1,10.29777485,6.09305436,Africa,Cameroon,CM,,Cameroon - Mezam,2016-11-26,16:56
Cryptospiza reichenovii,Animalia,WAXBILLS_MUNIAS_ALLIES_ESTRILDIDAE,Red-faced Crimsonwing,,2,10.2954592,6.09413888,Africa,Cameroon,CM,,Cameroon - Mezam,2016-11-28,08:39
Laniarius major,Animalia,HELMETSHRIKES_BUSHSHRIKES_MALACONOTIDAE,Tropical Boubou,,1,10.22096368,6.08957495,Africa,Cameroon,CM,,Cameroon - Mezam,2016-11-29,08:31
Lanius humeralis,Animalia,SHRIKES_LANIIDAE,Northern Fiscal,,1,10.20757336,6.09302735,Africa,Cameroon,CM,,Cameroon - Mezam,2016-11-29,13:14
Halcyon leucocephala,Animalia,KINGFISHERS_ALCEDINIDAE,Grey-headed Kingfisher,,1,9.8527944087982,2.3294841260677,Africa,Cameroon,CM,,Cameroon,2001-10-28,
Centropus leucogaster,Animalia,CUCKOOS_AND_COUCALS_CUCULIDAE,Black-throated Coucal,,1,10.126079320908,2.3679039711868,Africa,Cameroon,CM,,Cameroon - Campo - Ma'an NP,2001-08-25,
Centropus grillii,Animalia,CUCKOOS_AND_COUCALS_CUCULIDAE,Black Coucal,,1,10.154859423637,2.357958757025,Africa,Cameroon,CM,,Cameroon - Campo - Ma'an NP,2001-08-16,
Varanus niloticus,Animalia,Varanidae,Nile Monitor,,1,9.9346232414246,2.3675555817041,Africa,Cameroon,CM,,Cameroon,1994-07-14,
Genetta maculata,Animalia,CIVETS_VIVERRIDAE,Central African Large-spotted Genet,,1,13.656949996948,8.6488686125518,Africa,Cameroon,CM,,Cameroon - Mayo-Rey,2002-06-18,
Redunca redunca,Animalia,BOVIDS_BOVIDAE,Bohor Reedbuck,,1,13.672957420349,8.6543204851924,Africa,Cameroon,CM,,Cameroon - Mayo-Rey,2002-05-17,
Kobus kob,Animalia,BOVIDS_BOVIDAE,Kob,,1,13.666090965271,8.6556781376968,Africa,Cameroon,CM,,Cameroon - Mayo-Rey,2001-02-09,
Hippotragus equinus,Animalia,BOVIDS_BOVIDAE,Roan Antelope,,12,14.685072898865,11.286139726029,Africa,Cameroon,CM,,Cameroon - Waza NP,1996-02-09,
Civettictis civetta,Animalia,CIVETS_VIVERRIDAE,African Civet,,1,10.541853904724,2.4039055297266,Africa,Cameroon,CM,,Cameroon - Vallée-du-Ntem,2002-05-10,
Cricetomys emini,Animalia,AFRICAN_RATS_AND_MICE_NESOMYIDAE,Giant Rat,,1,9.8323130607605,2.3785324881656,Africa,Cameroon,CM,,Cameroon,2002-05-10,
Philantomba monticola,Animalia,BOVIDS_BOVIDAE,Blue Duiker,,1,9.951810836792,2.6576949209567,Africa,Cameroon,CM,,Cameroon,2002-05-10,
Prionops plumatus concinnatus,Animalia,VANGAS_VANGIDAE,White-crested Helmetshrike ssp concinnatus,,16,13.69867,7.13632,Africa,Cameroon,CM,,Cameroon - Vina,2016-04-27,
Ploceus bannermani,Animalia,WEAVERS_PLOCEIDAE,Bannerman's Weaver,,1,10.10184,5.85667,Africa,Cameroon,CM,,Cameroon - Mezam,2016-04-18,
Onychognathus neumanni,Animalia,STARLINGS_STURNIDAE,Neumann's Starling,,9,10.32781,6.0216,Africa,Cameroon,CM,,Cameroon - Mezam,2016-04-19,
Zosterops melanocephalus,Animalia,WHITEEYES_ZOSTEROPIDAE,Mount Cameroon Speirops,,15,9.20407,4.18133,Africa,Cameroon,CM,,Cameroon,2016-04-16,
Platysteira tonsa,Animalia,WATTLEEYES_BATISES_PLATYSTEIRIDAE,White-spotted Wattle-eye,,2,9.8471500000001,2.57493,Africa,Cameroon,CM,,Cameroon,2016-05-04,
Platysteira laticincta,Animalia,WATTLEEYES_BATISES_PLATYSTEIRIDAE,Banded Wattle-eye,,1,10.20164,5.86222,Africa,Cameroon,CM,,Cameroon - Mezam,2016-04-18,
Tauraco bannermani,Animalia,TURACOS_MUSOPHAGIDAE,Bannerman's Turaco,,4,10.20164,5.86222,Africa,Cameroon,CM,,Cameroon - Mezam,2016-04-18,
Lanius gubernator,Animalia,SHRIKES_LANIIDAE,Emin's Shrike,,2,13.34973,8.48399,Africa,Cameroon,CM,,Cameroon - Faro,2016-04-30,
Chalcostephia flavifrons,Animalia,SKIMMERS_LIBELLULIDAE,Yellowface,,1,13.690921067973,7.1317964224993,Africa,Cameroon,CM,,Cameroon - Vina,2016-04-25,
Palpopleura lucia,Animalia,SKIMMERS_LIBELLULIDAE,Lucia Widow,,1,13.690921067973,7.1317964224993,Africa,Cameroon,CM,,Cameroon - Vina,2016-04-25,
Platysteira castanea,Animalia,WATTLEEYES_BATISES_PLATYSTEIRIDAE,Chestnut Wattle-eye,,1,10.1953125,2.460181181021,Africa,Cameroon,CM,,Cameroon - Campo - Ma'an NP,2016-05-03,
Picathartes oreas,Animalia,BALD_CROWS_PICATHARTIDAE,Grey-necked Rockfowl,,1,10.257625579834,2.3942366017763,Africa,Cameroon,CM,,Cameroon - Campo - Ma'an NP,2016-05-03,
Lamprotornis caudatus,Animalia,STARLINGS_STURNIDAE,Long-tailed Glossy Starling,,1,13.75488281,8.95019283,Africa,Cameroon,CM,,Cameroon - Bénoué,2016-04-29,
Lamprotornis caudatus,Animalia,STARLINGS_STURNIDAE,Long-tailed Glossy Starling,,1,13.38134766,7.36791471,Africa,Cameroon,CM,,Cameroon - Vina,2016-04-25,
Dicrurus divaricatus divaricatus,Animalia,DRONGOS_DICRURIDAE,Glossy-backed Drongo ssp divaricatus,,1,13.38134765625,7.3679147067478,Africa,Cameroon,CM,,Cameroon - Vina,2016-04-25,
Dicrurus sharpei,Animalia,DRONGOS_DICRURIDAE,Sharpe's Drongo,,1,13.38134765625,7.3679147067478,Africa,Cameroon,CM,,Cameroon - Vina,2016-04-25,
Platysteira concreta,Animalia,WATTLEEYES_BATISES_PLATYSTEIRIDAE,Yellow-bellied Wattle-eye,,2,9.6844482421875,4.7844689665794,Africa,Cameroon,CM,,Cameroon - Koupé-Manengouba,2016-05-07,
Platysteira castanea,Animalia,WATTLEEYES_BATISES_PLATYSTEIRIDAE,Chestnut Wattle-eye,,1,9.6624755859375,4.7844689665794,Africa,Cameroon,CM,,Cameroon - Koupé-Manengouba,2016-04-22,
Zosterops melanocephalus,Animalia,WHITEEYES_ZOSTEROPIDAE,Mount Cameroon Speirops,,15,9.2129802703857,4.2532475441478,Africa,Cameroon,CM,,Cameroon,2016-04-16,
Cossypha isabellae,Animalia,OLD_WORLD_FLYCATCHERS_MUSCICAPIDAE,Mountain Robin-Chat,,1,9.2349529266357,4.2258568793153,Africa,Cameroon,CM,,Cameroon,2016-04-16,
Bitis nasicornis,Animalia,Viperidae,Rhinoceros Viper,,1,10.105305612087,2.3709952540272,Africa,Cameroon,CM,,Cameroon - Campo - Ma'an NP,2002-03-22,
Lepidochelys olivacea,Animalia,Cheloniidae,Olive Ridley Sea Turtle,,1,9.90646407008,2.94244021784,Africa,Cameroon,CM,,Cameroon,2002-02-15,
Dermochelys coriacea,Animalia,Dermochelydae,Leatherback Turtle,,1,9.90646407008,2.94244021784,Africa,Cameroon,CM,,Cameroon,2002-02-15,
Eretmochelys imbricata,Animalia,Cheloniidae,Hawksbill Turtle,,1,9.90646407008,2.94244021784,Africa,Cameroon,CM,,Cameroon,2002-02-15,
Chelonia mydas,Animalia,Cheloniidae,Green Turtle,,1,9.90646407008,2.94244021784,Africa,Cameroon,CM,,Cameroon,2002-02-15,
Caretta caretta,Animalia,Cheloniidae,Loggerhead,,1,9.90646407008,2.94244021784,Africa,Cameroon,CM,,Cameroon,2002-02-15,
Cossypha isabellae,Animalia,OLD_WORLD_FLYCATCHERS_MUSCICAPIDAE,Mountain Robin-Chat,,1,9.20974732842,4.1777810766,Africa,Cameroon,CM,,Cameroon,2015-03-24,
Alethe castanea,Animalia,OLD_WORLD_FLYCATCHERS_MUSCICAPIDAE,Fire-crested Alethe,,1,9.20974732842,4.1777810766,Africa,Cameroon,CM,,Cameroon,2015-03-24,
Peliperdix lathami,Animalia,FRANCOLINS_QUAILS_PARTRIDGES_AND_PHEASANTS_PHASIANIDAE,Latham's Francolin,,1,10.4182577133,3.06370307618,Africa,Cameroon,CM,,Cameroon,1995-10-15,
Neotragus batesi,Animalia,BOVIDS_BOVIDAE,Bates' Pygmy Antelope,,1,10.243438639084303,2.4600500000000523,Africa,Cameroon,CM,,Cameroon - Campo - Ma'an NP,2001-05-28,
Corvus albus,Animalia,CROWS_AND_JAYS_CORVIDAE,Pied Crow,,1,10.243438639084303,2.4600500000000523,Africa,Cameroon,CM,,Cameroon - Campo - Ma'an NP,2001-12-14,
Dicrurus divaricatus divaricatus,Animalia,DRONGOS_DICRURIDAE,Glossy-backed Drongo ssp divaricatus,,1,10.243438639084303,2.4600500000000523,Africa,Cameroon,CM,,Cameroon - Campo - Ma'an NP,2001-12-14,
Oriolus brachyrynchus,Animalia,ORIOLES_AND_FIG_BIRDS_ORIOLIDAE,Western Oriole,,1,10.243438639084303,2.4600500000000523,Africa,Cameroon,CM,,Cameroon - Campo - Ma'an NP,2001-12-14,
Platysteira castanea,Animalia,WATTLEEYES_BATISES_PLATYSTEIRIDAE,Chestnut Wattle-eye,,1,10.243438639084303,2.4600500000000523,Africa,Cameroon,CM,,Cameroon - Campo - Ma'an NP,2001-12-14,
Chrysococcyx klaas,Animalia,CUCKOOS_AND_COUCALS_CUCULIDAE,Klaas's Cuckoo,,1,10.243438639084303,2.4600500000000523,Africa,Cameroon,CM,,Cameroon - Campo - Ma'an NP,2001-08-21,
Corythaeola cristata,Animalia,TURACOS_MUSOPHAGIDAE,Great Blue Turaco,,1,10.243438639084303,2.4600500000000523,Africa,Cameroon,CM,,Cameroon - Campo - Ma'an NP,2001-08-21,
Glareola nuchalis,Animalia,COURSERS_AND_PRATINCOLES_GLAREOLIDAE,Rock Pratincole,,1,10.243438639084303,2.4600500000000523,Africa,Cameroon,CM,,Cameroon - Campo - Ma'an NP,2001-08-21,
Lophaetus occipitalis,Animalia,HAWKS_AND_EAGLES_ACCIPITRIDAE,Long-crested Eagle,,1,10.243438639084303,2.4600500000000523,Africa,Cameroon,CM,,Cameroon - Campo - Ma'an NP,2001-08-21,
Egretta garzetta,Animalia,HERONS_ARDEIDAE,Little Egret,,1,10.243438639084303,2.4600500000000523,Africa,Cameroon,CM,,Cameroon - Campo - Ma'an NP,2001-08-21,
Ixobrychus sturmii,Animalia,HERONS_ARDEIDAE,Dwarf Bittern,,1,10.243438639084303,2.4600500000000523,Africa,Cameroon,CM,,Cameroon - Campo - Ma'an NP,2001-08-21,
Ardeotis arabs,Animalia,BUSTARDS_OTIDIDAE,Arabian Bustard,,1,14.672450895445198,11.28717000000006,Africa,Cameroon,CM,,Cameroon - Waza NP,1996-08-30,
Aquila rapax,Animalia,HAWKS_AND_EAGLES_ACCIPITRIDAE,Tawny Eagle,,1,14.672450895445198,11.28717000000006,Africa,Cameroon,CM,,Cameroon - Waza NP,1996-08-30,
Chelictinia riocourii,Animalia,HAWKS_AND_EAGLES_ACCIPITRIDAE,Scissor-tailed Kite,,1,14.672450895445198,11.28717000000006,Africa,Cameroon,CM,,Cameroon - Waza NP,1996-08-30,
Gyps rueppelli,Animalia,HAWKS_AND_EAGLES_ACCIPITRIDAE,Rüppell's Vulture,,6,14.684171676636,11.2591827317,Africa,Cameroon,CM,,Cameroon - Waza NP,1996-08-30,
Terathopius ecaudatus,Animalia,HAWKS_AND_EAGLES_ACCIPITRIDAE,Bateleur,,1,14.672450895445198,11.28717000000006,Africa,Cameroon,CM,,Cameroon - Waza NP,1996-08-30,
Threskiornis aethiopicus,Animalia,IBISSES_AND_SPOONBILLS_THRESKIORNITHIDAE,African Sacred Ibis,,1,14.672450895445198,11.28717000000006,Africa,Cameroon,CM,,Cameroon - Waza NP,1996-08-30,
Ardea melanocephala,Animalia,HERONS_ARDEIDAE,Black-headed Heron,,1,14.672450895445198,11.28717000000006,Africa,Cameroon,CM,,Cameroon - Waza NP,1996-08-30,
Struthio camelus,Animalia,OSTRICHES_STRUTHIONIDAE,Common Ostrich,,1,14.672450895445198,11.28717000000006,Africa,Cameroon,CM,,Cameroon - Waza NP,1996-08-30,
Phacochoerus africanus,Animalia,PIGS_SUIDAE,Common Warthog,,1,14.366323399232297,8.182500000000033,Africa,Cameroon,CM,,Cameroon - Mayo-Rey,1999-08-19,
Hystrix cristata,Animalia,OLD_WORLD_PORCUPINES_HYSTRICIDAE,Crested Porcupine,,1,13.67068291,8.66787558,Africa,Cameroon,CM,,Cameroon - Mayo-Rey,1999-08-19,
Papio anubis,Animalia,OLD_WORLD_MONKEYS_CERCOPITHECIDAE,Olive Baboon,,1,14.366323399232297,8.182500000000033,Africa,Cameroon,CM,,Cameroon - Mayo-Rey,1999-08-19,
Kobus ellipsiprymnus defassa,Animalia,BOVIDS_BOVIDAE,Defassa Waterbuck,,1,14.366323399232297,8.182500000000033,Africa,Cameroon,CM,,Cameroon - Mayo-Rey,1999-08-19,
Colobus guereza occidentalis,Animalia,OLD_WORLD_MONKEYS_CERCOPITHECIDAE,Western Guereza,,1,14.366323399232297,8.182500000000033,Africa,Cameroon,CM,,Cameroon - Mayo-Rey,1999-08-19,
Chlorocebus tantalus,Animalia,OLD_WORLD_MONKEYS_CERCOPITHECIDAE,Tantalus Monkey,,1,14.366323399232297,8.182500000000033,Africa,Cameroon,CM,,Cameroon - Mayo-Rey,1999-08-19,
Tragelaphus scriptus,Animalia,BOVIDS_BOVIDAE,Bushbuck,,1,14.366323399232297,8.182500000000033,Africa,Cameroon,CM,,Cameroon - Mayo-Rey,1999-08-19,
Emberiza goslingi,Animalia,BUNTINGS_EMBERIZIDAE,Gosling's Bunting,,1,14.366323399232297,8.182500000000033,Africa,Cameroon,CM,,Cameroon - Mayo-Rey,1999-08-19,
Vidua chalybeata,Animalia,INDIGOBIRDS_AND_WHYDAHS_VIDUIDAE,Village Indigobird,,1,14.366323399232297,8.182500000000033,Africa,Cameroon,CM,,Cameroon - Mayo-Rey,1999-08-19,
Uraeginthus bengalus,Animalia,WAXBILLS_MUNIAS_ALLIES_ESTRILDIDAE,Red-cheeked Cordon-bleu,,1,14.366323399232297,8.182500000000033,Africa,Cameroon,CM,,Cameroon - Mayo-Rey,1999-08-19,
Lagonosticta senegala,Animalia,WAXBILLS_MUNIAS_ALLIES_ESTRILDIDAE,Red-billed Firefinch,,1,14.366323399232297,8.182500000000033,Africa,Cameroon,CM,,Cameroon - Mayo-Rey,1999-08-19,
Ploceus cucullatus,Animalia,WEAVERS_PLOCEIDAE,Village Weaver,,1,14.366323399232297,8.182500000000033,Africa,Cameroon,CM,,Cameroon - Mayo-Rey,1999-08-19,
Bucorvus abyssinicus,Animalia,GROUND_HORNBILLS_BUCORVIDAE,Abyssinian Ground Hornbill,,2,13.6697387695,8.66791800236,Africa,Cameroon,CM,,Cameroon - Mayo-Rey,1999-08-19,
Coracias abyssinicus,Animalia,ROLLERS_CORACIIDAE,Abyssinian Roller,,1,13.6697387695,8.66791800236,Africa,Cameroon,CM,,Cameroon - Mayo-Rey,1999-08-19,
Merops nubicus,Animalia,BEEEATERS_MEROPIDAE,Northern Carmine Bee-eater,,1,13.6697387695,8.66791800236,Africa,Cameroon,CM,,Cameroon - Mayo-Rey,1999-08-19,
Merops pusillus,Animalia,BEEEATERS_MEROPIDAE,Little Bee-eater,,1,13.6697387695,8.66791800236,Africa,Cameroon,CM,,Cameroon - Mayo-Rey,1999-08-19,
Merops bulocki,Animalia,BEEEATERS_MEROPIDAE,Red-throated Bee-eater,,1,13.6697387695,8.66791800236,Africa,Cameroon,CM,,Cameroon - Mayo-Rey,1999-08-19,
Halcyon senegalensis,Animalia,KINGFISHERS_ALCEDINIDAE,Woodland Kingfisher,,1,13.6697387695,8.66791800236,Africa,Cameroon,CM,,Cameroon - Mayo-Rey,1999-08-19,
Halcyon leucocephala,Animalia,KINGFISHERS_ALCEDINIDAE,Grey-headed Kingfisher,,1,13.6697387695,8.66791800236,Africa,Cameroon,CM,,Cameroon - Mayo-Rey,1999-08-19,
Ispidina picta,Animalia,KINGFISHERS_ALCEDINIDAE,African Pygmy Kingfisher,,1,13.6697387695,8.66791800236,Africa,Cameroon,CM,,Cameroon - Mayo-Rey,1999-08-19,
Spilopelia senegalensis,Animalia,PIGEONS_AND_DOVES_COLUMBIDAE,Laughing Dove,,1,13.6697387695,8.66791800236,Africa,Cameroon,CM,,Cameroon - Mayo-Rey,1999-08-19,
Pterocles exustus,Animalia,SANDGROUSE_PTEROCLIDAE,Chestnut-bellied Sandgrouse,,1,13.6697387695,8.66791800236,Africa,Cameroon,CM,,Cameroon - Mayo-Rey,1999-08-19,
Glareola cinerea,Animalia,COURSERS_AND_PRATINCOLES_GLAREOLIDAE,Grey Pratincole,,1,13.6697387695,8.66791800236,Africa,Cameroon,CM,,Cameroon - Mayo-Rey,1999-08-19,
Pluvianus aegyptius,Animalia,Pluvianidae,Egyptian Plover,,1,13.6697387695,8.66791800236,Africa,Cameroon,CM,,Cameroon - Mayo-Rey,1999-08-19,
Numida meleagris,Animalia,GUINEAFOWL_NUMIDIDAE,Helmeted Guineafowl,,1,13.6697387695,8.66791800236,Africa,Cameroon,CM,,Cameroon - Mayo-Rey,1999-08-19,
Sagittarius serpentarius,Animalia,Sagittariidae,Secretarybird,,1,13.6697387695,8.66791800236,Africa,Cameroon,CM,,Cameroon - Mayo-Rey,1999-08-19,
Milvus aegyptius,Animalia,HAWKS_AND_EAGLES_ACCIPITRIDAE,Yellow-billed Kite,,1,13.6697387695,8.66791800236,Africa,Cameroon,CM,,Cameroon - Mayo-Rey,1999-08-19,
Ephippiorhynchus senegalensis,Animalia,STORKS_CICONIIDAE,Saddle-billed Stork,,1,13.6697387695,8.66791800236,Africa,Cameroon,CM,,Cameroon - Mayo-Rey,1999-08-19,
Ciconia abdimii,Animalia,STORKS_CICONIIDAE,Abdim's Stork,,1,13.6697387695,8.66791800236,Africa,Cameroon,CM,,Cameroon - Mayo-Rey,1999-08-19,
Lanius humeralis,Animalia,SHRIKES_LANIIDAE,Northern Fiscal,,1,9.2128944397,4.19936405015,Africa,Cameroon,CM,,Cameroon,2012-11-29,
Saxicola torquatus,Animalia,OLD_WORLD_FLYCATCHERS_MUSCICAPIDAE,African Stonechat,,2,9.2240524292,4.16940338608,Africa,Cameroon,CM,,Cameroon,2012-11-29,
Cossypha isabellae,Animalia,OLD_WORLD_FLYCATCHERS_MUSCICAPIDAE,Mountain Robin-Chat,,1,9.2240524292,4.16940338608,Africa,Cameroon,CM,,Cameroon,2012-11-29,
Colius striatus,Animalia,MOUSEBIRDS_COLIIDAE,Speckled Mousebird,,1,9.21855926514,4.17693646084,Africa,Cameroon,CM,,Cameroon,2012-11-29,
Accipiter toussenelii macroscelides,Animalia,HAWKS_AND_EAGLES_ACCIPITRIDAE,Red-chested Goshawk ssp macroscelides,,1,9.21855926514,4.17693646084,Africa,Cameroon,CM,,Cameroon,2012-11-29,
Euodice cantans cantans,Animalia,WAXBILLS_MUNIAS_ALLIES_ESTRILDIDAE,African Silverbill ssp cantans,,1,14.46178436,10.86550724,Africa,Cameroon,CM,,Cameroon - Diamaré,1995-11-30,
Emberiza goslingi,Animalia,BUNTINGS_EMBERIZIDAE,Gosling's Bunting,,1,13.618568343108818,7.36444425582885,Africa,Cameroon,CM,,Cameroon,1995-12-01,
Chalcomitra adelberti,Animalia,SUNBIRDS_NECTARINIIDAE,Buff-throated Sunbird,,1,9.807069746397731,6.013840000000073,Africa,Cameroon,CM,,Cameroon - Momo,1995-11-30,
Platysteira castanea,Animalia,WATTLEEYES_BATISES_PLATYSTEIRIDAE,Chestnut Wattle-eye,,1,10.8582687378,3.32681483874,Africa,Cameroon,CM,,Cameroon,1995-10-15,
Alethe castanea,Animalia,OLD_WORLD_FLYCATCHERS_MUSCICAPIDAE,Fire-crested Alethe,,1,13.440718150787182,9.173845000000028,Africa,Cameroon,CM,,Cameroon - Bénoué,1995-11-10,
Ptilostomus afer,Animalia,CROWS_AND_JAYS_CORVIDAE,Piapiac,,1,14.312306286826358,10.609355000000079,Africa,Cameroon,CM,,Cameroon - Diamaré,1995-11-30,
Dicrurus divaricatus divaricatus,Animalia,DRONGOS_DICRURIDAE,Glossy-backed Drongo ssp divaricatus,,4,14.672450895445198,11.28717000000006,Africa,Cameroon,CM,,Cameroon - Waza NP,2003-03-28,
Coracias abyssinicus,Animalia,ROLLERS_CORACIIDAE,Abyssinian Roller,,1,14.672450895445198,11.28717000000006,Africa,Cameroon,CM,,Cameroon - Waza NP,2003-03-28,
Pelecanus onocrotalus,Animalia,PELICANS_PELECANIDAE,Great White Pelican,,20,14.672450895445198,11.28717000000006,Africa,Cameroon,CM,,Cameroon - Waza NP,2003-03-28,
Anastomus lamelligerus,Animalia,STORKS_CICONIIDAE,African Openbill,,10,14.672450895445198,11.28717000000006,Africa,Cameroon,CM,,Cameroon - Waza NP,2003-03-28,
Ardea melanocephala,Animalia,HERONS_ARDEIDAE,Black-headed Heron,,2,14.672450895445198,11.28717000000006,Africa,Cameroon,CM,,Cameroon - Waza NP,2003-03-28,
Balearica pavonina pavonina,Animalia,CRANES_GRUIDAE,Black Crowned Crane ssp pavonina,,70,14.672450895445198,11.28717000000006,Africa,Cameroon,CM,,Cameroon - Waza NP,2003-03-28,
Dendrocygna viduata,Animalia,DUCKS_GEESE_AND_SWANS_ANATIDAE,White-faced Whistling Duck,,20,14.672450895445198,11.28717000000006,Africa,Cameroon,CM,,Cameroon - Waza NP,2003-03-28,
Peliperdix lathami,Animalia,FRANCOLINS_QUAILS_PARTRIDGES_AND_PHEASANTS_PHASIANIDAE,Latham's Francolin,,2,10.4022502899,3.0499682791,Africa,Cameroon,CM,,Cameroon,1995-10-15,
Gyps rueppelli,Animalia,HAWKS_AND_EAGLES_ACCIPITRIDAE,Rüppell's Vulture,,1,14.672347321258924,11.286400000000071,Africa,Cameroon,CM,,Cameroon - Waza NP,1995-12-01,
Butastur rufipennis,Animalia,HAWKS_AND_EAGLES_ACCIPITRIDAE,Grasshopper Buzzard,,1,14.672450895445198,11.28717000000006,Africa,Cameroon,CM,,Cameroon - Waza NP,1995-12-03,
Ciconia abdimii,Animalia,STORKS_CICONIIDAE,Abdim's Stork,,100,14.672450895445198,11.28717000000006,Africa,Cameroon,CM,,Cameroon - Waza NP,1995-12-03,
Merops nubicus,Animalia,BEEEATERS_MEROPIDAE,Northern Carmine Bee-eater,,500,13.8376531005,8.33261015259,Africa,Cameroon,CM,,Cameroon - Benoue NP,2003-03-25,
