scientificName,kingdom,family,vernacularName,previousIdentifications,individualCount,longitudeDecimal,latitudeDecimal,continent,country,countryCode,stateProvince,locality,eventDate,eventTime
Merops variegatus,Animalia,BEEEATERS_MEROPIDAE,Blue-breasted Bee-eater,,1,16.2608529255,2.90161700238,Africa,Central African Republic,CF,,Central African Republic - Sangha-Mbaéré,2010-07-12,
Psittacus erithacus,Animalia,PARROTS_PSITTACIDAE,Grey Parrot,,1,16.3632703945,2.95537327729,Africa,Central African Republic,CF,,Central African Republic - Dzanga,2010-07-10,
Psittacus erithacus,Animalia,PARROTS_PSITTACIDAE,Grey Parrot,,2,16.431176886,2.92086095614,Africa,Central African Republic,CF,,Central African Republic - Dzanga,2010-07-10,
Colobus guereza occidentalis,Animalia,OLD_WORLD_MONKEYS_CERCOPITHECIDAE,Western Guereza,,1,16.4330866188,2.91681071743,Africa,Central African Republic,CF,,Central African Republic - Dzanga,2010-07-09,
Lonchura cucullata,Animalia,WAXBILLS_MUNIAS_ALLIES_ESTRILDIDAE,Bronze Mannikin,,1,16.4309837669,2.91423912972,Africa,Central African Republic,CF,,Central African Republic - Dzanga,2010-07-09,
Gypohierax angolensis,Animalia,HAWKS_AND_EAGLES_ACCIPITRIDAE,Palm-nut Vulture,,1,16.4309837669,2.91423912972,Africa,Central African Republic,CF,,Central African Republic - Dzanga,2010-07-09,
Scopus umbretta,Animalia,HAMERKOP_SCOPIDAE,Hamerkop,,1,16.4311302826,2.91627513789,Africa,Central African Republic,CF,,Central African Republic - Dzanga,2010-07-09,
Fraseria cinerascens,Animalia,OLD_WORLD_FLYCATCHERS_MUSCICAPIDAE,White-browed Forest Flycatcher,,1,16.4674477279,2.85941972765,Africa,Central African Republic,CF,,Central African Republic - Dzanga,2010-07-02,
Lophoceros fasciatus,Animalia,HORNBILLS_BUCEROTIDAE,African Pied Hornbill,,1,16.4693360031,2.85916255614,Africa,Central African Republic,CF,,Central African Republic - Dzanga,2010-06-24,
Halcyon senegalensis,Animalia,KINGFISHERS_ALCEDINIDAE,Woodland Kingfisher,,1,16.4701943099,2.85847676519,Africa,Central African Republic,CF,,Central African Republic - Dzanga,2010-06-24,
Prinia bairdii,Animalia,CISTICOLAS_AND_ALLIES_CISTICOLIDAE,Banded Prinia,,1,16.469078511,2.85933400382,Africa,Central African Republic,CF,,Central African Republic - Dzanga,2010-06-24,
Junonia sophia,Animalia,BRUSHFOOTED_BUTTERFLIES_NYMPHALIDAE,Little Comodore,,1,16.469078511,2.85933400382,Africa,Central African Republic,CF,,Central African Republic - Dzanga,2010-06-24,
Aves indet.,Animalia,unknown,Unidentified bird,,1,16.4712242782,2.85611935567,Africa,Central African Republic,CF,,Central African Republic - Dzanga,2010-06-23,
Neptis agouale,Animalia,BRUSHFOOTED_BUTTERFLIES_NYMPHALIDAE,,,1,16.4712242782,2.85611935567,Africa,Central African Republic,CF,,Central African Republic - Dzanga,2010-06-22,
Pteronetta hartlaubii,Animalia,DUCKS_GEESE_AND_SWANS_ANATIDAE,Hartlaub's Duck,,1,16.4712242782,2.85611935567,Africa,Central African Republic,CF,,Central African Republic - Dzanga,2010-06-21,
Spermophaga poliogenys,Animalia,WAXBILLS_MUNIAS_ALLIES_ESTRILDIDAE,Grant's Bluebill,,1,16.4673618972,2.85950545147,Africa,Central African Republic,CF,,Central African Republic - Dzanga,2010-06-20,
Ciconia episcopus,Animalia,STORKS_CICONIIDAE,Woolly-necked Stork,,1,16.364486441,2.95414093402,Africa,Central African Republic,CF,,Central African Republic - Dzanga,2010-06-10,
Motacilla aguimp,Animalia,PIPITS_EN_WAGTAILS_MOTACILLIDAE,African Pied Wagtail,,1,16.364486441,2.95414093402,Africa,Central African Republic,CF,,Central African Republic - Dzanga,2010-06-10,
Ardea cinerea,Animalia,HERONS_ARDEIDAE,Grey Heron,,1,16.3648297638,2.95287661303,Africa,Central African Republic,CF,,Central African Republic - Dzanga,2010-06-09,
Bostrychia hagedash,Animalia,IBISSES_AND_SPOONBILLS_THRESKIORNITHIDAE,Hadada Ibis,,1,16.3648297638,2.95287661303,Africa,Central African Republic,CF,,Central African Republic - Dzanga,2010-06-09,
Fraseria ocreata,Animalia,OLD_WORLD_FLYCATCHERS_MUSCICAPIDAE,Fraser's Forest Flycatcher,,1,16.3640572876,2.9536480633,Africa,Central African Republic,CF,,Central African Republic - Dzanga,2010-06-09,
Bubulcus ibis,Animalia,HERONS_ARDEIDAE,Western Cattle Egret,,1,16.3649155945,2.95392664243,Africa,Central African Republic,CF,,Central African Republic - Dzanga,2010-06-09,
Aves indet.,Animalia,unknown,Unidentified bird,,1,16.3641216606,2.95354091746,Africa,Central African Republic,CF,,Central African Republic - Dzanga,2010-06-09,
Pteronetta hartlaubii,Animalia,DUCKS_GEESE_AND_SWANS_ANATIDAE,Hartlaub's Duck,,1,16.364851892,2.95375420464,Africa,Central African Republic,CF,,Central African Republic - Dzanga,2010-06-09,
Graphium leonidas,Animalia,SWALLOWTAILS_PAPILIONIDAE,Veined Swallowtail,,1,16.4719980955,2.8425728636,Africa,Central African Republic,CF,,Central African Republic - Dzanga,2010-06-04,
Syncerus caffer nanus,Animalia,BOVIDS_BOVIDAE,African Forest Buffalo,,1,16.4783495665,2.84977374777,Africa,Central African Republic,CF,,Central African Republic - Dzanga,2010-06-04,
Ciconia episcopus,Animalia,STORKS_CICONIIDAE,Woolly-necked Stork,,1,16.4783495665,2.84977374777,Africa,Central African Republic,CF,,Central African Republic - Dzanga,2010-06-04,
Daphnis nerii,Animalia,Sphingidae,Oleander Hawk-moth,,1,16.4678782225,2.860060647,Africa,Central African Republic,CF,,Central African Republic - Dzanga,2010-05-20,
Agelastes niger,Animalia,GUINEAFOWL_NUMIDIDAE,Black Guineafowl,,1,16.4757746458,2.85920340891,Africa,Central African Republic,CF,,Central African Republic - Dzanga,2010-05-12,
Protogoniomorpha parhassus,Animalia,BRUSHFOOTED_BUTTERFLIES_NYMPHALIDAE,Forest mother-of-pearl,,1,16.388760265,2.91795210872,Africa,Central African Republic,CF,,Central African Republic - Dzanga,2010-05-06,
Hypolimnas anthedon,Animalia,BRUSHFOOTED_BUTTERFLIES_NYMPHALIDAE,Variable Eggfly,,1,16.4674195647,2.8591190245,Africa,Central African Republic,CF,,Central African Republic - Dzanga,2010-04-29,
Cadarena pudoraria,Animalia,Crambidae,,,1,16.4674195647,2.8591190245,Africa,Central African Republic,CF,,Central African Republic - Dzanga,2010-04-19,
Philantomba monticola,Animalia,BOVIDS_BOVIDAE,Blue Duiker,,1,16.4728268981,2.84806059507,Africa,Central African Republic,CF,,Central African Republic - Dzanga,2010-04-16,
Balacra spec.,Animalia,EREBIDAE,,,1,16.4674195647,2.86023343397,Africa,Central African Republic,CF,,Central African Republic - Dzanga,2010-04-09,
Cleora dactylata,Animalia,Geometridae,,,1,16.4674195647,2.86023343397,Africa,Central African Republic,CF,,Central African Republic - Dzanga,2010-04-09,
Zamarada spec.,Animalia,Geometridae,,,1,16.4674195647,2.86023343397,Africa,Central African Republic,CF,,Central African Republic - Dzanga,2010-04-09,
Dioptrochasma mercyi,Animalia,Geometridae,,,1,16.4674195647,2.86023343397,Africa,Central African Republic,CF,,Central African Republic - Dzanga,2010-04-09,
Chiroptera spec.,Animalia,UNKNOWN,Bat unknown,,1,16.467076242,2.85954764366,Africa,Central African Republic,CF,,Central African Republic - Dzanga,2010-03-13,
Egretta garzetta,Animalia,HERONS_ARDEIDAE,Little Egret,,1,16.4729127288,2.85277544233,Africa,Central African Republic,CF,,Central African Republic - Dzanga,2010-01-26,
Libythea labdaca,Animalia,BRUSHFOOTED_BUTTERFLIES_NYMPHALIDAE,African Snout Butterfly,,1,16.4674195647,2.85946191984,Africa,Central African Republic,CF,,Central African Republic - Dzanga,2010-01-21,
Papilio demodocus,Animalia,SWALLOWTAILS_PAPILIONIDAE,Christmas Butterfly,,1,18.5547557753,4.38620934244,Africa,Central African Republic,CF,,Central African Republic - Bangui,2010-01-14,
Aves indet.,Animalia,unknown,Unidentified bird,,1,18.5547557753,4.38620934244,Africa,Central African Republic,CF,,Central African Republic - Bangui,2010-01-14,
Pycnonotus tricolor,Animalia,BULBULS_PYCNONOTIDAE,Dark-capped Bulbul,,10,18.5768616199,4.36113155288,Africa,Central African Republic,CF,,Central African Republic - Bangui,2015-01-18,06:20
Pycnonotus tricolor,Animalia,BULBULS_PYCNONOTIDAE,Dark-capped Bulbul,,5,18.602771759,4.37328412286,Africa,Central African Republic,CF,,Central African Republic - Bangui,2015-01-11,
Peliperdix lathami,Animalia,FRANCOLINS_QUAILS_PARTRIDGES_AND_PHEASANTS_PHASIANIDAE,Latham's Francolin,,1,16.4665049314,2.85577712906,Africa,Central African Republic,CF,,Central African Republic - Dzanga,2010-05-15,
Treculia africana,Plantae,MORACEAE,African breadfruit,,1,16.4754313231,2.85937753545,Africa,Central African Republic,CF,,Central African Republic - Dzanga,2010-05-18,
Cercopithecus nictitans nictitans,Animalia,OLD_WORLD_MONKEYS_CERCOPITHECIDAE,Eastern Putty-nosed Monkey,,1,16.468949765,2.85903464009,Africa,Central African Republic,CF,,Central African Republic - Dzanga,2010-05-04,
Cercopithecus nictitans nictitans,Animalia,OLD_WORLD_MONKEYS_CERCOPITHECIDAE,Eastern Putty-nosed Monkey,,1,16.4665465057,2.85586285315,Africa,Central African Republic,CF,,Central African Republic - Dzanga,2010-03-04,
Anomalurus beecrofti,Animalia,SCALYTAILED_SQUIRRELS_ANOMALURIDAE,Beecroft's Flying Squirrel,,1,16.4738850296,2.86100628701,Africa,Central African Republic,CF,,Central African Republic - Dzanga,2010-02-15,
Lophocebus albigena,Animalia,OLD_WORLD_MONKEYS_CERCOPITHECIDAE,Grey-cheeked Mangabey,,1,16.4728121459,2.85654864566,Africa,Central African Republic,CF,,Central African Republic - Dzanga,2010-02-09,
Colobus guereza occidentalis,Animalia,OLD_WORLD_MONKEYS_CERCOPITHECIDAE,Western Guereza,,1,16.4709667861,2.8538911974,Africa,Central African Republic,CF,,Central African Republic - Dzanga,2010-02-02,
Bycanistes albotibialis,Animalia,HORNBILLS_BUCEROTIDAE,White-thighed Hornbill,,1,16.4780049026,2.84951925301,Africa,Central African Republic,CF,,Central African Republic - Dzanga,2010-01-30,
Merops gularis,Animalia,BEEEATERS_MEROPIDAE,Black Bee-eater,,1,16.4718827605,2.8543198185,Africa,Central African Republic,CF,,Central African Republic - Dzanga,2010-01-26,
Ceratogymna atrata,Animalia,HORNBILLS_BUCEROTIDAE,Black-casqued Hornbill,,1,16.467962712,2.86160635279,Africa,Central African Republic,CF,,Central African Republic - Dzanga,2010-04-01,
Thamnolaea coronata,Animalia,OLD_WORLD_FLYCATCHERS_MUSCICAPIDAE,White-crowned Cliff Chat,,1,18.5934002101,4.36409636697,Africa,Central African Republic,CF,,Central African Republic - Bangui,2011-01-18,14:00
Milvus aegyptius,Animalia,HAWKS_AND_EAGLES_ACCIPITRIDAE,Yellow-billed Kite,,1,18.5934002101,4.36409636697,Africa,Central African Republic,CF,,Central African Republic - Bangui,2011-01-07,12:00
Passer griseus,Animalia,OLD_WORLD_SPARROWS_PASSERIDAE,Northern Grey-headed Sparrow,,1,16.4661455154,2.86190638557,Africa,Central African Republic,CF,,Central African Republic - Sangha-Mbaéré,2010-06-12,
Ciconia abdimii,Animalia,STORKS_CICONIIDAE,Abdim's Stork,,1,16.4725399017,2.85307681686,Africa,Central African Republic,CF,,Central African Republic - Sangha-Mbaéré,2010-03-22,
Scopus umbretta,Animalia,HAMERKOP_SCOPIDAE,Hamerkop,,1,16.3650798798,2.95495557653,Africa,Central African Republic,CF,,Central African Republic - Dzanga,2010-06-09,
Psittacus erithacus,Animalia,PARROTS_PSITTACIDAE,Grey Parrot,,250,16.36,2.95,Africa,Central African Republic,CF,,Central African Republic - Dzanga,2010-06-09,
Hylochoerus meinertzhageni,Animalia,PIGS_SUIDAE,Giant Forest Hog,,12,16.3655090332,2.9540126939,Africa,Central African Republic,CF,,Central African Republic - Dzanga,2010-06-10,
Gypohierax angolensis,Animalia,HAWKS_AND_EAGLES_ACCIPITRIDAE,Palm-nut Vulture,,5,16.3650798798,2.95461271021,Africa,Central African Republic,CF,,Central African Republic - Dzanga,2010-06-09,
Egretta garzetta,Animalia,HERONS_ARDEIDAE,Little Egret,,1,16.3649082184,2.95478414338,Africa,Central African Republic,CF,,Central African Republic - Dzanga,2010-06-09,
Tragelaphus eurycerus,Animalia,BOVIDS_BOVIDAE,Bongo,,1,16.3650798798,2.95358411063,Africa,Central African Republic,CF,,Central African Republic - Dzanga,2010-06-09,
Tragelaphus spekii,Animalia,BOVIDS_BOVIDAE,Sitatunga,,7,16.3650798798,2.95375554396,Africa,Central African Republic,CF,,Central African Republic - Dzanga,2010-06-09,
Tragelaphus spekii,Animalia,BOVIDS_BOVIDAE,Sitatunga,,1,16.4679908752,2.84964783984,Africa,Central African Republic,CF,,Central African Republic - Sangha-Mbaéré,2010-03-16,
Ciconia episcopus,Animalia,STORKS_CICONIIDAE,Woolly-necked Stork,,1,16.472196579,2.8543626806,Africa,Central African Republic,CF,,Central African Republic - Sangha-Mbaéré,2010-02-06,
Bitis gabonica,Animalia,Viperidae,Gaboon Adder,,1,16.4645147324,2.86683548416,Africa,Central African Republic,CF,,Central African Republic - Sangha-Mbaéré,2010-01-27,
Syncerus caffer nanus,Animalia,BOVIDS_BOVIDAE,African Forest Buffalo,,25,16.4784622192,2.84943352844,Africa,Central African Republic,CF,,Central African Republic - Sangha-Mbaéré,2010-01-17,
Cercopithecus cephus ngottoensis,Animalia,OLD_WORLD_MONKEYS_CERCOPITHECIDAE,White-nosed Moustached Monkey,,1,16.4718961716,2.87587925327,Africa,Central African Republic,CF,,Central African Republic - Sangha-Mbaéré,2010-05-12,
Lophocebus albigena,Animalia,OLD_WORLD_MONKEYS_CERCOPITHECIDAE,Grey-cheeked Mangabey,,1,16.4754581451,2.85217671138,Africa,Central African Republic,CF,,Central African Republic - Sangha-Mbaéré,2010-07-05,
Colobus guereza occidentalis,Animalia,OLD_WORLD_MONKEYS_CERCOPITHECIDAE,Western Guereza,,1,16.4754581451,2.85217671138,Africa,Central African Republic,CF,,Central African Republic - Sangha-Mbaéré,2010-07-05,
Colobus guereza occidentalis,Animalia,OLD_WORLD_MONKEYS_CERCOPITHECIDAE,Western Guereza,,1,16.4747714996,2.84626171502,Africa,Central African Republic,CF,,Central African Republic - Sangha-Mbaéré,2010-06-04,
Scopus umbretta,Animalia,HAMERKOP_SCOPIDAE,Hamerkop,,1,16.4668750763,2.83991806199,Africa,Central African Republic,CF,,Central African Republic - Sangha-Mbaéré,2010-07-05,
Cercocebus agilis,Animalia,OLD_WORLD_MONKEYS_CERCOPITHECIDAE,Agile Mangabey,,1,16.4740848541,2.85414837008,Africa,Central African Republic,CF,,Central African Republic - Sangha-Mbaéré,2010-01-19,
Spermophaga poliogenys,Animalia,WAXBILLS_MUNIAS_ALLIES_ESTRILDIDAE,Grant's Bluebill,,2,16.4676046371,2.86014904964,Africa,Central African Republic,CF,,Central African Republic - Sangha-Mbaéré,2010-07-08,
Platysteira castanea,Animalia,WATTLEEYES_BATISES_PLATYSTEIRIDAE,Chestnut Wattle-eye,,1,16.298225402832,2.93003559112549,Africa,Central African Republic,CF,,Central African Republic - Sangha-Mbaéré,2019-06-30,07:16
Dicrurus divaricatus divaricatus,Animalia,DRONGOS_DICRURIDAE,Glossy-backed Drongo ssp divaricatus,,1,18.185417342926016,4.881395944673635,Africa,Central African Republic,CF,,Central African Republic - Ombella-M'Poko,1988-11-16,
Treron calvus,Animalia,PIGEONS_AND_DOVES_COLUMBIDAE,African Green Pigeon,,1,18.10089106,4.84413322,Africa,Central African Republic,CF,,Central African Republic - Ombella-M'Poko,1988-11-16,
Platysteira castanea,Animalia,WATTLEEYES_BATISES_PLATYSTEIRIDAE,Chestnut Wattle-eye,,1,16.2328,2.9847,Africa,Central African Republic,CF,,Central African Republic - Sangha-Mbaéré,2016-11-19,17:16
Platysteira castanea,Animalia,WATTLEEYES_BATISES_PLATYSTEIRIDAE,Chestnut Wattle-eye,,1,16.2325,2.9855,Africa,Central African Republic,CF,,Central African Republic - Sangha-Mbaéré,2016-11-16,17:05
Accipiter toussenelii toussenelii,Animalia,HAWKS_AND_EAGLES_ACCIPITRIDAE,Red-chested Goshawk ssp toussenelii,,1,18.5769474506,4.36114225065,Africa,Central African Republic,CF,,Central African Republic - Bangui,2015-04-12,07:00
Accipiter toussenelii toussenelii,Animalia,HAWKS_AND_EAGLES_ACCIPITRIDAE,Red-chested Goshawk ssp toussenelii,,1,18.576925993,4.36133481051,Africa,Central African Republic,CF,,Central African Republic - Bangui,2015-03-24,06:30
