scientificName,kingdom,family,vernacularName,previousIdentifications,individualCount,longitudeDecimal,latitudeDecimal,continent,country,countryCode,stateProvince,locality,eventDate,eventTime
Coccyzus longirostris,Animalia,CUCKOOS_AND_COUCALS_CUCULIDAE,Hispaniolan Lizard Cuckoo,,1,-70.4153341055,19.7537497602,North America,Dominican Republic,DO,,Dominican Republic,2014-10-08,17:00
Coccyzus longirostris,Animalia,CUCKOOS_AND_COUCALS_CUCULIDAE,Hispaniolan Lizard Cuckoo,,1,-68.3555884659,18.5377216997,North America,Dominican Republic,DO,,"Dominican Republic - Bayahibe,,2006-02-05
Fregata magnificens,Animalia,FRIGATEBIRDS_FREGATTIDAE,Magnificent Frigatebird,,30,-68.6750757694,18.1174607753,North America,Dominican Republic,DO,,Dominican Republic - Del Este NP,2006-02-05,
Thalasseus acuflavidus,Animalia,GULLS_TERNS_AND_SKIMMERS_LARIDAE,Cabot's Tern,,1,-68.3551163971,18.5371927463,North America,Dominican Republic,DO,,"Dominican Republic - Bayahibe,,2006-02-04
Melanerpes striatus,Animalia,WOODPECKERS_PICIDAE,Hispaniolan Woodpecker,,1,-68.3551163971,18.5371927463,North America,Dominican Republic,DO,,"Dominican Republic - Bayahibe,,2006-02-04
Pelecanus occidentalis,Animalia,PELICANS_PELECANIDAE,Brown Pelican,,1,-68.3551163971,18.5371927463,North America,Dominican Republic,DO,,"Dominican Republic - Bayahibe,,2006-02-01
Heliconius charithonia,Animalia,BRUSHFOOTED_BUTTERFLIES_NYMPHALIDAE,Zebra Heliconian,,1,-68.845937848091,18.378800141369,North America,Dominican Republic,DO,,Dominican Republic,2007-03-19,
Phaenicophilus palmarum,Animalia,PHAENICOPHILIDAE,Black-crowned Tanager,,1,-68.824995160103,18.343120170424,North America,Dominican Republic,DO,,Dominican Republic,2007-03-07,
Tiaris olivaceus,Animalia,TANAGERS_AND_ALLIES_THRAUPIDAE,Yellow-faced Grassquit,,1,-68.824995160103,18.343120170424,North America,Dominican Republic,DO,,Dominican Republic,2007-03-07,
Coereba flaveola,Animalia,TANAGERS_AND_ALLIES_THRAUPIDAE,Bananaquit,,1,-68.824995160103,18.343120170424,North America,Dominican Republic,DO,,Dominican Republic,2007-03-07,
Mimus polyglottos,Animalia,THRASHERS_MIMIDAE,Northern Mockingbird,,1,-68.824995160103,18.343120170424,North America,Dominican Republic,DO,,Dominican Republic,2007-03-07,
Tyrannus dominicensis,Animalia,TYRANT_FLYCATCHERS_TYRANNIDAE,Grey Kingbird,,1,-68.824995160103,18.343120170424,North America,Dominican Republic,DO,,Dominican Republic,2007-03-19,
Amazona ventralis,Animalia,PARROTS_PSITTACIDAE,Hispaniolan Amazon,,1,-68.824995160103,18.343120170424,North America,Dominican Republic,DO,,Dominican Republic,2007-03-03,
Falco sparverius,Animalia,CARACAS_AND_FALCONS_FALCONIDAE,American Kestrel,,1,-68.824995160103,18.343120170424,North America,Dominican Republic,DO,,Dominican Republic,2007-03-14,
Anthracothorax dominicus,Animalia,HUMMINGBIRDS_TROCHILIDAE,Antillean Mango,,1,-68.824995160103,18.343120170424,North America,Dominican Republic,DO,,Dominican Republic,2007-03-03,
Crotophaga ani,Animalia,CUCKOOS_AND_COUCALS_CUCULIDAE,Smooth-billed Ani,,3,-68.824995160103,18.343120170424,North America,Dominican Republic,DO,,Dominican Republic,2007-03-19,
Tringa semipalmata,Animalia,SANDPIPERS_AND_ALLIES_SCOLOPACIDAE,Willet,,1,-68.82499516,18.34312017,North America,Dominican Republic,DO,,Dominican Republic,2007-03-01,
Arenaria interpres,Animalia,SANDPIPERS_AND_ALLIES_SCOLOPACIDAE,Ruddy Turnstone,,1,-68.824995160103,18.343120170424,North America,Dominican Republic,DO,,Dominican Republic,2007-03-01,
Charadrius vociferus,Animalia,PLOVERS_CHARADRIIDAE,Killdeer,,1,-68.85,18.3,North America,Dominican Republic,DO,,Dominican Republic,2007-04-01,
Nyctanassa violacea,Animalia,HERONS_ARDEIDAE,Yellow-crowned Night Heron,,1,-68.824995160103,18.343120170424,North America,Dominican Republic,DO,,Dominican Republic,2007-03-01,
Butorides virescens,Animalia,HERONS_ARDEIDAE,Green Heron,,1,-68.824995160103,18.343120170424,North America,Dominican Republic,DO,,Dominican Republic,2007-03-30,
Bubulcus ibis,Animalia,HERONS_ARDEIDAE,Western Cattle Egret,,1,-68.824995160103,18.343120170424,North America,Dominican Republic,DO,,Dominican Republic,2007-03-21,
Egretta caerulea,Animalia,HERONS_ARDEIDAE,Little Blue Heron,,1,-68.824995160103,18.343120170424,North America,Dominican Republic,DO,,Dominican Republic,2007-03-01,
Egretta thula,Animalia,HERONS_ARDEIDAE,Snowy Egret,,1,-68.824995160103,18.343120170424,North America,Dominican Republic,DO,,Dominican Republic,2007-03-01,
Fregata magnificens,Animalia,FRIGATEBIRDS_FREGATTIDAE,Magnificent Frigatebird,,1,-68.824995160103,18.343120170424,North America,Dominican Republic,DO,,Dominican Republic,2007-03-01,
Rallus crepitans caribaeus,Animalia,RAILS_RALLIDAE,Clapper Rail ssp caribaeus,,1,-71.371147155762,18.01009730875,North America,Dominican Republic,DO,,Dominican Republic,2001-02-01,
Antrostomus ekmani,Animalia,NIGHTJARS_CAPRIMULGIDAE,Hispaniolan Nightjar,,5,-71.153650376688,18.08045744083,North America,Dominican Republic,DO,,Dominican Republic,2001-01-28,
Pelecanus occidentalis,Animalia,PELICANS_PELECANIDAE,Brown Pelican,,5,-68.766700744629,18.193331782235,North America,Dominican Republic,DO,,Dominican Republic - Del Este NP,2012-07-23,
Melanerpes striatus,Animalia,WOODPECKERS_PICIDAE,Hispaniolan Woodpecker,,1,-68.4577263594,18.7247030537,North America,Dominican Republic,DO,,"Dominican Republic - Bayahibe,,2012-07-24
Dulus dominicus,Animalia,PALMCHAT_DULIDAE,Palmchat,,5,-70.4090709686,19.7455971119,North America,Dominican Republic,DO,,Dominican Republic,1990-11-11,
Tyrannus dominicensis,Animalia,TYRANT_FLYCATCHERS_TYRANNIDAE,Grey Kingbird,,1,-70.4015354588,19.7492424321,North America,Dominican Republic,DO,,Dominican Republic,1990-11-10,
Charadrius vociferus,Animalia,PLOVERS_CHARADRIIDAE,Killdeer,,1,-70.4,19.75,North America,Dominican Republic,DO,,Dominican Republic,1990-11-19,
Melanerpes striatus,Animalia,WOODPECKERS_PICIDAE,Hispaniolan Woodpecker,,2,-70.4014749527,19.7491414711,North America,Dominican Republic,DO,,Dominican Republic,1990-11-11,
Anthracothorax dominicus,Animalia,HUMMINGBIRDS_TROCHILIDAE,Antillean Mango,,1,-70.4014749527,19.7491414711,North America,Dominican Republic,DO,,Dominican Republic,1990-11-09,
Sula leucogaster,Animalia,GANNETS_AND_BOOBIES_SULIDAE,Brown Booby,,2,-69.278755188,19.1664512289,North America,Dominican Republic,DO,,Dominican Republic,1990-11-17,
Antrostomus ekmani,Animalia,NIGHTJARS_CAPRIMULGIDAE,Hispaniolan Nightjar,,1,-71.181116197,18.0830683817,North America,Dominican Republic,DO,,Dominican Republic,2012-04-16,
Calyptophilus frugivorus,Animalia,CALYPTOPHILIDAE,Eastern Chat-Tanager,,1,-71.1921025251,18.0700132888,North America,Dominican Republic,DO,,Dominican Republic,2012-04-16,
Psittacara chloropterus,Animalia,PARROTS_PSITTACIDAE,Hispaniolan Parakeet,,250,-69.9848678635,18.4769313464,North America,Dominican Republic,DO,,Dominican Republic,2012-04-14,
Melanerpes striatus,Animalia,WOODPECKERS_PICIDAE,Hispaniolan Woodpecker,,2,-69.9848678635,18.4769313464,North America,Dominican Republic,DO,,Dominican Republic,2012-04-14,
Dulus dominicus,Animalia,PALMCHAT_DULIDAE,Palmchat,,5,-69.9848678635,18.4769313464,North America,Dominican Republic,DO,,Dominican Republic,2012-04-14,
Tyrannus dominicensis,Animalia,TYRANT_FLYCATCHERS_TYRANNIDAE,Grey Kingbird,,2,-68.4119928858,18.6678862129,North America,Dominican Republic,DO,,"Dominican Republic - Bayahibe,,2012-01-18
Bubulcus ibis,Animalia,HERONS_ARDEIDAE,Western Cattle Egret,,1,-68.7114132426,18.1339124209,North America,Dominican Republic,DO,,Dominican Republic - Del Este NP,2012-01-18,
Thalasseus maximus,Animalia,GULLS_TERNS_AND_SKIMMERS_LARIDAE,Royal Tern,,1,-68.8492573283,18.3756740686,North America,Dominican Republic,DO,,Dominican Republic,2012-01-18,
Columbina passerina,Animalia,PIGEONS_AND_DOVES_COLUMBIDAE,Common Ground Dove,,2,-68.4067035697,18.6690347851,North America,Dominican Republic,DO,,"Dominican Republic - Bayahibe,,2012-01-16
Zenaida macroura,Animalia,PIGEONS_AND_DOVES_COLUMBIDAE,Mourning Dove,,1,-68.4118802331,18.6680031034,North America,Dominican Republic,DO,,"Dominican Republic - Bayahibe,,2012-01-16
Melanerpes striatus,Animalia,WOODPECKERS_PICIDAE,Hispaniolan Woodpecker,,1,-68.4120787165,18.6683537742,North America,Dominican Republic,DO,,"Dominican Republic - Bayahibe,,2012-01-16
Passer domesticus,Animalia,OLD_WORLD_SPARROWS_PASSERIDAE,House Sparrow,,1,-68.4070844433,18.669324468,North America,Dominican Republic,DO,,"Dominican Republic - Bayahibe,,2012-01-16
Anas bahamensis,Animalia,DUCKS_GEESE_AND_SWANS_ANATIDAE,White-cheeked Pintail,,2,-68.4056199572,18.670325649,North America,Dominican Republic,DO,,"Dominican Republic - Bayahibe,,2012-01-16
Gallinula galeata,Animalia,RAILS_RALLIDAE,Common Gallinule,,1,-68.4055824063,18.6703459775,North America,Dominican Republic,DO,,"Dominican Republic - Bayahibe,,2012-01-14
Fulica caribaea,Animalia,RAILS_RALLIDAE,Caribbean coot,,1,-68.4055824063,18.6703459775,North America,Dominican Republic,DO,,"Dominican Republic - Bayahibe,,2012-01-14
Coereba flaveola,Animalia,TANAGERS_AND_ALLIES_THRAUPIDAE,Bananaquit,,1,-68.4049869559,18.6703764702,North America,Dominican Republic,DO,,"Dominican Republic - Bayahibe,,2012-01-14
Podilymbus podiceps,Animalia,GREBES_PODICIPEDIDAE,Pied-billed Grebe,,1,-68.4053356431,18.6703104027,North America,Dominican Republic,DO,,"Dominican Republic - Bayahibe,,2012-01-14
Ardea alba,Animalia,HERONS_ARDEIDAE,Great Egret,,1,-68.4053892872,18.6704984411,North America,Dominican Republic,DO,,"Dominican Republic - Bayahibe,,2012-01-14
Egretta thula,Animalia,HERONS_ARDEIDAE,Snowy Egret,,1,-68.4051103375,18.6707677931,North America,Dominican Republic,DO,,"Dominican Republic - Bayahibe,,2012-01-13
Butorides virescens,Animalia,HERONS_ARDEIDAE,Green Heron,,2,-68.4051157019,18.6705441801,North America,Dominican Republic,DO,,"Dominican Republic - Bayahibe,,2012-01-13
Egretta tricolor,Animalia,HERONS_ARDEIDAE,Tricolored Heron,,3,-68.4051157019,18.6705441801,North America,Dominican Republic,DO,,"Dominican Republic - Bayahibe,,2012-01-13
Crotophaga ani,Animalia,CUCKOOS_AND_COUCALS_CUCULIDAE,Smooth-billed Ani,,2,-68.4065640948,18.6692431536,North America,Dominican Republic,DO,,"Dominican Republic - Bayahibe,,2012-01-13
Quiscalus niger,Animalia,ICTERIDS_ICTERIDAE,Greater Antillean Grackle,,1,-68.4080017588,18.6689483884,North America,Dominican Republic,DO,,"Dominican Republic - Bayahibe,,2012-01-13
Mimus polyglottos,Animalia,THRASHERS_MIMIDAE,Northern Mockingbird,,2,-68.4118748686,18.6678506376,North America,Dominican Republic,DO,,"Dominican Republic - Bayahibe,,2012-01-13
Fregata magnificens,Animalia,FRIGATEBIRDS_FREGATTIDAE,Magnificent Frigatebird,,1,-68.4014786265,18.671865525,North America,Dominican Republic,DO,,"Dominican Republic - Bayahibe,,2012-01-13
Anartia jatrophae,Animalia,BRUSHFOOTED_BUTTERFLIES_NYMPHALIDAE,White Peacock,,1,-68.7812805176,18.2880379953,North America,Dominican Republic,DO,,"Dominican Republic - Bayahibe,,2009-12-03
Agraulis vanillae,Animalia,BRUSHFOOTED_BUTTERFLIES_NYMPHALIDAE,Gulf Fritillary,,11,-68.7812805176,18.2880379953,North America,Dominican Republic,DO,,"Dominican Republic - Bayahibe,,2009-12-03
Danaus plexippus,Animalia,BRUSHFOOTED_BUTTERFLIES_NYMPHALIDAE,American Monarch,,1,-68.7785339355,18.2763022508,North America,Dominican Republic,DO,,"Dominican Republic - Bayahibe,,2005-12-05
Junonia evarete,Animalia,BRUSHFOOTED_BUTTERFLIES_NYMPHALIDAE,Tropical Buckeye,,7,-68.7812805176,18.2912977833,North America,Dominican Republic,DO,,"Dominican Republic - Bayahibe,,2009-11-29
Marpesia eleuchea,Animalia,BRUSHFOOTED_BUTTERFLIES_NYMPHALIDAE,Caribbean Daggerwing,,1,-68.7799072265,18.2899938754,North America,Dominican Republic,DO,,"Dominican Republic - Bayahibe,,2009-11-29
Tyrannus dominicensis,Animalia,TYRANT_FLYCATCHERS_TYRANNIDAE,Grey Kingbird,,18,-68.7819671631,18.2886899578,North America,Dominican Republic,DO,,"Dominican Republic - Bayahibe,,2009-11-25
Tiaris olivaceus,Animalia,TANAGERS_AND_ALLIES_THRAUPIDAE,Yellow-faced Grassquit,,5,-68.7771606445,18.2841261688,North America,Dominican Republic,DO,,"Dominican Republic - Bayahibe,,2009-11-26
Gallinula galeata,Animalia,RAILS_RALLIDAE,Common Gallinule,,20,-68.7847137451,18.2932536267,North America,Dominican Republic,DO,,"Dominican Republic - Bayahibe,,2009-11-26
Columbina passerina,Animalia,PIGEONS_AND_DOVES_COLUMBIDAE,Common Ground Dove,,3,-68.7840270996,18.2893419178,North America,Dominican Republic,DO,,"Dominican Republic - Bayahibe,,2009-12-07
Dendrocygna arborea,Animalia,DUCKS_GEESE_AND_SWANS_ANATIDAE,West Indian Whistling Duck,,5,-68.7847137451,18.2906458306,North America,Dominican Republic,DO,,"Dominican Republic - Bayahibe,,2009-11-28
Melanerpes striatus,Animalia,WOODPECKERS_PICIDAE,Hispaniolan Woodpecker,,5,-68.7833404541,18.2912977833,North America,Dominican Republic,DO,,"Dominican Republic - Bayahibe,,2009-11-28
Nyctanassa violacea,Animalia,HERONS_ARDEIDAE,Yellow-crowned Night Heron,,1,-68.7847137451,18.2939055696,North America,Dominican Republic,DO,,"Dominican Republic - Bayahibe,,2009-12-07
Nyctanassa violacea,Animalia,HERONS_ARDEIDAE,Yellow-crowned Night Heron,,1,-68.7840270996,18.2926016813,North America,Dominican Republic,DO,,"Dominican Republic - Bayahibe,,2009-12-07
Fregata magnificens,Animalia,FRIGATEBIRDS_FREGATTIDAE,Magnificent Frigatebird,,30,-68.7943267822,18.2883639768,North America,Dominican Republic,DO,,"Dominican Republic - Bayahibe,,2009-12-05
Coccyzus longirostris,Animalia,CUCKOOS_AND_COUCALS_CUCULIDAE,Hispaniolan Lizard Cuckoo,,3,-68.7849548386,18.2961145432,North America,Dominican Republic,DO,,"Dominican Republic - Bayahibe,,2009-11-26
Anthracothorax dominicus,Animalia,HUMMINGBIRDS_TROCHILIDAE,Antillean Mango,,3,-68.7785339355,18.286082093,North America,Dominican Republic,DO,,"Dominican Republic - Bayahibe,,2009-11-30
Mimus polyglottos,Animalia,THRASHERS_MIMIDAE,Northern Mockingbird,,5,-68.7785339355,18.2899938754,North America,Dominican Republic,DO,,"Dominican Republic - Bayahibe,,2009-11-24
Quiscalus niger,Animalia,ICTERIDS_ICTERIDAE,Greater Antillean Grackle,,11,-68.7812805176,18.2893419178,North America,Dominican Republic,DO,,"Dominican Republic - Bayahibe,,2009-11-28
Crotophaga ani,Animalia,CUCKOOS_AND_COUCALS_CUCULIDAE,Smooth-billed Ani,,27,-68.7881469726,18.2971652473,North America,Dominican Republic,DO,,"Dominican Republic - Bayahibe,,2009-11-30
Ploceus cucullatus,Animalia,WEAVERS_PLOCEIDAE,Village Weaver,,20,-68.7826538086,18.2971652473,North America,Dominican Republic,DO,,"Dominican Republic - Bayahibe,,2009-11-26
Coereba flaveola,Animalia,TANAGERS_AND_ALLIES_THRAUPIDAE,Bananaquit,,4,-68.7833404541,18.2906458306,North America,Dominican Republic,DO,,"Dominican Republic - Bayahibe,,2009-11-25
Coccyzus minor,Animalia,CUCKOOS_AND_COUCALS_CUCULIDAE,Mangrove Cuckoo,,1,-68.7785339355,18.2880379952,North America,Dominican Republic,DO,,"Dominican Republic - Bayahibe,,2009-12-01
Dulus dominicus,Animalia,PALMCHAT_DULIDAE,Palmchat,,20,-68.7840270996,18.2906458306,North America,Dominican Republic,DO,,"Dominican Republic - Bayahibe,,2009-12-02
Phaenicophilus palmarum,Animalia,PHAENICOPHILIDAE,Black-crowned Tanager,,1,-68.7818649338,18.3000260992,North America,Dominican Republic,DO,,Dominican Republic - Del Este NP,2009-12-01,
Mellisuga minima,Animalia,HUMMINGBIRDS_TROCHILIDAE,Vervain Hummingbird,,3,-68.7840270996,18.2932536267,North America,Dominican Republic,DO,,"Dominican Republic - Bayahibe,,2009-12-05
Leucophaeus atricilla,Animalia,GULLS_TERNS_AND_SKIMMERS_LARIDAE,Laughing Gull,,12,-68.6604309082,18.131496261,North America,Dominican Republic,DO,,Dominican Republic - Del Este NP,2009-12-02,
Pelecanus occidentalis,Animalia,PELICANS_PELECANIDAE,Brown Pelican,,7,-68.6604309082,18.131496261,North America,Dominican Republic,DO,,Dominican Republic - Del Este NP,2009-12-02,
Thalasseus maximus,Animalia,GULLS_TERNS_AND_SKIMMERS_LARIDAE,Royal Tern,,12,-68.6604309082,18.131496261,North America,Dominican Republic,DO,,Dominican Republic - Del Este NP,2009-12-02,
Butorides virescens,Animalia,HERONS_ARDEIDAE,Green Heron,,1,-68.7812805176,18.286082093,North America,Dominican Republic,DO,,"Dominican Republic - Bayahibe,,2009-11-25
Bubulcus ibis,Animalia,HERONS_ARDEIDAE,Western Cattle Egret,,2,-68.7833404541,18.2906458306,North America,Dominican Republic,DO,,"Dominican Republic - Bayahibe,,2009-11-28
Ardea alba egretta,Animalia,HERONS_ARDEIDAE,American Great Egret,,1,-68.7826538086,18.2880379952,North America,Dominican Republic,DO,,"Dominican Republic - Bayahibe,,2009-11-25
Amazona ventralis,Animalia,PARROTS_PSITTACIDAE,Hispaniolan Amazon,,2,-68.7715652512,18.2964405096,North America,Dominican Republic,DO,,Dominican Republic - Del Este NP,2009-11-26,
Corvus leucognaphalus,Animalia,CROWS_AND_JAYS_CORVIDAE,White-necked Crow,,6,-68.6829879807,18.1392538128,North America,Dominican Republic,DO,,Dominican Republic - Del Este NP,2009-12-02,
Egretta caerulea,Animalia,HERONS_ARDEIDAE,Little Blue Heron,,1,-68.7847137451,18.2847781459,North America,Dominican Republic,DO,,"Dominican Republic - Bayahibe,,2009-11-27
Egretta thula,Animalia,HERONS_ARDEIDAE,Snowy Egret,,1,-68.7854003906,18.2867340629,North America,Dominican Republic,DO,,"Dominican Republic - Bayahibe,,2009-11-28
Podilymbus podiceps,Animalia,GREBES_PODICIPEDIDAE,Pied-billed Grebe,,1,-68.438601884,18.6953632531,North America,Dominican Republic,DO,,"Dominican Republic - Bayahibe,,2008-08-17
Dulus dominicus,Animalia,PALMCHAT_DULIDAE,Palmchat,,11,-68.4360480309,18.6979602718,North America,Dominican Republic,DO,,"Dominican Republic - Bayahibe,,2008-08-20
Melanerpes striatus,Animalia,WOODPECKERS_PICIDAE,Hispaniolan Woodpecker,,11,-68.4360265732,18.698000922,North America,Dominican Republic,DO,,"Dominican Republic - Bayahibe,,2008-08-17
Tramea calverti,Animalia,SKIMMERS_LIBELLULIDAE,Striped Saddlebags,,1,-68.36611,18.6446,North America,Dominican Republic,DO,,"Dominican Republic - Bayahibe,,2008-03-24
Perithemis domitia,Animalia,SKIMMERS_LIBELLULIDAE,Slough Amberwing,,1,-68.36611,18.6446,North America,Dominican Republic,DO,,"Dominican Republic - Bayahibe,,2008-03-24
Orthemis discolor,Animalia,SKIMMERS_LIBELLULIDAE,Carmine Skimmer,,1,-68.36611,18.6446,North America,Dominican Republic,DO,,"Dominican Republic - Bayahibe,,2008-03-23
Micrathyria dissocians,Animalia,SKIMMERS_LIBELLULIDAE,Caribbean Dasher,,1,-68.36611,18.6446,North America,Dominican Republic,DO,,"Dominican Republic - Bayahibe,,2008-03-28
Micrathyria didyma,Animalia,SKIMMERS_LIBELLULIDAE,Three-striped Dasher,,1,-68.36611,18.6446,North America,Dominican Republic,DO,,"Dominican Republic - Bayahibe,,2008-03-24
Ischnura ramburii,Animalia,POND_DAMSELS_COENAGRIONIDAE,Rambur's Forktail,,1,-68.36611,18.6446,North America,Dominican Republic,DO,,"Dominican Republic - Bayahibe,,2008-03-24
Gynacantha nervosa,Animalia,DARNERS_AESHNIDAE,Twilight Darner,,1,-68.36394,18.65122,North America,Dominican Republic,DO,,"Dominican Republic - Bayahibe,,2008-03-24
Erythrodiplax umbrata,Animalia,SKIMMERS_LIBELLULIDAE,Band-winged Dragonlet,,1,-68.8083,18.32574,North America,Dominican Republic,DO,,Dominican Republic,2010-11-23,
Erythrodiplax umbrata,Animalia,SKIMMERS_LIBELLULIDAE,Band-winged Dragonlet,,1,-68.36611,18.6446,North America,Dominican Republic,DO,,"Dominican Republic - Bayahibe,,2008-03-23
Erythrodiplax berenice,Animalia,SKIMMERS_LIBELLULIDAE,Seaside Dragonlet,,1,-68.36611,18.6446,North America,Dominican Republic,DO,,"Dominican Republic - Bayahibe,,2008-03-23
Erythemis vesiculosa,Animalia,SKIMMERS_LIBELLULIDAE,Great Pondhawk,,1,-68.36611,18.6446,North America,Dominican Republic,DO,,"Dominican Republic - Bayahibe,,2008-03-24
Erythemis plebeja,Animalia,SKIMMERS_LIBELLULIDAE,Pin-tailed Pondhawk,,1,-68.8083,18.32574,North America,Dominican Republic,DO,,Dominican Republic,2010-11-23,
Erythemis plebeja,Animalia,SKIMMERS_LIBELLULIDAE,Pin-tailed Pondhawk,,1,-68.36611,18.6446,North America,Dominican Republic,DO,,"Dominican Republic - Bayahibe,,2008-03-24
Cannaphila insularis,Animalia,SKIMMERS_LIBELLULIDAE,Gray-waisted Skimmer,,1,-68.36611,18.6446,North America,Dominican Republic,DO,,"Dominican Republic - Bayahibe,,2008-03-24
Brachymesia herbida,Animalia,SKIMMERS_LIBELLULIDAE,Tawny Pennant,,1,-68.36611,18.6446,North America,Dominican Republic,DO,,"Dominican Republic - Bayahibe,,2008-03-24
Anax junius,Animalia,DARNERS_AESHNIDAE,Common Green Darner,,1,-68.36611,18.6446,North America,Dominican Republic,DO,,"Dominican Republic - Bayahibe,,2008-03-24
Pseudosphinx tetrio,Animalia,Sphingidae,,,1,-69.9168319702,18.4692062213,North America,Dominican Republic,DO,,Dominican Republic,2010-11-02,
Anolis etheridgei,Animalia,Polychrotidae,Montane Bush Anole,,1,-70.5869979858,19.0011185601,North America,Dominican Republic,DO,,Dominican Republic,2010-11-04,
Pyrgus oileus,Animalia,SKIPPERS_HESPERIIDAE,Tropical Checkered Skipper,,2,-70.0653076172,18.5837756884,North America,Dominican Republic,DO,,Dominican Republic,2010-11-15,
Papilio demoleus,Animalia,SWALLOWTAILS_PAPILIONIDAE,Lemon Butterfly,,1,-69.9327850342,18.4548601627,North America,Dominican Republic,DO,,Dominican Republic,2010-11-03,
Dryas iulia,Animalia,BRUSHFOOTED_BUTTERFLIES_NYMPHALIDAE,Julia Heliconian,,1,-70.53565979,19.0153837838,North America,Dominican Republic,DO,,Dominican Republic,2010-11-04,
Erythemis plebeja,Animalia,SKIMMERS_LIBELLULIDAE,Pin-tailed Pondhawk,,1,-69.9169921875,18.4796090558,North America,Dominican Republic,DO,,Dominican Republic,2010-11-03,
Micrathyria dissocians,Animalia,SKIMMERS_LIBELLULIDAE,Caribbean Dasher,,1,-69.9211120605,18.4822139947,North America,Dominican Republic,DO,,Dominican Republic,2010-11-03,
Orthemis sp. Aruba,Animalia,SKIMMERS_LIBELLULIDAE,Orthemis spec Aruba,,2,-69.9211120605,18.4822139947,North America,Dominican Republic,DO,,Dominican Republic,2010-11-03,
Pantala flavescens,Animalia,SKIMMERS_LIBELLULIDAE,Wandering Glider,,1,-69.9211120605,18.4822139947,North America,Dominican Republic,DO,,Dominican Republic,2010-11-03,
Micrathyria dissocians,Animalia,SKIMMERS_LIBELLULIDAE,Caribbean Dasher,,1,-69.9060058594,18.4691889044,North America,Dominican Republic,DO,,Dominican Republic,2010-11-02,
Crotophaga ani,Animalia,CUCKOOS_AND_COUCALS_CUCULIDAE,Smooth-billed Ani,,2,-69.9032592773,18.4796090558,North America,Dominican Republic,DO,,Dominican Republic,2010-11-02,
Psittacara chloropterus,Animalia,PARROTS_PSITTACIDAE,Hispaniolan Parakeet,,20,-69.9032592773,18.4743990593,North America,Dominican Republic,DO,,Dominican Republic,2010-11-01,
Dulus dominicus,Animalia,PALMCHAT_DULIDAE,Palmchat,,1,-69.9032592773,18.4743990593,North America,Dominican Republic,DO,,Dominican Republic,2010-11-01,
Melanerpes striatus,Animalia,WOODPECKERS_PICIDAE,Hispaniolan Woodpecker,,1,-69.9032592773,18.4743990593,North America,Dominican Republic,DO,,Dominican Republic,2010-11-01,
Pelecanus occidentalis occidentalis,Animalia,PELICANS_PELECANIDAE,Brown Pelican ssp occidentalis,,3,-69.277381897,19.1573302655,North America,Dominican Republic,DO,,Dominican Republic,2008-02-02,
Mimus polyglottos orpheus,Animalia,THRASHERS_MIMIDAE,Northern Mockingbird ssp orpheus,,1,-70.5213394761,19.7547057373,North America,Dominican Republic,DO,,Dominican Republic,2008-02-01,
Tachornis phoenicobia,Animalia,SWIFTS_APODIDAE,Antillean Palm Swift,,1,-68.4649085999,18.7179590597,North America,Dominican Republic,DO,,"Dominican Republic - Bayahibe,,2010-06-18
Anas bahamensis,Animalia,DUCKS_GEESE_AND_SWANS_ANATIDAE,White-cheeked Pintail,,10,-68.4649085999,18.7179590597,North America,Dominican Republic,DO,,"Dominican Republic - Bayahibe,,2010-06-18
Dulus dominicus,Animalia,PALMCHAT_DULIDAE,Palmchat,,25,-68.4649085999,18.7179590597,North America,Dominican Republic,DO,,"Dominican Republic - Bayahibe,,2010-06-19
Gallinula galeata,Animalia,RAILS_RALLIDAE,Common Gallinule,,9,-68.4649085999,18.7179590597,North America,Dominican Republic,DO,,"Dominican Republic - Bayahibe,,2010-06-18
Fulica caribaea,Animalia,RAILS_RALLIDAE,Caribbean coot,,2,-68.4649085999,18.7179590597,North America,Dominican Republic,DO,,"Dominican Republic - Bayahibe,,2010-06-22
Chordeiles gundlachii,Animalia,NIGHTJARS_CAPRIMULGIDAE,Antillean Nighthawk,,1,-68.4649085999,18.7179590597,North America,Dominican Republic,DO,,"Dominican Republic - Bayahibe,,2010-06-22
Egretta thula,Animalia,HERONS_ARDEIDAE,Snowy Egret,,4,-68.4649085999,18.7179590597,North America,Dominican Republic,DO,,"Dominican Republic - Bayahibe,,2010-06-20
Egretta tricolor,Animalia,HERONS_ARDEIDAE,Tricolored Heron,,2,-68.4649085999,18.7179590597,North America,Dominican Republic,DO,,"Dominican Republic - Bayahibe,,2010-06-20
Lonchura punctulata,Animalia,WAXBILLS_MUNIAS_ALLIES_ESTRILDIDAE,Scaly-breasted Munia,,2,-68.4649085999,18.7179590597,North America,Dominican Republic,DO,,"Dominican Republic - Bayahibe,,2010-06-21
Podilymbus podiceps,Animalia,GREBES_PODICIPEDIDAE,Pied-billed Grebe,,5,-68.4649085999,18.7179590597,North America,Dominican Republic,DO,,"Dominican Republic - Bayahibe,,2010-06-22
Crotophaga ani,Animalia,CUCKOOS_AND_COUCALS_CUCULIDAE,Smooth-billed Ani,,2,-68.4649085999,18.7179590597,North America,Dominican Republic,DO,,"Dominican Republic - Bayahibe,,2010-06-20
Pelecanus occidentalis,Animalia,PELICANS_PELECANIDAE,Brown Pelican,,2,-68.4649085999,18.7179590597,North America,Dominican Republic,DO,,"Dominican Republic - Bayahibe,,2010-06-20
Turdus plumbeus,Animalia,THRUSHES_TURDIDAE,Red-legged Thrush,,2,-68.4649085999,18.7179590597,North America,Dominican Republic,DO,,"Dominican Republic - Bayahibe,,2010-06-19
Melanerpes striatus,Animalia,WOODPECKERS_PICIDAE,Hispaniolan Woodpecker,,10,-68.4649085999,18.7179590597,North America,Dominican Republic,DO,,"Dominican Republic - Bayahibe,,2010-06-18
Anthracothorax dominicus,Animalia,HUMMINGBIRDS_TROCHILIDAE,Antillean Mango,,2,-68.4649085999,18.7179590597,North America,Dominican Republic,DO,,"Dominican Republic - Bayahibe,,2010-06-24
Patagioenas leucocephala,Animalia,PIGEONS_AND_DOVES_COLUMBIDAE,White-crowned Pigeon,,1,-68.4649085999,18.7179590597,North America,Dominican Republic,DO,,"Dominican Republic - Bayahibe,,2010-06-19
Tyrannus dominicensis,Animalia,TYRANT_FLYCATCHERS_TYRANNIDAE,Grey Kingbird,,1,-68.4649085999,18.7179590597,North America,Dominican Republic,DO,,"Dominican Republic - Bayahibe,,2010-06-19
Himantopus mexicanus,Animalia,STILTS_AND_AVOCETS_RECURVIROSTRIDAE,Black-necked Stilt,,3,-68.4649085999,18.7179590597,North America,Dominican Republic,DO,,"Dominican Republic - Bayahibe,,2010-06-19
Myiarchus stolidus,Animalia,TYRANT_FLYCATCHERS_TYRANNIDAE,Stolid Flycatcher,,1,-68.4649085999,18.7179590597,North America,Dominican Republic,DO,,"Dominican Republic - Bayahibe,,2010-06-19
Progne dominicensis,Animalia,SWALLOWS_HIRUNDINIDAE,Caribbean Martin,,20,-68.5034179688,18.5141497238,North America,Dominican Republic,DO,,"Dominican Republic - Bayahibe,,2010-06-22
Butorides virescens,Animalia,HERONS_ARDEIDAE,Green Heron,,5,-68.5034179688,18.5141497238,North America,Dominican Republic,DO,,"Dominican Republic - Bayahibe,,2010-06-22
Mimus polyglottos,Animalia,THRASHERS_MIMIDAE,Northern Mockingbird,,1,-68.5034179688,18.5141497238,North America,Dominican Republic,DO,,"Dominican Republic - Bayahibe,,2010-06-22
Coccyzus longirostris,Animalia,CUCKOOS_AND_COUCALS_CUCULIDAE,Hispaniolan Lizard Cuckoo,,2,-68.5034179688,18.5141497238,North America,Dominican Republic,DO,,"Dominican Republic - Bayahibe,,2010-06-22
Coccyzus minor,Animalia,CUCKOOS_AND_COUCALS_CUCULIDAE,Mangrove Cuckoo,,1,-68.4971809387,18.5158304335,North America,Dominican Republic,DO,,"Dominican Republic - Bayahibe,,2010-06-19
Nyctanassa violacea,Animalia,HERONS_ARDEIDAE,Yellow-crowned Night Heron,,1,-68.4971809387,18.5158304335,North America,Dominican Republic,DO,,"Dominican Republic - Bayahibe,,2010-06-22
Phaenicophilus palmarum,Animalia,PHAENICOPHILIDAE,Black-crowned Tanager,,1,-68.4642219543,18.7146260925,North America,Dominican Republic,DO,,"Dominican Republic - Bayahibe,,2010-06-20
Coereba flaveola,Animalia,TANAGERS_AND_ALLIES_THRAUPIDAE,Bananaquit,,3,-68.4642219543,18.7146260925,North America,Dominican Republic,DO,,"Dominican Republic - Bayahibe,,2010-06-18
Zenaida macroura,Animalia,PIGEONS_AND_DOVES_COLUMBIDAE,Mourning Dove,,6,-68.4642219543,18.7146260925,North America,Dominican Republic,DO,,"Dominican Republic - Bayahibe,,2010-06-18
Amazona ventralis,Animalia,PARROTS_PSITTACIDAE,Hispaniolan Amazon,,5,-68.4642219543,18.7146260925,North America,Dominican Republic,DO,,"Dominican Republic - Bayahibe,,2010-06-18
Amazona ventralis,Animalia,PARROTS_PSITTACIDAE,Hispaniolan Amazon,,3,-68.4621620178,18.7132441113,North America,Dominican Republic,DO,,"Dominican Republic - Bayahibe,,2010-06-18
Amazona ventralis,Animalia,PARROTS_PSITTACIDAE,Hispaniolan Amazon,,10,-68.4621620178,18.7132441113,North America,Dominican Republic,DO,,"Dominican Republic - Bayahibe,,2010-06-24
Bubulcus ibis,Animalia,HERONS_ARDEIDAE,Western Cattle Egret,,100,-68.4621620178,18.7132441113,North America,Dominican Republic,DO,,"Dominican Republic - Bayahibe,,2010-06-18
Columbina passerina,Animalia,PIGEONS_AND_DOVES_COLUMBIDAE,Common Ground Dove,,1,-68.4621620178,18.7132441113,North America,Dominican Republic,DO,,"Dominican Republic - Bayahibe,,2010-06-18
Charadrius vociferus,Animalia,PLOVERS_CHARADRIIDAE,Killdeer,,3,-68.5,18.7,North America,Dominican Republic,DO,,"Dominican Republic - Bayahibe,,2010-06-18
Quiscalus niger,Animalia,ICTERIDS_ICTERIDAE,Greater Antillean Grackle,,1,-68.4636211395,18.7149512629,North America,Dominican Republic,DO,,"Dominican Republic - Bayahibe,,2010-06-18
Turdus plumbeus,Animalia,THRUSHES_TURDIDAE,Red-legged Thrush,,1,-70.7217407227,19.7899645721,North America,Dominican Republic,DO,,Dominican Republic,2006-07-19,
Pelecanus occidentalis,Animalia,PELICANS_PELECANIDAE,Brown Pelican,,30,-69.61192676406836,19.228518613558325,North America,Dominican Republic,DO,,Dominican Republic - Sanchez,2004-12-05,
Ardea alba egretta,Animalia,HERONS_ARDEIDAE,American Great Egret,,3,-69.61192676406836,19.228518613558325,North America,Dominican Republic,DO,,Dominican Republic - Sanchez,2004-12-05,
Pelecanus occidentalis,Animalia,PELICANS_PELECANIDAE,Brown Pelican,,30,-69.6116924286,19.2255023108,North America,Dominican Republic,DO,,Dominican Republic - Sanchez,2004-12-05,
Gallinula galeata,Animalia,RAILS_RALLIDAE,Common Gallinule,,2,-70.09768135977927,19.60199168947189,North America,Dominican Republic,DO,,Dominican Republic - Las Galeras,2004-12-06,
Ardea alba egretta,Animalia,HERONS_ARDEIDAE,American Great Egret,,1,-70.09768135977927,19.60199168947189,North America,Dominican Republic,DO,,Dominican Republic - Las Galeras,2004-12-06,
Mimus polyglottos,Animalia,THRASHERS_MIMIDAE,Northern Mockingbird,,2,-70.09768135977927,19.60199168947189,North America,Dominican Republic,DO,,Dominican Republic - Las Galeras,2004-12-02,
Gallinula galeata,Animalia,RAILS_RALLIDAE,Common Gallinule,,1,-70.09768135977927,19.60199168947189,North America,Dominican Republic,DO,,Dominican Republic - Las Galeras,2004-12-02,
Mimus polyglottos,Animalia,THRASHERS_MIMIDAE,Northern Mockingbird,,2,-70.09768135977927,19.60199168947189,North America,Dominican Republic,DO,,Dominican Republic - Las Galeras,2004-12-01,
Vireo nanus,Animalia,VIREOS_VIREONIDAE,Flat-billed Vireo,,5,-70.09768135977927,19.60199168947189,North America,Dominican Republic,DO,,Dominican Republic - Las Galeras,2004-11-29,
Gallinula galeata,Animalia,RAILS_RALLIDAE,Common Gallinule,,2,-70.09768135977927,19.60199168947189,North America,Dominican Republic,DO,,Dominican Republic - Las Galeras,2004-11-29,
Actitis macularius,Animalia,SANDPIPERS_AND_ALLIES_SCOLOPACIDAE,Spotted Sandpiper,,1,-69.190864563,19.2884613439,North America,Dominican Republic,DO,,Dominican Republic,2004-11-28,
Mimus polyglottos,Animalia,THRASHERS_MIMIDAE,Northern Mockingbird,,3,-70.09768135977927,19.60199168947189,North America,Dominican Republic,DO,,Dominican Republic - Las Galeras,2004-11-28,
Butorides virescens,Animalia,HERONS_ARDEIDAE,Green Heron,,1,-69.2056274414,19.2917018237,North America,Dominican Republic,DO,,Dominican Republic,2004-11-28,
Mimus polyglottos,Animalia,THRASHERS_MIMIDAE,Northern Mockingbird,,2,-70.09768135977927,19.60199168947189,North America,Dominican Republic,DO,,Dominican Republic - Las Galeras,2004-11-27,
Gallinula galeata,Animalia,RAILS_RALLIDAE,Common Gallinule,,2,-70.09768135977927,19.60199168947189,North America,Dominican Republic,DO,,Dominican Republic - Las Galeras,2004-11-26,
Mimus polyglottos,Animalia,THRASHERS_MIMIDAE,Northern Mockingbird,,2,-70.09768135977927,19.60199168947189,North America,Dominican Republic,DO,,Dominican Republic - Las Galeras,2004-11-26,
Gallinula galeata,Animalia,RAILS_RALLIDAE,Common Gallinule,,2,-70.09768135977927,19.60199168947189,North America,Dominican Republic,DO,,Dominican Republic - Las Galeras,2004-11-25,
Gallinula galeata,Animalia,RAILS_RALLIDAE,Common Gallinule,,1,-70.09768135977927,19.60199168947189,North America,Dominican Republic,DO,,Dominican Republic - Las Galeras,2004-11-24,
Bubulcus ibis,Animalia,HERONS_ARDEIDAE,Western Cattle Egret,,7,-69.2056274414,19.2929979977,North America,Dominican Republic,DO,,Dominican Republic,2004-11-28,
Podilymbus podiceps,Animalia,GREBES_PODICIPEDIDAE,Pied-billed Grebe,,4,-69.1960144043,19.2917018237,North America,Dominican Republic,DO,,Dominican Republic,2004-11-24,
Fregata magnificens,Animalia,FRIGATEBIRDS_FREGATTIDAE,Magnificent Frigatebird,,1,-69.1987609863,19.2904056395,North America,Dominican Republic,DO,,Dominican Republic,2004-11-27,
Falco sparverius,Animalia,CARACAS_AND_FALCONS_FALCONIDAE,American Kestrel,,3,-69.2042541504,19.2884613439,North America,Dominican Republic,DO,,Dominican Republic,2004-11-28,
Charadrius vociferus,Animalia,PLOVERS_CHARADRIIDAE,Killdeer,,8,-69.1980743408,19.2861929699,North America,Dominican Republic,DO,,Dominican Republic,2004-11-24,
Dulus dominicus,Animalia,PALMCHAT_DULIDAE,Palmchat,,18,-69.1692352295,19.2936460808,North America,Dominican Republic,DO,,Dominican Republic,2004-11-29,
Cathartes aura,Animalia,NEW_WORLD_VULTURES_CATHARTIDAE,Turkey Vulture,,25,-69.1603088379,19.289109445,North America,Dominican Republic,DO,,Dominican Republic,2004-12-07,
Melanerpes striatus,Animalia,WOODPECKERS_PICIDAE,Hispaniolan Woodpecker,,20,-69.1956710816,19.2845726835,North America,Dominican Republic,DO,,Dominican Republic,2004-11-28,
Coccyzus longirostris,Animalia,CUCKOOS_AND_COUCALS_CUCULIDAE,Hispaniolan Lizard Cuckoo,,1,-69.2028808594,19.2904056395,North America,Dominican Republic,DO,,Dominican Republic,2004-11-25,
Butorides virescens,Animalia,HERONS_ARDEIDAE,Green Heron,,1,-69.2083740234,19.2826283186,North America,Dominican Republic,DO,,Dominican Republic,2004-11-26,
Columbina passerina,Animalia,PIGEONS_AND_DOVES_COLUMBIDAE,Common Ground Dove,,17,-68.50341796875,18.514149723790336,North America,Dominican Republic,DO,,"Dominican Republic - Bayahibe,,2005-12-07
Tyrannus dominicensis,Animalia,TYRANT_FLYCATCHERS_TYRANNIDAE,Grey Kingbird,,20,-68.50341796875,18.514149723790336,North America,Dominican Republic,DO,,"Dominican Republic - Bayahibe,,2005-12-07
Gallinula galeata,Animalia,RAILS_RALLIDAE,Common Gallinule,,4,-68.50341796875,18.514149723790336,North America,Dominican Republic,DO,,"Dominican Republic - Bayahibe,,2005-12-07
Nyctanassa violacea,Animalia,HERONS_ARDEIDAE,Yellow-crowned Night Heron,,1,-68.50341796875,18.514149723790336,North America,Dominican Republic,DO,,"Dominican Republic - Bayahibe,,2005-12-06
Gallinula galeata,Animalia,RAILS_RALLIDAE,Common Gallinule,,3,-68.50341796875,18.514149723790336,North America,Dominican Republic,DO,,"Dominican Republic - Bayahibe,,2005-12-06
Columbina passerina,Animalia,PIGEONS_AND_DOVES_COLUMBIDAE,Common Ground Dove,,3,-68.50341796875,18.514149723790336,North America,Dominican Republic,DO,,"Dominican Republic - Bayahibe,,2005-12-06
Tyrannus dominicensis,Animalia,TYRANT_FLYCATCHERS_TYRANNIDAE,Grey Kingbird,,6,-68.50341796875,18.514149723790336,North America,Dominican Republic,DO,,"Dominican Republic - Bayahibe,,2005-12-06
Columbina passerina,Animalia,PIGEONS_AND_DOVES_COLUMBIDAE,Common Ground Dove,,7,-68.50341796875,18.514149723790336,North America,Dominican Republic,DO,,"Dominican Republic - Bayahibe,,2005-12-05
Tyrannus dominicensis,Animalia,TYRANT_FLYCATCHERS_TYRANNIDAE,Grey Kingbird,,12,-68.50341796875,18.514149723790336,North America,Dominican Republic,DO,,"Dominican Republic - Bayahibe,,2005-12-05
Anas bahamensis,Animalia,DUCKS_GEESE_AND_SWANS_ANATIDAE,White-cheeked Pintail,,3,-68.8265991211,18.3571323625,North America,Dominican Republic,DO,,Dominican Republic,2005-12-05,
Egretta thula,Animalia,HERONS_ARDEIDAE,Snowy Egret,,5,-68.818359375,18.3440978021,North America,Dominican Republic,DO,,Dominican Republic,2005-12-05,
Nyctanassa violacea,Animalia,HERONS_ARDEIDAE,Yellow-crowned Night Heron,,1,-68.50341796875,18.514149723790336,North America,Dominican Republic,DO,,"Dominican Republic - Bayahibe,,2005-12-05
Arenaria interpres,Animalia,SANDPIPERS_AND_ALLIES_SCOLOPACIDAE,Ruddy Turnstone,,5,-68.50341796875,18.514149723790336,North America,Dominican Republic,DO,,"Dominican Republic - Bayahibe,,2005-12-04
Columbina passerina,Animalia,PIGEONS_AND_DOVES_COLUMBIDAE,Common Ground Dove,,2,-68.50341796875,18.514149723790336,North America,Dominican Republic,DO,,"Dominican Republic - Bayahibe,,2005-12-03
Tyrannus dominicensis,Animalia,TYRANT_FLYCATCHERS_TYRANNIDAE,Grey Kingbird,,15,-68.50341796875,18.514149723790336,North America,Dominican Republic,DO,,"Dominican Republic - Bayahibe,,2005-12-03
Nyctanassa violacea,Animalia,HERONS_ARDEIDAE,Yellow-crowned Night Heron,,1,-68.888053894,18.3998136572,North America,Dominican Republic,DO,,Dominican Republic,2005-12-03,
Nyctanassa violacea,Animalia,HERONS_ARDEIDAE,Yellow-crowned Night Heron,,1,-68.50341796875,18.514149723790336,North America,Dominican Republic,DO,,"Dominican Republic - Bayahibe,,2005-12-02
Columbina passerina,Animalia,PIGEONS_AND_DOVES_COLUMBIDAE,Common Ground Dove,,19,-68.50341796875,18.514149723790336,North America,Dominican Republic,DO,,"Dominican Republic - Bayahibe,,2005-12-02
Gallinula galeata,Animalia,RAILS_RALLIDAE,Common Gallinule,,2,-68.50341796875,18.514149723790336,North America,Dominican Republic,DO,,"Dominican Republic - Bayahibe,,2005-12-02
Tyrannus dominicensis,Animalia,TYRANT_FLYCATCHERS_TYRANNIDAE,Grey Kingbird,,23,-68.50341796875,18.514149723790336,North America,Dominican Republic,DO,,"Dominican Republic - Bayahibe,,2005-12-02
Falco sparverius,Animalia,CARACAS_AND_FALCONS_FALCONIDAE,American Kestrel,,1,-68.8540649414,18.4014425048,North America,Dominican Republic,DO,,Dominican Republic,2005-12-01,
Nyctanassa violacea,Animalia,HERONS_ARDEIDAE,Yellow-crowned Night Heron,,1,-68.50341796875,18.514149723790336,North America,Dominican Republic,DO,,"Dominican Republic - Bayahibe,,2005-12-01
Columbina passerina,Animalia,PIGEONS_AND_DOVES_COLUMBIDAE,Common Ground Dove,,10,-68.50341796875,18.514149723790336,North America,Dominican Republic,DO,,"Dominican Republic - Bayahibe,,2005-12-01
Ploceus cucullatus,Animalia,WEAVERS_PLOCEIDAE,Village Weaver,,3,-68.8705444336,18.4092607593,North America,Dominican Republic,DO,,Dominican Republic,2005-12-01,
Tyrannus dominicensis,Animalia,TYRANT_FLYCATCHERS_TYRANNIDAE,Grey Kingbird,,16,-68.50341796875,18.514149723790336,North America,Dominican Republic,DO,,"Dominican Republic - Bayahibe,,2005-12-01
Nyctanassa violacea,Animalia,HERONS_ARDEIDAE,Yellow-crowned Night Heron,,2,-68.50341796875,18.514149723790336,North America,Dominican Republic,DO,,"Dominican Republic - Bayahibe,,2005-11-30
Columbina passerina,Animalia,PIGEONS_AND_DOVES_COLUMBIDAE,Common Ground Dove,,17,-68.50341796875,18.514149723790336,North America,Dominican Republic,DO,,"Dominican Republic - Bayahibe,,2005-11-30
Tyrannus dominicensis,Animalia,TYRANT_FLYCATCHERS_TYRANNIDAE,Grey Kingbird,,20,-68.50341796875,18.514149723790336,North America,Dominican Republic,DO,,"Dominican Republic - Bayahibe,,2005-11-30
Nyctanassa violacea,Animalia,HERONS_ARDEIDAE,Yellow-crowned Night Heron,,1,-68.50341796875,18.514149723790336,North America,Dominican Republic,DO,,"Dominican Republic - Bayahibe,,2005-11-29
Gallinula galeata,Animalia,RAILS_RALLIDAE,Common Gallinule,,6,-68.50341796875,18.514149723790336,North America,Dominican Republic,DO,,"Dominican Republic - Bayahibe,,2005-11-29
Columbina passerina,Animalia,PIGEONS_AND_DOVES_COLUMBIDAE,Common Ground Dove,,26,-68.50341796875,18.514149723790336,North America,Dominican Republic,DO,,"Dominican Republic - Bayahibe,,2005-11-29
Anthracothorax dominicus,Animalia,HUMMINGBIRDS_TROCHILIDAE,Antillean Mango,,1,-68.8128662109,18.396230138,North America,Dominican Republic,DO,,Dominican Republic,2005-11-29,
Mimus polyglottos,Animalia,THRASHERS_MIMIDAE,Northern Mockingbird,,7,-68.819732666,18.3610425388,North America,Dominican Republic,DO,,Dominican Republic,2005-11-29,
Nyctanassa violacea,Animalia,HERONS_ARDEIDAE,Yellow-crowned Night Heron,,1,-68.50341796875,18.514149723790336,North America,Dominican Republic,DO,,"Dominican Republic - Bayahibe,,2005-11-28
Coereba flaveola,Animalia,TANAGERS_AND_ALLIES_THRAUPIDAE,Bananaquit,,4,-68.8265991211,18.3688626257,North America,Dominican Republic,DO,,Dominican Republic - Del Este NP,2005-11-28,
Tyrannus dominicensis,Animalia,TYRANT_FLYCATCHERS_TYRANNIDAE,Grey Kingbird,,16,-68.50341796875,18.514149723790336,North America,Dominican Republic,DO,,"Dominican Republic - Bayahibe,,2005-11-28
Arenaria interpres,Animalia,SANDPIPERS_AND_ALLIES_SCOLOPACIDAE,Ruddy Turnstone,,7,-68.50341796875,18.514149723790336,North America,Dominican Republic,DO,,"Dominican Republic - Bayahibe,,2005-11-28
Falco sparverius,Animalia,CARACAS_AND_FALCONS_FALCONIDAE,American Kestrel,,2,-68.8485717773,18.3975332445,North America,Dominican Republic,DO,,Dominican Republic,2005-11-28,
Gallinula galeata,Animalia,RAILS_RALLIDAE,Common Gallinule,,3,-68.50341796875,18.514149723790336,North America,Dominican Republic,DO,,"Dominican Republic - Bayahibe,,2005-11-28
Egretta caerulea,Animalia,HERONS_ARDEIDAE,Little Blue Heron,,2,-68.8238525391,18.3388837026,North America,Dominican Republic,DO,,Dominican Republic - Del Este NP,2005-11-28,
Egretta thula,Animalia,HERONS_ARDEIDAE,Snowy Egret,,6,-68.8279724121,18.3480082735,North America,Dominican Republic,DO,,Dominican Republic - Del Este NP,2005-11-28,
Gallinula galeata,Animalia,RAILS_RALLIDAE,Common Gallinule,,2,-68.50341796875,18.514149723790336,North America,Dominican Republic,DO,,"Dominican Republic - Bayahibe,,2005-11-27
Tyrannus dominicensis,Animalia,TYRANT_FLYCATCHERS_TYRANNIDAE,Grey Kingbird,,3,-68.50341796875,18.514149723790336,North America,Dominican Republic,DO,,"Dominican Republic - Bayahibe,,2005-11-26
Gallinula galeata,Animalia,RAILS_RALLIDAE,Common Gallinule,,5,-68.50341796875,18.514149723790336,North America,Dominican Republic,DO,,"Dominican Republic - Bayahibe,,2005-11-26
Quiscalus niger,Animalia,ICTERIDS_ICTERIDAE,Greater Antillean Grackle,,5,-68.7661743164,18.3805920915,North America,Dominican Republic,DO,,Dominican Republic,2005-11-26,
Arenaria interpres,Animalia,SANDPIPERS_AND_ALLIES_SCOLOPACIDAE,Ruddy Turnstone,,7,-68.50341796875,18.514149723790336,North America,Dominican Republic,DO,,"Dominican Republic - Bayahibe,,2005-11-25
Crotophaga ani,Animalia,CUCKOOS_AND_COUCALS_CUCULIDAE,Smooth-billed Ani,,15,-68.8073730469,18.3597391566,North America,Dominican Republic,DO,,Dominican Republic - Del Este NP,2005-11-25,
Gallinula galeata,Animalia,RAILS_RALLIDAE,Common Gallinule,,1,-68.50341796875,18.514149723790336,North America,Dominican Republic,DO,,"Dominican Republic - Bayahibe,,2005-11-25
Himantopus mexicanus,Animalia,STILTS_AND_AVOCETS_RECURVIROSTRIDAE,Black-necked Stilt,,1,-68.8187942281,18.3575233881,North America,Dominican Republic,DO,,Dominican Republic,2005-11-25,
Tyrannus dominicensis,Animalia,TYRANT_FLYCATCHERS_TYRANNIDAE,Grey Kingbird,,5,-68.50341796875,18.514149723790336,North America,Dominican Republic,DO,,"Dominican Republic - Bayahibe,,2005-11-24
Arenaria interpres,Animalia,SANDPIPERS_AND_ALLIES_SCOLOPACIDAE,Ruddy Turnstone,,11,-68.8348388672,18.3571323625,North America,Dominican Republic,DO,,Dominican Republic,2005-11-24,
Nyctanassa violacea,Animalia,HERONS_ARDEIDAE,Yellow-crowned Night Heron,,1,-68.50341796875,18.514149723790336,North America,Dominican Republic,DO,,"Dominican Republic - Bayahibe,,2005-11-24
Pyrrhocalles antiqua antiqua,Animalia,SKIPPERS_HESPERIIDAE,,,1,-69.25927,19.261593333333,North America,Dominican Republic,DO,,Dominican Republic - Samaná,2020-01-13,16:21
Pyrrhocalles antiqua antiqua,Animalia,SKIPPERS_HESPERIIDAE,,,1,-69.258405800005,19.262009799995,North America,Dominican Republic,DO,,Dominican Republic - Samaná,2020-01-13,11:24
Pyrrhocalles antiqua antiqua,Animalia,SKIPPERS_HESPERIIDAE,,,1,-69.258402399952,19.262023969987,North America,Dominican Republic,DO,,Dominican Republic - Samaná,2020-01-13,11:18
Pyrrhocalles antiqua antiqua,Animalia,SKIPPERS_HESPERIIDAE,,,1,-69.257674499977,19.26169670001,North America,Dominican Republic,DO,,Dominican Republic - Samaná,2020-01-13,10:54
Pyrrhocalles antiqua antiqua,Animalia,SKIPPERS_HESPERIIDAE,,,1,-69.26028360003,19.259489529915,North America,Dominican Republic,DO,,Dominican Republic - Samaná,2020-01-12,16:28
Heliconius charithonia,Animalia,BRUSHFOOTED_BUTTERFLIES_NYMPHALIDAE,Zebra Heliconian,,1,-70.4505208,18.881989,North America,Dominican Republic,DO,,Dominican Republic - Monseñor Nouel,2020-01-19,13:33
Agraulis vanillae,Animalia,BRUSHFOOTED_BUTTERFLIES_NYMPHALIDAE,Gulf Fritillary,,1,-69.2424128,19.25972339996,North America,Dominican Republic,DO,,Dominican Republic - Samaná,2020-01-12,14:17
Siproeta stelenes,Animalia,BRUSHFOOTED_BUTTERFLIES_NYMPHALIDAE,Malachite,,1,-69.258975,19.261986666667,North America,Dominican Republic,DO,,Dominican Republic - Samaná,2020-01-12,10:07
Dryas iulia,Animalia,BRUSHFOOTED_BUTTERFLIES_NYMPHALIDAE,Julia Heliconian,,1,-69.258674300013,19.2620004,North America,Dominican Republic,DO,,Dominican Republic - Samaná,2020-01-12,09:58
Colobura dirce,Animalia,BRUSHFOOTED_BUTTERFLIES_NYMPHALIDAE,Dirce Beauty,,1,-69.258289370079,19.261936449981,North America,Dominican Republic,DO,,Dominican Republic - Samaná,2020-01-11,17:27
Colobura dirce,Animalia,BRUSHFOOTED_BUTTERFLIES_NYMPHALIDAE,Dirce Beauty,,1,-69.258308333333,19.261901666667,North America,Dominican Republic,DO,,Dominican Republic - Samaná,2020-01-11,16:00
Anartia jatrophae,Animalia,BRUSHFOOTED_BUTTERFLIES_NYMPHALIDAE,White Peacock,,1,-69.45199777,19.062399370017,North America,Dominican Republic,DO,,Dominican Republic - Hato Mayor,2020-01-09,16:18
Papilio demoleus,Animalia,SWALLOWTAILS_PAPILIONIDAE,Lemon Butterfly,,1,-69.2371176,18.746135800009,North America,Dominican Republic,DO,,Dominican Republic - Hato Mayor,2020-01-08,15:26
Heliconius charithonia,Animalia,BRUSHFOOTED_BUTTERFLIES_NYMPHALIDAE,Zebra Heliconian,,1,-69.2385454,18.749606499956,North America,Dominican Republic,DO,,Dominican Republic - Hato Mayor,2020-01-08,14:37
Agraulis vanillae,Animalia,BRUSHFOOTED_BUTTERFLIES_NYMPHALIDAE,Gulf Fritillary,,1,-69.238661400044,18.749612300004,North America,Dominican Republic,DO,,Dominican Republic - Hato Mayor,2020-01-08,14:27
Heliconius charithonia,Animalia,BRUSHFOOTED_BUTTERFLIES_NYMPHALIDAE,Zebra Heliconian,,1,-69.236346666667,18.743693333333,North America,Dominican Republic,DO,,Dominican Republic - Hato Mayor,2020-01-07,17:04
Siproeta stelenes,Animalia,BRUSHFOOTED_BUTTERFLIES_NYMPHALIDAE,Malachite,,1,-69.2339566,18.739884,North America,Dominican Republic,DO,,Dominican Republic - Hato Mayor,2020-01-07,16:32
Anartia jatrophae,Animalia,BRUSHFOOTED_BUTTERFLIES_NYMPHALIDAE,White Peacock,,1,-69.236129299993,18.739568199994,North America,Dominican Republic,DO,,Dominican Republic - Hato Mayor,2020-01-07,16:12
Heliconius charithonia,Animalia,BRUSHFOOTED_BUTTERFLIES_NYMPHALIDAE,Zebra Heliconian,,1,-69.23636125,18.743755250095,North America,Dominican Republic,DO,,Dominican Republic - Hato Mayor,2020-01-07,15:41
Papilio demoleus,Animalia,SWALLOWTAILS_PAPILIONIDAE,Lemon Butterfly,,1,-69.23739292998,18.746671800005,North America,Dominican Republic,DO,,Dominican Republic - Hato Mayor,2020-01-07,15:09
Anartia jatrophae,Animalia,BRUSHFOOTED_BUTTERFLIES_NYMPHALIDAE,White Peacock,,1,-69.237759,18.747038600045,North America,Dominican Republic,DO,,Dominican Republic - Hato Mayor,2020-01-07,15:06
Agraulis vanillae,Animalia,BRUSHFOOTED_BUTTERFLIES_NYMPHALIDAE,Gulf Fritillary,,1,-69.2377405,18.747049499954,North America,Dominican Republic,DO,,Dominican Republic - Hato Mayor,2020-01-07,15:02
Anartia jatrophae,Animalia,BRUSHFOOTED_BUTTERFLIES_NYMPHALIDAE,White Peacock,,1,-69.2378008,18.747080699966,North America,Dominican Republic,DO,,Dominican Republic - Hato Mayor,2020-01-07,15:00
Dryas iulia,Animalia,BRUSHFOOTED_BUTTERFLIES_NYMPHALIDAE,Julia Heliconian,,1,-68.83724,18.363236666667,North America,Dominican Republic,DO,,Dominican Republic - La Altagracia,2020-01-06,16:01
Agraulis vanillae,Animalia,BRUSHFOOTED_BUTTERFLIES_NYMPHALIDAE,Gulf Fritillary,,1,-68.837732600013,18.363509,North America,Dominican Republic,DO,,Dominican Republic - La Altagracia,2020-01-06,15:47
Anartia jatrophae,Animalia,BRUSHFOOTED_BUTTERFLIES_NYMPHALIDAE,White Peacock,,1,-68.837485,18.361685,North America,Dominican Republic,DO,,Dominican Republic - La Altagracia,2020-01-06,14:54
Dryas iulia,Animalia,BRUSHFOOTED_BUTTERFLIES_NYMPHALIDAE,Julia Heliconian,,1,-68.836862649996,18.36058450009,North America,Dominican Republic,DO,,Dominican Republic - La Altagracia,2020-01-06,14:10
Ascia monuste,Animalia,WHITES_PIERIDAE,,,1,-68.809442299994,18.374608,North America,Dominican Republic,DO,,Dominican Republic - Del Este NP,2020-01-05,16:29
Heliconius charithonia,Animalia,BRUSHFOOTED_BUTTERFLIES_NYMPHALIDAE,Zebra Heliconian,,1,-68.816392299995,18.373328199995,North America,Dominican Republic,DO,,Dominican Republic - Del Este NP,2020-01-05,15:31
Trichopoda pennipes,Animalia,Tachinidae,,,1,-69.46200747,19.06574313,North America,Dominican Republic,DO,,Dominican Republic - Los Haitises NP,2020-01-10,12:46
Anolis cybotes,Animalia,Polychrotidae,Hispaniolan Stout Anole,,1,-70.4477849,18.878002,North America,Dominican Republic,DO,,Dominican Republic - Monseñor Nouel,2020-01-19,14:06
Anolis cybotes,Animalia,Polychrotidae,Hispaniolan Stout Anole,,1,-70.623082799977,19.106300099983,North America,Dominican Republic,DO,,Dominican Republic - La Vega,2020-01-16,16:05
Anolis cybotes,Animalia,Polychrotidae,Hispaniolan Stout Anole,,1,-70.616086899927,19.093606600042,North America,Dominican Republic,DO,,Dominican Republic - La Vega,2020-01-16,13:28
Anolis cybotes,Animalia,Polychrotidae,Hispaniolan Stout Anole,,1,-69.238579099977,18.749581200036,North America,Dominican Republic,DO,,Dominican Republic - Hato Mayor,2020-01-07,14:36
Dulus dominicus,Animalia,PALMCHAT_DULIDAE,Palmchat,,1,-69.4622268676758,19.0585231781006,North America,Dominican Republic,DO,,Dominican Republic - Los Haitises NP,2019-12-13,15:15
Coereba flaveola,Animalia,TANAGERS_AND_ALLIES_THRAUPIDAE,Bananaquit,,1,-68.822135925293,18.3453731536865,North America,Dominican Republic,DO,,Dominican Republic - La Altagracia,2019-12-15,10:05
Coereba flaveola,Animalia,TANAGERS_AND_ALLIES_THRAUPIDAE,Bananaquit,,1,-68.8115615844727,18.3318138122559,North America,Dominican Republic,DO,,Dominican Republic - La Altagracia,2019-12-15,10:39
Coereba flaveola,Animalia,TANAGERS_AND_ALLIES_THRAUPIDAE,Bananaquit,,1,-68.8061370849609,18.322208404541,North America,Dominican Republic,DO,,Dominican Republic - La Altagracia,2019-12-15,12:25
Phaenicophilus palmarum,Animalia,PHAENICOPHILIDAE,Black-crowned Tanager,,1,-68.8049850463867,18.3187828063965,North America,Dominican Republic,DO,,Dominican Republic - La Altagracia,2019-12-15,12:52
Heliconius charithonia,Animalia,BRUSHFOOTED_BUTTERFLIES_NYMPHALIDAE,Zebra Heliconian,,1,-68.80410767,18.31771851,North America,Dominican Republic,DO,,Dominican Republic - La Altagracia,2019-12-15,13:03
Arenaria interpres,Animalia,SANDPIPERS_AND_ALLIES_SCOLOPACIDAE,Ruddy Turnstone,,1,-68.8045043945313,18.3166027069092,North America,Dominican Republic,DO,,Dominican Republic - La Altagracia,2019-12-15,13:16
Phaenicophilus palmarum,Animalia,PHAENICOPHILIDAE,Black-crowned Tanager,,2,-68.8075180053711,18.3241939544678,North America,Dominican Republic,DO,,Dominican Republic - La Altagracia,2019-12-15,13:51
Phaenicophilus palmarum,Animalia,PHAENICOPHILIDAE,Black-crowned Tanager,,2,-68.806396484375,18.3273086547852,North America,Dominican Republic,DO,,Dominican Republic - La Altagracia,2019-12-15,15:21
Coereba flaveola,Animalia,TANAGERS_AND_ALLIES_THRAUPIDAE,Bananaquit,,1,-68.8081665039063,18.3263702392578,North America,Dominican Republic,DO,,Dominican Republic - La Altagracia,2019-12-15,16:23
Coereba flaveola,Animalia,TANAGERS_AND_ALLIES_THRAUPIDAE,Bananaquit,,1,-68.8106079101563,18.3300476074219,North America,Dominican Republic,DO,,Dominican Republic - La Altagracia,2019-12-15,16:42
Dulus dominicus,Animalia,PALMCHAT_DULIDAE,Palmchat,,1,-68.8099136352539,18.3333587646484,North America,Dominican Republic,DO,,Dominican Republic - La Altagracia,2019-12-15,16:54
Falco sparverius,Animalia,CARACAS_AND_FALCONS_FALCONIDAE,American Kestrel,,1,-68.8084564208984,18.3332290649414,North America,Dominican Republic,DO,,Dominican Republic - La Altagracia,2019-12-15,17:01
Dulus dominicus,Animalia,PALMCHAT_DULIDAE,Palmchat,,1,-68.8226699829102,18.3450603485107,North America,Dominican Republic,DO,,Dominican Republic - La Altagracia,2019-12-16,08:03
Coereba flaveola,Animalia,TANAGERS_AND_ALLIES_THRAUPIDAE,Bananaquit,,1,-68.8226852416992,18.3450374603271,North America,Dominican Republic,DO,,Dominican Republic - La Altagracia,2019-12-16,08:04
Coereba flaveola,Animalia,TANAGERS_AND_ALLIES_THRAUPIDAE,Bananaquit,,2,-68.8227310180664,18.345006942749,North America,Dominican Republic,DO,,Dominican Republic - La Altagracia,2019-12-16,10:34
Dulus dominicus,Animalia,PALMCHAT_DULIDAE,Palmchat,,1,-68.816162109375,18.343713760376,North America,Dominican Republic,DO,,Dominican Republic - La Altagracia,2019-12-12,11:27
Arenaria interpres,Animalia,SANDPIPERS_AND_ALLIES_SCOLOPACIDAE,Ruddy Turnstone,,10,-68.8249359130859,18.3440780639648,North America,Dominican Republic,DO,,Dominican Republic - La Altagracia,2019-12-12,13:33
Dulus dominicus,Animalia,PALMCHAT_DULIDAE,Palmchat,,1,-68.82470703125,18.3465404510498,North America,Dominican Republic,DO,,Dominican Republic - La Altagracia,2019-12-12,14:45
Coereba flaveola,Animalia,TANAGERS_AND_ALLIES_THRAUPIDAE,Bananaquit,,1,-68.8252792358398,18.3468933105469,North America,Dominican Republic,DO,,Dominican Republic - La Altagracia,2019-12-12,15:06
Coereba flaveola,Animalia,TANAGERS_AND_ALLIES_THRAUPIDAE,Bananaquit,,1,-68.8213424682617,18.3473529815674,North America,Dominican Republic,DO,,Dominican Republic - La Altagracia,2019-12-12,16:27
Coereba flaveola,Animalia,TANAGERS_AND_ALLIES_THRAUPIDAE,Bananaquit,,1,-68.8225402832031,18.3451175689697,North America,Dominican Republic,DO,,Dominican Republic - La Altagracia,2019-12-10,07:17
Passer domesticus,Animalia,OLD_WORLD_SPARROWS_PASSERIDAE,House Sparrow,,1,-68.8229751586914,18.3442096710205,North America,Dominican Republic,DO,,Dominican Republic - La Altagracia,2019-12-10,08:04
Falco sparverius,Animalia,CARACAS_AND_FALCONS_FALCONIDAE,American Kestrel,,1,-68.8224639892578,18.3444843292236,North America,Dominican Republic,DO,,Dominican Republic - La Altagracia,2019-12-10,09:29
Dulus dominicus,Animalia,PALMCHAT_DULIDAE,Palmchat,,1,-68.8225250244141,18.3450946807861,North America,Dominican Republic,DO,,Dominican Republic - La Altagracia,2019-12-10,10:16
Phaenicophilus palmarum,Animalia,PHAENICOPHILIDAE,Black-crowned Tanager,,1,-68.818489074707,18.3451614379883,North America,Dominican Republic,DO,,Dominican Republic - La Altagracia,2019-12-10,13:45
Falco sparverius,Animalia,CARACAS_AND_FALCONS_FALCONIDAE,American Kestrel,,2,-68.8146667480469,18.3427562713623,North America,Dominican Republic,DO,,Dominican Republic - La Altagracia,2019-12-10,16:52
Ardea herodias,Animalia,HERONS_ARDEIDAE,Great Blue Heron,,1,-71.361694,17.761765,North America,Dominican Republic,DO,,Dominican Republic - Jaragua NP,2015-03-07,
Cyclura cornuta,Animalia,Iguanidae,Rhinoceros Iguana,,10,-71.361694,17.761765,North America,Dominican Republic,DO,,Dominican Republic - Jaragua NP,2015-03-07,
Mareca americana,Animalia,DUCKS_GEESE_AND_SWANS_ANATIDAE,American Wigeon,,10,-71.361694,17.761765,North America,Dominican Republic,DO,,Dominican Republic - Jaragua NP,2015-03-07,
Phoenicopterus ruber,Animalia,FLAMINGOS_PHOENICOPTERIDAE,American Flamingo,,10,-71.361694,17.761765,North America,Dominican Republic,DO,,Dominican Republic - Jaragua NP,2015-03-07,
Anolis chlorocyanus,Animalia,Polychrotidae,Northern Hispaniolan green Anole,,1,-69.359436,19.233363,North America,Dominican Republic,DO,,Dominican Republic - Samaná,2015-03-05,
Pelecanus occidentalis,Animalia,PELICANS_PELECANIDAE,Brown Pelican,,1,-69.515991,19.114029,North America,Dominican Republic,DO,,Dominican Republic Exclusive Economic Zone,2015-03-03,
Cathartes aura,Animalia,NEW_WORLD_VULTURES_CATHARTIDAE,Turkey Vulture,,1,-69.515991,19.114029,North America,Dominican Republic,DO,,Dominican Republic Exclusive Economic Zone,2015-03-03,
Danaus plexippus,Animalia,BRUSHFOOTED_BUTTERFLIES_NYMPHALIDAE,American Monarch,,1,-70.65800414,19.7765061,North America,Dominican Republic,DO,,Dominican Republic - Puerto Plata,2008-01-23,
Nyctanassa violacea,Animalia,HERONS_ARDEIDAE,Yellow-crowned Night Heron,,6,-70.65800414,19.7765061,North America,Dominican Republic,DO,,Dominican Republic - Puerto Plata,2008-01-29,
Nyctanassa violacea,Animalia,HERONS_ARDEIDAE,Yellow-crowned Night Heron,,3,-70.65800414,19.7765061,North America,Dominican Republic,DO,,Dominican Republic - Puerto Plata,2008-01-28,
Nyctanassa violacea,Animalia,HERONS_ARDEIDAE,Yellow-crowned Night Heron,,9,-70.65800414,19.7765061,North America,Dominican Republic,DO,,Dominican Republic - Puerto Plata,2008-01-27,
Charadrius vociferus,Animalia,PLOVERS_CHARADRIIDAE,Killdeer,,5,-70.7,19.75,North America,Dominican Republic,DO,,Dominican Republic - Puerto Plata,2008-01-26,
Butorides virescens,Animalia,HERONS_ARDEIDAE,Green Heron,,1,-70.65800414,19.7765061,North America,Dominican Republic,DO,,Dominican Republic - Puerto Plata,2008-01-26,
Turdus plumbeus,Animalia,THRUSHES_TURDIDAE,Red-legged Thrush,,1,-70.65800414,19.7765061,North America,Dominican Republic,DO,,Dominican Republic - Puerto Plata,2008-01-26,
Turdus plumbeus,Animalia,THRUSHES_TURDIDAE,Red-legged Thrush,,2,-70.65767519,19.77659242,North America,Dominican Republic,DO,,Dominican Republic - Puerto Plata,2008-01-21,
Butorides virescens,Animalia,HERONS_ARDEIDAE,Green Heron,,1,-70.65767519,19.77659242,North America,Dominican Republic,DO,,Dominican Republic - Puerto Plata,2008-01-20,
Turdus plumbeus,Animalia,THRUSHES_TURDIDAE,Red-legged Thrush,,2,-70.65767519,19.77659242,North America,Dominican Republic,DO,,Dominican Republic - Puerto Plata,2008-01-19,
Turdus plumbeus,Animalia,THRUSHES_TURDIDAE,Red-legged Thrush,,2,-70.65767519,19.77659242,North America,Dominican Republic,DO,,Dominican Republic - Puerto Plata,2008-01-17,
Turdus plumbeus,Animalia,THRUSHES_TURDIDAE,Red-legged Thrush,,1,-70.65796123,19.77647238,North America,Dominican Republic,DO,,Dominican Republic - Puerto Plata,2008-01-15,
Charadrius vociferus,Animalia,PLOVERS_CHARADRIIDAE,Killdeer,,6,-70.65636142,19.77854328,North America,Dominican Republic,DO,,Dominican Republic - Puerto Plata,2008-01-15,
Anolis cybotes,Animalia,Polychrotidae,Hispaniolan Stout Anole,,1,-71.689,18.326,North America,Dominican Republic,DO,,Dominican Republic - Independencia,2004-03-15,
Colobura dirce,Animalia,BRUSHFOOTED_BUTTERFLIES_NYMPHALIDAE,Dirce Beauty,,1,-71.575,18.317,North America,Dominican Republic,DO,,Dominican Republic - Independencia,2004-03-19,
Heraclides machaonides,Animalia,SWALLOWTAILS_PAPILIONIDAE,,,1,-71.575,18.317,North America,Dominican Republic,DO,,Dominican Republic - Independencia,2004-03-18,
Battus polydamas,Animalia,SWALLOWTAILS_PAPILIONIDAE,Polydamas Swallowtail,,1,-70.51,19.771,North America,Dominican Republic,DO,,Dominican Republic - Puerto Plata,2004-03-12,
Leiocephalus personatus,Animalia,Tropiduridae,Haitian Curlytail Lizard,,1,-69.954,18.494,North America,Dominican Republic,DO,,Dominican Republic - Distrito Nacional,2004-03-22,
Anolis cybotes,Animalia,Polychrotidae,Hispaniolan Stout Anole,,2,-69.954,18.494,North America,Dominican Republic,DO,,Dominican Republic - Distrito Nacional,2004-03-22,
Anolis chlorocyanus,Animalia,Polychrotidae,Northern Hispaniolan green Anole,,3,-69.954,18.494,North America,Dominican Republic,DO,,Dominican Republic - Distrito Nacional,2004-03-22,
Antrostomus ekmani,Animalia,NIGHTJARS_CAPRIMULGIDAE,Hispaniolan Nightjar,,4,-71.73897743,18.25899737,North America,Dominican Republic,DO,,Dominican Republic - Sierra de Bahoruco NP,2004-03-19,
Antrostomus ekmani,Animalia,NIGHTJARS_CAPRIMULGIDAE,Hispaniolan Nightjar,,5,-71.64344788,18.35446036,North America,Dominican Republic,DO,,Dominican Republic - Independencia,2004-03-18,
Ardea alba,Animalia,HERONS_ARDEIDAE,Great Egret,,1,-71.64493560791016,18.52030670090818,North America,Dominican Republic,DO,,Dominican Republic - Lago Enriquillo e Isla Cabritos NP,2018-08-01,09:04
Phaenicophilus palmarum,Animalia,PHAENICOPHILIDAE,Black-crowned Tanager,,1,-68.8397741,18.3691885,North America,Dominican Republic,DO,,Dominican Republic - La Altagracia,2017-11-26,00:12
Pelecanus occidentalis,Animalia,PELICANS_PELECANIDAE,Brown Pelican,,1,-68.8397741,18.3691885,North America,Dominican Republic,DO,,Dominican Republic - La Altagracia,2017-11-26,00:12
Dulus dominicus,Animalia,PALMCHAT_DULIDAE,Palmchat,,5,-68.455248,18.687052,North America,Dominican Republic,DO,,"Dominican Republic - Bayahibe,,2017-11-27
Dulus dominicus,Animalia,PALMCHAT_DULIDAE,Palmchat,,50,-69.9539306,18.4933056,North America,Dominican Republic,DO,,Dominican Republic - Distrito Nacional,2017-12-12,09:30
Dulus dominicus,Animalia,PALMCHAT_DULIDAE,Palmchat,,50,-69.9539306,18.4933056,North America,Dominican Republic,DO,,Dominican Republic - Distrito Nacional,2017-12-01,09:30
Dulus dominicus,Animalia,PALMCHAT_DULIDAE,Palmchat,,30,-69.9539306,18.4933056,North America,Dominican Republic,DO,,Dominican Republic - Distrito Nacional,2017-11-22,10:00
Dendrocygna arborea,Animalia,DUCKS_GEESE_AND_SWANS_ANATIDAE,West Indian Whistling Duck,,17,-69.9539306,18.4933056,North America,Dominican Republic,DO,,Dominican Republic - Distrito Nacional,2017-12-12,09:30
Dendrocygna arborea,Animalia,DUCKS_GEESE_AND_SWANS_ANATIDAE,West Indian Whistling Duck,,20,-69.9539306,18.4933056,North America,Dominican Republic,DO,,Dominican Republic - Distrito Nacional,2017-12-01,09:30
Dendrocygna arborea,Animalia,DUCKS_GEESE_AND_SWANS_ANATIDAE,West Indian Whistling Duck,,5,-69.9539306,18.4933056,North America,Dominican Republic,DO,,Dominican Republic - Distrito Nacional,2017-11-22,10:00
Crotophaga ani,Animalia,CUCKOOS_AND_COUCALS_CUCULIDAE,Smooth-billed Ani,,5,-69.9539306,18.4933056,North America,Dominican Republic,DO,,Dominican Republic - Distrito Nacional,2017-12-12,09:30
Crotophaga ani,Animalia,CUCKOOS_AND_COUCALS_CUCULIDAE,Smooth-billed Ani,,6,-69.9539306,18.4933056,North America,Dominican Republic,DO,,Dominican Republic - Distrito Nacional,2017-12-01,09:30
Crotophaga ani,Animalia,CUCKOOS_AND_COUCALS_CUCULIDAE,Smooth-billed Ani,,4,-69.9539306,18.4933056,North America,Dominican Republic,DO,,Dominican Republic - Distrito Nacional,2017-11-22,10:00
Fregata magnificens,Animalia,FRIGATEBIRDS_FREGATTIDAE,Magnificent Frigatebird,,40,-68.72772217,18.12888604,North America,Dominican Republic,DO,,Dominican Republic - Del Este NP,2003-12-15,11:00
Melanerpes striatus,Animalia,WOODPECKERS_PICIDAE,Hispaniolan Woodpecker,,10,-68.40233803,18.67188107,North America,Dominican Republic,DO,,"Dominican Republic - Bayahibe,,2014-12-02
Dryas iulia,Animalia,BRUSHFOOTED_BUTTERFLIES_NYMPHALIDAE,Julia Heliconian,,1,-68.835,18.39,North America,Dominican Republic,DO,,Dominican Republic - La Altagracia,2019-01-23,15:54
Agraulis vanillae,Animalia,BRUSHFOOTED_BUTTERFLIES_NYMPHALIDAE,Gulf Fritillary,,1,-71.068,18.122,North America,Dominican Republic,DO,,Dominican Republic,2019-01-20,08:39
Cyclura cornuta,Animalia,Iguanidae,Rhinoceros Iguana,,1,-70.50978088,18.21708679,North America,Dominican Republic,DO,,Dominican Republic - Peravia,2019-01-18,10:59
Cocos nucifera,Plantae,Arecaceae,Coconut palm,,1,-68.81076813,18.33042908,North America,Dominican Republic,DO,,Dominican Republic - La Altagracia,2019-01-24,09:50
Agraulis vanillae,Animalia,BRUSHFOOTED_BUTTERFLIES_NYMPHALIDAE,Gulf Fritillary,,1,-68.8105392456055,18.3298454284668,North America,Dominican Republic,DO,,Dominican Republic - La Altagracia,2019-01-24,15:02
Stictia signata,Animalia,Crabronidae,,,1,-68.81108856,18.33115005,North America,Dominican Republic,DO,,Dominican Republic - La Altagracia,2019-01-24,09:35
Egretta tricolor ruficollis,Animalia,HERONS_ARDEIDAE,Tricolored Heron ssp ruficollis,,1,-71.65351868,17.92658043,North America,Dominican Republic,DO,,Dominican Republic - Pedernales,2019-01-20,15:11
Setophaga discolor,Animalia,NEW_WORLD_WARBLERS_PARULIDAE,Prairie Warbler,,1,-71.54625702,18.11841011,North America,Dominican Republic,DO,,Dominican Republic - Sierra de Bahoruco NP,2019-01-21,13:16
Ardea alba egretta,Animalia,HERONS_ARDEIDAE,American Great Egret,,1,-70.54961395,18.21437645,North America,Dominican Republic,DO,,Dominican Republic - Peravia,2019-01-18,08:58
Tringa melanoleuca,Animalia,SANDPIPERS_AND_ALLIES_SCOLOPACIDAE,Greater Yellowlegs,,1,-70.54961395,18.21437645,North America,Dominican Republic,DO,,Dominican Republic - Peravia,2019-01-18,08:57
Himantopus mexicanus mexicanus,Animalia,STILTS_AND_AVOCETS_RECURVIROSTRIDAE,Black-necked Stilt ssp mexicanus,,1,-70.54961395,18.21437645,North America,Dominican Republic,DO,,Dominican Republic - Peravia,2019-01-18,08:57
Egretta tricolor ruficollis,Animalia,HERONS_ARDEIDAE,Tricolored Heron ssp ruficollis,,1,-70.54961395,18.21437645,North America,Dominican Republic,DO,,Dominican Republic - Peravia,2019-01-18,08:57
Anartia jatrophae,Animalia,BRUSHFOOTED_BUTTERFLIES_NYMPHALIDAE,White Peacock,,2,-68.4052352905273,18.6678657531738,North America,Dominican Republic,DO,,"Dominican Republic - Bayahibe,,2019-01-15
Conocarpus erectus,Plantae,Combretaceae,Button Mangrove,,1,-68.42267609,18.68008995,North America,Dominican Republic,DO,,"Dominican Republic - Bayahibe,,2019-01-15
Laguncularia racemosa,Plantae,Combretaceae,White Mangrove,,1,-68.42251587,18.68003654,North America,Dominican Republic,DO,,"Dominican Republic - Bayahibe,,2019-01-15
Hura crepitans,Plantae,EUPHORBIACEAE,Sandboxtree,,1,-70.41869354,18.40333176,North America,Dominican Republic,DO,,Dominican Republic - Peravia,2019-01-22,15:31
Catharanthus roseus,Plantae,APOCYNACEAE,Madagascar rosy periwinkle,,1,-68.83982086,18.36786842,North America,Dominican Republic,DO,,Dominican Republic - La Altagracia,2019-01-25,06:59
Heliotropium curassavicum,Plantae,BORAGINACEAE,Seaside Heliotrope,,1,-68.84076691,18.36782646,North America,Dominican Republic,DO,,Dominican Republic - La Altagracia,2019-01-25,07:20
Siproeta stelenes,Animalia,BRUSHFOOTED_BUTTERFLIES_NYMPHALIDAE,Malachite,,1,-68.8010711669922,18.329517364502,North America,Dominican Republic,DO,,Dominican Republic - Del Este NP,2019-01-24,11:45
Himantopus mexicanus mexicanus,Animalia,STILTS_AND_AVOCETS_RECURVIROSTRIDAE,Black-necked Stilt ssp mexicanus,,1,-71.65351868,17.92658043,North America,Dominican Republic,DO,,Dominican Republic - Pedernales,2019-01-20,15:11
Ipomoea hederifolia,Plantae,CONVOLVULACEAE,Scarlet creeper,,1,-68.83587646,18.40491867,North America,Dominican Republic,DO,,Dominican Republic - La Altagracia,2019-01-25,10:10
Rivina humilis,Plantae,PHYTOLACCACEAE,Bloodberry,,1,-68.84043121,18.36356544,North America,Dominican Republic,DO,,Dominican Republic - La Altagracia,2019-01-24,08:58
Morinda citrifolia,Plantae,RUBIACEAE,Rotten cheesefruit,,1,-68.83986664,18.36255646,North America,Dominican Republic,DO,,Dominican Republic - La Altagracia,2019-01-24,17:22
Parthenium hysterophorus,Plantae,Asteraceae,Whitetop weed,,1,-68.83592987,18.38862419,North America,Dominican Republic,DO,,Dominican Republic - La Altagracia,2019-01-23,16:03
Mitracarpus hirtus,Plantae,RUBIACEAE,Small squareweed,,1,-71.15921021,17.99509239,North America,Dominican Republic,DO,,Dominican Republic - Barahona,2019-01-20,10:14
Batis maritima,Plantae,Bataceae,Turtleweed,,1,-71.65365601,17.92687607,North America,Dominican Republic,DO,,Dominican Republic - Pedernales,2019-01-20,15:34
Jatropha gossypiifolia,Plantae,EUPHORBIACEAE,Black physicnut,,2,-70.52880096,18.21345329,North America,Dominican Republic,DO,,Dominican Republic,2019-01-18,08:43
Hamelia patens,Plantae,RUBIACEAE,Redhead,,1,-68.83569336,18.40506935,North America,Dominican Republic,DO,,Dominican Republic - La Altagracia,2019-01-25,10:51
Leucaena leucocephala,Plantae,Fabaceae,Wild Tamarind,,1,-68.59250641,18.77447701,North America,Dominican Republic,DO,,Dominican Republic - La Altagracia,2019-01-15,13:22
Leucaena leucocephala,Plantae,Fabaceae,Wild Tamarind,,1,-68.40548862,18.66784569,North America,Dominican Republic,DO,,"Dominican Republic - Bayahibe,,2019-01-15
Thalasseus acuflavidus acuflavidus,Animalia,GULLS_TERNS_AND_SKIMMERS_LARIDAE,Cabot's Tern ssp acuflavidus,,1,-70.55622864,18.21448708,North America,Dominican Republic,DO,,Dominican Republic - Peravia,2019-01-18,09:25
Egretta thula thula,Animalia,HERONS_ARDEIDAE,Snowy Egret ssp thula,,1,-70.54961395,18.21437645,North America,Dominican Republic,DO,,Dominican Republic - Peravia,2019-01-18,08:56
Aloe vera,Plantae,Xanthorrhoeceae,,,1,-70.5398407,18.21257401,North America,Dominican Republic,DO,,Dominican Republic,2019-01-17,16:10
Urena lobata,Plantae,MALVACEAE,Urena-weed,,1,-69.46096039,19.05923843,North America,Dominican Republic,DO,,Dominican Republic - Los Haitises NP,2019-01-16,09:18
Bidens pilosa,Plantae,Asteraceae,Black-jack,,1,-68.40476274,18.6680593,North America,Dominican Republic,DO,,"Dominican Republic - Bayahibe,,2019-01-15
Argemone mexicana,Plantae,PAPAVERACEAE,Mexican Poppy,,5,-68.83932495,18.40269852,North America,Dominican Republic,DO,,Dominican Republic - La Altagracia,2019-01-25,09:02
Calotropis procera,Plantae,APOCYNACEAE,Roostertree,,1,-70.47987366,18.22523308,North America,Dominican Republic,DO,,Dominican Republic - Peravia,2019-01-18,11:15
Cathartes aura aura,Animalia,NEW_WORLD_VULTURES_CATHARTIDAE,Turkey Vulture ssp aura,,2,-69.45588827,19.05804134,North America,Dominican Republic,DO,,Dominican Republic - Los Haitises NP,2019-01-16,09:39
Herpestidae spec.,Animalia,MONGOOSES_HERPESTIDAE,Mongoose unknown,,1,-71.6535949707031,17.9264316558838,North America,Dominican Republic,DO,,Dominican Republic - Pedernales,2019-01-20,15:20
Siproeta stelenes,Animalia,BRUSHFOOTED_BUTTERFLIES_NYMPHALIDAE,Malachite,,1,-68.8010711669922,18.329517364502,North America,Dominican Republic,DO,,Dominican Republic - Del Este NP,2019-01-24,11:45
Agraulis vanillae,Animalia,BRUSHFOOTED_BUTTERFLIES_NYMPHALIDAE,Gulf Fritillary,,1,-71.06835938,18.12282562,North America,Dominican Republic,DO,,Dominican Republic - Barahona,2019-01-20,08:39
Dryas iulia,Animalia,BRUSHFOOTED_BUTTERFLIES_NYMPHALIDAE,Julia Heliconian,,1,-68.8344573974609,18.3882694244385,North America,Dominican Republic,DO,,Dominican Republic - La Altagracia,2019-01-23,15:53
Cairina moschata,Animalia,DUCKS_GEESE_AND_SWANS_ANATIDAE,Muscovy Duck,,2,-68.71907043,18.53869438,North America,Dominican Republic,DO,,Dominican Republic - La Altagracia,2019-01-25,12:25
Nycticorax nycticorax hoactli,Animalia,HERONS_ARDEIDAE,Black-crowned Night Heron ssp hoactli,,1,-68.71916199,18.53922462,North America,Dominican Republic,DO,,Dominican Republic - La Altagracia,2019-01-25,12:15
Phaenicophilus palmarum,Animalia,PHAENICOPHILIDAE,Black-crowned Tanager,,1,-68.8361587524414,18.4049873352051,North America,Dominican Republic,DO,,Dominican Republic - La Altagracia,2019-01-25,11:09
Arenaria interpres,Animalia,SANDPIPERS_AND_ALLIES_SCOLOPACIDAE,Ruddy Turnstone,,20,-68.8406295776367,18.368013381958,North America,Dominican Republic,DO,,Dominican Republic - La Altagracia,2019-01-25,07:12
Passer domesticus,Animalia,OLD_WORLD_SPARROWS_PASSERIDAE,House Sparrow,,1,-68.8406524658203,18.3679141998291,North America,Dominican Republic,DO,,Dominican Republic - La Altagracia,2019-01-25,07:02
Actitis macularius,Animalia,SANDPIPERS_AND_ALLIES_SCOLOPACIDAE,Spotted Sandpiper,,1,-68.8405685424805,18.3679389953613,North America,Dominican Republic,DO,,Dominican Republic - La Altagracia,2019-01-25,07:02
Arenaria interpres,Animalia,SANDPIPERS_AND_ALLIES_SCOLOPACIDAE,Ruddy Turnstone,,20,-68.8411636352539,18.3662548065186,North America,Dominican Republic,DO,,Dominican Republic,2019-01-24,17:01
Passer domesticus,Animalia,OLD_WORLD_SPARROWS_PASSERIDAE,House Sparrow,,1,-68.8116912841797,18.3324699401855,North America,Dominican Republic,DO,,Dominican Republic - La Altagracia,2019-01-24,15:23
Phaenicophilus palmarum,Animalia,PHAENICOPHILIDAE,Black-crowned Tanager,,1,-68.8089294433594,18.3262710571289,North America,Dominican Republic,DO,,Dominican Republic - La Altagracia,2019-01-24,14:40
Phaenicophilus palmarum,Animalia,PHAENICOPHILIDAE,Black-crowned Tanager,,1,-68.8073120117188,18.3268280029297,North America,Dominican Republic,DO,,Dominican Republic - La Altagracia,2019-01-24,11:18
Phaenicophilus palmarum,Animalia,PHAENICOPHILIDAE,Black-crowned Tanager,,1,-68.8108444213867,18.3305339813232,North America,Dominican Republic,DO,,Dominican Republic - La Altagracia,2019-01-24,09:42
Actitis macularius,Animalia,SANDPIPERS_AND_ALLIES_SCOLOPACIDAE,Spotted Sandpiper,,1,-68.8408279418945,18.3679008483887,North America,Dominican Republic,DO,,Dominican Republic - La Altagracia,2019-01-24,07:46
Arenaria interpres,Animalia,SANDPIPERS_AND_ALLIES_SCOLOPACIDAE,Ruddy Turnstone,,1,-68.8408737182617,18.3678340911865,North America,Dominican Republic,DO,,Dominican Republic - La Altagracia,2019-01-24,07:45
Passer domesticus,Animalia,OLD_WORLD_SPARROWS_PASSERIDAE,House Sparrow,,1,-68.8398284912109,18.3679904937744,North America,Dominican Republic,DO,,Dominican Republic - La Altagracia,2019-01-23,17:37
Dulus dominicus,Animalia,PALMCHAT_DULIDAE,Palmchat,,50,-69.9578628540039,18.4902305603027,North America,Dominican Republic,DO,,Dominican Republic - Distrito Nacional,2019-01-23,09:17
Dulus dominicus,Animalia,PALMCHAT_DULIDAE,Palmchat,,1,-69.8966903686523,18.4713382720947,North America,Dominican Republic,DO,,Dominican Republic - Distrito Nacional,2019-01-23,08:10
Todus subulatus,Animalia,TODIES_TODIDAE,Broad-billed Tody,,2,-70.4202499389648,18.4027366638184,North America,Dominican Republic,DO,,Dominican Republic - Peravia,2019-01-22,15:05
Todus subulatus,Animalia,TODIES_TODIDAE,Broad-billed Tody,,1,-70.42227173,18.34012794,North America,Dominican Republic,DO,,Dominican Republic - Peravia,2019-01-22,13:07
Charadrius semipalmatus,Animalia,PLOVERS_CHARADRIIDAE,Semipalmated Plover,,12,-71.08794808,18.21213894,North America,Dominican Republic,DO,,Dominican Republic - Barahona,2019-01-22,10:01
Actitis macularius,Animalia,SANDPIPERS_AND_ALLIES_SCOLOPACIDAE,Spotted Sandpiper,,1,-71.08815765,18.21237755,North America,Dominican Republic,DO,,Dominican Republic - Barahona,2019-01-22,09:51
Eudocimus albus albus,Animalia,IBISSES_AND_SPOONBILLS_THRESKIORNITHIDAE,American White Ibis ssp albus,,50,-71.65390015,17.92562675,North America,Dominican Republic,DO,,Dominican Republic - Pedernales,2019-01-21,08:36
Phaenicophilus palmarum,Animalia,PHAENICOPHILIDAE,Black-crowned Tanager,,1,-71.64498138,17.86820793,North America,Dominican Republic,DO,,Dominican Republic - Pedernales,2019-01-20,17:23
Phaenicophilus palmarum,Animalia,PHAENICOPHILIDAE,Black-crowned Tanager,,1,-71.6445770263672,17.8671207427979,North America,Dominican Republic,DO,,Dominican Republic - Pedernales,2019-01-20,17:04
Spatula clypeata,Animalia,DUCKS_GEESE_AND_SWANS_ANATIDAE,Northern Shoveler,,1,-71.65364838,17.92620468,North America,Dominican Republic,DO,,Dominican Republic - Pedernales,2019-01-20,15:26
Spatula discors,Animalia,DUCKS_GEESE_AND_SWANS_ANATIDAE,Blue-winged Teal,,1,-71.65351868,17.92658043,North America,Dominican Republic,DO,,Dominican Republic - Pedernales,2019-01-20,15:11
Herpestes auropunctatus,Animalia,MONGOOSES_HERPESTIDAE,Small Indian Mongoose,,1,-71.65359497,17.92643166,North America,Dominican Republic,DO,,Dominican Republic - Pedernales,2019-01-20,15:20
Anas bahamensis bahamensis,Animalia,DUCKS_GEESE_AND_SWANS_ANATIDAE,White-cheeked Pintail ssp bahamensis,,1,-71.65352631,17.92659378,North America,Dominican Republic,DO,,Dominican Republic - Pedernales,2019-01-20,15:11
Phoenicopterus ruber,Animalia,FLAMINGOS_PHOENICOPTERIDAE,American Flamingo,,14,-71.36245728,17.80164909,North America,Dominican Republic,DO,,Dominican Republic - Pedernales,2019-01-20,11:41
Bubulcus ibis,Animalia,HERONS_ARDEIDAE,Western Cattle Egret,,5,-71.27531433,17.86795235,North America,Dominican Republic,DO,,Dominican Republic - Pedernales,2019-01-20,11:01
Phaenicophilus palmarum,Animalia,PHAENICOPHILIDAE,Black-crowned Tanager,,1,-71.0926284790039,18.0789127349854,North America,Dominican Republic,DO,,Dominican Republic - Barahona,2019-01-20,09:18
Phaenicophilus palmarum,Animalia,PHAENICOPHILIDAE,Black-crowned Tanager,,1,-71.0685043334961,18.1229343414307,North America,Dominican Republic,DO,,Dominican Republic - Barahona,2019-01-20,08:01
Todus subulatus,Animalia,TODIES_TODIDAE,Broad-billed Tody,,1,-71.5885009765625,18.3128395080566,North America,Dominican Republic,DO,,Dominican Republic - Independencia,2019-01-19,13:08
Dulus dominicus,Animalia,PALMCHAT_DULIDAE,Palmchat,,1,-71.58307648,18.31097221,North America,Dominican Republic,DO,,Dominican Republic - Independencia,2019-01-19,11:23
Todus subulatus,Animalia,TODIES_TODIDAE,Broad-billed Tody,,1,-71.57941437,18.31613922,North America,Dominican Republic,DO,,Dominican Republic - Independencia,2019-01-19,09:50
Dulus dominicus,Animalia,PALMCHAT_DULIDAE,Palmchat,,5,-71.5783844,18.31612587,North America,Dominican Republic,DO,,Dominican Republic - Independencia,2019-01-19,09:42
Dulus dominicus,Animalia,PALMCHAT_DULIDAE,Palmchat,,1,-71.5772933959961,18.3160495758057,North America,Dominican Republic,DO,,Dominican Republic - Independencia,2019-01-19,09:04
Todus subulatus,Animalia,TODIES_TODIDAE,Broad-billed Tody,,1,-71.5782165527344,18.3161602020264,North America,Dominican Republic,DO,,Dominican Republic - Independencia,2019-01-19,08:45
Todus subulatus,Animalia,TODIES_TODIDAE,Broad-billed Tody,,1,-71.5809707641602,18.3149566650391,North America,Dominican Republic,DO,,Dominican Republic - Independencia,2019-01-18,18:47
Todus subulatus,Animalia,TODIES_TODIDAE,Broad-billed Tody,,2,-71.5368576049805,18.3402843475342,North America,Dominican Republic,DO,,Dominican Republic - Independencia,2019-01-18,16:14
Phoenicopterus ruber,Animalia,FLAMINGOS_PHOENICOPTERIDAE,American Flamingo,,13,-70.55622864,18.21448708,North America,Dominican Republic,DO,,Dominican Republic - Peravia,2019-01-18,09:27
Charadrius semipalmatus,Animalia,PLOVERS_CHARADRIIDAE,Semipalmated Plover,,1,-70.54969025,18.21426201,North America,Dominican Republic,DO,,Dominican Republic - Peravia,2019-01-18,09:07
Phaenicophilus palmarum,Animalia,PHAENICOPHILIDAE,Black-crowned Tanager,,1,-70.52411652,18.21067238,North America,Dominican Republic,DO,,Dominican Republic - Peravia,2019-01-18,08:20
Passer domesticus,Animalia,OLD_WORLD_SPARROWS_PASSERIDAE,House Sparrow,,1,-70.5320892333984,18.2140045166016,North America,Dominican Republic,DO,,Dominican Republic - Peravia,2019-01-17,18:11
Streptopelia decaocto,Animalia,PIGEONS_AND_DOVES_COLUMBIDAE,Eurasian Collared Dove,,1,-70.54448241,18.21188408,North America,Dominican Republic,DO,,Dominican Republic - Peravia,2019-01-17,17:56
Passer domesticus,Animalia,OLD_WORLD_SPARROWS_PASSERIDAE,House Sparrow,,1,-70.54936218,18.21388817,North America,Dominican Republic,DO,,Dominican Republic - Peravia,2019-01-17,17:14
Himantopus mexicanus mexicanus,Animalia,STILTS_AND_AVOCETS_RECURVIROSTRIDAE,Black-necked Stilt ssp mexicanus,,14,-70.54954529,18.21442032,North America,Dominican Republic,DO,,Dominican Republic - Peravia,2019-01-17,17:02
Phaenicophilus palmarum,Animalia,PHAENICOPHILIDAE,Black-crowned Tanager,,1,-70.5398407,18.21257401,North America,Dominican Republic,DO,,Dominican Republic,2019-01-17,16:09
Charadrius semipalmatus,Animalia,PLOVERS_CHARADRIIDAE,Semipalmated Plover,,1,-70.50930977,18.21835557,North America,Dominican Republic,DO,,Dominican Republic,2019-01-17,15:39
Nycticorax nycticorax hoactli,Animalia,HERONS_ARDEIDAE,Black-crowned Night Heron ssp hoactli,,1,-68.71923742,18.53918798,North America,Dominican Republic,DO,,Dominican Republic - La Altagracia,2019-01-25,12:16
Coereba flaveola,Animalia,TANAGERS_AND_ALLIES_THRAUPIDAE,Bananaquit,,1,-68.8358027022973,18.4049675194718,North America,Dominican Republic,DO,,Dominican Republic - La Altagracia,2019-01-25,11:09
Phaenicophilus palmarum,Animalia,PHAENICOPHILIDAE,Black-crowned Tanager,,2,-68.83976683958325,18.402920281531664,North America,Dominican Republic,DO,,Dominican Republic - La Altagracia,2019-01-25,09:08
Passer domesticus,Animalia,OLD_WORLD_SPARROWS_PASSERIDAE,House Sparrow,,15,-68.8408073143232,18.367741382009445,North America,Dominican Republic,DO,,Dominican Republic - La Altagracia,2019-01-25,07:53
Actitis macularius,Animalia,SANDPIPERS_AND_ALLIES_SCOLOPACIDAE,Spotted Sandpiper,,2,-68.84061505,18.36804733,North America,Dominican Republic,DO,,Dominican Republic - La Altagracia,2019-01-25,07:53
Arenaria interpres,Animalia,SANDPIPERS_AND_ALLIES_SCOLOPACIDAE,Ruddy Turnstone,,20,-68.84020837416035,18.366906017539176,North America,Dominican Republic,DO,,Dominican Republic - La Altagracia,2019-01-24,18:12
Passer domesticus,Animalia,OLD_WORLD_SPARROWS_PASSERIDAE,House Sparrow,,10,-68.81152041262835,18.33262268455544,North America,Dominican Republic,DO,,Dominican Republic - La Altagracia,2019-01-24,11:05
Phaenicophilus palmarum,Animalia,PHAENICOPHILIDAE,Black-crowned Tanager,,5,-68.84139091714177,18.364709280448373,North America,Dominican Republic,DO,,Dominican Republic - La Altagracia,2019-01-24,09:01
Fregata magnificens,Animalia,FRIGATEBIRDS_FREGATTIDAE,Magnificent Frigatebird,,10,-68.8398003592128,18.368017441330963,North America,Dominican Republic,DO,,Dominican Republic - La Altagracia,2019-01-24,08:40
Actitis macularius,Animalia,SANDPIPERS_AND_ALLIES_SCOLOPACIDAE,Spotted Sandpiper,,1,-68.84076725989578,18.368031615468475,North America,Dominican Republic,DO,,Dominican Republic - La Altagracia,2019-01-24,07:46
Fregata magnificens,Animalia,FRIGATEBIRDS_FREGATTIDAE,Magnificent Frigatebird,,1,-68.84066582346927,18.36676322434005,North America,Dominican Republic,DO,,Dominican Republic - La Altagracia,2019-01-23,18:29
Passer domesticus,Animalia,OLD_WORLD_SPARROWS_PASSERIDAE,House Sparrow,,5,-68.83983183970757,18.368061145281246,North America,Dominican Republic,DO,,Dominican Republic - La Altagracia,2019-01-23,17:47
Columbina passerina insularis,Animalia,PIGEONS_AND_DOVES_COLUMBIDAE,Common Ground Dove ssp insularis,,1,-69.95740736,18.49011795,North America,Dominican Republic,DO,,Dominican Republic - Distrito Nacional,2019-01-23,11:41
Dulus dominicus,Animalia,PALMCHAT_DULIDAE,Palmchat,,25,-69.896660339221,18.471185431785152,North America,Dominican Republic,DO,,Dominican Republic - Distrito Nacional,2019-01-23,07:48
Todus subulatus,Animalia,TODIES_TODIDAE,Broad-billed Tody,,5,-70.42222942232193,18.340155459026192,North America,Dominican Republic,DO,,Dominican Republic - Peravia,2019-01-22,13:15
Charadrius semipalmatus,Animalia,PLOVERS_CHARADRIIDAE,Semipalmated Plover,,12,-71.08850799507563,18.211511769348952,North America,Dominican Republic,DO,,Dominican Republic - Barahona,2019-01-22,10:06
Actitis macularius,Animalia,SANDPIPERS_AND_ALLIES_SCOLOPACIDAE,Spotted Sandpiper,,2,-71.08806031762724,18.212557369860086,North America,Dominican Republic,DO,,Dominican Republic - Barahona,2019-01-22,09:51
Spatula clypeata,Animalia,DUCKS_GEESE_AND_SWANS_ANATIDAE,Northern Shoveler,,5,-71.65384163155375,17.925552916729753,North America,Dominican Republic,DO,,Dominican Republic - Pedernales,2019-01-21,08:47
Eudocimus albus albus,Animalia,IBISSES_AND_SPOONBILLS_THRESKIORNITHIDAE,American White Ibis ssp albus,,20,-71.6538397,17.92553515,North America,Dominican Republic,DO,,Dominican Republic - Pedernales,2019-01-21,08:43
Phaenicophilus palmarum,Animalia,PHAENICOPHILIDAE,Black-crowned Tanager,,2,-71.64468708454784,17.86761426834191,North America,Dominican Republic,DO,,Dominican Republic - Pedernales,2019-01-20,17:17
Anas bahamensis bahamensis,Animalia,DUCKS_GEESE_AND_SWANS_ANATIDAE,White-cheeked Pintail ssp bahamensis,,4,-71.65352295,17.92659776,North America,Dominican Republic,DO,,Dominican Republic - Pedernales,2019-01-20,15:11
Spatula discors,Animalia,DUCKS_GEESE_AND_SWANS_ANATIDAE,Blue-winged Teal,,10,-71.65353007621286,17.926600067892974,North America,Dominican Republic,DO,,Dominican Republic - Pedernales,2019-01-20,15:11
Spatula clypeata,Animalia,DUCKS_GEESE_AND_SWANS_ANATIDAE,Northern Shoveler,,7,-71.65355212,17.9265735,North America,Dominican Republic,DO,,Dominican Republic - Pedernales,2019-01-20,15:10
Himantopus mexicanus mexicanus,Animalia,STILTS_AND_AVOCETS_RECURVIROSTRIDAE,Black-necked Stilt ssp mexicanus,,6,-71.65359453,17.92657027,North America,Dominican Republic,DO,,Dominican Republic - Pedernales,2019-01-20,15:09
Eudocimus albus albus,Animalia,IBISSES_AND_SPOONBILLS_THRESKIORNITHIDAE,American White Ibis ssp albus,,2,-71.65364617,17.92655996,North America,Dominican Republic,DO,,Dominican Republic - Pedernales,2019-01-20,15:09
Phoenicopterus ruber,Animalia,FLAMINGOS_PHOENICOPTERIDAE,American Flamingo,,25,-71.36250511749775,17.801683852465636,North America,Dominican Republic,DO,,Dominican Republic - Pedernales,2019-01-20,11:41
Bubulcus ibis,Animalia,HERONS_ARDEIDAE,Western Cattle Egret,,5,-71.27528697258911,17.867892840893816,North America,Dominican Republic,DO,,Dominican Republic - Pedernales,2019-01-20,11:03
Phaenicophilus palmarum,Animalia,PHAENICOPHILIDAE,Black-crowned Tanager,,1,-71.0686165653831,18.122812416421365,North America,Dominican Republic,DO,,Dominican Republic - Barahona,2019-01-20,08:02
Todus subulatus,Animalia,TODIES_TODIDAE,Broad-billed Tody,,3,-71.57942675992062,18.316184557060073,North America,Dominican Republic,DO,,Dominican Republic - Independencia,2019-01-19,09:53
Dulus dominicus,Animalia,PALMCHAT_DULIDAE,Palmchat,,11,-71.57733664854577,18.316031335870097,North America,Dominican Republic,DO,,Dominican Republic - Independencia,2019-01-19,09:14
Todus subulatus,Animalia,TODIES_TODIDAE,Broad-billed Tody,,2,-71.5369929560195,18.340185550058578,North America,Dominican Republic,DO,,Dominican Republic - Independencia,2019-01-18,16:20
Streptopelia decaocto,Animalia,PIGEONS_AND_DOVES_COLUMBIDAE,Eurasian Collared Dove,,4,-70.5503086746396,18.213182031193945,North America,Dominican Republic,DO,,Dominican Republic - Peravia,2019-01-18,09:55
Phoenicopterus ruber,Animalia,FLAMINGOS_PHOENICOPTERIDAE,American Flamingo,,25,-70.55627072236553,18.214442920888043,North America,Dominican Republic,DO,,Dominican Republic - Peravia,2019-01-18,09:30
Tringa melanoleuca,Animalia,SANDPIPERS_AND_ALLIES_SCOLOPACIDAE,Greater Yellowlegs,,5,-70.54970274685932,18.21426861921159,North America,Dominican Republic,DO,,Dominican Republic - Peravia,2019-01-18,09:12
Charadrius semipalmatus,Animalia,PLOVERS_CHARADRIIDAE,Semipalmated Plover,,1,-70.54962739354981,18.214313588122106,North America,Dominican Republic,DO,,Dominican Republic - Peravia,2019-01-18,09:11
Himantopus mexicanus mexicanus,Animalia,STILTS_AND_AVOCETS_RECURVIROSTRIDAE,Black-necked Stilt ssp mexicanus,,100,-70.54945724,18.2141063,North America,Dominican Republic,DO,,Dominican Republic - Peravia,2019-01-18,08:58
Passer domesticus,Animalia,OLD_WORLD_SPARROWS_PASSERIDAE,House Sparrow,,25,-70.54863623349978,18.22592445185243,North America,Dominican Republic,DO,,Dominican Republic - Peravia,2019-01-17,17:31
Ardea alba egretta,Animalia,HERONS_ARDEIDAE,American Great Egret,,2,-70.54968196,18.21425827,North America,Dominican Republic,DO,,Dominican Republic - Peravia,2019-01-17,17:13
Himantopus mexicanus mexicanus,Animalia,STILTS_AND_AVOCETS_RECURVIROSTRIDAE,Black-necked Stilt ssp mexicanus,,20,-70.54949513,18.21437779,North America,Dominican Republic,DO,,Dominican Republic - Peravia,2019-01-17,17:03
Streptopelia decaocto,Animalia,PIGEONS_AND_DOVES_COLUMBIDAE,Eurasian Collared Dove,,6,-70.55157601839913,18.21244744119999,North America,Dominican Republic,DO,,Dominican Republic - Peravia,2019-01-17,16:44
Tringa melanoleuca,Animalia,SANDPIPERS_AND_ALLIES_SCOLOPACIDAE,Greater Yellowlegs,,6,-70.53992290987684,18.212572750652406,North America,Dominican Republic,DO,,Dominican Republic,2019-01-17,16:00
Columbina passerina insularis,Animalia,PIGEONS_AND_DOVES_COLUMBIDAE,Common Ground Dove ssp insularis,,2,-69.95592671,18.49315139,North America,Dominican Republic,DO,,Dominican Republic - Distrito Nacional,2019-01-17,10:29
Dulus dominicus,Animalia,PALMCHAT_DULIDAE,Palmchat,,25,-69.95767492807467,18.491265582869286,North America,Dominican Republic,DO,,Dominican Republic - Distrito Nacional,2019-01-17,09:56
Charadrius semipalmatus,Animalia,PLOVERS_CHARADRIIDAE,Semipalmated Plover,,2,-69.40770221880582,19.050632310117642,North America,Dominican Republic,DO,,Dominican Republic - Hato Mayor,2019-01-16,16:27
Actitis macularius,Animalia,SANDPIPERS_AND_ALLIES_SCOLOPACIDAE,Spotted Sandpiper,,1,-69.40790254629162,19.050417062844197,North America,Dominican Republic,DO,,Dominican Republic - Hato Mayor,2019-01-16,16:14
Dulus dominicus,Animalia,PALMCHAT_DULIDAE,Palmchat,,2,-69.44421789615363,19.05169002247886,North America,Dominican Republic,DO,,Dominican Republic - Hato Mayor,2019-01-16,14:34
Dulus dominicus,Animalia,PALMCHAT_DULIDAE,Palmchat,,100,-69.45904372266443,19.058513813669848,North America,Dominican Republic,DO,,Dominican Republic - Los Haitises NP,2019-01-16,08:15
Todus subulatus,Animalia,TODIES_TODIDAE,Broad-billed Tody,,2,-69.4552944973758,19.05698185322718,North America,Dominican Republic,DO,,Dominican Republic - Los Haitises NP,2019-01-16,07:41
Cathartes aura aura,Animalia,NEW_WORLD_VULTURES_CATHARTIDAE,Turkey Vulture ssp aura,,75,-69.45531839,19.05716806,North America,Dominican Republic,DO,,Dominican Republic - Los Haitises NP,2019-01-16,07:15
Pandion haliaetus ridgwayi,Animalia,OSPREY_PANDIONIDAE,Western Osprey ssp ridgwayi,,2,-68.42425243,18.67956252,North America,Dominican Republic,DO,,"Dominican Republic - Bayahibe,,2019-01-15
Tachybaptus dominicus dominicus,Animalia,GREBES_PODICIPEDIDAE,Least Grebe ssp dominicus,,2,-68.42425243,18.67956252,North America,Dominican Republic,DO,,"Dominican Republic - Bayahibe,,2019-01-15
Podilymbus podiceps antillarum,Animalia,GREBES_PODICIPEDIDAE,Pied-billed Grebe ssp antillarum,,2,-68.42425243,18.67956252,North America,Dominican Republic,DO,,"Dominican Republic - Bayahibe,,2019-01-15
Fulica americana americana,Animalia,RAILS_RALLIDAE,American Coot ssp americana,,10,-68.42425243,18.67956252,North America,Dominican Republic,DO,,"Dominican Republic - Bayahibe,,2019-01-15
Crotophaga ani,Animalia,CUCKOOS_AND_COUCALS_CUCULIDAE,Smooth-billed Ani,,2,-68.42425243004078,18.679562523047142,North America,Dominican Republic,DO,,"Dominican Republic - Bayahibe,,2019-01-15
Actitis macularius,Animalia,SANDPIPERS_AND_ALLIES_SCOLOPACIDAE,Spotted Sandpiper,,1,-69.40755000344423,19.050550418923656,North America,Dominican Republic,DO,,Dominican Republic - Hato Mayor,2019-01-15,17:51
Tringa flavipes,Animalia,SANDPIPERS_AND_ALLIES_SCOLOPACIDAE,Lesser Yellowlegs,,4,-69.15991757071498,18.99353491144161,North America,Dominican Republic,DO,,Dominican Republic - El Seybo,2019-01-15,16:44
Tringa melanoleuca,Animalia,SANDPIPERS_AND_ALLIES_SCOLOPACIDAE,Greater Yellowlegs,,7,-69.15719781077388,18.99215323852281,North America,Dominican Republic,DO,,Dominican Republic - El Seybo,2019-01-15,16:23
Aramus guarauna elucus,Animalia,LIMPKIN_ARAMIDAE,Limpkin ssp elucus,,1,-68.65221455,18.79590405,North America,Dominican Republic,DO,,Dominican Republic - La Altagracia,2019-01-15,18:42
Dulus dominicus,Animalia,PALMCHAT_DULIDAE,Palmchat,,40,-68.59258535324464,18.77423917876442,North America,Dominican Republic,DO,,Dominican Republic - La Altagracia,2019-01-15,18:18
Dulus dominicus,Animalia,PALMCHAT_DULIDAE,Palmchat,,25,-68.4051045589786,18.66789001041899,North America,Dominican Republic,DO,,"Dominican Republic - Bayahibe,,2019-01-15
Bubulcus ibis,Animalia,HERONS_ARDEIDAE,Western Cattle Egret,,6,-68.40446163121423,18.668215643931834,North America,Dominican Republic,DO,,"Dominican Republic - Bayahibe,,2019-01-15
Ardea alba egretta,Animalia,HERONS_ARDEIDAE,American Great Egret,,10,-68.40444875,18.66821156,North America,Dominican Republic,DO,,"Dominican Republic - Bayahibe,,2019-01-15
Anartia jatrophae,Animalia,BRUSHFOOTED_BUTTERFLIES_NYMPHALIDAE,White Peacock,,2,-68.4052352905273,18.6678657531738,North America,Dominican Republic,DO,,"Dominican Republic - Bayahibe,,2019-01-15
Tachybaptus dominicus dominicus,Animalia,GREBES_PODICIPEDIDAE,Least Grebe ssp dominicus,,5,-69.9492569,18.49837303,North America,Dominican Republic,DO,,Dominican Republic - Distrito Nacional,2019-01-17,12:11
Crotophaga ani,Animalia,CUCKOOS_AND_COUCALS_CUCULIDAE,Smooth-billed Ani,,1,-69.9492492675781,18.4983558654785,North America,Dominican Republic,DO,,Dominican Republic - Distrito Nacional,2019-01-17,12:09
Columbina passerina insularis,Animalia,PIGEONS_AND_DOVES_COLUMBIDAE,Common Ground Dove ssp insularis,,2,-69.95593262,18.49333954,North America,Dominican Republic,DO,,Dominican Republic - Distrito Nacional,2019-01-17,10:25
Coereba flaveola bananivora,Animalia,TANAGERS_AND_ALLIES_THRAUPIDAE,Bananaquit ssp bananivora,,1,-69.95716858,18.49139404,North America,Dominican Republic,DO,,Dominican Republic - Distrito Nacional,2019-01-17,10:05
Dulus dominicus,Animalia,PALMCHAT_DULIDAE,Palmchat,,2,-69.9577331542969,18.4909496307373,North America,Dominican Republic,DO,,Dominican Republic - Distrito Nacional,2019-01-17,09:56
Pelecanus occidentalis,Animalia,PELICANS_PELECANIDAE,Brown Pelican,,1,-69.3830490112305,19.0644702911377,North America,Dominican Republic,DO,,Dominican Republic - Hato Mayor,2019-01-16,16:58
Actitis macularius,Animalia,SANDPIPERS_AND_ALLIES_SCOLOPACIDAE,Spotted Sandpiper,,1,-69.4076919555664,19.0506229400635,North America,Dominican Republic,DO,,Dominican Republic - Hato Mayor,2019-01-16,16:13
Charadrius vociferus ternominatus,Animalia,PLOVERS_CHARADRIIDAE,Killdeer ssp ternominatus,,5,-69.40769196,19.05062294,North America,Dominican Republic,DO,,Dominican Republic - Hato Mayor,2019-01-16,16:11
Coccyzus minor,Animalia,CUCKOOS_AND_COUCALS_CUCULIDAE,Mangrove Cuckoo,,1,-69.43885803,19.05008698,North America,Dominican Republic,DO,,Dominican Republic - Hato Mayor,2019-01-16,15:18
Numida meleagris,Animalia,GUINEAFOWL_NUMIDIDAE,Helmeted Guineafowl,,10,-69.4511871337891,19.0637302398682,North America,Dominican Republic,DO,,Dominican Republic - Los Haitises NP,2019-01-16,13:50
Todus subulatus,Animalia,TODIES_TODIDAE,Broad-billed Tody,,1,-69.4562149,19.05594444,North America,Dominican Republic,DO,,Dominican Republic - Los Haitises NP,2019-01-16,12:24
Dulus dominicus,Animalia,PALMCHAT_DULIDAE,Palmchat,,1,-69.45917511,19.05846977,North America,Dominican Republic,DO,,Dominican Republic - Los Haitises NP,2019-01-16,08:14
Todus subulatus,Animalia,TODIES_TODIDAE,Broad-billed Tody,,1,-69.4554138183594,19.0568885803223,North America,Dominican Republic,DO,,Dominican Republic - Los Haitises NP,2019-01-16,07:40
Actitis macularius,Animalia,SANDPIPERS_AND_ALLIES_SCOLOPACIDAE,Spotted Sandpiper,,1,-69.4076156616211,19.0505104064941,North America,Dominican Republic,DO,,Dominican Republic - Hato Mayor,2019-01-15,17:51
Tringa flavipes,Animalia,SANDPIPERS_AND_ALLIES_SCOLOPACIDAE,Lesser Yellowlegs,,1,-69.1571579,18.99217224,North America,Dominican Republic,DO,,Dominican Republic - El Seybo,2019-01-15,16:21
Aramus guarauna elucus,Animalia,LIMPKIN_ARAMIDAE,Limpkin ssp elucus,,1,-68.65192294,18.79607188,North America,Dominican Republic,DO,,Dominican Republic - La Altagracia,2019-01-15,13:42
Falco sparverius dominicensis,Animalia,CARACAS_AND_FALCONS_FALCONIDAE,American Kestrel ssp dominicensis,,1,-68.53622437,18.75308418,North America,Dominican Republic,DO,,"Dominican Republic - Bayahibe,,2019-01-15
Crotophaga ani,Animalia,CUCKOOS_AND_COUCALS_CUCULIDAE,Smooth-billed Ani,,2,-68.4225158691406,18.6800365447998,North America,Dominican Republic,DO,,"Dominican Republic - Bayahibe,,2019-01-15
Egretta tricolor ruficollis,Animalia,HERONS_ARDEIDAE,Tricolored Heron ssp ruficollis,,1,-68.42251587,18.68005943,North America,Dominican Republic,DO,,"Dominican Republic - Bayahibe,,2019-01-15
Butorides virescens virescens,Animalia,HERONS_ARDEIDAE,Green Heron ssp virescens,,1,-68.4225769,18.68000793,North America,Dominican Republic,DO,,"Dominican Republic - Bayahibe,,2019-01-15
Pandion haliaetus carolinensis,Animalia,OSPREY_PANDIONIDAE,American Osprey,,1,-68.42267609,18.68008995,North America,Dominican Republic,DO,,"Dominican Republic - Bayahibe,,2019-01-15
Podilymbus podiceps antillarum,Animalia,GREBES_PODICIPEDIDAE,Pied-billed Grebe ssp antillarum,,1,-68.42267609,18.68008995,North America,Dominican Republic,DO,,"Dominican Republic - Bayahibe,,2019-01-15
Fulica americana americana,Animalia,RAILS_RALLIDAE,American Coot ssp americana,,1,-68.42267609,18.68008995,North America,Dominican Republic,DO,,"Dominican Republic - Bayahibe,,2019-01-15
Ardea alba egretta,Animalia,HERONS_ARDEIDAE,American Great Egret,,1,-68.42267609,18.68008995,North America,Dominican Republic,DO,,"Dominican Republic - Bayahibe,,2019-01-15
Ricinus communis,Plantae,EUPHORBIACEAE,Castor-oil-plant,,1,-68.4057540893555,18.6674938201904,North America,Dominican Republic,DO,,"Dominican Republic - Bayahibe,,2019-01-15
Dulus dominicus,Animalia,PALMCHAT_DULIDAE,Palmchat,,1,-68.40516663,18.66793823,North America,Dominican Republic,DO,,"Dominican Republic - Bayahibe,,2019-01-15
Bubulcus ibis,Animalia,HERONS_ARDEIDAE,Western Cattle Egret,,4,-68.4051742553711,18.6678791046143,North America,Dominican Republic,DO,,"Dominican Republic - Bayahibe,,2019-01-15
Clogmia albipunctata,Animalia,MOTH_FLIES_OR_DRAIN_FLIES_PSYCHODIDAE,,,1,-68.4044494628906,18.6682357788086,North America,Dominican Republic,DO,,"Dominican Republic - Bayahibe,,2019-01-14
Anas bahamensis,Animalia,DUCKS_GEESE_AND_SWANS_ANATIDAE,White-cheeked Pintail,,1,-68.4549664,18.71347681,North America,Dominican Republic,DO,,"Dominican Republic - Bayahibe,,2005-02-15
Butorides virescens,Animalia,HERONS_ARDEIDAE,Green Heron,,1,-68.4549664,18.71347681,North America,Dominican Republic,DO,,"Dominican Republic - Bayahibe,,2005-02-15
Ardea alba,Animalia,HERONS_ARDEIDAE,Great Egret,,3,-68.4549664,18.71347681,North America,Dominican Republic,DO,,"Dominican Republic - Bayahibe,,2005-02-15
Butorides virescens,Animalia,HERONS_ARDEIDAE,Green Heron,,2,-68.45451579,18.71365972,North America,Dominican Republic,DO,,"Dominican Republic - Bayahibe,,2005-02-14
Ardea alba,Animalia,HERONS_ARDEIDAE,Great Egret,,1,-68.45451579,18.71365972,North America,Dominican Republic,DO,,"Dominican Republic - Bayahibe,,2005-02-14
Butorides virescens,Animalia,HERONS_ARDEIDAE,Green Heron,,1,-68.45271335,18.71161377,North America,Dominican Republic,DO,,"Dominican Republic - Bayahibe,,2005-02-14
Butorides virescens,Animalia,HERONS_ARDEIDAE,Green Heron,,1,-68.45292792,18.71052991,North America,Dominican Republic,DO,,"Dominican Republic - Bayahibe,,2005-02-14
Ardea alba,Animalia,HERONS_ARDEIDAE,Great Egret,,3,-68.4555243,18.71327358,North America,Dominican Republic,DO,,"Dominican Republic - Bayahibe,,2005-02-14
Butorides virescens,Animalia,HERONS_ARDEIDAE,Green Heron,,1,-68.45473037,18.71353778,North America,Dominican Republic,DO,,"Dominican Republic - Bayahibe,,2005-02-14
Butorides virescens,Animalia,HERONS_ARDEIDAE,Green Heron,,2,-68.4522423,18.71126202,North America,Dominican Republic,DO,,"Dominican Republic - Bayahibe,,2005-02-14
Butorides virescens,Animalia,HERONS_ARDEIDAE,Green Heron,,1,-68.45122569,18.71091148,North America,Dominican Republic,DO,,"Dominican Republic - Bayahibe,,2005-02-13
Anas bahamensis,Animalia,DUCKS_GEESE_AND_SWANS_ANATIDAE,White-cheeked Pintail,,3,-68.45065706,18.71405145,North America,Dominican Republic,DO,,"Dominican Republic - Bayahibe,,2005-02-13
Butorides virescens,Animalia,HERONS_ARDEIDAE,Green Heron,,3,-68.45464454,18.71445233,North America,Dominican Republic,DO,,"Dominican Republic - Bayahibe,,2005-02-13
Ardea alba,Animalia,HERONS_ARDEIDAE,Great Egret,,4,-68.45464454,18.71445233,North America,Dominican Republic,DO,,"Dominican Republic - Bayahibe,,2005-02-13
Ardea alba,Animalia,HERONS_ARDEIDAE,Great Egret,,1,-68.45092893,18.71399607,North America,Dominican Republic,DO,,"Dominican Republic - Bayahibe,,2005-02-13
Butorides virescens,Animalia,HERONS_ARDEIDAE,Green Heron,,1,-68.4529923,18.71191191,North America,Dominican Republic,DO,,"Dominican Republic - Bayahibe,,2005-02-13
Gallinula galeata,Animalia,RAILS_RALLIDAE,Common Gallinule,,1,-68.4529923,18.71191191,North America,Dominican Republic,DO,,"Dominican Republic - Bayahibe,,2005-02-13
Butorides virescens,Animalia,HERONS_ARDEIDAE,Green Heron,,2,-68.45442288,18.71617857,North America,Dominican Republic,DO,,"Dominican Republic - Bayahibe,,2005-02-12
Anas bahamensis,Animalia,DUCKS_GEESE_AND_SWANS_ANATIDAE,White-cheeked Pintail,,1,-68.45526681,18.71485879,North America,Dominican Republic,DO,,"Dominican Republic - Bayahibe,,2005-02-12
Ardea alba,Animalia,HERONS_ARDEIDAE,Great Egret,,1,-68.45445142,18.71382231,North America,Dominican Republic,DO,,"Dominican Republic - Bayahibe,,2005-02-12
Butorides virescens,Animalia,HERONS_ARDEIDAE,Green Heron,,2,-68.45101819,18.71051629,North America,Dominican Republic,DO,,"Dominican Republic - Bayahibe,,2005-02-12
Anas bahamensis,Animalia,DUCKS_GEESE_AND_SWANS_ANATIDAE,White-cheeked Pintail,,3,-68.45080726,18.71415307,North America,Dominican Republic,DO,,"Dominican Republic - Bayahibe,,2005-02-12
Ardea alba,Animalia,HERONS_ARDEIDAE,Great Egret,,1,-68.45080726,18.71415307,North America,Dominican Republic,DO,,"Dominican Republic - Bayahibe,,2005-02-12
Butorides virescens,Animalia,HERONS_ARDEIDAE,Green Heron,,1,-68.45080726,18.71415307,North America,Dominican Republic,DO,,"Dominican Republic - Bayahibe,,2005-02-12
Butorides virescens,Animalia,HERONS_ARDEIDAE,Green Heron,,1,-68.45500224,18.71502697,North America,Dominican Republic,DO,,"Dominican Republic - Bayahibe,,2005-02-11
Anas bahamensis,Animalia,DUCKS_GEESE_AND_SWANS_ANATIDAE,White-cheeked Pintail,,2,-68.45500224,18.71502697,North America,Dominican Republic,DO,,"Dominican Republic - Bayahibe,,2005-02-11
Ardea alba,Animalia,HERONS_ARDEIDAE,Great Egret,,2,-68.45026728,18.71383745,North America,Dominican Republic,DO,,"Dominican Republic - Bayahibe,,2005-02-11
Ardea alba,Animalia,HERONS_ARDEIDAE,Great Egret,,1,-68.45089492,18.71404409,North America,Dominican Republic,DO,,"Dominican Republic - Bayahibe,,2005-02-11
Butorides virescens,Animalia,HERONS_ARDEIDAE,Green Heron,,2,-68.45089492,18.71404409,North America,Dominican Republic,DO,,"Dominican Republic - Bayahibe,,2005-02-11
Ardea alba,Animalia,HERONS_ARDEIDAE,Great Egret,,1,-68.45493765,18.71330305,North America,Dominican Republic,DO,,"Dominican Republic - Bayahibe,,2005-02-10
Ardea alba,Animalia,HERONS_ARDEIDAE,Great Egret,,1,-68.45493765,18.71330305,North America,Dominican Republic,DO,,"Dominican Republic - Bayahibe,,2005-02-10
Gallinula galeata,Animalia,RAILS_RALLIDAE,Common Gallinule,,1,-68.45442996,18.71415419,North America,Dominican Republic,DO,,"Dominican Republic - Bayahibe,,2005-02-10
Anas bahamensis,Animalia,DUCKS_GEESE_AND_SWANS_ANATIDAE,White-cheeked Pintail,,5,-68.45080726,18.71411242,North America,Dominican Republic,DO,,"Dominican Republic - Bayahibe,,2005-02-10
Nycticorax nycticorax,Animalia,HERONS_ARDEIDAE,Black-crowned Night Heron,,1,-68.45080726,18.71411242,North America,Dominican Republic,DO,,"Dominican Republic - Bayahibe,,2005-02-13
Ardea alba,Animalia,HERONS_ARDEIDAE,Great Egret,,1,-68.45080726,18.71411242,North America,Dominican Republic,DO,,"Dominican Republic - Bayahibe,,2005-02-10
Butorides virescens,Animalia,HERONS_ARDEIDAE,Green Heron,,7,-68.45080726,18.71411242,North America,Dominican Republic,DO,,"Dominican Republic - Bayahibe,,2005-02-10
Mimus polyglottos,Animalia,THRASHERS_MIMIDAE,Northern Mockingbird,,2,-68.890078,18.42042538,North America,Dominican Republic,DO,,Dominican Republic - La Romana,2005-02-09,
Phoenicopterus ruber,Animalia,FLAMINGOS_PHOENICOPTERIDAE,American Flamingo,,7,-68.4507858,18.71415307,North America,Dominican Republic,DO,,"Dominican Republic - Bayahibe,,2005-02-10
Butorides virescens,Animalia,HERONS_ARDEIDAE,Green Heron,,1,-68.45463037,18.71373187,North America,Dominican Republic,DO,,"Dominican Republic - Bayahibe,,2005-02-07
Falco sparverius,Animalia,CARACAS_AND_FALCONS_FALCONIDAE,American Kestrel,,1,-68.48579292,18.71071587,North America,Dominican Republic,DO,,"Dominican Republic - Bayahibe,,2005-02-07
Ardea alba,Animalia,HERONS_ARDEIDAE,Great Egret,,9,-68.4553741,18.71418813,North America,Dominican Republic,DO,,"Dominican Republic - Bayahibe,,2005-02-07
Butorides virescens,Animalia,HERONS_ARDEIDAE,Green Heron,,1,-68.45483766,18.71468259,North America,Dominican Republic,DO,,"Dominican Republic - Bayahibe,,2005-02-07
Butorides virescens,Animalia,HERONS_ARDEIDAE,Green Heron,,2,-68.45093601,18.71393968,North America,Dominican Republic,DO,,"Dominican Republic - Bayahibe,,2005-02-07
Gallinula galeata,Animalia,RAILS_RALLIDAE,Common Gallinule,,1,-68.45093601,18.71393968,North America,Dominican Republic,DO,,"Dominican Republic - Bayahibe,,2005-02-07
Ardea alba,Animalia,HERONS_ARDEIDAE,Great Egret,,2,-68.45093601,18.71393968,North America,Dominican Republic,DO,,"Dominican Republic - Bayahibe,,2005-02-07
Ardea alba,Animalia,HERONS_ARDEIDAE,Great Egret,,1,-68.45226274,18.71210153,North America,Dominican Republic,DO,,"Dominican Republic - Bayahibe,,2005-02-07
Falco sparverius,Animalia,CARACAS_AND_FALCONS_FALCONIDAE,American Kestrel,,1,-68.45000968,18.71590198,North America,Dominican Republic,DO,,"Dominican Republic - Bayahibe,,2005-02-06
Butorides virescens,Animalia,HERONS_ARDEIDAE,Green Heron,,2,-68.45450871,18.71407178,North America,Dominican Republic,DO,,"Dominican Republic - Bayahibe,,2005-02-06
Ardea alba,Animalia,HERONS_ARDEIDAE,Great Egret,,3,-68.45450871,18.71407178,North America,Dominican Republic,DO,,"Dominican Republic - Bayahibe,,2005-02-06
Butorides virescens,Animalia,HERONS_ARDEIDAE,Green Heron,,2,-68.45090564,18.71400512,North America,Dominican Republic,DO,,"Dominican Republic - Bayahibe,,2005-02-06
Gallinula galeata,Animalia,RAILS_RALLIDAE,Common Gallinule,,1,-68.45090564,18.71400512,North America,Dominican Republic,DO,,"Dominican Republic - Bayahibe,,2005-02-06
Ardea alba,Animalia,HERONS_ARDEIDAE,Great Egret,,2,-68.45090564,18.71400512,North America,Dominican Republic,DO,,"Dominican Republic - Bayahibe,,2005-02-06
Dulus dominicus,Animalia,PALMCHAT_DULIDAE,Palmchat,,1,-69.90546414,18.54180878,North America,Dominican Republic,DO,,Dominican Republic - Santo Domingo,2018-08-11,17:38
Neritidae spec.,Animalia,NERITIDAE,,,1,-68.47934839194642,18.648723059560503,North America,Dominican Republic,DO,,"Dominican Republic - Bayahibe,,2007-03-24
Anolis cybotes,Animalia,Polychrotidae,Hispaniolan Stout Anole,,1,-68.47934839194642,18.648723059560503,North America,Dominican Republic,DO,,"Dominican Republic - Bayahibe,,2007-03-19
Anartia jatrophae,Animalia,BRUSHFOOTED_BUTTERFLIES_NYMPHALIDAE,White Peacock,,1,-68.47934839194642,18.648723059560503,North America,Dominican Republic,DO,,"Dominican Republic - Bayahibe,,2007-03-19
Arenaria interpres,Animalia,SANDPIPERS_AND_ALLIES_SCOLOPACIDAE,Ruddy Turnstone,,3,-68.825626720369,18.3457144465202,North America,Dominican Republic,DO,,Dominican Republic - La Altagracia,2018-01-11,09:39
Coereba flaveola,Animalia,TANAGERS_AND_ALLIES_THRAUPIDAE,Bananaquit,,2,-68.8258111578491,18.345335837873,North America,Dominican Republic,DO,,Dominican Republic - La Altagracia,2018-01-11,11:10
Dulus dominicus,Animalia,PALMCHAT_DULIDAE,Palmchat,,1,-68.8258329894356,18.3452760059687,North America,Dominican Republic,DO,,Dominican Republic - La Altagracia,2018-01-11,11:19
Pelecanus occidentalis,Animalia,PELICANS_PELECANIDAE,Brown Pelican,,1,-68.8258757330949,18.3452637944449,North America,Dominican Republic,DO,,Dominican Republic - La Altagracia,2018-01-11,11:19
Cathartes aura,Animalia,NEW_WORLD_VULTURES_CATHARTIDAE,Turkey Vulture,,1,-68.8257093,18.3453719,North America,Dominican Republic,DO,,Dominican Republic - La Altagracia,2018-01-11,11:27
Passer domesticus,Animalia,OLD_WORLD_SPARROWS_PASSERIDAE,House Sparrow,,6,-68.8257367084662,18.3454842621815,North America,Dominican Republic,DO,,Dominican Republic - La Altagracia,2018-01-11,11:43
Fregata magnificens,Animalia,FRIGATEBIRDS_FREGATTIDAE,Magnificent Frigatebird,,2,-68.8259600240165,18.3451764520154,North America,Dominican Republic,DO,,Dominican Republic - La Altagracia,2018-01-11,12:42
Thalasseus acuflavidus,Animalia,GULLS_TERNS_AND_SKIMMERS_LARIDAE,Cabot's Tern,,1,-70.95817679,19.91098,North America,Dominican Republic,DO,,Dominican Republic - Puerto Plata,2000-09-17,
Gallinula galeata,Animalia,RAILS_RALLIDAE,Common Gallinule,,1,-70.93686692,19.83359567,North America,Dominican Republic,DO,,Dominican Republic - Puerto Plata,2000-09-16,
Anolis cybotes,Animalia,Polychrotidae,Hispaniolan Stout Anole,,1,-70.8253133,19.73193505,North America,Dominican Republic,DO,,Dominican Republic - Puerto Plata,2017-10-22,13:03
Anolis cybotes,Animalia,Polychrotidae,Hispaniolan Stout Anole,,1,-70.5966,19.0979,North America,Dominican Republic,DO,,Dominican Republic - La Vega,2017-10-19,15:18
Anolis cybotes,Animalia,Polychrotidae,Hispaniolan Stout Anole,,2,-70.0788,19.6483,North America,Dominican Republic,DO,,Dominican Republic - Las Galeras,2017-10-17,14:35
Anartia jatrophae,Animalia,BRUSHFOOTED_BUTTERFLIES_NYMPHALIDAE,White Peacock,,1,-70.658741,19.77986906,North America,Dominican Republic,DO,,Dominican Republic - Puerto Plata,2017-04-13,
Dulus dominicus,Animalia,PALMCHAT_DULIDAE,Palmchat,,1,-69.95223999,18.49305527,North America,Dominican Republic,DO,,Dominican Republic - Distrito Nacional,2017-03-18,08:00
Crotophaga ani,Animalia,CUCKOOS_AND_COUCALS_CUCULIDAE,Smooth-billed Ani,,1,-69.95223999,18.49305527,North America,Dominican Republic,DO,,Dominican Republic - Distrito Nacional,2017-03-18,08:00
Gallinula galeata,Animalia,RAILS_RALLIDAE,Common Gallinule,,1,-69.95223999,18.49305527,North America,Dominican Republic,DO,,Dominican Republic - Distrito Nacional,2017-03-18,08:00
Dendrocygna arborea,Animalia,DUCKS_GEESE_AND_SWANS_ANATIDAE,West Indian Whistling Duck,,1,-69.95223999,18.49305527,North America,Dominican Republic,DO,,Dominican Republic - Distrito Nacional,2017-03-18,08:00
Anolis chlorocyanus,Animalia,Polychrotidae,Northern Hispaniolan green Anole,,1,-68.84387791,18.376354,North America,Dominican Republic,DO,,Dominican Republic - La Altagracia,2007-03-24,16:20
Eumorpha labruscae,Animalia,Sphingidae,Gaudy sphinx,,1,-68.84467721,18.375374,North America,Dominican Republic,DO,,Dominican Republic - La Altagracia,2007-04-01,13:40
Pelecanus occidentalis,Animalia,PELICANS_PELECANIDAE,Brown Pelican,,1,-69.4698,19.0817,North America,Dominican Republic,DO,,Dominican Republic,2016-08-05,11:10
Dendrocygna arborea,Animalia,DUCKS_GEESE_AND_SWANS_ANATIDAE,West Indian Whistling Duck,,6,-69.9528,18.4909,North America,Dominican Republic,DO,,Dominican Republic - Distrito Nacional,2016-07-05,06:02
Dulus dominicus,Animalia,PALMCHAT_DULIDAE,Palmchat,,3,-69.9579,18.4905,North America,Dominican Republic,DO,,Dominican Republic - Distrito Nacional,2016-07-05,05:47
Cathartes aura,Animalia,NEW_WORLD_VULTURES_CATHARTIDAE,Turkey Vulture,,1,-69.3357179314,19.1978839645,North America,Dominican Republic,DO,,Dominican Republic,2001-02-11,
Dulus dominicus,Animalia,PALMCHAT_DULIDAE,Palmchat,,1,-69.3276196718,19.2028869736,North America,Dominican Republic,DO,,Dominican Republic,2001-02-11,
Setophaga palmarum palmarum,Animalia,NEW_WORLD_WARBLERS_PARULIDAE,Palm Warbler ssp palmarum,,1,-68.36432911,18.56014,North America,Dominican Republic,DO,,"Dominican Republic - Bayahibe,,2001-02-17
Coccyzus longirostris,Animalia,CUCKOOS_AND_COUCALS_CUCULIDAE,Hispaniolan Lizard Cuckoo,,1,-68.6064178404,18.3829818713,North America,Dominican Republic,DO,,"Dominican Republic - Bayahibe,,2015-07-28
Butorides virescens virescens,Animalia,HERONS_ARDEIDAE,Green Heron ssp virescens,,2,-68.6062984821,18.3853829513,North America,Dominican Republic,DO,,"Dominican Republic - Bayahibe,,2015-07-28
Cathartes aura aura,Animalia,NEW_WORLD_VULTURES_CATHARTIDAE,Turkey Vulture ssp aura,,5,-68.6062780303,18.3860238735,North America,Dominican Republic,DO,,"Dominican Republic - Bayahibe,,2015-07-28
Bubulcus ibis,Animalia,HERONS_ARDEIDAE,Western Cattle Egret,,200,-68.6040769425,18.3809563425,North America,Dominican Republic,DO,,"Dominican Republic - Bayahibe,,2015-07-28
Actitis macularius,Animalia,SANDPIPERS_AND_ALLIES_SCOLOPACIDAE,Spotted Sandpiper,,2,-68.6041331012,18.3810195001,North America,Dominican Republic,DO,,"Dominican Republic - Bayahibe,,2015-07-28
Pelecanus occidentalis carolinensis,Animalia,PELICANS_PELECANIDAE,Brown Pelican ssp carolinensis,,3,-68.605749554,18.3782358723,North America,Dominican Republic,DO,,"Dominican Republic - Bayahibe,,2015-07-28
Tachornis phoenicobia phoenicobia,Animalia,SWIFTS_APODIDAE,Antillean Palm Swift ssp phoenicobia,,1,-68.605749554,18.3782358723,North America,Dominican Republic,DO,,"Dominican Republic - Bayahibe,,2015-07-28
Amazona ventralis,Animalia,PARROTS_PSITTACIDAE,Hispaniolan Amazon,,2,-68.4591272272,18.7229600525,North America,Dominican Republic,DO,,"Dominican Republic - Bayahibe,,2015-07-29
Ploceus cucullatus,Animalia,WEAVERS_PLOCEIDAE,Village Weaver,,1,-69.0201115038,18.3646245257,North America,Dominican Republic,DO,,Dominican Republic,2015-07-29,13:53
Columbina passerina insularis,Animalia,PIGEONS_AND_DOVES_COLUMBIDAE,Common Ground Dove ssp insularis,,1,-69.020262335,18.3645732541,North America,Dominican Republic,DO,,Dominican Republic,2015-07-29,14:14
Loxigilla violacea affinis,Animalia,TANAGERS_AND_ALLIES_THRAUPIDAE,Greater Antillean Bullfinch ssp affinis,,15,-69.0202573227,18.3645660017,North America,Dominican Republic,DO,,Dominican Republic,2015-07-29,14:15
Mimus polyglottos orpheus,Animalia,THRASHERS_MIMIDAE,Northern Mockingbird ssp orpheus,,1,-69.0202573227,18.3645660017,North America,Dominican Republic,DO,,Dominican Republic,2015-07-29,14:15
Dulus dominicus,Animalia,PALMCHAT_DULIDAE,Palmchat,,1,-69.8829842236238,18.4774233967686,North America,Dominican Republic,DO,,Dominican Republic,2015-07-22,11:52
Charadrius vociferus ternominatus,Animalia,PLOVERS_CHARADRIIDAE,Killdeer ssp ternominatus,,1,-71.5350133181,17.93464047,North America,Dominican Republic,DO,,Dominican Republic - Jaragua NP,2007-01-09,
Patagioenas inornata,Animalia,PIGEONS_AND_DOVES_COLUMBIDAE,Plain Pigeon,,5,-71.6942560673,18.0482729826,North America,Dominican Republic,DO,,Dominican Republic,2007-01-08,
Priotelus roseigaster,Animalia,TROGONS_TROGONIDAE,Hispaniolan Trogon,,1,-71.5255451202,18.3336422878,North America,Dominican Republic,DO,,Dominican Republic - Sierra de Bahoruco NP,2007-01-10,
Nyctibius jamaicensis abbotti,Animalia,POTOOS_NYCTIBIIDAE,Northern Potoo ssp abbotti,,1,-71.5255451202,18.3336422878,North America,Dominican Republic,DO,,Dominican Republic - Sierra de Bahoruco NP,2007-01-10,
Pelecanus occidentalis,Animalia,PELICANS_PELECANIDAE,Brown Pelican,,5,-69.2802853882,19.1675856134,North America,Dominican Republic,DO,,Dominican Republic,2001-02-13,
Melanerpes striatus,Animalia,WOODPECKERS_PICIDAE,Hispaniolan Woodpecker,,1,-69.9563381821,18.4965808315,North America,Dominican Republic,DO,,Dominican Republic,2001-02-11,
