scientificName,kingdom,family,vernacularName,previousIdentifications,individualCount,longitudeDecimal,latitudeDecimal,continent,country,countryCode,stateProvince,locality,eventDate,eventTime
Orcinus orca,Animalia,DOLPHINS_DELPHINIDAE,Killer Whale,,2,-57.3633199185133,-51.69651643373072,South America,Falkland Islands (Islas Malvinas),FK,,Falkland Islands (Islas Malvinas),2014-11-10,18:30
Charadrius falklandicus,Animalia,PLOVERS_CHARADRIIDAE,Two-banded Plover,,1,-57.77571374550462,-51.691996743902564,South America,Falkland Islands (Islas Malvinas),FK,,Falkland Islands (Islas Malvinas),2014-11-10,13:51
Charadrius modestus,Animalia,PLOVERS_CHARADRIIDAE,Rufous-chested Plover,,1,-57.775687258690596,-51.69203747995198,South America,Falkland Islands (Islas Malvinas),FK,,Falkland Islands (Islas Malvinas),2014-11-10,13:51
Melanodera melanodera melanodera,Animalia,TANAGERS_AND_ALLIES_THRAUPIDAE,White-bridled Finch ssp melanodera,,1,-60.25697006843984,-51.31594978272915,South America,Falkland Islands (Islas Malvinas),FK,,Falkland Islands - Saunders Island,2014-11-09,23:55
Haematopus leucopodus,Animalia,OYSTERCATCHERS_HAEMATOPODIDAE,Magellanic Oystercatcher,,20,-60.25529486127198,-51.31560830399394,South America,Falkland Islands (Islas Malvinas),FK,,Falkland Islands - Saunders Island,2014-11-09,23:54
Phalcoboenus australis,Animalia,CARACAS_AND_FALCONS_FALCONIDAE,Striated Caracara,,20,-60.25394084863365,-51.31508066318929,South America,Falkland Islands (Islas Malvinas),FK,,Falkland Islands - Saunders Island,2014-11-09,23:53
Aptenodytes patagonicus,Animalia,PENGUINS_SPHENISCIDAE,King Penguin,,20,-60.25354706682265,-51.31515090353787,South America,Falkland Islands (Islas Malvinas),FK,,Falkland Islands - Saunders Island,2014-11-09,23:53
Phalacrocorax magellanicus,Animalia,CORMORANTS_PHALACROCORACIDAE,Rock Shag,,1,-60.554639864712954,-51.302526919171214,South America,Falkland Islands (Islas Malvinas),FK,,Falkland Islands - Carcass Island,2014-11-09,16:23
Turdus falcklandii,Animalia,THRUSHES_TURDIDAE,Austral Thrush,,5,-60.554625699296594,-51.3025292661041,South America,Falkland Islands (Islas Malvinas),FK,,Falkland Islands - Carcass Island,2014-11-09,16:18
Gallinago paraguaiae,Animalia,SANDPIPERS_AND_ALLIES_SCOLOPACIDAE,South American Snipe,,3,-60.5546183232218,-51.30253060720861,South America,Falkland Islands (Islas Malvinas),FK,,Falkland Islands - Carcass Island,2014-11-09,16:10
Spinus barbatus,Animalia,FINCHES_FRINGILLIDAE,Black-chinned Siskin,,5,-60.55628087371588,-51.295675467699766,South America,Falkland Islands (Islas Malvinas),FK,,Falkland Islands - Carcass Island,2014-11-09,15:34
Tachyeres brachypterus,Animalia,DUCKS_GEESE_AND_SWANS_ANATIDAE,Falkland Steamer Duck,,10,-60.556274838745594,-51.295742858201265,South America,Falkland Islands (Islas Malvinas),FK,,Falkland Islands - Carcass Island,2014-11-09,15:33
Phalcoboenus australis,Animalia,CARACAS_AND_FALCONS_FALCONIDAE,Striated Caracara,,20,-60.55626813322306,-51.29590479657054,South America,Falkland Islands (Islas Malvinas),FK,,Falkland Islands - Carcass Island,2014-11-09,15:33
Cinclodes antarcticus,Animalia,OVENBIRDS_FURNARIIDAE,Blackish Cinclodes,,11,-60.55423744954169,-51.291609574109316,South America,Falkland Islands (Islas Malvinas),FK,,Falkland Islands - Carcass Island,2014-11-09,13:54
Chloephaga rubidiceps,Animalia,DUCKS_GEESE_AND_SWANS_ANATIDAE,Ruddy-headed Goose,,2,-60.55658144876361,-51.29262353293598,South America,Falkland Islands (Islas Malvinas),FK,,Falkland Islands - Carcass Island,2014-11-09,13:37
Haematopus leucopodus,Animalia,OYSTERCATCHERS_HAEMATOPODIDAE,Magellanic Oystercatcher,,6,-60.55658346042037,-51.292591681703925,South America,Falkland Islands (Islas Malvinas),FK,,Falkland Islands - Carcass Island,2014-11-09,13:36
Charadrius falklandicus,Animalia,PLOVERS_CHARADRIIDAE,Two-banded Plover,,1,-57.77571374550462,-51.691996743902564,South America,Falkland Islands (Islas Malvinas),FK,,Falkland Islands (Islas Malvinas),2014-11-10,13:51
Charadrius modestus,Animalia,PLOVERS_CHARADRIIDAE,Rufous-chested Plover,,1,-57.775687258690596,-51.69203747995198,South America,Falkland Islands (Islas Malvinas),FK,,Falkland Islands (Islas Malvinas),2014-11-10,13:51
Haematopus leucopodus,Animalia,OYSTERCATCHERS_HAEMATOPODIDAE,Magellanic Oystercatcher,,20,-60.25529486127198,-51.31560830399394,South America,Falkland Islands (Islas Malvinas),FK,,Falkland Islands - Saunders Island,2014-11-09,23:54
Phalcoboenus australis,Animalia,CARACAS_AND_FALCONS_FALCONIDAE,Striated Caracara,,20,-60.25394084863365,-51.31508066318929,South America,Falkland Islands (Islas Malvinas),FK,,Falkland Islands - Saunders Island,2014-11-09,23:53
Aptenodytes patagonicus,Animalia,PENGUINS_SPHENISCIDAE,King Penguin,,20,-60.25354706682265,-51.31515090353787,South America,Falkland Islands (Islas Malvinas),FK,,Falkland Islands - Saunders Island,2014-11-09,23:53
Spinus barbatus,Animalia,FINCHES_FRINGILLIDAE,Black-chinned Siskin,,5,-60.55628087371588,-51.295675467699766,South America,Falkland Islands (Islas Malvinas),FK,,Falkland Islands - Carcass Island,2014-11-09,15:34
Tachyeres brachypterus,Animalia,DUCKS_GEESE_AND_SWANS_ANATIDAE,Falkland Steamer Duck,,10,-60.556274838745594,-51.295742858201265,South America,Falkland Islands (Islas Malvinas),FK,,Falkland Islands - Carcass Island,2014-11-09,15:33
Phalcoboenus australis,Animalia,CARACAS_AND_FALCONS_FALCONIDAE,Striated Caracara,,20,-60.55626813322306,-51.29590479657054,South America,Falkland Islands (Islas Malvinas),FK,,Falkland Islands - Carcass Island,2014-11-09,15:33
Chloephaga rubidiceps,Animalia,DUCKS_GEESE_AND_SWANS_ANATIDAE,Ruddy-headed Goose,,2,-60.55658144876361,-51.29262353293598,South America,Falkland Islands (Islas Malvinas),FK,,Falkland Islands - Carcass Island,2014-11-09,13:37
Haematopus leucopodus,Animalia,OYSTERCATCHERS_HAEMATOPODIDAE,Magellanic Oystercatcher,,6,-60.55658346042037,-51.292591681703925,South America,Falkland Islands (Islas Malvinas),FK,,Falkland Islands - Carcass Island,2014-11-09,13:36
Charadrius falklandicus,Animalia,PLOVERS_CHARADRIIDAE,Two-banded Plover,,1,-57.77571374550462,-51.691996743902564,South America,Falkland Islands (Islas Malvinas),FK,,Falkland Islands (Islas Malvinas),2014-11-10,13:51
Charadrius modestus,Animalia,PLOVERS_CHARADRIIDAE,Rufous-chested Plover,,1,-57.775687258690596,-51.69203747995198,South America,Falkland Islands (Islas Malvinas),FK,,Falkland Islands (Islas Malvinas),2014-11-10,13:51
Phalcoboenus australis,Animalia,CARACAS_AND_FALCONS_FALCONIDAE,Striated Caracara,,20,-60.25394084863365,-51.31508066318929,South America,Falkland Islands (Islas Malvinas),FK,,Falkland Islands - Saunders Island,2014-11-09,23:53
Aptenodytes patagonicus,Animalia,PENGUINS_SPHENISCIDAE,King Penguin,,20,-60.25354706682265,-51.31515090353787,South America,Falkland Islands (Islas Malvinas),FK,,Falkland Islands - Saunders Island,2014-11-09,23:53
Spinus barbatus,Animalia,FINCHES_FRINGILLIDAE,Black-chinned Siskin,,5,-60.55628087371588,-51.295675467699766,South America,Falkland Islands (Islas Malvinas),FK,,Falkland Islands - Carcass Island,2014-11-09,15:34
Tachyeres brachypterus,Animalia,DUCKS_GEESE_AND_SWANS_ANATIDAE,Falkland Steamer Duck,,10,-60.556274838745594,-51.295742858201265,South America,Falkland Islands (Islas Malvinas),FK,,Falkland Islands - Carcass Island,2014-11-09,15:33
Phalcoboenus australis,Animalia,CARACAS_AND_FALCONS_FALCONIDAE,Striated Caracara,,20,-60.55626813322306,-51.29590479657054,South America,Falkland Islands (Islas Malvinas),FK,,Falkland Islands - Carcass Island,2014-11-09,15:33
Chloephaga rubidiceps,Animalia,DUCKS_GEESE_AND_SWANS_ANATIDAE,Ruddy-headed Goose,,2,-60.55658144876361,-51.29262353293598,South America,Falkland Islands (Islas Malvinas),FK,,Falkland Islands - Carcass Island,2014-11-09,13:37
Haematopus leucopodus,Animalia,OYSTERCATCHERS_HAEMATOPODIDAE,Magellanic Oystercatcher,,6,-60.55658346042037,-51.292591681703925,South America,Falkland Islands (Islas Malvinas),FK,,Falkland Islands - Carcass Island,2014-11-09,13:36
Orcinus orca,Animalia,DOLPHINS_DELPHINIDAE,Killer Whale,,2,-57.3607,-51.6969,South America,Falkland Islands (Islas Malvinas),FK,,Falkland Islands (Islas Malvinas),2014-11-10,15:32
Nycticorax nycticorax,Animalia,HERONS_ARDEIDAE,Black-crowned Night Heron,,2,-57.8561,-51.6919,South America,Falkland Islands (Islas Malvinas),FK,,Falkland Islands (Islas Malvinas),2014-11-10,12:29
Anthus correndera,Animalia,PIPITS_EN_WAGTAILS_MOTACILLIDAE,Correndera Pipit,,1,-57.7972,-51.6984,South America,Falkland Islands (Islas Malvinas),FK,,Falkland Islands (Islas Malvinas),2014-11-10,11:35
Melanodera melanodera melanodera,Animalia,TANAGERS_AND_ALLIES_THRAUPIDAE,White-bridled Finch ssp melanodera,,1,-57.7762,-51.69,South America,Falkland Islands (Islas Malvinas),FK,,Falkland Islands - Port Stanley Airport,2014-11-10,11:24
Turdus falcklandii,Animalia,THRUSHES_TURDIDAE,Austral Thrush,,1,-57.7746,-51.6907,South America,Falkland Islands (Islas Malvinas),FK,,Falkland Islands (Islas Malvinas),2014-11-10,10:56
Charadrius falklandicus,Animalia,PLOVERS_CHARADRIIDAE,Two-banded Plover,,1,-57.7756,-51.6938,South America,Falkland Islands (Islas Malvinas),FK,,Falkland Islands (Islas Malvinas),2014-11-10,10:19
Phalacrocorax magellanicus,Animalia,CORMORANTS_PHALACROCORACIDAE,Rock Shag,,1,-57.8445,-51.6888,South America,Falkland Islands (Islas Malvinas),FK,,Falkland Islands (Islas Malvinas),2014-11-10,08:44
Haematopus leucopodus,Animalia,OYSTERCATCHERS_HAEMATOPODIDAE,Magellanic Oystercatcher,,1,-57.8457,-51.6883,South America,Falkland Islands (Islas Malvinas),FK,,Falkland Islands (Islas Malvinas),2014-11-10,08:40
Chloephaga picta,Animalia,DUCKS_GEESE_AND_SWANS_ANATIDAE,Upland Goose,,1,-57.8457,-51.6883,South America,Falkland Islands (Islas Malvinas),FK,,Falkland Islands (Islas Malvinas),2014-11-10,08:40
Tachyeres brachypterus,Animalia,DUCKS_GEESE_AND_SWANS_ANATIDAE,Falkland Steamer Duck,,1,-57.8457,-51.6883,South America,Falkland Islands (Islas Malvinas),FK,,Falkland Islands (Islas Malvinas),2014-11-10,08:40
Tachyeres brachypterus,Animalia,DUCKS_GEESE_AND_SWANS_ANATIDAE,Falkland Steamer Duck,,1,-60.2175,-51.3082,South America,Falkland Islands (Islas Malvinas),FK,,Falkland Islands - Saunders Island,2014-11-09,17:19
Melanodera melanodera melanodera,Animalia,TANAGERS_AND_ALLIES_THRAUPIDAE,White-bridled Finch ssp melanodera,,1,-60.22,-51.308,South America,Falkland Islands (Islas Malvinas),FK,,Falkland Islands - Saunders Island,2014-11-09,16:29
Chionis albus,Animalia,SHEATHBILLS_AND_ALLIES_CHIONIDAE,Snowy Sheathbill,,1,-60.22,-51.3081,South America,Falkland Islands (Islas Malvinas),FK,,Falkland Islands - Saunders Island,2014-11-09,15:57
Thalassarche melanophris,Animalia,ALBATROSSES_DIOMEDEIDAE,Black-browed Albatross,,1,-60.2268,-51.3082,South America,Falkland Islands (Islas Malvinas),FK,,Falkland Islands - Saunders Island,2014-11-09,15:15
Aptenodytes patagonicus,Animalia,PENGUINS_SPHENISCIDAE,King Penguin,,1,-60.2268,-51.3082,South America,Falkland Islands (Islas Malvinas),FK,,Falkland Islands - Saunders Island,2014-11-09,15:15
Pygoscelis papua,Animalia,PENGUINS_SPHENISCIDAE,Gentoo Penguin,,1,-60.2268,-51.3082,South America,Falkland Islands (Islas Malvinas),FK,,Falkland Islands - Saunders Island,2014-11-09,15:14
Leucophaeus scoresbii,Animalia,GULLS_TERNS_AND_SKIMMERS_LARIDAE,Dolphin Gull,,1,-60.2268,-51.3082,South America,Falkland Islands (Islas Malvinas),FK,,Falkland Islands - Saunders Island,2014-11-09,15:14
Eudyptes chrysocome chrysocome,Animalia,PENGUINS_SPHENISCIDAE,Southern Rockhopper Penguin ssp chrysocome,,1,-60.2268,-51.3082,South America,Falkland Islands (Islas Malvinas),FK,,Falkland Islands - Saunders Island,2014-11-09,16:17
Phalacrocorax magellanicus,Animalia,CORMORANTS_PHALACROCORACIDAE,Rock Shag,,1,-60.5563,-51.296,South America,Falkland Islands (Islas Malvinas),FK,,Falkland Islands - Carcass Island,2014-11-09,11:36
Melanodera melanodera melanodera,Animalia,TANAGERS_AND_ALLIES_THRAUPIDAE,White-bridled Finch ssp melanodera,,1,-60.5568,-51.2956,South America,Falkland Islands (Islas Malvinas),FK,,Falkland Islands - Carcass Island,2014-11-09,11:15
Pygoscelis papua,Animalia,PENGUINS_SPHENISCIDAE,Gentoo Penguin,,1,-60.5521,-51.2919,South America,Falkland Islands (Islas Malvinas),FK,,Falkland Islands - Carcass Island,2014-11-09,10:33
Spinus barbatus,Animalia,FINCHES_FRINGILLIDAE,Black-chinned Siskin,,1,-60.5521,-51.2918,South America,Falkland Islands (Islas Malvinas),FK,,Falkland Islands - Carcass Island,2014-11-09,10:31
Spheniscus magellanicus,Animalia,PENGUINS_SPHENISCIDAE,Magellanic Penguin,,1,-60.5524,-51.2912,South America,Falkland Islands (Islas Malvinas),FK,,Falkland Islands - Carcass Island,2014-11-09,10:17
Cathartes aura,Animalia,NEW_WORLD_VULTURES_CATHARTIDAE,Turkey Vulture,,1,-60.557,-51.2927,South America,Falkland Islands (Islas Malvinas),FK,,Falkland Islands - Carcass Island,2014-11-09,09:35
Haematopus leucopodus,Animalia,OYSTERCATCHERS_HAEMATOPODIDAE,Magellanic Oystercatcher,,1,-60.5571,-51.2942,South America,Falkland Islands (Islas Malvinas),FK,,Falkland Islands - Carcass Island,2014-11-09,09:32
Chloephaga picta,Animalia,DUCKS_GEESE_AND_SWANS_ANATIDAE,Upland Goose,,1,-60.5572,-51.2939,South America,Falkland Islands (Islas Malvinas),FK,,Falkland Islands - Carcass Island,2014-11-09,09:32
Tachyeres brachypterus,Animalia,DUCKS_GEESE_AND_SWANS_ANATIDAE,Falkland Steamer Duck,,1,-60.5571,-51.2942,South America,Falkland Islands (Islas Malvinas),FK,,Falkland Islands - Carcass Island,2014-11-09,09:27
Turdus falcklandii,Animalia,THRUSHES_TURDIDAE,Austral Thrush,,1,-60.5571,-51.2942,South America,Falkland Islands (Islas Malvinas),FK,,Falkland Islands - Carcass Island,2014-11-09,09:27
Haematopus ater,Animalia,OYSTERCATCHERS_HAEMATOPODIDAE,Blackish Oystercatcher,,1,-60.5571,-51.2942,South America,Falkland Islands (Islas Malvinas),FK,,Falkland Islands - Carcass Island,2014-11-09,09:26
Chloephaga rubidiceps,Animalia,DUCKS_GEESE_AND_SWANS_ANATIDAE,Ruddy-headed Goose,,1,-60.5571,-51.2942,South America,Falkland Islands (Islas Malvinas),FK,,Falkland Islands - Carcass Island,2014-11-09,09:25
Cinclodes antarcticus,Animalia,OVENBIRDS_FURNARIIDAE,Blackish Cinclodes,,1,-60.5571,-51.2942,South America,Falkland Islands (Islas Malvinas),FK,,Falkland Islands - Carcass Island,2014-11-09,09:25
Larus dominicanus,Animalia,GULLS_TERNS_AND_SKIMMERS_LARIDAE,Kelp Gull,,1,-60.5571,-51.2942,South America,Falkland Islands (Islas Malvinas),FK,,Falkland Islands - Carcass Island,2014-11-09,09:25
Phalcoboenus australis,Animalia,CARACAS_AND_FALCONS_FALCONIDAE,Striated Caracara,,1,-60.5571,-51.2942,South America,Falkland Islands (Islas Malvinas),FK,,Falkland Islands - Carcass Island,2014-11-09,09:24
Charadrius falklandicus,Animalia,PLOVERS_CHARADRIIDAE,Two-banded Plover,,1,-57.77571374550462,-51.691996743902564,South America,Falkland Islands (Islas Malvinas),FK,,Falkland Islands (Islas Malvinas),2014-11-10,13:51
Charadrius modestus,Animalia,PLOVERS_CHARADRIIDAE,Rufous-chested Plover,,1,-57.775687258690596,-51.69203747995198,South America,Falkland Islands (Islas Malvinas),FK,,Falkland Islands (Islas Malvinas),2014-11-10,13:51
Haematopus leucopodus,Animalia,OYSTERCATCHERS_HAEMATOPODIDAE,Magellanic Oystercatcher,,20,-60.25529486127198,-51.31560830399394,South America,Falkland Islands (Islas Malvinas),FK,,Falkland Islands - Saunders Island,2014-11-09,23:54
Phalcoboenus australis,Animalia,CARACAS_AND_FALCONS_FALCONIDAE,Striated Caracara,,20,-60.25394084863365,-51.31508066318929,South America,Falkland Islands (Islas Malvinas),FK,,Falkland Islands - Saunders Island,2014-11-09,23:53
Aptenodytes patagonicus,Animalia,PENGUINS_SPHENISCIDAE,King Penguin,,20,-60.25354706682265,-51.31515090353787,South America,Falkland Islands (Islas Malvinas),FK,,Falkland Islands - Saunders Island,2014-11-09,23:53
Spinus barbatus,Animalia,FINCHES_FRINGILLIDAE,Black-chinned Siskin,,5,-60.55628087371588,-51.295675467699766,South America,Falkland Islands (Islas Malvinas),FK,,Falkland Islands - Carcass Island,2014-11-09,15:34
Melanodera melanodera melanodera,Animalia,TANAGERS_AND_ALLIES_THRAUPIDAE,White-bridled Finch ssp melanodera,,2,-60.55628087371588,-51.295675467699766,South America,Falkland Islands (Islas Malvinas),FK,,Falkland Islands - Carcass Island,2014-11-09,15:34
Tachyeres brachypterus,Animalia,DUCKS_GEESE_AND_SWANS_ANATIDAE,Falkland Steamer Duck,,10,-60.556274838745594,-51.295742858201265,South America,Falkland Islands (Islas Malvinas),FK,,Falkland Islands - Carcass Island,2014-11-09,15:33
Phalcoboenus australis,Animalia,CARACAS_AND_FALCONS_FALCONIDAE,Striated Caracara,,20,-60.55626813322306,-51.29590479657054,South America,Falkland Islands (Islas Malvinas),FK,,Falkland Islands - Carcass Island,2014-11-09,15:33
Chloephaga rubidiceps,Animalia,DUCKS_GEESE_AND_SWANS_ANATIDAE,Ruddy-headed Goose,,2,-60.55658144876361,-51.29262353293598,South America,Falkland Islands (Islas Malvinas),FK,,Falkland Islands - Carcass Island,2014-11-09,13:37
Haematopus leucopodus,Animalia,OYSTERCATCHERS_HAEMATOPODIDAE,Magellanic Oystercatcher,,6,-60.55658346042037,-51.292591681703925,South America,Falkland Islands (Islas Malvinas),FK,,Falkland Islands - Carcass Island,2014-11-09,13:36
Macronectes giganteus,Animalia,PETRELS_AND_SHEARWATERS_PROCELLARIIDAE,Southern Giant Petrel,,1,-61.165,-50.997,South America,Falkland Islands (Islas Malvinas),FK,,Falkland Islands (Islas Malvinas),2013-11-03,18:03
Ardenna gravis,Animalia,PETRELS_AND_SHEARWATERS_PROCELLARIIDAE,Great Shearwater,,1,-56.798506,-51.231964,South America,Falkland Islands (Islas Malvinas),FK,,Falkland Islands (Islas Malvinas),2013-11-05,10:18
Diomedea epomophora,Animalia,ALBATROSSES_DIOMEDEIDAE,Southern Royal Albatross,,1,-54.651,-51.535,South America,Falkland Islands (Islas Malvinas),FK,,Falkland Islands (Islas Malvinas),2013-11-05,18:04
Fulmarus glacialoides,Animalia,PETRELS_AND_SHEARWATERS_PROCELLARIIDAE,Southern Fulmar,,1,-54.651,-51.535,South America,Falkland Islands (Islas Malvinas),FK,,Falkland Islands (Islas Malvinas),2013-11-05,18:02
Diomedea exulans,Animalia,ALBATROSSES_DIOMEDEIDAE,Wandering Albatross,,1,-54.651,-51.535,South America,Falkland Islands (Islas Malvinas),FK,,Falkland Islands (Islas Malvinas),2013-11-05,17:56
Diomedea epomophora,Animalia,ALBATROSSES_DIOMEDEIDAE,Southern Royal Albatross,,1,-54.871,-51.481,South America,Falkland Islands (Islas Malvinas),FK,,Falkland Islands (Islas Malvinas),2013-11-05,17:31
Phalacrocorax magellanicus,Animalia,CORMORANTS_PHALACROCORACIDAE,Rock Shag,,1,-60.6699371338,-51.3018573692,South America,Falkland Islands (Islas Malvinas),FK,,Falkland Islands (Islas Malvinas),2013-11-04,15:04
Phalcoboenus australis,Animalia,CARACAS_AND_FALCONS_FALCONIDAE,Striated Caracara,,8,-60.713,-51.349,South America,Falkland Islands (Islas Malvinas),FK,,Falkland Islands - West Island,2013-11-04,18:34
Phalcoboenus australis,Animalia,CARACAS_AND_FALCONS_FALCONIDAE,Striated Caracara,,1,-60.5201840401,-51.3079611109,South America,Falkland Islands (Islas Malvinas),FK,,Falkland Islands - Carcass Island,2013-11-04,11:45
Spinus barbatus,Animalia,FINCHES_FRINGILLIDAE,Black-chinned Siskin,,8,-60.5224370956,-51.3079074552,South America,Falkland Islands (Islas Malvinas),FK,,Falkland Islands - Carcass Island,2013-11-04,10:20
Leistes loyca falklandica,Animalia,ICTERIDS_ICTERIDAE,Long-tailed Meadowlark ssp falklandica,,4,-60.5224370956,-51.3079074552,South America,Falkland Islands (Islas Malvinas),FK,,Falkland Islands - Carcass Island,2013-11-04,10:05
Cistothorus platensis falklandicus,Animalia,WRENS_TROGLODYTIDAE,Grass Wren ssp falklandicus,,10,-60.5224371,-51.30790746,South America,Falkland Islands (Islas Malvinas),FK,,Falkland Islands - Carcass Island,2013-11-04,09:55
Troglodytes cobbi,Animalia,WRENS_TROGLODYTIDAE,Cobb's Wren,,2,-60.5147767067,-51.3053788577,South America,Falkland Islands (Islas Malvinas),FK,,Falkland Islands - Carcass Island,2013-11-04,11:35
Phalcoboenus australis,Animalia,CARACAS_AND_FALCONS_FALCONIDAE,Striated Caracara,,15,-60.523853302,-51.3091549347,South America,Falkland Islands (Islas Malvinas),FK,,Falkland Islands - Carcass Island,2013-11-04,10:50
Gallinago paraguaiae,Animalia,SANDPIPERS_AND_ALLIES_SCOLOPACIDAE,South American Snipe,,1,-60.5247116089,-51.3086720434,South America,Falkland Islands (Islas Malvinas),FK,,Falkland Islands - Carcass Island,2013-11-04,10:45
Haematopus leucopodus,Animalia,OYSTERCATCHERS_HAEMATOPODIDAE,Magellanic Oystercatcher,,10,-60.5230808258,-51.3097719551,South America,Falkland Islands (Islas Malvinas),FK,,Falkland Islands - Carcass Island,2013-11-04,10:00
Cathartes aura,Animalia,NEW_WORLD_VULTURES_CATHARTIDAE,Turkey Vulture,,2,-60.5230808258,-51.3097719551,South America,Falkland Islands (Islas Malvinas),FK,,Falkland Islands - Carcass Island,2013-11-04,09:45
Spheniscus magellanicus,Animalia,PENGUINS_SPHENISCIDAE,Magellanic Penguin,,10,-60.5230808258,-51.3097719551,South America,Falkland Islands (Islas Malvinas),FK,,Falkland Islands - Carcass Island,2013-11-04,09:45
Pygoscelis papua,Animalia,PENGUINS_SPHENISCIDAE,Gentoo Penguin,,200,-60.5230808258,-51.3097719551,South America,Falkland Islands (Islas Malvinas),FK,,Falkland Islands - Carcass Island,2013-11-04,09:45
Anas flavirostris,Animalia,DUCKS_GEESE_AND_SWANS_ANATIDAE,Yellow-billed Teal,,5,-60.5239284039,-51.3090275056,South America,Falkland Islands (Islas Malvinas),FK,,Falkland Islands - Carcass Island,2013-11-04,11:05
Lophonetta specularioides,Animalia,DUCKS_GEESE_AND_SWANS_ANATIDAE,Crested Duck,,20,-60.5239284039,-51.3090275056,South America,Falkland Islands (Islas Malvinas),FK,,Falkland Islands - Carcass Island,2013-11-04,11:05
Turdus falcklandii falcklandii,Animalia,THRUSHES_TURDIDAE,Austral Thrush ssp falcklandii,,20,-60.5234670639,-51.3092622432,South America,Falkland Islands (Islas Malvinas),FK,,Falkland Islands - Carcass Island,2013-11-04,11:00
Melanodera melanodera,Animalia,TANAGERS_AND_ALLIES_THRAUPIDAE,White-bridled Finch,,10,-60.5234670639,-51.3092622432,South America,Falkland Islands (Islas Malvinas),FK,,Falkland Islands - Carcass Island,2013-11-04,09:32
Stercorarius antarcticus antarcticus,Animalia,SKUAS_STERCORARIIDAE,Falkland Brown Skua,,10,-60.5234670639,-51.3092622432,South America,Falkland Islands (Islas Malvinas),FK,,Falkland Islands - Carcass Island,2013-11-04,09:35
Chloephaga hybrida,Animalia,DUCKS_GEESE_AND_SWANS_ANATIDAE,Kelp Goose,,10,-60.5234670639,-51.3092622432,South America,Falkland Islands (Islas Malvinas),FK,,Falkland Islands - Carcass Island,2013-11-04,09:30
Chloephaga picta,Animalia,DUCKS_GEESE_AND_SWANS_ANATIDAE,Upland Goose,,1,-60.5234670639,-51.3092622432,South America,Falkland Islands (Islas Malvinas),FK,,Falkland Islands - Carcass Island,2013-11-04,09:30
Cinclodes antarcticus antarcticus,Animalia,OVENBIRDS_FURNARIIDAE,Blackish Cinclodes ssp antarcticus,,20,-60.5225658417,-51.3093024838,South America,Falkland Islands (Islas Malvinas),FK,,Falkland Islands - Carcass Island,2013-11-04,09:10
Chionis albus,Animalia,SHEATHBILLS_AND_ALLIES_CHIONIDAE,Snowy Sheathbill,,20,-60.5218791962,-51.3094634459,South America,Falkland Islands (Islas Malvinas),FK,,Falkland Islands - Carcass Island,2013-11-04,09:10
Muscisaxicola maclovianus,Animalia,TYRANT_FLYCATCHERS_TYRANNIDAE,Dark-faced Ground Tyrant,,2,-60.5218791962,-51.3094634459,South America,Falkland Islands (Islas Malvinas),FK,,Falkland Islands - Carcass Island,2013-11-04,09:10
Tachyeres brachypterus,Animalia,DUCKS_GEESE_AND_SWANS_ANATIDAE,Falkland Steamer Duck,,10,-60.5218791962,-51.3094634459,South America,Falkland Islands (Islas Malvinas),FK,,Falkland Islands - Carcass Island,2013-11-04,09:10
Chloephaga rubidiceps,Animalia,DUCKS_GEESE_AND_SWANS_ANATIDAE,Ruddy-headed Goose,,2,-60.523,-51.309,South America,Falkland Islands (Islas Malvinas),FK,,Falkland Islands - Carcass Island,2013-11-04,09:00
Stercorarius antarcticus antarcticus,Animalia,SKUAS_STERCORARIIDAE,Falkland Brown Skua,,1,-61.165,-50.997,South America,Falkland Islands (Islas Malvinas),FK,,Falkland Islands (Islas Malvinas),2013-11-03,17:55
Macronectes giganteus,Animalia,PETRELS_AND_SHEARWATERS_PROCELLARIIDAE,Southern Giant Petrel,,1,-61.783,-49.46,South America,Falkland Islands (Islas Malvinas),FK,,Falkland Islands (Islas Malvinas),2013-11-03,07:48
Daption capense,Animalia,PETRELS_AND_SHEARWATERS_PROCELLARIIDAE,Cape Petrel,,1,-61.783,-49.46,South America,Falkland Islands (Islas Malvinas),FK,,Falkland Islands (Islas Malvinas),2013-11-03,07:50
Diomedea epomophora,Animalia,ALBATROSSES_DIOMEDEIDAE,Southern Royal Albatross,,1,-61.4849853516,-49.7883574924,South America,Falkland Islands (Islas Malvinas),FK,,Falkland Islands (Islas Malvinas),2013-11-03,11:08
Diomedea epomophora,Animalia,ALBATROSSES_DIOMEDEIDAE,Southern Royal Albatross,,1,-61.6387939453,-49.525208342,South America,Falkland Islands (Islas Malvinas),FK,,Falkland Islands (Islas Malvinas),2013-11-03,09:16
Diomedea epomophora,Animalia,ALBATROSSES_DIOMEDEIDAE,Southern Royal Albatross,,1,-61.6782078828,-49.4745146102,South America,Falkland Islands (Islas Malvinas),FK,,Falkland Islands (Islas Malvinas),2013-11-03,08:50
Diomedea epomophora,Animalia,ALBATROSSES_DIOMEDEIDAE,Southern Royal Albatross,,1,-61.783,-49.46,South America,Falkland Islands (Islas Malvinas),FK,,Falkland Islands (Islas Malvinas),2013-11-03,07:35
Diomedea exulans,Animalia,ALBATROSSES_DIOMEDEIDAE,Wandering Albatross,,1,-54.65110025,-51.5354935347,South America,Falkland Islands (Islas Malvinas),FK,,Falkland Islands (Islas Malvinas),2013-11-05,17:55
Diomedea epomophora,Animalia,ALBATROSSES_DIOMEDEIDAE,Southern Royal Albatross,,1,-55.879247,-51.4743075182,South America,Falkland Islands (Islas Malvinas),FK,,Falkland Islands (Islas Malvinas),2013-11-05,12:30
Ardenna gravis,Animalia,PETRELS_AND_SHEARWATERS_PROCELLARIIDAE,Great Shearwater,,1,-56.798506,-51.231964,South America,Falkland Islands (Islas Malvinas),FK,,Falkland Islands (Islas Malvinas),2013-11-05,10:18
Oceanites oceanicus,Animalia,OCEANITIDAE,Wilson's Storm Petrel,,1,-56.798506,-51.231964,South America,Falkland Islands (Islas Malvinas),FK,,Falkland Islands (Islas Malvinas),2013-11-05,09:00
Chloephaga hybrida,Animalia,DUCKS_GEESE_AND_SWANS_ANATIDAE,Kelp Goose,,1,-60.6848430638,-51.3497738185,South America,Falkland Islands (Islas Malvinas),FK,,Falkland Islands - West Island,2013-11-04,19:15
Phalcoboenus australis,Animalia,CARACAS_AND_FALCONS_FALCONIDAE,Striated Caracara,,1,-60.713482,-51.349402,South America,Falkland Islands (Islas Malvinas),FK,,Falkland Islands - West Island,2013-11-04,18:25
Phalacrocorax magellanicus,Animalia,CORMORANTS_PHALACROCORACIDAE,Rock Shag,,1,-60.6715392927,-51.3445960056,South America,Falkland Islands (Islas Malvinas),FK,,Falkland Islands - West Island,2013-11-04,15:50
Phalcoboenus australis,Animalia,CARACAS_AND_FALCONS_FALCONIDAE,Striated Caracara,,1,-60.5215215692,-51.3092711854,South America,Falkland Islands (Islas Malvinas),FK,,Falkland Islands - Carcass Island,2013-11-04,11:58
Cathartes aura,Animalia,NEW_WORLD_VULTURES_CATHARTIDAE,Turkey Vulture,,1,-60.5215215692,-51.3092711854,South America,Falkland Islands (Islas Malvinas),FK,,Falkland Islands - Carcass Island,2013-11-04,12:05
Cistothorus platensis,Animalia,WRENS_TROGLODYTIDAE,Grass Wren,,1,-60.522122384,-51.3089492593,South America,Falkland Islands (Islas Malvinas),FK,,Falkland Islands - Carcass Island,2013-11-04,11:24
Lophonetta specularioides,Animalia,DUCKS_GEESE_AND_SWANS_ANATIDAE,Crested Duck,,1,-60.5232810983,-51.308761468,South America,Falkland Islands (Islas Malvinas),FK,,Falkland Islands - Carcass Island,2013-11-04,11:04
Chloephaga picta,Animalia,DUCKS_GEESE_AND_SWANS_ANATIDAE,Upland Goose,,9,-60.5232810983,-51.308761468,South America,Falkland Islands (Islas Malvinas),FK,,Falkland Islands - Carcass Island,2013-11-04,11:04
Gallinago paraguaiae,Animalia,SANDPIPERS_AND_ALLIES_SCOLOPACIDAE,South American Snipe,,1,-60.5294251446,-51.308260464,South America,Falkland Islands (Islas Malvinas),FK,,Falkland Islands - Carcass Island,2013-11-04,10:42
Tachyeres brachypterus,Animalia,DUCKS_GEESE_AND_SWANS_ANATIDAE,Falkland Steamer Duck,,2,-60.5295467385,-51.3082034554,South America,Falkland Islands (Islas Malvinas),FK,,Falkland Islands - Carcass Island,2013-11-04,10:40
Leistes loyca,Animalia,ICTERIDS_ICTERIDAE,Long-tailed Meadowlark,,1,-60.5250477795,-51.3092441348,South America,Falkland Islands (Islas Malvinas),FK,,Falkland Islands - Carcass Island,2013-11-04,10:07
Turdus falcklandii falcklandii,Animalia,THRUSHES_TURDIDAE,Austral Thrush ssp falcklandii,,1,-60.5250477795,-51.3092441348,South America,Falkland Islands (Islas Malvinas),FK,,Falkland Islands - Carcass Island,2013-11-04,10:01
Haematopus leucopodus,Animalia,OYSTERCATCHERS_HAEMATOPODIDAE,Magellanic Oystercatcher,,4,-60.5250477795,-51.3092441348,South America,Falkland Islands (Islas Malvinas),FK,,Falkland Islands - Carcass Island,2013-11-04,09:59
Troglodytes cobbi,Animalia,WRENS_TROGLODYTIDAE,Cobb's Wren,,1,-60.5248117451,-51.3089713919,South America,Falkland Islands (Islas Malvinas),FK,,Falkland Islands - Carcass Island,2013-11-04,09:50
Melanodera melanodera,Animalia,TANAGERS_AND_ALLIES_THRAUPIDAE,White-bridled Finch,,1,-60.5223226552,-51.309387436,South America,Falkland Islands (Islas Malvinas),FK,,Falkland Islands - Carcass Island,2013-11-04,09:32
Spheniscus magellanicus,Animalia,PENGUINS_SPHENISCIDAE,Magellanic Penguin,,1,-60.5219578747,-51.3094676935,South America,Falkland Islands (Islas Malvinas),FK,,Falkland Islands - Carcass Island,2013-11-04,09:13
Pygoscelis papua,Animalia,PENGUINS_SPHENISCIDAE,Gentoo Penguin,,1,-60.5219578747,-51.3094676935,South America,Falkland Islands (Islas Malvinas),FK,,Falkland Islands - Carcass Island,2013-11-04,09:13
Stercorarius antarcticus antarcticus,Animalia,SKUAS_STERCORARIIDAE,Falkland Brown Skua,,1,-60.5219578747,-51.3094676935,South America,Falkland Islands (Islas Malvinas),FK,,Falkland Islands - Carcass Island,2013-11-04,09:11
Chionis albus,Animalia,SHEATHBILLS_AND_ALLIES_CHIONIDAE,Snowy Sheathbill,,1,-60.5219578747,-51.3094676935,South America,Falkland Islands (Islas Malvinas),FK,,Falkland Islands - Carcass Island,2013-11-04,09:11
Cinclodes antarcticus,Animalia,OVENBIRDS_FURNARIIDAE,Blackish Cinclodes,,1,-60.5219578747,-51.3094676935,South America,Falkland Islands (Islas Malvinas),FK,,Falkland Islands - Carcass Island,2013-11-04,09:11
Muscisaxicola maclovianus,Animalia,TYRANT_FLYCATCHERS_TYRANNIDAE,Dark-faced Ground Tyrant,,1,-60.5219578747,-51.3094676935,South America,Falkland Islands (Islas Malvinas),FK,,Falkland Islands - Carcass Island,2013-11-04,09:09
Tachyeres brachypterus,Animalia,DUCKS_GEESE_AND_SWANS_ANATIDAE,Falkland Steamer Duck,,2,-60.5225086221,-51.3094853546,South America,Falkland Islands (Islas Malvinas),FK,,Falkland Islands - Carcass Island,2013-11-04,09:10
Chloephaga rubidiceps,Animalia,DUCKS_GEESE_AND_SWANS_ANATIDAE,Ruddy-headed Goose,,2,-60.5225086221,-51.3094853546,South America,Falkland Islands (Islas Malvinas),FK,,Falkland Islands - Carcass Island,2013-11-04,09:00
Thalassarche melanophris,Animalia,ALBATROSSES_DIOMEDEIDAE,Black-browed Albatross,,1,-61.1109924596,-51.0026943432,South America,Falkland Islands (Islas Malvinas),FK,,Falkland Islands (Islas Malvinas),2013-11-03,19:20
Stercorarius antarcticus antarcticus,Animalia,SKUAS_STERCORARIIDAE,Falkland Brown Skua,,1,-61.1645508092,-50.9966446198,South America,Falkland Islands (Islas Malvinas),FK,,Falkland Islands (Islas Malvinas),2013-11-03,17:50
Leucocarbo atriceps albiventer,Animalia,CORMORANTS_PHALACROCORACIDAE,Imperial Shag ssp albiventer,,1,-61.1645508092,-50.9966446198,South America,Falkland Islands (Islas Malvinas),FK,,Falkland Islands (Islas Malvinas),2013-11-03,17:20
Pachyptila desolata,Animalia,PETRELS_AND_SHEARWATERS_PROCELLARIIDAE,Antarctic Prion,,1,-61.6782078828,-49.4745146102,South America,Falkland Islands (Islas Malvinas),FK,,Falkland Islands (Islas Malvinas),2013-11-03,09:04
Diomedea epomophora,Animalia,ALBATROSSES_DIOMEDEIDAE,Southern Royal Albatross,,1,-61.6782078828,-49.4745146102,South America,Falkland Islands (Islas Malvinas),FK,,Falkland Islands (Islas Malvinas),2013-11-03,08:50
Macronectes giganteus,Animalia,PETRELS_AND_SHEARWATERS_PROCELLARIIDAE,Southern Giant Petrel,,1,-61.782578,-49.460235,South America,Falkland Islands (Islas Malvinas),FK,,Falkland Islands (Islas Malvinas),2013-11-03,07:45
Eudyptes chrysocome,Animalia,PENGUINS_SPHENISCIDAE,Southern Rockhopper Penguin,,2000,-60.713,-51.349,South America,Falkland Islands (Islas Malvinas),FK,,Falkland Islands - West Island,2013-11-04,18:24
Thalassarche melanophris,Animalia,ALBATROSSES_DIOMEDEIDAE,Black-browed Albatross,,1,-60.713,-51.349,South America,Falkland Islands (Islas Malvinas),FK,,Falkland Islands - West Island,2013-11-04,18:25
Diomedea epomophora,Animalia,ALBATROSSES_DIOMEDEIDAE,Southern Royal Albatross,,1,-55.313017,-51.451752,South America,Falkland Islands (Islas Malvinas),FK,,Falkland Islands (Islas Malvinas),2013-11-05,15:09
Pygoscelis papua,Animalia,PENGUINS_SPHENISCIDAE,Gentoo Penguin,,1,-60.517814,-51.307455,South America,Falkland Islands (Islas Malvinas),FK,,Falkland Islands - Carcass Island,2013-11-04,11:49
Troglodytes cobbi,Animalia,WRENS_TROGLODYTIDAE,Cobb's Wren,,2,-60.518073,-51.307623,South America,Falkland Islands (Islas Malvinas),FK,,Falkland Islands - Carcass Island,2013-11-04,11:50
Chloephaga hybrida,Animalia,DUCKS_GEESE_AND_SWANS_ANATIDAE,Kelp Goose,,1,-60.518218,-51.307705,South America,Falkland Islands (Islas Malvinas),FK,,Falkland Islands - Carcass Island,2013-11-04,11:50
Tachyeres brachypterus,Animalia,DUCKS_GEESE_AND_SWANS_ANATIDAE,Falkland Steamer Duck,,6,-60.518218,-51.307705,South America,Falkland Islands (Islas Malvinas),FK,,Falkland Islands - Carcass Island,2013-11-04,11:51
Thalassarche melanophris,Animalia,ALBATROSSES_DIOMEDEIDAE,Black-browed Albatross,,1,-60.713482,-51.349402,South America,Falkland Islands (Islas Malvinas),FK,,Falkland Islands - West Island,2013-11-04,18:25
Eudyptes chrysocome,Animalia,PENGUINS_SPHENISCIDAE,Southern Rockhopper Penguin,,1,-60.713483,-51.349421,South America,Falkland Islands (Islas Malvinas),FK,,Falkland Islands - West Island,2013-11-04,18:25
Diomedea epomophora,Animalia,ALBATROSSES_DIOMEDEIDAE,Southern Royal Albatross,,1,-54.8708268125,-51.4807901177,South America,Falkland Islands (Islas Malvinas),FK,,Falkland Islands (Islas Malvinas),2013-11-05,17:30
Fulmarus glacialoides,Animalia,PETRELS_AND_SHEARWATERS_PROCELLARIIDAE,Southern Fulmar,,1,-56.0989735625,-51.4400796612,South America,Falkland Islands (Islas Malvinas),FK,,Falkland Islands (Islas Malvinas),2013-11-05,11:00
Leucophaeus scoresbii,Animalia,GULLS_TERNS_AND_SKIMMERS_LARIDAE,Dolphin Gull,,7,-57.8609776497,-51.6915736248,South America,Falkland Islands (Islas Malvinas),FK,,Falkland Islands (Islas Malvinas),1995-10-25,
Cephalorhynchus commersonii,Animalia,DOLPHINS_DELPHINIDAE,Commerson's Dolphin,,3,-57.7947807312,-51.6680837489,South America,Falkland Islands (Islas Malvinas),FK,,Falkland Islands (Islas Malvinas),1995-10-27,
Cephalorhynchus commersonii,Animalia,DOLPHINS_DELPHINIDAE,Commerson's Dolphin,,2,-57.8191995621,-51.6860465176,South America,Falkland Islands (Islas Malvinas),FK,,Falkland Islands (Islas Malvinas),1995-10-27,
Leucophaeus scoresbii,Animalia,GULLS_TERNS_AND_SKIMMERS_LARIDAE,Dolphin Gull,,20,-57.8607898951,-51.6916368068,South America,Falkland Islands (Islas Malvinas),FK,,Falkland Islands (Islas Malvinas),1995-10-24,
Otaria byronia,Animalia,FUR_SEALS_OTARIIDAE,South American Sea Lion,,1,-57.815294265747,-51.685221716898,South America,Falkland Islands (Islas Malvinas),FK,,Falkland Islands (Islas Malvinas),2013-01-24,
Leucophaeus scoresbii,Animalia,GULLS_TERNS_AND_SKIMMERS_LARIDAE,Dolphin Gull,,3,-57.824563980103,-51.69400108193,South America,Falkland Islands (Islas Malvinas),FK,,Falkland Islands (Islas Malvinas),2013-01-24,
Nycticorax nycticorax,Animalia,HERONS_ARDEIDAE,Black-crowned Night Heron,,2,-57.805895805359,-51.676307589475,South America,Falkland Islands (Islas Malvinas),FK,,Falkland Islands (Islas Malvinas),2013-01-24,
Charadrius modestus,Animalia,PLOVERS_CHARADRIIDAE,Rufous-chested Plover,,1,-57.817482948303,-51.680724958524,South America,Falkland Islands (Islas Malvinas),FK,,Falkland Islands (Islas Malvinas),2013-01-24,
Muscisaxicola maclovianus,Animalia,TYRANT_FLYCATCHERS_TYRANNIDAE,Dark-faced Ground Tyrant,,1,-57.823147773743,-51.681416796573,South America,Falkland Islands (Islas Malvinas),FK,,Falkland Islands (Islas Malvinas),2013-01-24,
Sterna hirundinacea,Animalia,GULLS_TERNS_AND_SKIMMERS_LARIDAE,South American Tern,,1,-57.823147773743,-51.681416796573,South America,Falkland Islands (Islas Malvinas),FK,,Falkland Islands (Islas Malvinas),2013-01-24,
Phalacrocorax magellanicus,Animalia,CORMORANTS_PHALACROCORACIDAE,Rock Shag,,7,-57.820615768433,-51.684742793469,South America,Falkland Islands (Islas Malvinas),FK,,Falkland Islands (Islas Malvinas),2013-01-24,
Chloephaga hybrida,Animalia,DUCKS_GEESE_AND_SWANS_ANATIDAE,Kelp Goose,,2,-57.820615768433,-51.684742793469,South America,Falkland Islands (Islas Malvinas),FK,,Falkland Islands (Islas Malvinas),2013-01-24,
Tachyeres brachypterus,Animalia,DUCKS_GEESE_AND_SWANS_ANATIDAE,Falkland Steamer Duck,,2,-57.820615768433,-51.684742793469,South America,Falkland Islands (Islas Malvinas),FK,,Falkland Islands (Islas Malvinas),2013-01-24,
Lophonetta specularioides,Animalia,DUCKS_GEESE_AND_SWANS_ANATIDAE,Crested Duck,,8,-57.820615768433,-51.684742793469,South America,Falkland Islands (Islas Malvinas),FK,,Falkland Islands (Islas Malvinas),2013-01-24,
Chloephaga picta,Animalia,DUCKS_GEESE_AND_SWANS_ANATIDAE,Upland Goose,,2,-57.819757461548,-51.684529936986,South America,Falkland Islands (Islas Malvinas),FK,,Falkland Islands (Islas Malvinas),2013-01-24,
Haematopus ater,Animalia,OYSTERCATCHERS_HAEMATOPODIDAE,Blackish Oystercatcher,,1,-57.807097434998,-51.685727241687,South America,Falkland Islands (Islas Malvinas),FK,,Falkland Islands (Islas Malvinas),2013-01-24,
Turdus falcklandii,Animalia,THRUSHES_TURDIDAE,Austral Thrush,,1,-57.807097434998,-51.685727241687,South America,Falkland Islands (Islas Malvinas),FK,,Falkland Islands (Islas Malvinas),2013-01-24,
Macronectes giganteus,Animalia,PETRELS_AND_SHEARWATERS_PROCELLARIIDAE,Southern Giant Petrel,,1,-57.803235054016,-51.685940092541,South America,Falkland Islands (Islas Malvinas),FK,,Falkland Islands (Islas Malvinas),2013-01-24,
Melanodera melanodera melanodera,Animalia,TANAGERS_AND_ALLIES_THRAUPIDAE,White-bridled Finch ssp melanodera,,1,-57.798728942871,-51.686552033173,South America,Falkland Islands (Islas Malvinas),FK,,Falkland Islands - Stanley,2013-01-24,
Charadrius falklandicus,Animalia,PLOVERS_CHARADRIIDAE,Two-banded Plover,,2,-57.799844741821,-51.686685062651,South America,Falkland Islands (Islas Malvinas),FK,,Falkland Islands (Islas Malvinas),2013-01-24,
Spheniscus magellanicus,Animalia,PENGUINS_SPHENISCIDAE,Magellanic Penguin,,35,-57.824649810791,-51.682055406929,South America,Falkland Islands (Islas Malvinas),FK,,Falkland Islands (Islas Malvinas),2013-01-24,
Chloephaga picta,Animalia,DUCKS_GEESE_AND_SWANS_ANATIDAE,Upland Goose,,8,-58.202133178711,-51.764865278197,South America,Falkland Islands (Islas Malvinas),FK,,Falkland Islands (Islas Malvinas),2013-01-24,
Sterna hirundinacea,Animalia,GULLS_TERNS_AND_SKIMMERS_LARIDAE,South American Tern,,4,-58.197841644287,-51.766246371096,South America,Falkland Islands (Islas Malvinas),FK,,Falkland Islands (Islas Malvinas),2013-01-24,
Cathartes aura,Animalia,NEW_WORLD_VULTURES_CATHARTIDAE,Turkey Vulture,,4,-58.197841644287,-51.766246371096,South America,Falkland Islands (Islas Malvinas),FK,,Falkland Islands (Islas Malvinas),2013-01-24,
Melanodera melanodera melanodera,Animalia,TANAGERS_AND_ALLIES_THRAUPIDAE,White-bridled Finch ssp melanodera,,1,-58.197841644287,-51.766246371096,South America,Falkland Islands (Islas Malvinas),FK,,Falkland Islands (Islas Malvinas),2013-01-24,
Chionis albus,Animalia,SHEATHBILLS_AND_ALLIES_CHIONIDAE,Snowy Sheathbill,,6,-58.197841644287,-51.766246371096,South America,Falkland Islands (Islas Malvinas),FK,,Falkland Islands (Islas Malvinas),2013-01-24,
Larus dominicanus,Animalia,GULLS_TERNS_AND_SKIMMERS_LARIDAE,Kelp Gull,,1,-58.197841644287,-51.766246371096,South America,Falkland Islands (Islas Malvinas),FK,,Falkland Islands (Islas Malvinas),2013-01-24,
Aptenodytes patagonicus,Animalia,PENGUINS_SPHENISCIDAE,King Penguin,,5,-58.197841644287,-51.766246371096,South America,Falkland Islands (Islas Malvinas),FK,,Falkland Islands (Islas Malvinas),2013-01-24,
Pygoscelis papua,Animalia,PENGUINS_SPHENISCIDAE,Gentoo Penguin,,84,-58.197841644287,-51.766246371096,South America,Falkland Islands (Islas Malvinas),FK,,Falkland Islands (Islas Malvinas),2013-01-24,
Macronectes giganteus,Animalia,PETRELS_AND_SHEARWATERS_PROCELLARIIDAE,Southern Giant Petrel,,1,-62.5341796875,-53.409531853086,South America,Falkland Islands (Islas Malvinas),FK,,Falkland Islands (Islas Malvinas),2013-01-22,
Thalassarche melanophris,Animalia,ALBATROSSES_DIOMEDEIDAE,Black-browed Albatross,,72,-62.5341796875,-53.409531853086,South America,Falkland Islands (Islas Malvinas),FK,,Falkland Islands (Islas Malvinas),2013-01-22,
Daption capense,Animalia,PETRELS_AND_SHEARWATERS_PROCELLARIIDAE,Cape Petrel,,24,-61.85302734375,-53.605544099238,South America,Falkland Islands (Islas Malvinas),FK,,Falkland Islands - West Island,2013-01-22,
Troglodytes cobbi,Animalia,WRENS_TROGLODYTIDAE,Cobb's Wren,,1,-60.540161132812,-51.293699893324,South America,Falkland Islands (Islas Malvinas),FK,,Falkland Islands - Carcass Island,2005-12-31,
Eudyptes chrysocome,Animalia,PENGUINS_SPHENISCIDAE,Southern Rockhopper Penguin,,1,-61.2762451172,-51.6955439459,South America,Falkland Islands (Islas Malvinas),FK,,Falkland Islands (Islas Malvinas),2005-12-31,
Cathartes aura,Animalia,NEW_WORLD_VULTURES_CATHARTIDAE,Turkey Vulture,,2,-59.61320895527041,-51.291580498065024,South America,Falkland Islands (Islas Malvinas),FK,,Falkland Islands - Pebble Island,2006-03-03,
Nycticorax nycticorax,Animalia,HERONS_ARDEIDAE,Black-crowned Night Heron,,1,-59.61320895527041,-51.291580498065024,South America,Falkland Islands (Islas Malvinas),FK,,Falkland Islands - Pebble Island,2006-03-02,
Caracara plancus,Animalia,CARACAS_AND_FALCONS_FALCONIDAE,Southern Crested Caracara,,3,-59.61320895527041,-51.291580498065024,South America,Falkland Islands (Islas Malvinas),FK,,Falkland Islands - Pebble Island,2006-03-02,
Geranoaetus polyosoma polyosoma,Animalia,HAWKS_AND_EAGLES_ACCIPITRIDAE,Red-backed Hawk,,1,-59.61320895527041,-51.291580498065024,South America,Falkland Islands (Islas Malvinas),FK,,Falkland Islands - Pebble Island,2006-03-02,
Anas flavirostris,Animalia,DUCKS_GEESE_AND_SWANS_ANATIDAE,Yellow-billed Teal,,80,-59.61320895527041,-51.291580498065024,South America,Falkland Islands (Islas Malvinas),FK,,Falkland Islands - Pebble Island,2006-03-01,
Rollandia rolland,Animalia,GREBES_PODICIPEDIDAE,White-tufted Grebe,,20,-59.61320895527041,-51.291580498065024,South America,Falkland Islands (Islas Malvinas),FK,,Falkland Islands - Pebble Island,2006-03-01,
Turdus falcklandii,Animalia,THRUSHES_TURDIDAE,Austral Thrush,,2,-60.18996670246731,-51.75296747437354,South America,Falkland Islands (Islas Malvinas),FK,,Falkland Islands - West Island,2006-03-04,
Nycticorax nycticorax,Animalia,HERONS_ARDEIDAE,Black-crowned Night Heron,,2,-60.18996670246731,-51.75296747437354,South America,Falkland Islands (Islas Malvinas),FK,,Falkland Islands - West Island,2006-03-03,
Phalcoboenus australis,Animalia,CARACAS_AND_FALCONS_FALCONIDAE,Striated Caracara,,50,-60.55550508225188,-51.27363056932242,South America,Falkland Islands (Islas Malvinas),FK,,Falkland Islands - Carcass Island,2006-03-05,
Melanodera melanodera,Animalia,TANAGERS_AND_ALLIES_THRAUPIDAE,White-bridled Finch,,2,-60.55550508225188,-51.27363056932242,South America,Falkland Islands (Islas Malvinas),FK,,Falkland Islands - Carcass Island,2006-03-05,
Spinus barbatus,Animalia,FINCHES_FRINGILLIDAE,Black-chinned Siskin,,5,-60.55550508225188,-51.27363056932242,South America,Falkland Islands (Islas Malvinas),FK,,Falkland Islands - Carcass Island,2006-03-05,
Leucophaeus scoresbii,Animalia,GULLS_TERNS_AND_SKIMMERS_LARIDAE,Dolphin Gull,,2,-59.04269534396676,-52.43329696063418,South America,Falkland Islands (Islas Malvinas),FK,,Falkland Islands - Sea Lion Islands,2006-02-28,
Chloephaga hybrida,Animalia,DUCKS_GEESE_AND_SWANS_ANATIDAE,Kelp Goose,,10,-59.04269534396676,-52.43329696063418,South America,Falkland Islands (Islas Malvinas),FK,,Falkland Islands - Sea Lion Islands,2006-02-28,
Haematopus ater,Animalia,OYSTERCATCHERS_HAEMATOPODIDAE,Blackish Oystercatcher,,10,-59.04269534396676,-52.43329696063418,South America,Falkland Islands (Islas Malvinas),FK,,Falkland Islands - Sea Lion Islands,2006-02-28,
Podiceps occipitalis,Animalia,GREBES_PODICIPEDIDAE,Silvery Grebe,,2,-59.04269534396676,-52.43329696063418,South America,Falkland Islands (Islas Malvinas),FK,,Falkland Islands - Sea Lion Islands,2006-02-28,
Gallinago paraguaiae,Animalia,SANDPIPERS_AND_ALLIES_SCOLOPACIDAE,South American Snipe,,1,-59.04269534396676,-52.43329696063418,South America,Falkland Islands (Islas Malvinas),FK,,Falkland Islands - Sea Lion Islands,2006-02-28,
Melanodera melanodera,Animalia,TANAGERS_AND_ALLIES_THRAUPIDAE,White-bridled Finch,,10,-59.04269534396676,-52.43329696063418,South America,Falkland Islands (Islas Malvinas),FK,,Falkland Islands - Sea Lion Islands,2006-02-28,
Cinclodes antarcticus,Animalia,OVENBIRDS_FURNARIIDAE,Blackish Cinclodes,,50,-59.04269534396676,-52.43329696063418,South America,Falkland Islands (Islas Malvinas),FK,,Falkland Islands - Sea Lion Islands,2006-05-08,
Anas specularioides,Animalia,DUCKS_GEESE_AND_SWANS_ANATIDAE,,,2,-59.04269534396676,-52.43329696063418,South America,Falkland Islands (Islas Malvinas),FK,,Falkland Islands - Sea Lion Islands,2006-02-27,
Phalacrocorax albiventer,Animalia,CORMORANTS_PHALACROCORACIDAE,King cormorant,,1000,-59.04269534396676,-52.43329696063418,South America,Falkland Islands (Islas Malvinas),FK,,Falkland Islands - Sea Lion Islands,2006-05-08,
Phalcoboenus australis,Animalia,CARACAS_AND_FALCONS_FALCONIDAE,Striated Caracara,,15,-59.04269534396676,-52.43329696063418,South America,Falkland Islands (Islas Malvinas),FK,,Falkland Islands - Sea Lion Islands,2006-02-27,
Eudyptes chrysocome,Animalia,PENGUINS_SPHENISCIDAE,Southern Rockhopper Penguin,,100,-59.04269534396676,-52.43329696063418,South America,Falkland Islands (Islas Malvinas),FK,,Falkland Islands - Sea Lion Islands,2006-02-27,
Spheniscus magellanicus,Animalia,PENGUINS_SPHENISCIDAE,Magellanic Penguin,,15,-59.04269534396676,-52.43329696063418,South America,Falkland Islands (Islas Malvinas),FK,,Falkland Islands - Sea Lion Islands,2006-02-27,
Pygoscelis papua,Animalia,PENGUINS_SPHENISCIDAE,Gentoo Penguin,,1000,-59.04269534396676,-52.43329696063418,South America,Falkland Islands (Islas Malvinas),FK,,Falkland Islands - Sea Lion Islands,2006-02-27,
Melanodera melanodera,Animalia,TANAGERS_AND_ALLIES_THRAUPIDAE,White-bridled Finch,,5,-59.04269534396676,-52.43329696063418,South America,Falkland Islands (Islas Malvinas),FK,,Falkland Islands - Sea Lion Islands,2006-02-27,
Tachyeres brachypterus,Animalia,DUCKS_GEESE_AND_SWANS_ANATIDAE,Falkland Steamer Duck,,20,-59.04269534396676,-52.43329696063418,South America,Falkland Islands (Islas Malvinas),FK,,Falkland Islands - Sea Lion Islands,2006-02-25,
Balaenoptera borealis schlegelli,Animalia,RORQUAL_WHALES_BALAENOPTERIDAE,Southern Sei Whale,,6,-57.56545,-51.63901,South America,Falkland Islands (Islas Malvinas),FK,,Falkland Islands (Islas Malvinas),2020-01-22,14:43
Lagenorhynchus australis,Animalia,DOLPHINS_DELPHINIDAE,Peale's Dolphin,,3,-57.601122,-51.671315,South America,Falkland Islands (Islas Malvinas),FK,,Falkland Islands (Islas Malvinas),2020-01-22,14:26
Thalassarche melanophris,Animalia,ALBATROSSES_DIOMEDEIDAE,Black-browed Albatross,,500,-60.712681,-51.349461,South America,Falkland Islands (Islas Malvinas),FK,,Falkland Islands - West Point Island,2020-01-21,16:05
Leistes loyca falklandica,Animalia,ICTERIDS_ICTERIDAE,Long-tailed Meadowlark ssp falklandica,,1,-60.528997,-51.300032,South America,Falkland Islands (Islas Malvinas),FK,,Falkland Islands - Carcass Island,2020-01-21,10:19
Turdus falcklandii falcklandii,Animalia,THRUSHES_TURDIDAE,Austral Thrush ssp falcklandii,,1,-60.528997,-51.300032,South America,Falkland Islands (Islas Malvinas),FK,,Falkland Islands - Carcass Island,2020-01-21,10:19
Cathartes aura falklandicus,Animalia,NEW_WORLD_VULTURES_CATHARTIDAE,Turkey Vulture ssp falklandicus,,1,-60.528997,-51.300032,South America,Falkland Islands (Islas Malvinas),FK,,Falkland Islands - Carcass Island,2020-01-21,10:19
Stercorarius antarcticus antarcticus,Animalia,SKUAS_STERCORARIIDAE,Falkland Brown Skua,,1,-60.523312,-51.309212,South America,Falkland Islands (Islas Malvinas),FK,,Falkland Islands - Carcass Island,2020-01-21,09:42
Chloephaga picta,Animalia,DUCKS_GEESE_AND_SWANS_ANATIDAE,Upland Goose,,1,-60.528625,-51.307213,South America,Falkland Islands (Islas Malvinas),FK,,Falkland Islands - Carcass Island,2020-01-21,08:56
Tachyeres brachypterus,Animalia,DUCKS_GEESE_AND_SWANS_ANATIDAE,Falkland Steamer Duck,,6,-60.678953,-51.375017,South America,Falkland Islands (Islas Malvinas),FK,,Falkland Islands (Islas Malvinas),2020-01-21,06:38
Phalacrocorax magellanicus,Animalia,CORMORANTS_PHALACROCORACIDAE,Rock Shag,,1,-60.67281,-51.36447,South America,Falkland Islands (Islas Malvinas),FK,,Falkland Islands - West Point Island,2020-01-21,06:48
Eudyptes chrysocome,Animalia,PENGUINS_SPHENISCIDAE,Southern Rockhopper Penguin,,2,-60.680543,-51.376552,South America,Falkland Islands (Islas Malvinas),FK,,Falkland Islands (Islas Malvinas),2020-01-21,06:37
Eudyptes chrysocome,Animalia,PENGUINS_SPHENISCIDAE,Southern Rockhopper Penguin,,1,-60.748977,-51.407672,South America,Falkland Islands (Islas Malvinas),FK,,Falkland Islands (Islas Malvinas),2020-01-21,06:06
Pachyptila belcheri,Animalia,PETRELS_AND_SHEARWATERS_PROCELLARIIDAE,Slender-billed Prion,,5,-60.74716187,-51.40452576,South America,Falkland Islands (Islas Malvinas),FK,,Falkland Islands (Islas Malvinas),2020-01-21,06:13
Geranoaetus polyosoma polyosoma,Animalia,HAWKS_AND_EAGLES_ACCIPITRIDAE,Red-backed Hawk,,1,-60.53208542,-51.29813004,South America,Falkland Islands (Islas Malvinas),FK,,Falkland Islands - Carcass Island,2020-01-21,10:37
Tachyeres brachypterus,Animalia,DUCKS_GEESE_AND_SWANS_ANATIDAE,Falkland Steamer Duck,,5,-60.68523463,-51.34973836,South America,Falkland Islands (Islas Malvinas),FK,,Falkland Islands - West Point Island,2020-01-21,18:03
Eudyptes chrysocome chrysocome,Animalia,PENGUINS_SPHENISCIDAE,Southern Rockhopper Penguin ssp chrysocome,,400,-60.7128381,-51.34960283,South America,Falkland Islands (Islas Malvinas),FK,,Falkland Islands - West Point Island,2020-01-21,16:00
Cathartes aura falklandicus,Animalia,NEW_WORLD_VULTURES_CATHARTIDAE,Turkey Vulture ssp falklandicus,,2,-60.55517786,-51.29132852,South America,Falkland Islands (Islas Malvinas),FK,,Falkland Islands - Carcass Island,2020-01-21,12:05
Haematopus ater,Animalia,OYSTERCATCHERS_HAEMATOPODIDAE,Blackish Oystercatcher,,2,-60.5557518,-51.29216385,South America,Falkland Islands (Islas Malvinas),FK,,Falkland Islands - Carcass Island,2020-01-21,12:04
Haematopus leucopodus,Animalia,OYSTERCATCHERS_HAEMATOPODIDAE,Magellanic Oystercatcher,,4,-60.5557518,-51.29216385,South America,Falkland Islands (Islas Malvinas),FK,,Falkland Islands - Carcass Island,2020-01-21,12:04
Spheniscus magellanicus,Animalia,PENGUINS_SPHENISCIDAE,Magellanic Penguin,,1,-60.5557518,-51.29216385,South America,Falkland Islands (Islas Malvinas),FK,,Falkland Islands - Carcass Island,2020-01-21,12:04
Spinus barbatus,Animalia,FINCHES_FRINGILLIDAE,Black-chinned Siskin,,30,-60.55566967,-51.29192532,South America,Falkland Islands (Islas Malvinas),FK,,Falkland Islands - Carcass Island,2020-01-21,12:05
Muscisaxicola maclovianus maclovianus,Animalia,TYRANT_FLYCATCHERS_TYRANNIDAE,Dark-faced Ground Tyrant ssp maclovianus,,1,-60.5274509,-51.30811604,South America,Falkland Islands (Islas Malvinas),FK,,Falkland Islands - Carcass Island,2020-01-21,09:01
Turdus falcklandii falcklandii,Animalia,THRUSHES_TURDIDAE,Austral Thrush ssp falcklandii,,1,-60.5263351,-51.30728437,South America,Falkland Islands (Islas Malvinas),FK,,Falkland Islands - Carcass Island,2020-01-21,09:20
Pygoscelis papua,Animalia,PENGUINS_SPHENISCIDAE,Gentoo Penguin,,300,-60.52815192,-51.30848794,South America,Falkland Islands (Islas Malvinas),FK,,Falkland Islands - Carcass Island,2020-01-21,09:01
Spheniscus magellanicus,Animalia,PENGUINS_SPHENISCIDAE,Magellanic Penguin,,7,-60.52872849,-51.30730057,South America,Falkland Islands (Islas Malvinas),FK,,Falkland Islands - Carcass Island,2020-01-21,08:51
Melanodera melanodera melanodera,Animalia,TANAGERS_AND_ALLIES_THRAUPIDAE,White-bridled Finch ssp melanodera,,4,-60.5263351,-51.30728437,South America,Falkland Islands (Islas Malvinas),FK,,Falkland Islands - Carcass Island,2020-01-21,09:22
Tachyeres brachypterus,Animalia,DUCKS_GEESE_AND_SWANS_ANATIDAE,Falkland Steamer Duck,,2,-60.52951813,-51.30700871,South America,Falkland Islands (Islas Malvinas),FK,,Falkland Islands - Carcass Island,2020-01-21,08:51
Haematopus ater,Animalia,OYSTERCATCHERS_HAEMATOPODIDAE,Blackish Oystercatcher,,1,-60.52872849,-51.30730057,South America,Falkland Islands (Islas Malvinas),FK,,Falkland Islands - Carcass Island,2020-01-21,08:51
Haematopus leucopodus,Animalia,OYSTERCATCHERS_HAEMATOPODIDAE,Magellanic Oystercatcher,,1,-60.52872849,-51.30730057,South America,Falkland Islands (Islas Malvinas),FK,,Falkland Islands - Carcass Island,2020-01-21,08:51
Cephalorhynchus commersonii,Animalia,DOLPHINS_DELPHINIDAE,Commerson's Dolphin,,4,-60.53781452,-51.30451629,South America,Falkland Islands (Islas Malvinas),FK,,Falkland Islands - Carcass Island,2020-01-21,08:50
Troglodytes cobbi,Animalia,WRENS_TROGLODYTIDAE,Cobb's Wren,,10,-60.52872849,-51.30730057,South America,Falkland Islands (Islas Malvinas),FK,,Falkland Islands - Carcass Island,2020-01-21,08:51
Balaenoptera borealis schlegelli,Animalia,RORQUAL_WHALES_BALAENOPTERIDAE,Southern Sei Whale,,4,-60.7494697570801,-51.4052047729492,South America,Falkland Islands (Islas Malvinas),FK,,Falkland Islands (Islas Malvinas),2020-01-21,06:12
Thalassarche melanophris,Animalia,ALBATROSSES_DIOMEDEIDAE,Black-browed Albatross,,6,-60.7477111816406,-51.4046897888184,South America,Falkland Islands (Islas Malvinas),FK,,Falkland Islands (Islas Malvinas),2020-01-21,06:13
Pelecanoides urinatrix berard,Animalia,PETRELS_AND_SHEARWATERS_PROCELLARIIDAE,Common Diving Petrel ssp berard,,8,-60.7471618652344,-51.4045257568359,South America,Falkland Islands (Islas Malvinas),FK,,Falkland Islands (Islas Malvinas),2020-01-21,06:13
Thalassarche melanophris,Animalia,ALBATROSSES_DIOMEDEIDAE,Black-browed Albatross,,5,-60.6617698669434,-51.3474197387695,South America,Falkland Islands (Islas Malvinas),FK,,Falkland Islands - West Point Island,2020-01-21,07:00
Cinclodes antarcticus antarcticus,Animalia,OVENBIRDS_FURNARIIDAE,Blackish Cinclodes ssp antarcticus,,30,-60.5287284851074,-51.307300567627,South America,Falkland Islands (Islas Malvinas),FK,,Falkland Islands - Carcass Island,2020-01-21,08:51
Phalcoboenus australis,Animalia,CARACAS_AND_FALCONS_FALCONIDAE,Striated Caracara,,5,-60.5225601196289,-51.304084777832,South America,Falkland Islands (Islas Malvinas),FK,,Falkland Islands - Carcass Island,2020-01-21,09:55
Gallinago paraguaiae magellanica,Animalia,SANDPIPERS_AND_ALLIES_SCOLOPACIDAE,South American Snipe ssp magellanica,,1,-60.5292472839355,-51.2998657226563,South America,Falkland Islands (Islas Malvinas),FK,,Falkland Islands - Carcass Island,2020-01-21,10:36
Chloephaga hybrida malvinarum,Animalia,DUCKS_GEESE_AND_SWANS_ANATIDAE,Kelp Goose ssp malvinarum,,8,-60.5557594299316,-51.2922096252441,South America,Falkland Islands (Islas Malvinas),FK,,Falkland Islands - Carcass Island,2020-01-21,12:03
Troglodytes cobbi,Animalia,WRENS_TROGLODYTIDAE,Cobb's Wren,,1,-60.5557518005371,-51.292163848877,South America,Falkland Islands (Islas Malvinas),FK,,Falkland Islands - Carcass Island,2020-01-21,12:04
Ardenna grisea,Animalia,PETRELS_AND_SHEARWATERS_PROCELLARIIDAE,Sooty Shearwater,,2000,-57.654751,-51.593662,South America,Falkland Islands (Islas Malvinas),FK,,Falkland Islands (Islas Malvinas),2020-01-22,06:07
Thalassarche melanophris,Animalia,ALBATROSSES_DIOMEDEIDAE,Black-browed Albatross,,2,-57.6547164916992,-51.5939407348633,South America,Falkland Islands (Islas Malvinas),FK,,Falkland Islands (Islas Malvinas),2020-01-22,06:07
Tachyeres brachypterus,Animalia,DUCKS_GEESE_AND_SWANS_ANATIDAE,Falkland Steamer Duck,,2,-57.8745574951172,-51.6906890869141,South America,Falkland Islands (Islas Malvinas),FK,,Falkland Islands - Stanley,2020-01-22,10:04
Leucophaeus scoresbii,Animalia,GULLS_TERNS_AND_SKIMMERS_LARIDAE,Dolphin Gull,,3,-57.8745651245117,-51.690673828125,South America,Falkland Islands (Islas Malvinas),FK,,Falkland Islands - Stanley,2020-01-22,10:04
Cinclodes antarcticus,Animalia,OVENBIRDS_FURNARIIDAE,Blackish Cinclodes,,1,-60.5273742675781,-51.3050231933594,South America,Falkland Islands (Islas Malvinas),FK,,Falkland Islands - Carcass Island,2019-12-18,08:35
Troglodytes cobbi,Animalia,WRENS_TROGLODYTIDAE,Cobb's Wren,,1,-60.5274047851563,-51.305061340332,South America,Falkland Islands (Islas Malvinas),FK,,Falkland Islands - Carcass Island,2019-12-18,08:35
Phalcoboenus australis,Animalia,CARACAS_AND_FALCONS_FALCONIDAE,Striated Caracara,,1,-60.527400970459,-51.3046913146973,South America,Falkland Islands (Islas Malvinas),FK,,Falkland Islands - Carcass Island,2019-12-18,08:39
Melanodera melanodera melanodera,Animalia,TANAGERS_AND_ALLIES_THRAUPIDAE,White-bridled Finch ssp melanodera,,5,-60.5269737243652,-51.3043251037598,South America,Falkland Islands (Islas Malvinas),FK,,Falkland Islands - Carcass Island,2019-12-18,08:40
Tachyeres brachypterus,Animalia,DUCKS_GEESE_AND_SWANS_ANATIDAE,Falkland Steamer Duck,,1,-60.5284996032715,-51.3060340881348,South America,Falkland Islands (Islas Malvinas),FK,,Falkland Islands - Carcass Island,2019-12-18,08:59
Leistes loyca falklandica,Animalia,ICTERIDS_ICTERIDAE,Long-tailed Meadowlark ssp falklandica,,2,-60.5343208312988,-51.2966270446777,South America,Falkland Islands (Islas Malvinas),FK,,Falkland Islands - Carcass Island,2019-12-18,10:08
Spinus barbatus,Animalia,FINCHES_FRINGILLIDAE,Black-chinned Siskin,,3,-60.5386581420898,-51.2948722839355,South America,Falkland Islands (Islas Malvinas),FK,,Falkland Islands - Carcass Island,2019-12-18,10:14
Stercorarius antarcticus antarcticus,Animalia,SKUAS_STERCORARIIDAE,Falkland Brown Skua,,1,-60.5557403564453,-51.292163848877,South America,Falkland Islands (Islas Malvinas),FK,,Falkland Islands - Carcass Island,2019-12-18,11:22
Haematopus ater,Animalia,OYSTERCATCHERS_HAEMATOPODIDAE,Blackish Oystercatcher,,1,-60.5560913085938,-51.2954597473145,South America,Falkland Islands (Islas Malvinas),FK,,Falkland Islands - Carcass Island,2019-12-18,11:56
Tachyeres brachypterus,Animalia,DUCKS_GEESE_AND_SWANS_ANATIDAE,Falkland Steamer Duck,,1,-57.8681869506836,-51.6912307739258,South America,Falkland Islands (Islas Malvinas),FK,,Falkland Islands - Stanley,2019-12-19,10:46
Ardenna grisea,Animalia,PETRELS_AND_SHEARWATERS_PROCELLARIIDAE,Sooty Shearwater,,100,-57.6058540344238,-51.662784576416,South America,Falkland Islands (Islas Malvinas),FK,,Falkland Islands (Islas Malvinas),2019-12-19,15:37
Chloephaga picta,Animalia,DUCKS_GEESE_AND_SWANS_ANATIDAE,Upland Goose,,2,-58.904297,-51.687542,South America,Falkland Islands (Islas Malvinas),FK,,Falkland Islands (Islas Malvinas),2019-12-20,
Spheniscus magellanicus,Animalia,PENGUINS_SPHENISCIDAE,Magellanic Penguin,,1,-60.52228982,-51.31305931,South America,Falkland Islands (Islas Malvinas),FK,,Falkland Islands - Carcass Island,2019-11-06,10:52
Orcinus orca,Animalia,DOLPHINS_DELPHINIDAE,Killer Whale,,5,-57.68794899,-51.62223178,South America,Falkland Islands (Islas Malvinas),FK,,Falkland Islands (Islas Malvinas),2016-02-16,
Tachyeres brachypterus,Animalia,DUCKS_GEESE_AND_SWANS_ANATIDAE,Falkland Steamer Duck,,1,-57.82115822,-51.67101682,South America,Falkland Islands (Islas Malvinas),FK,,Falkland Islands (Islas Malvinas),2016-02-16,
Spheniscus magellanicus,Animalia,PENGUINS_SPHENISCIDAE,Magellanic Penguin,,1,-57.82115822,-51.67101682,South America,Falkland Islands (Islas Malvinas),FK,,Falkland Islands (Islas Malvinas),2016-02-16,
Haematopus leucopodus,Animalia,OYSTERCATCHERS_HAEMATOPODIDAE,Magellanic Oystercatcher,,1,-57.82115822,-51.67101682,South America,Falkland Islands (Islas Malvinas),FK,,Falkland Islands (Islas Malvinas),2016-02-16,
Orcinus orca,Animalia,DOLPHINS_DELPHINIDAE,Killer Whale,,1,-60.01235047,-51.18039326,South America,Falkland Islands (Islas Malvinas),FK,,Falkland Islands (Islas Malvinas),2016-02-16,
Tachyeres brachypterus,Animalia,DUCKS_GEESE_AND_SWANS_ANATIDAE,Falkland Steamer Duck,,1,-60.09977418,-51.33241354,South America,Falkland Islands (Islas Malvinas),FK,,Falkland Islands - Saunders Island,2016-02-14,
Thalassarche melanophris,Animalia,ALBATROSSES_DIOMEDEIDAE,Black-browed Albatross,,100,-60.09977418,-51.33241354,South America,Falkland Islands (Islas Malvinas),FK,,Falkland Islands - Saunders Island,2016-02-14,
Spheniscus magellanicus,Animalia,PENGUINS_SPHENISCIDAE,Magellanic Penguin,,25,-60.57204665645975,-51.27672287027,South America,Falkland Islands (Islas Malvinas),FK,,Falkland Islands - Carcass Island,2016-02-15,
Phalcoboenus australis,Animalia,CARACAS_AND_FALCONS_FALCONIDAE,Striated Caracara,,1,-60.57204665645975,-51.27672287027,South America,Falkland Islands (Islas Malvinas),FK,,Falkland Islands - Carcass Island,2016-02-15,
Phalacrocorax magellanicus,Animalia,CORMORANTS_PHALACROCORACIDAE,Rock Shag,,1,-60.57204665645975,-51.27672287027,South America,Falkland Islands (Islas Malvinas),FK,,Falkland Islands - Carcass Island,2016-02-15,
Cephalorhynchus commersonii,Animalia,DOLPHINS_DELPHINIDAE,Commerson's Dolphin,,2,-60.50947083029927,-51.31413888800769,South America,Falkland Islands (Islas Malvinas),FK,,Falkland Islands - Carcass Island,2019-11-06,07:04
Tachyeres brachypterus,Animalia,DUCKS_GEESE_AND_SWANS_ANATIDAE,Falkland Steamer Duck,,2,-60.50958472124777,-51.31433702458296,South America,Falkland Islands (Islas Malvinas),FK,,Falkland Islands - Carcass Island,2019-11-06,07:03
Larus dominicanus,Animalia,GULLS_TERNS_AND_SKIMMERS_LARIDAE,Kelp Gull,,10,-60.509527372602484,-51.31416481470923,South America,Falkland Islands (Islas Malvinas),FK,,Falkland Islands - Carcass Island,2019-11-06,07:02
Haematopus leucopodus,Animalia,OYSTERCATCHERS_HAEMATOPODIDAE,Magellanic Oystercatcher,,1,-60.51062487210603,-51.31477290309251,South America,Falkland Islands (Islas Malvinas),FK,,Falkland Islands - Carcass Island,2019-11-06,06:50
Chloephaga rubidiceps,Animalia,DUCKS_GEESE_AND_SWANS_ANATIDAE,Ruddy-headed Goose,,1,-60.51144719230305,-51.314870631013086,South America,Falkland Islands (Islas Malvinas),FK,,Falkland Islands - Carcass Island,2019-11-06,06:40
Phalcoboenus australis,Animalia,CARACAS_AND_FALCONS_FALCONIDAE,Striated Caracara,,1,-60.510102813813994,-51.31524549454364,South America,Falkland Islands (Islas Malvinas),FK,,Falkland Islands - Carcass Island,2019-11-06,06:38
Chloephaga rubidiceps,Animalia,DUCKS_GEESE_AND_SWANS_ANATIDAE,Ruddy-headed Goose,,2,-60.52439183770351,-51.306089785904206,South America,Falkland Islands (Islas Malvinas),FK,,Falkland Islands - Carcass Island,2019-11-06,09:48
Stercorarius antarcticus antarcticus,Animalia,SKUAS_STERCORARIIDAE,Falkland Brown Skua,,1,-60.522747000586655,-51.307243233642346,South America,Falkland Islands (Islas Malvinas),FK,,Falkland Islands - Carcass Island,2019-11-06,09:36
Gallinago paraguaiae magellanica,Animalia,SANDPIPERS_AND_ALLIES_SCOLOPACIDAE,South American Snipe ssp magellanica,,1,-60.522148099896135,-51.306956223638515,South America,Falkland Islands (Islas Malvinas),FK,,Falkland Islands - Carcass Island,2019-11-06,09:28
Turdus falcklandii falcklandii,Animalia,THRUSHES_TURDIDAE,Austral Thrush ssp falcklandii,,1,-60.51853699684937,-51.306136643488315,South America,Falkland Islands (Islas Malvinas),FK,,Falkland Islands - Carcass Island,2019-11-06,09:19
Haematopus leucopodus,Animalia,OYSTERCATCHERS_HAEMATOPODIDAE,Magellanic Oystercatcher,,1,-60.51766244802439,-51.30636645122658,South America,Falkland Islands (Islas Malvinas),FK,,Falkland Islands - Carcass Island,2019-11-06,09:16
Leistes loyca falklandica,Animalia,ICTERIDS_ICTERIDAE,Long-tailed Meadowlark ssp falklandica,,1,-60.517440332315495,-51.30653123874408,South America,Falkland Islands (Islas Malvinas),FK,,Falkland Islands - Carcass Island,2019-11-06,09:11
Phalcoboenus australis,Animalia,CARACAS_AND_FALCONS_FALCONIDAE,Striated Caracara,,1,-60.51735834649391,-51.306523526235836,South America,Falkland Islands (Islas Malvinas),FK,,Falkland Islands - Carcass Island,2019-11-06,09:11
Troglodytes cobbi,Animalia,WRENS_TROGLODYTIDAE,Cobb's Wren,,2,-60.517680770473255,-51.30647828232292,South America,Falkland Islands (Islas Malvinas),FK,,Falkland Islands - Carcass Island,2019-11-06,09:04
Gallinago paraguaiae magellanica,Animalia,SANDPIPERS_AND_ALLIES_SCOLOPACIDAE,South American Snipe ssp magellanica,,1,-60.51791592197168,-51.30638618486605,South America,Falkland Islands (Islas Malvinas),FK,,Falkland Islands - Carcass Island,2019-11-06,09:01
Melanodera melanodera melanodera,Animalia,TANAGERS_AND_ALLIES_THRAUPIDAE,White-bridled Finch ssp melanodera,,1,-60.51729114966986,-51.30618447629972,South America,Falkland Islands (Islas Malvinas),FK,,Falkland Islands - Carcass Island,2019-11-06,08:59
Cinclodes antarcticus antarcticus,Animalia,OVENBIRDS_FURNARIIDAE,Blackish Cinclodes ssp antarcticus,,1,-60.51729114966986,-51.30618447629972,South America,Falkland Islands (Islas Malvinas),FK,,Falkland Islands - Carcass Island,2019-11-06,08:59
Stercorarius antarcticus antarcticus,Animalia,SKUAS_STERCORARIIDAE,Falkland Brown Skua,,1,-60.5098224500793,-51.31418745757881,South America,Falkland Islands (Islas Malvinas),FK,,Falkland Islands - Carcass Island,2019-11-06,07:18
Haematopus ater,Animalia,OYSTERCATCHERS_HAEMATOPODIDAE,Blackish Oystercatcher,,2,-60.522149655620716,-51.31316893700314,South America,Falkland Islands (Islas Malvinas),FK,,Falkland Islands - Carcass Island,2019-11-06,10:55
Tachyeres brachypterus,Animalia,DUCKS_GEESE_AND_SWANS_ANATIDAE,Falkland Steamer Duck,,2,-60.52228981644657,-51.31305931496394,South America,Falkland Islands (Islas Malvinas),FK,,Falkland Islands - Carcass Island,2019-11-06,10:52
Spheniscus magellanicus,Animalia,PENGUINS_SPHENISCIDAE,Magellanic Penguin,,1,-60.52281946973829,-51.312818425919886,South America,Falkland Islands (Islas Malvinas),FK,,Falkland Islands - Carcass Island,2019-11-06,10:48
Spinus barbatus,Animalia,FINCHES_FRINGILLIDAE,Black-chinned Siskin,,10,-60.52281681434411,-51.31281073195648,South America,Falkland Islands (Islas Malvinas),FK,,Falkland Islands - Carcass Island,2019-11-06,10:47
Leistes loyca falklandica,Animalia,ICTERIDS_ICTERIDAE,Long-tailed Meadowlark ssp falklandica,,2,-60.52482157712755,-51.312059722746916,South America,Falkland Islands (Islas Malvinas),FK,,Falkland Islands - Carcass Island,2019-11-06,10:41
Spinus barbatus,Animalia,FINCHES_FRINGILLIDAE,Black-chinned Siskin,,20,-60.526818994138395,-51.31173715183601,South America,Falkland Islands (Islas Malvinas),FK,,Falkland Islands - Carcass Island,2019-11-06,10:25
Muscisaxicola maclovianus maclovianus,Animalia,TYRANT_FLYCATCHERS_TYRANNIDAE,Dark-faced Ground Tyrant ssp maclovianus,,2,-60.52624056114265,-51.3111197389185,South America,Falkland Islands (Islas Malvinas),FK,,Falkland Islands - Carcass Island,2019-11-06,10:18
Pygoscelis papua,Animalia,PENGUINS_SPHENISCIDAE,Gentoo Penguin,,700,-60.52542280504492,-51.310328896731754,South America,Falkland Islands (Islas Malvinas),FK,,Falkland Islands - Carcass Island,2019-11-06,10:13
Cinclodes antarcticus,Animalia,OVENBIRDS_FURNARIIDAE,Blackish Cinclodes,,1,-60.525132205918744,-51.30979698957974,South America,Falkland Islands (Islas Malvinas),FK,,Falkland Islands - Carcass Island,2019-11-06,10:03
Leistes loyca falklandica,Animalia,ICTERIDS_ICTERIDAE,Long-tailed Meadowlark ssp falklandica,,1,-60.525132205918744,-51.30979698957974,South America,Falkland Islands (Islas Malvinas),FK,,Falkland Islands - Carcass Island,2019-11-06,10:03
Haematopus leucopodus,Animalia,OYSTERCATCHERS_HAEMATOPODIDAE,Magellanic Oystercatcher,,2,-60.52497415167383,-51.30983787134163,South America,Falkland Islands (Islas Malvinas),FK,,Falkland Islands - Carcass Island,2019-11-06,10:03
Leistes loyca falklandica,Animalia,ICTERIDS_ICTERIDAE,Long-tailed Meadowlark ssp falklandica,,1,-60.52356636621034,-51.3069751817361,South America,Falkland Islands (Islas Malvinas),FK,,Falkland Islands - Carcass Island,2019-11-06,09:51
Leucocarbo atriceps albiventer,Animalia,CORMORANTS_PHALACROCORACIDAE,Imperial Shag ssp albiventer,,1,-60.40692789371016,-51.254616086620054,South America,Falkland Islands (Islas Malvinas),FK,,Falkland Islands (Islas Malvinas),2019-11-06,14:31
Chloephaga rubidiceps,Animalia,DUCKS_GEESE_AND_SWANS_ANATIDAE,Ruddy-headed Goose,,2,-60.52221684577652,-51.308975712295286,South America,Falkland Islands (Islas Malvinas),FK,,Falkland Islands - Carcass Island,2019-11-06,11:19
Chroicocephalus maculipennis,Animalia,GULLS_TERNS_AND_SKIMMERS_LARIDAE,Brown-hooded Gull,,2,-57.841762438308805,-51.688361478534844,South America,Falkland Islands (Islas Malvinas),FK,,Falkland Islands - Stanley,2019-11-07,06:54
Tachyeres brachypterus,Animalia,DUCKS_GEESE_AND_SWANS_ANATIDAE,Falkland Steamer Duck,,1,-57.82848163265402,-51.67755189756173,South America,Falkland Islands (Islas Malvinas),FK,,Falkland Islands (Islas Malvinas),2019-11-07,06:44
Haematopus leucopodus,Animalia,OYSTERCATCHERS_HAEMATOPODIDAE,Magellanic Oystercatcher,,3,-57.778116924257624,-51.6990948613916,South America,Falkland Islands (Islas Malvinas),FK,,Falkland Islands - Stanley,2019-11-07,11:14
Calidris fuscicollis,Animalia,SANDPIPERS_AND_ALLIES_SCOLOPACIDAE,White-rumped Sandpiper,,11,-57.77894556542738,-51.69801585156428,South America,Falkland Islands (Islas Malvinas),FK,,Falkland Islands - Stanley,2019-11-07,11:05
Charadrius falklandicus,Animalia,PLOVERS_CHARADRIIDAE,Two-banded Plover,,7,-57.77857264859717,-51.69807877492712,South America,Falkland Islands (Islas Malvinas),FK,,Falkland Islands - Stanley,2019-11-07,10:59
Tachyeres brachypterus,Animalia,DUCKS_GEESE_AND_SWANS_ANATIDAE,Falkland Steamer Duck,,6,-57.77863999903096,-51.69807229184459,South America,Falkland Islands (Islas Malvinas),FK,,Falkland Islands - Stanley,2019-11-07,10:59
Charadrius modestus,Animalia,PLOVERS_CHARADRIIDAE,Rufous-chested Plover,,1,-57.855180638199535,-51.69922239424208,South America,Falkland Islands (Islas Malvinas),FK,,Falkland Islands - Stanley,2019-11-07,09:16
Leucophaeus scoresbii,Animalia,GULLS_TERNS_AND_SKIMMERS_LARIDAE,Dolphin Gull,,2,-57.85672641749042,-51.692603466359465,South America,Falkland Islands (Islas Malvinas),FK,,Falkland Islands - Stanley,2019-11-07,08:51
Diomedea epomophora,Animalia,ALBATROSSES_DIOMEDEIDAE,Southern Royal Albatross,,1,-57.40014442813136,-51.69461670976998,South America,Falkland Islands (Islas Malvinas),FK,,Falkland Islands (Islas Malvinas),2019-11-07,16:06
Ardenna grisea,Animalia,PETRELS_AND_SHEARWATERS_PROCELLARIIDAE,Sooty Shearwater,,2,-57.637322290591236,-51.664716093592205,South America,Falkland Islands (Islas Malvinas),FK,,Falkland Islands (Islas Malvinas),2019-11-07,15:22
Thalassarche melanophris,Animalia,ALBATROSSES_DIOMEDEIDAE,Black-browed Albatross,,1,-57.66571350503036,-51.66104696126471,South America,Falkland Islands (Islas Malvinas),FK,,Falkland Islands (Islas Malvinas),2019-11-07,15:17
Charadrius falklandicus,Animalia,PLOVERS_CHARADRIIDAE,Two-banded Plover,,1,-57.7780758496912,-51.699036117691264,South America,Falkland Islands (Islas Malvinas),FK,,Falkland Islands - Stanley,2019-11-07,11:14
Charadrius modestus,Animalia,PLOVERS_CHARADRIIDAE,Rufous-chested Plover,,1,-57.85512783570015,-51.69935840186821,South America,Falkland Islands (Islas Malvinas),FK,,Falkland Islands - Stanley,2019-11-07,09:23
Phalcoboenus australis,Animalia,CARACAS_AND_FALCONS_FALCONIDAE,Striated Caracara,,1,-60.5048216041741,-51.31689060949843,South America,Falkland Islands (Islas Malvinas),FK,,Falkland Islands - Carcass Island,2019-11-06,06:32
Diomedea epomophora,Animalia,ALBATROSSES_DIOMEDEIDAE,Southern Royal Albatross,,1,-57.40014442813136,-51.69461670976998,South America,Falkland Islands (Islas Malvinas),FK,,Falkland Islands (Islas Malvinas),2019-11-07,16:06
Ardenna grisea,Animalia,PETRELS_AND_SHEARWATERS_PROCELLARIIDAE,Sooty Shearwater,,2,-57.637322290591236,-51.664716093592205,South America,Falkland Islands (Islas Malvinas),FK,,Falkland Islands (Islas Malvinas),2019-11-07,15:22
Thalassarche melanophris,Animalia,ALBATROSSES_DIOMEDEIDAE,Black-browed Albatross,,1,-57.66571350503036,-51.66104696126471,South America,Falkland Islands (Islas Malvinas),FK,,Falkland Islands (Islas Malvinas),2019-11-07,15:17
Haematopus leucopodus,Animalia,OYSTERCATCHERS_HAEMATOPODIDAE,Magellanic Oystercatcher,,3,-57.778116924257624,-51.6990948613916,South America,Falkland Islands (Islas Malvinas),FK,,Falkland Islands - Stanley,2019-11-07,11:14
Calidris fuscicollis,Animalia,SANDPIPERS_AND_ALLIES_SCOLOPACIDAE,White-rumped Sandpiper,,11,-57.77894556542738,-51.69801585156428,South America,Falkland Islands (Islas Malvinas),FK,,Falkland Islands - Stanley,2019-11-07,11:05
Charadrius falklandicus,Animalia,PLOVERS_CHARADRIIDAE,Two-banded Plover,,7,-57.77857264859717,-51.69807877492712,South America,Falkland Islands (Islas Malvinas),FK,,Falkland Islands - Stanley,2019-11-07,10:59
Tachyeres brachypterus,Animalia,DUCKS_GEESE_AND_SWANS_ANATIDAE,Falkland Steamer Duck,,6,-57.77863999903096,-51.69807229184459,South America,Falkland Islands (Islas Malvinas),FK,,Falkland Islands - Stanley,2019-11-07,10:59
Charadrius modestus,Animalia,PLOVERS_CHARADRIIDAE,Rufous-chested Plover,,1,-57.855180638199535,-51.69922239424208,South America,Falkland Islands (Islas Malvinas),FK,,Falkland Islands - Stanley,2019-11-07,09:16
Leucophaeus scoresbii,Animalia,GULLS_TERNS_AND_SKIMMERS_LARIDAE,Dolphin Gull,,2,-57.85672641749042,-51.692603466359465,South America,Falkland Islands (Islas Malvinas),FK,,Falkland Islands - Stanley,2019-11-07,08:51
Chroicocephalus maculipennis,Animalia,GULLS_TERNS_AND_SKIMMERS_LARIDAE,Brown-hooded Gull,,2,-57.841762438308805,-51.688361478534844,South America,Falkland Islands (Islas Malvinas),FK,,Falkland Islands - Stanley,2019-11-07,06:54
Tachyeres brachypterus,Animalia,DUCKS_GEESE_AND_SWANS_ANATIDAE,Falkland Steamer Duck,,1,-57.82848163265402,-51.67755189756173,South America,Falkland Islands (Islas Malvinas),FK,,Falkland Islands (Islas Malvinas),2019-11-07,06:44
Muscisaxicola maclovianus maclovianus,Animalia,TYRANT_FLYCATCHERS_TYRANNIDAE,Dark-faced Ground Tyrant ssp maclovianus,,1,-60.5215796905424,-51.30864129129603,South America,Falkland Islands (Islas Malvinas),FK,,Falkland Islands - Carcass Island,2019-11-06,11:22
Chloephaga rubidiceps,Animalia,DUCKS_GEESE_AND_SWANS_ANATIDAE,Ruddy-headed Goose,,2,-60.52221684577652,-51.308975712295286,South America,Falkland Islands (Islas Malvinas),FK,,Falkland Islands - Carcass Island,2019-11-06,11:19
Haematopus ater,Animalia,OYSTERCATCHERS_HAEMATOPODIDAE,Blackish Oystercatcher,,2,-60.522149655620716,-51.31316893700314,South America,Falkland Islands (Islas Malvinas),FK,,Falkland Islands - Carcass Island,2019-11-06,10:55
Tachyeres brachypterus,Animalia,DUCKS_GEESE_AND_SWANS_ANATIDAE,Falkland Steamer Duck,,2,-60.52228981644657,-51.31305931496394,South America,Falkland Islands (Islas Malvinas),FK,,Falkland Islands - Carcass Island,2019-11-06,10:52
Spheniscus magellanicus,Animalia,PENGUINS_SPHENISCIDAE,Magellanic Penguin,,1,-60.52281946973829,-51.312818425919886,South America,Falkland Islands (Islas Malvinas),FK,,Falkland Islands - Carcass Island,2019-11-06,10:48
Spinus barbatus,Animalia,FINCHES_FRINGILLIDAE,Black-chinned Siskin,,10,-60.52281681434411,-51.31281073195648,South America,Falkland Islands (Islas Malvinas),FK,,Falkland Islands - Carcass Island,2019-11-06,10:47
Leistes loyca falklandica,Animalia,ICTERIDS_ICTERIDAE,Long-tailed Meadowlark ssp falklandica,,2,-60.52482157712755,-51.312059722746916,South America,Falkland Islands (Islas Malvinas),FK,,Falkland Islands - Carcass Island,2019-11-06,10:41
Spinus barbatus,Animalia,FINCHES_FRINGILLIDAE,Black-chinned Siskin,,20,-60.526818994138395,-51.31173715183601,South America,Falkland Islands (Islas Malvinas),FK,,Falkland Islands - Carcass Island,2019-11-06,10:25
Muscisaxicola maclovianus maclovianus,Animalia,TYRANT_FLYCATCHERS_TYRANNIDAE,Dark-faced Ground Tyrant ssp maclovianus,,2,-60.52624056114265,-51.3111197389185,South America,Falkland Islands (Islas Malvinas),FK,,Falkland Islands - Carcass Island,2019-11-06,10:18
Cinclodes antarcticus antarcticus,Animalia,OVENBIRDS_FURNARIIDAE,Blackish Cinclodes ssp antarcticus,,1,-60.525132205918744,-51.30979698957974,South America,Falkland Islands (Islas Malvinas),FK,,Falkland Islands - Carcass Island,2019-11-06,10:03
Leistes loyca falklandica,Animalia,ICTERIDS_ICTERIDAE,Long-tailed Meadowlark ssp falklandica,,1,-60.525132205918744,-51.30979698957974,South America,Falkland Islands (Islas Malvinas),FK,,Falkland Islands - Carcass Island,2019-11-06,10:03
Haematopus leucopodus,Animalia,OYSTERCATCHERS_HAEMATOPODIDAE,Magellanic Oystercatcher,,2,-60.52497415167383,-51.30983787134163,South America,Falkland Islands (Islas Malvinas),FK,,Falkland Islands - Carcass Island,2019-11-06,10:03
Leistes loyca falklandica,Animalia,ICTERIDS_ICTERIDAE,Long-tailed Meadowlark ssp falklandica,,1,-60.52356636621034,-51.3069751817361,South America,Falkland Islands (Islas Malvinas),FK,,Falkland Islands - Carcass Island,2019-11-06,09:51
Chloephaga rubidiceps,Animalia,DUCKS_GEESE_AND_SWANS_ANATIDAE,Ruddy-headed Goose,,2,-60.52439183770351,-51.306089785904206,South America,Falkland Islands (Islas Malvinas),FK,,Falkland Islands - Carcass Island,2019-11-06,09:48
Stercorarius antarcticus antarcticus,Animalia,SKUAS_STERCORARIIDAE,Falkland Brown Skua,,1,-60.522747000586655,-51.307243233642346,South America,Falkland Islands (Islas Malvinas),FK,,Falkland Islands - Carcass Island,2019-11-06,09:36
Gallinago paraguaiae magellanica,Animalia,SANDPIPERS_AND_ALLIES_SCOLOPACIDAE,South American Snipe ssp magellanica,,1,-60.522148099896135,-51.306956223638515,South America,Falkland Islands (Islas Malvinas),FK,,Falkland Islands - Carcass Island,2019-11-06,09:28
Turdus falcklandii falcklandii,Animalia,THRUSHES_TURDIDAE,Austral Thrush ssp falcklandii,,1,-60.51853699684937,-51.306136643488315,South America,Falkland Islands (Islas Malvinas),FK,,Falkland Islands - Carcass Island,2019-11-06,09:19
Haematopus leucopodus,Animalia,OYSTERCATCHERS_HAEMATOPODIDAE,Magellanic Oystercatcher,,1,-60.51766244802439,-51.30636645122658,South America,Falkland Islands (Islas Malvinas),FK,,Falkland Islands - Carcass Island,2019-11-06,09:16
Leistes loyca falklandica,Animalia,ICTERIDS_ICTERIDAE,Long-tailed Meadowlark ssp falklandica,,1,-60.517440332315495,-51.30653123874408,South America,Falkland Islands (Islas Malvinas),FK,,Falkland Islands - Carcass Island,2019-11-06,09:11
Phalcoboenus australis,Animalia,CARACAS_AND_FALCONS_FALCONIDAE,Striated Caracara,,1,-60.51735834649391,-51.306523526235836,South America,Falkland Islands (Islas Malvinas),FK,,Falkland Islands - Carcass Island,2019-11-06,09:11
Troglodytes cobbi,Animalia,WRENS_TROGLODYTIDAE,Cobb's Wren,,2,-60.517680770473255,-51.30647828232292,South America,Falkland Islands (Islas Malvinas),FK,,Falkland Islands - Carcass Island,2019-11-06,09:04
Gallinago paraguaiae magellanica,Animalia,SANDPIPERS_AND_ALLIES_SCOLOPACIDAE,South American Snipe ssp magellanica,,1,-60.51791592197168,-51.30638618486605,South America,Falkland Islands (Islas Malvinas),FK,,Falkland Islands - Carcass Island,2019-11-06,09:01
Cinclodes antarcticus antarcticus,Animalia,OVENBIRDS_FURNARIIDAE,Blackish Cinclodes ssp antarcticus,,1,-60.51729114966986,-51.30618447629972,South America,Falkland Islands (Islas Malvinas),FK,,Falkland Islands - Carcass Island,2019-11-06,08:59
Stercorarius antarcticus antarcticus,Animalia,SKUAS_STERCORARIIDAE,Falkland Brown Skua,,1,-60.5098224500793,-51.31418745757881,South America,Falkland Islands (Islas Malvinas),FK,,Falkland Islands - Carcass Island,2019-11-06,07:18
Cephalorhynchus commersonii,Animalia,DOLPHINS_DELPHINIDAE,Commerson's Dolphin,,2,-60.50947083029927,-51.31413888800769,South America,Falkland Islands (Islas Malvinas),FK,,Falkland Islands - Carcass Island,2019-11-06,07:04
Tachyeres brachypterus,Animalia,DUCKS_GEESE_AND_SWANS_ANATIDAE,Falkland Steamer Duck,,2,-60.50958472124777,-51.31433702458296,South America,Falkland Islands (Islas Malvinas),FK,,Falkland Islands - Carcass Island,2019-11-06,07:03
Larus dominicanus,Animalia,GULLS_TERNS_AND_SKIMMERS_LARIDAE,Kelp Gull,,10,-60.509527372602484,-51.31416481470923,South America,Falkland Islands (Islas Malvinas),FK,,Falkland Islands - Carcass Island,2019-11-06,07:02
Haematopus leucopodus,Animalia,OYSTERCATCHERS_HAEMATOPODIDAE,Magellanic Oystercatcher,,1,-60.51062487210603,-51.31477290309251,South America,Falkland Islands (Islas Malvinas),FK,,Falkland Islands - Carcass Island,2019-11-06,06:50
Chloephaga rubidiceps,Animalia,DUCKS_GEESE_AND_SWANS_ANATIDAE,Ruddy-headed Goose,,1,-60.51144719230305,-51.314870631013086,South America,Falkland Islands (Islas Malvinas),FK,,Falkland Islands - Carcass Island,2019-11-06,06:40
Phalcoboenus australis,Animalia,CARACAS_AND_FALCONS_FALCONIDAE,Striated Caracara,,1,-60.510102813813994,-51.31524549454364,South America,Falkland Islands (Islas Malvinas),FK,,Falkland Islands - Carcass Island,2019-11-06,06:38
Cathartes aura falklandicus,Animalia,NEW_WORLD_VULTURES_CATHARTIDAE,Turkey Vulture ssp falklandicus,,1,-60.55586815,-51.29133825,South America,Falkland Islands (Islas Malvinas),FK,,Falkland Islands - Carcass Island,2015-12-18,
Haematopus leucopodus,Animalia,OYSTERCATCHERS_HAEMATOPODIDAE,Magellanic Oystercatcher,,3,-60.5238151550293,-51.3097763061523,South America,Falkland Islands (Islas Malvinas),FK,,Falkland Islands - Carcass Island,2019-01-21,08:59
Spinus barbatus,Animalia,FINCHES_FRINGILLIDAE,Black-chinned Siskin,,2,-60.5244445800781,-51.310001373291,South America,Falkland Islands (Islas Malvinas),FK,,Falkland Islands - Carcass Island,2019-01-21,09:01
Melanodera melanodera melanodera,Animalia,TANAGERS_AND_ALLIES_THRAUPIDAE,White-bridled Finch ssp melanodera,,4,-60.5244102478027,-51.3099937438965,South America,Falkland Islands (Islas Malvinas),FK,,Falkland Islands - Carcass Island,2019-01-21,09:01
Chloephaga rubidiceps,Animalia,DUCKS_GEESE_AND_SWANS_ANATIDAE,Ruddy-headed Goose,,2,-60.5250129699707,-51.3101196289063,South America,Falkland Islands (Islas Malvinas),FK,,Falkland Islands - Carcass Island,2019-01-21,09:25
Tachyeres brachypterus,Animalia,DUCKS_GEESE_AND_SWANS_ANATIDAE,Falkland Steamer Duck,,4,-60.5282363891602,-51.3069114685059,South America,Falkland Islands (Islas Malvinas),FK,,Falkland Islands - Carcass Island,2019-01-21,10:11
Aptenodytes patagonicus,Animalia,PENGUINS_SPHENISCIDAE,King Penguin,,25,-60.2350006103516,-51.308723449707,South America,Falkland Islands (Islas Malvinas),FK,,Falkland Islands - Saunders Island,2019-01-21,14:14
Haematopus ater,Animalia,OYSTERCATCHERS_HAEMATOPODIDAE,Blackish Oystercatcher,,1,-60.2246017456055,-51.3080215454102,South America,Falkland Islands (Islas Malvinas),FK,,Falkland Islands - Saunders Island,2019-01-21,15:09
Chionis albus,Animalia,SHEATHBILLS_AND_ALLIES_CHIONIDAE,Snowy Sheathbill,,1,-60.2243385314941,-51.3080177307129,South America,Falkland Islands (Islas Malvinas),FK,,Falkland Islands - Saunders Island,2019-01-21,15:13
Phalcoboenus australis,Animalia,CARACAS_AND_FALCONS_FALCONIDAE,Striated Caracara,,16,-60.2314109802246,-51.3081130981445,South America,Falkland Islands (Islas Malvinas),FK,,Falkland Islands - Saunders Island,2019-01-21,16:42
Thalassarche melanophris,Animalia,ALBATROSSES_DIOMEDEIDAE,Black-browed Albatross,,40,-60.8701972961426,-51.4394836425781,South America,Falkland Islands (Islas Malvinas),FK,,Falkland Islands (Islas Malvinas),2018-12-05,05:40
Tachyeres brachypterus,Animalia,DUCKS_GEESE_AND_SWANS_ANATIDAE,Falkland Steamer Duck,,1,-60.677619934082,-51.3718185424805,South America,Falkland Islands (Islas Malvinas),FK,,Falkland Islands - West Point Island,2018-12-05,06:48
Pygoscelis papua,Animalia,PENGUINS_SPHENISCIDAE,Gentoo Penguin,,8,-60.6769104003906,-51.3704795837402,South America,Falkland Islands (Islas Malvinas),FK,,Falkland Islands - West Point Island,2018-12-05,06:49
Leucocarbo atriceps albiventer,Animalia,CORMORANTS_PHALACROCORACIDAE,Imperial Shag ssp albiventer,,4,-60.6765823364258,-51.3699607849121,South America,Falkland Islands (Islas Malvinas),FK,,Falkland Islands - West Point Island,2018-12-05,06:49
Spheniscus magellanicus,Animalia,PENGUINS_SPHENISCIDAE,Magellanic Penguin,,2,-60.6753997802734,-51.367977142334,South America,Falkland Islands (Islas Malvinas),FK,,Falkland Islands - West Point Island,2018-12-05,06:50
Leucocarbo atriceps albiventer,Animalia,CORMORANTS_PHALACROCORACIDAE,Imperial Shag ssp albiventer,,30,-60.6641273498535,-51.3554534912109,South America,Falkland Islands (Islas Malvinas),FK,,Falkland Islands - West Point Island,2018-12-05,06:56
Tachyeres brachypterus,Animalia,DUCKS_GEESE_AND_SWANS_ANATIDAE,Falkland Steamer Duck,,2,-60.6606483459473,-51.3535537719727,South America,Falkland Islands (Islas Malvinas),FK,,Falkland Islands - West Point Island,2018-12-05,06:58
Haematopus leucopodus,Animalia,OYSTERCATCHERS_HAEMATOPODIDAE,Magellanic Oystercatcher,,15,-60.6471290588379,-51.3324775695801,South America,Falkland Islands (Islas Malvinas),FK,,Falkland Islands - West Island,2018-12-05,07:16
Phalcoboenus australis,Animalia,CARACAS_AND_FALCONS_FALCONIDAE,Striated Caracara,,1,-60.6461715698242,-51.3323593139648,South America,Falkland Islands (Islas Malvinas),FK,,Falkland Islands - West Island,2018-12-05,07:17
Chloephaga rubidiceps,Animalia,DUCKS_GEESE_AND_SWANS_ANATIDAE,Ruddy-headed Goose,,2,-60.5291137695313,-51.3075714111328,South America,Falkland Islands (Islas Malvinas),FK,,Falkland Islands - Carcass Island,2018-12-05,08:53
Haematopus leucopodus,Animalia,OYSTERCATCHERS_HAEMATOPODIDAE,Magellanic Oystercatcher,,6,-60.5290145874023,-51.3074569702148,South America,Falkland Islands (Islas Malvinas),FK,,Falkland Islands - Carcass Island,2018-12-05,08:53
Spheniscus magellanicus,Animalia,PENGUINS_SPHENISCIDAE,Magellanic Penguin,,4,-60.5288391113281,-51.3071784973145,South America,Falkland Islands (Islas Malvinas),FK,,Falkland Islands - Carcass Island,2018-12-05,08:54
Cinclodes antarcticus,Animalia,OVENBIRDS_FURNARIIDAE,Blackish Cinclodes,,10,-60.5287475585938,-51.3071136474609,South America,Falkland Islands (Islas Malvinas),FK,,Falkland Islands - Carcass Island,2018-12-05,08:54
Turdus falcklandii,Animalia,THRUSHES_TURDIDAE,Austral Thrush,,1,-60.528247833252,-51.3075866699219,South America,Falkland Islands (Islas Malvinas),FK,,Falkland Islands - Carcass Island,2018-12-05,08:56
Melanodera melanodera melanodera,Animalia,TANAGERS_AND_ALLIES_THRAUPIDAE,White-bridled Finch ssp melanodera,,3,-60.5269012451172,-51.3079071044922,South America,Falkland Islands (Islas Malvinas),FK,,Falkland Islands - Carcass Island,2018-12-05,09:00
Chloephaga rubidiceps,Animalia,DUCKS_GEESE_AND_SWANS_ANATIDAE,Ruddy-headed Goose,,1,-60.5245628356934,-51.3089942932129,South America,Falkland Islands (Islas Malvinas),FK,,Falkland Islands - Carcass Island,2018-12-05,09:11
Spinus barbatus,Animalia,FINCHES_FRINGILLIDAE,Black-chinned Siskin,,2,-60.5254516601563,-51.3102951049805,South America,Falkland Islands (Islas Malvinas),FK,,Falkland Islands - Carcass Island,2018-12-05,09:25
Pygoscelis papua,Animalia,PENGUINS_SPHENISCIDAE,Gentoo Penguin,,100,-60.5254821777344,-51.3103065490723,South America,Falkland Islands (Islas Malvinas),FK,,Falkland Islands - Carcass Island,2018-12-05,09:27
Cinclodes antarcticus,Animalia,OVENBIRDS_FURNARIIDAE,Blackish Cinclodes,,6,-60.5296478271484,-51.2994804382324,South America,Falkland Islands (Islas Malvinas),FK,,Falkland Islands - Carcass Island,2018-12-05,10:40
Phalcoboenus australis,Animalia,CARACAS_AND_FALCONS_FALCONIDAE,Striated Caracara,,1,-60.5297393798828,-51.2993354797363,South America,Falkland Islands (Islas Malvinas),FK,,Falkland Islands - Carcass Island,2018-12-05,10:41
Phalcoboenus australis,Animalia,CARACAS_AND_FALCONS_FALCONIDAE,Striated Caracara,,2,-60.239128112793,-51.3083648681641,South America,Falkland Islands (Islas Malvinas),FK,,Falkland Islands - Saunders Island,2018-12-05,15:10
Aptenodytes patagonicus,Animalia,PENGUINS_SPHENISCIDAE,King Penguin,,2,-60.239128112793,-51.3083648681641,South America,Falkland Islands (Islas Malvinas),FK,,Falkland Islands - Saunders Island,2018-12-05,15:10
Pygoscelis papua,Animalia,PENGUINS_SPHENISCIDAE,Gentoo Penguin,,100,-60.239128112793,-51.3083648681641,South America,Falkland Islands (Islas Malvinas),FK,,Falkland Islands - Saunders Island,2018-12-05,15:10
Haematopus leucopodus,Animalia,OYSTERCATCHERS_HAEMATOPODIDAE,Magellanic Oystercatcher,,8,-60.239128112793,-51.3083648681641,South America,Falkland Islands (Islas Malvinas),FK,,Falkland Islands - Saunders Island,2018-12-05,15:10
Aptenodytes patagonicus,Animalia,PENGUINS_SPHENISCIDAE,King Penguin,,15,-60.2332572937012,-51.3080291748047,South America,Falkland Islands (Islas Malvinas),FK,,Falkland Islands - Saunders Island,2018-12-05,15:27
Chionis albus,Animalia,SHEATHBILLS_AND_ALLIES_CHIONIDAE,Snowy Sheathbill,,6,-60.225902557373,-51.3083915710449,South America,Falkland Islands (Islas Malvinas),FK,,Falkland Islands - Saunders Island,2018-12-05,15:53
Ardenna grisea,Animalia,PETRELS_AND_SHEARWATERS_PROCELLARIIDAE,Sooty Shearwater,,30,-57.6572952270508,-51.5637092590332,South America,Falkland Islands (Islas Malvinas),FK,,Falkland Islands (Islas Malvinas),2018-12-06,06:12
Ardenna grisea,Animalia,PETRELS_AND_SHEARWATERS_PROCELLARIIDAE,Sooty Shearwater,,8,-57.652717590332,-51.6300964355469,South America,Falkland Islands (Islas Malvinas),FK,,Falkland Islands (Islas Malvinas),2018-12-06,06:40
Leucocarbo atriceps albiventer,Animalia,CORMORANTS_PHALACROCORACIDAE,Imperial Shag ssp albiventer,,400,-57.7264938354492,-51.6562919616699,South America,Falkland Islands (Islas Malvinas),FK,,Falkland Islands (Islas Malvinas),2018-12-06,07:01
Spheniscus magellanicus,Animalia,PENGUINS_SPHENISCIDAE,Magellanic Penguin,,50,-57.72705078125,-51.6563682556152,South America,Falkland Islands (Islas Malvinas),FK,,Falkland Islands (Islas Malvinas),2018-12-06,07:02
Leucophaeus scoresbii,Animalia,GULLS_TERNS_AND_SKIMMERS_LARIDAE,Dolphin Gull,,9,-57.7347602844238,-51.6577606201172,South America,Falkland Islands (Islas Malvinas),FK,,Falkland Islands (Islas Malvinas),2018-12-06,07:04
Chroicocephalus maculipennis,Animalia,GULLS_TERNS_AND_SKIMMERS_LARIDAE,Brown-hooded Gull,,12,-57.7688751220703,-51.6640777587891,South America,Falkland Islands (Islas Malvinas),FK,,Falkland Islands (Islas Malvinas),2018-12-06,07:13
Chloephaga picta,Animalia,DUCKS_GEESE_AND_SWANS_ANATIDAE,Upland Goose,,3,-57.7693824768066,-51.6641464233398,South America,Falkland Islands (Islas Malvinas),FK,,Falkland Islands (Islas Malvinas),2018-12-06,07:13
Leucophaeus scoresbii,Animalia,GULLS_TERNS_AND_SKIMMERS_LARIDAE,Dolphin Gull,,2,-57.8590774536133,-51.6920318603516,South America,Falkland Islands (Islas Malvinas),FK,,Falkland Islands - Stanley,2018-12-06,09:16
Turdus falcklandii falcklandii,Animalia,THRUSHES_TURDIDAE,Austral Thrush ssp falcklandii,,2,-57.8098297119141,-51.6774368286133,South America,Falkland Islands (Islas Malvinas),FK,,Falkland Islands (Islas Malvinas),2018-12-06,10:22
Melanodera melanodera melanodera,Animalia,TANAGERS_AND_ALLIES_THRAUPIDAE,White-bridled Finch ssp melanodera,,2,-57.8091049194336,-51.677417755127,South America,Falkland Islands (Islas Malvinas),FK,,Falkland Islands (Islas Malvinas),2018-12-06,10:29
Charadrius falklandicus,Animalia,PLOVERS_CHARADRIIDAE,Two-banded Plover,,1,-57.8091049194336,-51.677417755127,South America,Falkland Islands (Islas Malvinas),FK,,Falkland Islands (Islas Malvinas),2018-12-06,10:29
Spheniscus magellanicus,Animalia,PENGUINS_SPHENISCIDAE,Magellanic Penguin,,60,-57.8090705871582,-51.6774063110352,South America,Falkland Islands (Islas Malvinas),FK,,Falkland Islands (Islas Malvinas),2018-12-06,10:30
Haematopus leucopodus,Animalia,OYSTERCATCHERS_HAEMATOPODIDAE,Magellanic Oystercatcher,,1,-57.8090667724609,-51.6774063110352,South America,Falkland Islands (Islas Malvinas),FK,,Falkland Islands (Islas Malvinas),2018-12-06,10:30
Chloephaga picta,Animalia,DUCKS_GEESE_AND_SWANS_ANATIDAE,Upland Goose,,8,-57.8096313476563,-51.6783218383789,South America,Falkland Islands (Islas Malvinas),FK,,Falkland Islands (Islas Malvinas),2018-12-06,11:12
Charadrius falklandicus,Animalia,PLOVERS_CHARADRIIDAE,Two-banded Plover,,4,-57.8098983764648,-51.6808319091797,South America,Falkland Islands (Islas Malvinas),FK,,Falkland Islands (Islas Malvinas),2018-12-06,11:29
Thalassarche melanophris,Animalia,ALBATROSSES_DIOMEDEIDAE,Black-browed Albatross,,1,-57.6222038269043,-51.6666603088379,South America,Falkland Islands (Islas Malvinas),FK,,Falkland Islands (Islas Malvinas),2018-12-06,14:03
Thalassarche melanophris,Animalia,ALBATROSSES_DIOMEDEIDAE,Black-browed Albatross,,4,-55.64659,-51.90943833,South America,Falkland Islands (Islas Malvinas),FK,,Falkland Islands (Islas Malvinas),2018-01-22,20:00
Diomedea exulans,Animalia,ALBATROSSES_DIOMEDEIDAE,Wandering Albatross,,1,-55.61127,-51.913345,South America,Falkland Islands (Islas Malvinas),FK,,Falkland Islands (Islas Malvinas),2018-01-22,20:07
Macronectes halli,Animalia,PETRELS_AND_SHEARWATERS_PROCELLARIIDAE,Northern Giant Petrel,,1,-55.652826666667,-51.90848,South America,Falkland Islands (Islas Malvinas),FK,,Falkland Islands (Islas Malvinas),2018-01-22,19:59
Lagenorhynchus obscurus fitzroyi,Animalia,DOLPHINS_DELPHINIDAE,South American Dusky Dolphin,,1,-57.582198333333,-51.673313333333,South America,Falkland Islands (Islas Malvinas),FK,,Falkland Islands (Islas Malvinas),2018-01-22,14:09
Stercorarius antarcticus antarcticus,Animalia,SKUAS_STERCORARIIDAE,Falkland Brown Skua,,1,-57.66999833,-51.66297333,South America,Falkland Islands (Islas Malvinas),FK,,Falkland Islands (Islas Malvinas),2018-01-22,13:53
Spheniscus magellanicus,Animalia,PENGUINS_SPHENISCIDAE,Magellanic Penguin,,10,-57.80697577,-51.6758315,South America,Falkland Islands (Islas Malvinas),FK,,Falkland Islands (Islas Malvinas),2018-01-22,06:56
Stercorarius antarcticus antarcticus,Animalia,SKUAS_STERCORARIIDAE,Falkland Brown Skua,,3,-57.74773167,-51.65997667,South America,Falkland Islands (Islas Malvinas),FK,,Falkland Islands (Islas Malvinas),2018-01-22,06:42
Leucocarbo atriceps albiventer,Animalia,CORMORANTS_PHALACROCORACIDAE,Imperial Shag ssp albiventer,,120,-57.74454167,-51.65938833,South America,Falkland Islands (Islas Malvinas),FK,,Falkland Islands (Islas Malvinas),2018-01-22,06:40
Leucocarbo atriceps albiventer,Animalia,CORMORANTS_PHALACROCORACIDAE,Imperial Shag ssp albiventer,,200,-57.72876664,-51.6731694,South America,Falkland Islands (Islas Malvinas),FK,,Falkland Islands (Islas Malvinas),2018-01-22,06:31
Chloephaga hybrida malvinarum,Animalia,DUCKS_GEESE_AND_SWANS_ANATIDAE,Kelp Goose ssp malvinarum,,1,-60.552178333333,-51.291891666667,South America,Falkland Islands (Islas Malvinas),FK,,Falkland Islands - Carcass Island,2018-01-21,09:58
Tachyeres brachypterus,Animalia,DUCKS_GEESE_AND_SWANS_ANATIDAE,Falkland Steamer Duck,,10,-60.55186501,-51.29236544,South America,Falkland Islands (Islas Malvinas),FK,,Falkland Islands - Carcass Island,2018-01-21,09:59
Lophonetta specularioides,Animalia,DUCKS_GEESE_AND_SWANS_ANATIDAE,Crested Duck,,1,-60.553628333333,-51.291946666667,South America,Falkland Islands (Islas Malvinas),FK,,Falkland Islands - Carcass Island,2018-01-21,09:45
Chloephaga hybrida malvinarum,Animalia,DUCKS_GEESE_AND_SWANS_ANATIDAE,Kelp Goose ssp malvinarum,,1,-60.55365318,-51.29213592,South America,Falkland Islands (Islas Malvinas),FK,,Falkland Islands - Carcass Island,2018-01-21,09:45
Chloephaga rubidiceps,Animalia,DUCKS_GEESE_AND_SWANS_ANATIDAE,Ruddy-headed Goose,,1,-60.55362833,-51.29194667,South America,Falkland Islands (Islas Malvinas),FK,,Falkland Islands - Carcass Island,2018-01-21,09:45
Cinclodes antarcticus,Animalia,OVENBIRDS_FURNARIIDAE,Blackish Cinclodes,,1,-60.555445,-51.292198333333,South America,Falkland Islands (Islas Malvinas),FK,,Falkland Islands - Carcass Island,2018-01-21,09:40
Haematopus leucopodus,Animalia,OYSTERCATCHERS_HAEMATOPODIDAE,Magellanic Oystercatcher,,40,-60.55613167,-51.29236833,South America,Falkland Islands (Islas Malvinas),FK,,Falkland Islands - Carcass Island,2018-01-21,09:38
Lophonetta specularioides,Animalia,DUCKS_GEESE_AND_SWANS_ANATIDAE,Crested Duck,,1,-60.5561751,-51.29237856,South America,Falkland Islands (Islas Malvinas),FK,,Falkland Islands - Carcass Island,2018-01-21,09:38
Phalcoboenus australis,Animalia,CARACAS_AND_FALCONS_FALCONIDAE,Striated Caracara,,1,-60.5561751,-51.29237856,South America,Falkland Islands (Islas Malvinas),FK,,Falkland Islands - Carcass Island,2018-01-21,09:36
Spheniscus magellanicus,Animalia,PENGUINS_SPHENISCIDAE,Magellanic Penguin,,1,-60.55661198,-51.2926376,South America,Falkland Islands (Islas Malvinas),FK,,Falkland Islands - Carcass Island,2018-01-21,09:34
Leucocarbo atriceps albiventer,Animalia,CORMORANTS_PHALACROCORACIDAE,Imperial Shag ssp albiventer,,1,-60.67091661,-51.34490484,South America,Falkland Islands (Islas Malvinas),FK,,Falkland Islands - West Point Island,2018-01-21,07:07
Leucocarbo atriceps albiventer,Animalia,CORMORANTS_PHALACROCORACIDAE,Imperial Shag ssp albiventer,,6,-60.66973416,-51.36033495,South America,Falkland Islands (Islas Malvinas),FK,,Falkland Islands - West Point Island,2018-01-21,07:01
Thalassarche melanophris,Animalia,ALBATROSSES_DIOMEDEIDAE,Black-browed Albatross,,50,-60.6991097,-51.37718558,South America,Falkland Islands (Islas Malvinas),FK,,Falkland Islands - West Point Island,2018-01-21,06:49
Nycticorax nycticorax falklandicus,Animalia,HERONS_ARDEIDAE,Black-crowned Night Heron ssp falklandicus,,1,-57.85608267,-51.69193532,South America,Falkland Islands (Islas Malvinas),FK,,Falkland Islands - Stanley,2018-01-22,12:22
Lagenorhynchus australis,Animalia,DOLPHINS_DELPHINIDAE,Peale's Dolphin,,8,-57.58682207,-51.67293094,South America,Falkland Islands (Islas Malvinas),FK,,Falkland Islands (Islas Malvinas),2018-01-22,14:08
Diomedea epomophora,Animalia,ALBATROSSES_DIOMEDEIDAE,Southern Royal Albatross,,2,-56.21440418,-51.84230127,South America,Falkland Islands (Islas Malvinas),FK,,Falkland Islands (Islas Malvinas),2018-01-22,18:15
Diomedea epomophora,Animalia,ALBATROSSES_DIOMEDEIDAE,Southern Royal Albatross,,17,-55.46202134,-51.93044167,South America,Falkland Islands (Islas Malvinas),FK,,Falkland Islands (Islas Malvinas),2018-01-22,20:34
Diomedea exulans,Animalia,ALBATROSSES_DIOMEDEIDAE,Wandering Albatross,,1,-55.4611622,-51.93050909,South America,Falkland Islands (Islas Malvinas),FK,,Falkland Islands (Islas Malvinas),2018-01-22,20:34
Leucophaeus scoresbii,Animalia,GULLS_TERNS_AND_SKIMMERS_LARIDAE,Dolphin Gull,,1,-57.87136273,-51.69131782,South America,Falkland Islands (Islas Malvinas),FK,,Falkland Islands - Stanley,2018-01-22,10:06
Chloephaga picta,Animalia,DUCKS_GEESE_AND_SWANS_ANATIDAE,Upland Goose,,2,-57.88120275,-51.69180039,South America,Falkland Islands (Islas Malvinas),FK,,Falkland Islands - Stanley,2018-01-22,10:22
Diomedea epomophora,Animalia,ALBATROSSES_DIOMEDEIDAE,Southern Royal Albatross,,1,-63.06564114,-53.13783444,South America,Falkland Islands (Islas Malvinas),FK,,Falkland Islands (Islas Malvinas),2018-01-20,15:37
Thalassarche melanophris,Animalia,ALBATROSSES_DIOMEDEIDAE,Black-browed Albatross,,10,-60.78853097,-51.41416266,South America,Falkland Islands (Islas Malvinas),FK,,Falkland Islands (Islas Malvinas),2018-01-21,06:05
Eudyptes chrysocome chrysocome,Animalia,PENGUINS_SPHENISCIDAE,Southern Rockhopper Penguin ssp chrysocome,,35,-60.69359519,-51.38499992,South America,Falkland Islands (Islas Malvinas),FK,,Falkland Islands - West Point Island,2018-01-21,06:49
Leucocarbo atriceps albiventer,Animalia,CORMORANTS_PHALACROCORACIDAE,Imperial Shag ssp albiventer,,1,-60.68094878,-51.37574697,South America,Falkland Islands (Islas Malvinas),FK,,Falkland Islands - West Point Island,2018-01-21,06:54
Chloephaga picta,Animalia,DUCKS_GEESE_AND_SWANS_ANATIDAE,Upland Goose,,10,-60.66973416,-51.36033495,South America,Falkland Islands (Islas Malvinas),FK,,Falkland Islands - West Point Island,2018-01-21,07:00
Spheniscus magellanicus,Animalia,PENGUINS_SPHENISCIDAE,Magellanic Penguin,,20,-60.6645534,-51.35179618,South America,Falkland Islands (Islas Malvinas),FK,,Falkland Islands - West Point Island,2018-01-21,07:04
Tachyeres brachypterus,Animalia,DUCKS_GEESE_AND_SWANS_ANATIDAE,Falkland Steamer Duck,,6,-60.66501771,-51.3461539,South America,Falkland Islands (Islas Malvinas),FK,,Falkland Islands - West Point Island,2018-01-21,07:07
Phalacrocorax magellanicus,Animalia,CORMORANTS_PHALACROCORACIDAE,Rock Shag,,2,-60.67091661,-51.34490484,South America,Falkland Islands (Islas Malvinas),FK,,Falkland Islands - West Point Island,2018-01-21,07:08
Pygoscelis papua,Animalia,PENGUINS_SPHENISCIDAE,Gentoo Penguin,,6,-60.67164977,-51.3401788,South America,Falkland Islands (Islas Malvinas),FK,,Falkland Islands - West Island,2018-01-21,07:10
Pygoscelis papua,Animalia,PENGUINS_SPHENISCIDAE,Gentoo Penguin,,400,-60.64248075,-51.34386499,South America,Falkland Islands (Islas Malvinas),FK,,Falkland Islands - West Island,2018-01-21,07:19
Thalassarche melanophris,Animalia,ALBATROSSES_DIOMEDEIDAE,Black-browed Albatross,,4,-60.63535222,-51.33161559,South America,Falkland Islands (Islas Malvinas),FK,,Falkland Islands - West Island,2018-01-21,07:19
Haematopus ater,Animalia,OYSTERCATCHERS_HAEMATOPODIDAE,Blackish Oystercatcher,,1,-60.55617675,-51.29545355,South America,Falkland Islands (Islas Malvinas),FK,,Falkland Islands - Carcass Island,2018-01-21,09:19
Haematopus leucopodus,Animalia,OYSTERCATCHERS_HAEMATOPODIDAE,Magellanic Oystercatcher,,2,-60.55624628,-51.29540802,South America,Falkland Islands (Islas Malvinas),FK,,Falkland Islands - Carcass Island,2018-01-21,09:19
Phalcoboenus australis,Animalia,CARACAS_AND_FALCONS_FALCONIDAE,Striated Caracara,,2,-60.55715334,-51.29435413,South America,Falkland Islands (Islas Malvinas),FK,,Falkland Islands - Carcass Island,2018-01-21,09:27
Spinus barbatus,Animalia,FINCHES_FRINGILLIDAE,Black-chinned Siskin,,25,-60.55711076,-51.29382456,South America,Falkland Islands (Islas Malvinas),FK,,Falkland Islands - Carcass Island,2018-01-21,09:28
Cinclodes antarcticus,Animalia,OVENBIRDS_FURNARIIDAE,Blackish Cinclodes,,3,-60.55711093,-51.29283997,South America,Falkland Islands (Islas Malvinas),FK,,Falkland Islands - Carcass Island,2018-01-21,09:31
Troglodytes cobbi,Animalia,WRENS_TROGLODYTIDAE,Cobb's Wren,,1,-60.55238026,-51.29195629,South America,Falkland Islands (Islas Malvinas),FK,,Falkland Islands - Carcass Island,2018-01-21,09:53
Tachyeres brachypterus,Animalia,DUCKS_GEESE_AND_SWANS_ANATIDAE,Falkland Steamer Duck,,2,-60.55097738,-51.29181513,South America,Falkland Islands (Islas Malvinas),FK,,Falkland Islands - Carcass Island,2018-01-21,10:01
Troglodytes cobbi,Animalia,WRENS_TROGLODYTIDAE,Cobb's Wren,,4,-60.55064305,-51.29184924,South America,Falkland Islands (Islas Malvinas),FK,,Falkland Islands - Carcass Island,2018-01-21,10:21
Chloephaga hybrida malvinarum,Animalia,DUCKS_GEESE_AND_SWANS_ANATIDAE,Kelp Goose ssp malvinarum,,2,-60.55064232,-51.2918482,South America,Falkland Islands (Islas Malvinas),FK,,Falkland Islands - Carcass Island,2018-01-21,10:22
Spheniscus magellanicus,Animalia,PENGUINS_SPHENISCIDAE,Magellanic Penguin,,1,-60.55204312,-51.29180933,South America,Falkland Islands (Islas Malvinas),FK,,Falkland Islands - Carcass Island,2018-01-21,11:09
Larus dominicanus,Animalia,GULLS_TERNS_AND_SKIMMERS_LARIDAE,Kelp Gull,,4,-60.55583692,-51.29531349,South America,Falkland Islands (Islas Malvinas),FK,,Falkland Islands - Carcass Island,2018-01-21,11:55
Pygoscelis papua,Animalia,PENGUINS_SPHENISCIDAE,Gentoo Penguin,,5,-60.36670846,-51.33449298,South America,Falkland Islands (Islas Malvinas),FK,,Falkland Islands (Islas Malvinas),2018-01-21,13:43
Leucophaeus scoresbii,Animalia,GULLS_TERNS_AND_SKIMMERS_LARIDAE,Dolphin Gull,,1,-60.23829471,-51.30850483,South America,Falkland Islands (Islas Malvinas),FK,,Falkland Islands - Saunders Island,2018-01-21,15:14
Aptenodytes patagonicus,Animalia,PENGUINS_SPHENISCIDAE,King Penguin,,19,-60.23425186,-51.30811572,South America,Falkland Islands (Islas Malvinas),FK,,Falkland Islands - Saunders Island,2018-01-21,15:25
Chionis albus,Animalia,SHEATHBILLS_AND_ALLIES_CHIONIDAE,Snowy Sheathbill,,4,-60.22341109,-51.30783101,South America,Falkland Islands (Islas Malvinas),FK,,Falkland Islands - Saunders Island,2018-01-21,16:34
Aptenodytes patagonicus,Animalia,PENGUINS_SPHENISCIDAE,King Penguin,,2,-60.231172,-51.30690142,South America,Falkland Islands (Islas Malvinas),FK,,Falkland Islands - Saunders Island,2018-01-21,17:01
Haematopus leucopodus,Animalia,OYSTERCATCHERS_HAEMATOPODIDAE,Magellanic Oystercatcher,,2,-60.23113031,-51.30693558,South America,Falkland Islands (Islas Malvinas),FK,,Falkland Islands - Saunders Island,2018-01-21,17:09
Ardenna grisea,Animalia,PETRELS_AND_SHEARWATERS_PROCELLARIIDAE,Sooty Shearwater,,6,-57.6540766,-51.60212096,South America,Falkland Islands (Islas Malvinas),FK,,Falkland Islands (Islas Malvinas),2018-01-22,05:52
Lagenorhynchus obscurus fitzroyi,Animalia,DOLPHINS_DELPHINIDAE,South American Dusky Dolphin,,3,-57.65240201,-51.62315102,South America,Falkland Islands (Islas Malvinas),FK,,Falkland Islands (Islas Malvinas),2018-01-22,06:02
Ardenna grisea,Animalia,PETRELS_AND_SHEARWATERS_PROCELLARIIDAE,Sooty Shearwater,,22,-57.6537981,-51.63134682,South America,Falkland Islands (Islas Malvinas),FK,,Falkland Islands (Islas Malvinas),2018-01-22,06:06
Spheniscus magellanicus,Animalia,PENGUINS_SPHENISCIDAE,Magellanic Penguin,,3,-57.67721725,-51.64683385,South America,Falkland Islands (Islas Malvinas),FK,,Falkland Islands (Islas Malvinas),2018-01-22,06:18
Ardenna grisea,Animalia,PETRELS_AND_SHEARWATERS_PROCELLARIIDAE,Sooty Shearwater,,350,-57.67776471,-51.6469494,South America,Falkland Islands (Islas Malvinas),FK,,Falkland Islands (Islas Malvinas),2018-01-22,06:18
Chroicocephalus maculipennis,Animalia,GULLS_TERNS_AND_SKIMMERS_LARIDAE,Brown-hooded Gull,,1,-57.73616069,-51.65756305,South America,Falkland Islands (Islas Malvinas),FK,,Falkland Islands (Islas Malvinas),2018-01-22,06:37
Leucophaeus scoresbii,Animalia,GULLS_TERNS_AND_SKIMMERS_LARIDAE,Dolphin Gull,,1,-57.73988359,-51.65833494,South America,Falkland Islands (Islas Malvinas),FK,,Falkland Islands (Islas Malvinas),2018-01-22,06:39
Chroicocephalus maculipennis,Animalia,GULLS_TERNS_AND_SKIMMERS_LARIDAE,Brown-hooded Gull,,1,-57.74307986,-51.6590743,South America,Falkland Islands (Islas Malvinas),FK,,Falkland Islands (Islas Malvinas),2018-01-22,06:40
Tachyeres brachypterus,Animalia,DUCKS_GEESE_AND_SWANS_ANATIDAE,Falkland Steamer Duck,,4,-57.7896053,-51.66704084,South America,Falkland Islands (Islas Malvinas),FK,,Falkland Islands (Islas Malvinas),2018-01-22,06:52
Tachyeres brachypterus,Animalia,DUCKS_GEESE_AND_SWANS_ANATIDAE,Falkland Steamer Duck,,28,-57.79225823,-51.66733763,South America,Falkland Islands (Islas Malvinas),FK,,Falkland Islands (Islas Malvinas),2018-01-22,06:53
Chloephaga picta,Animalia,DUCKS_GEESE_AND_SWANS_ANATIDAE,Upland Goose,,3,-57.82907469,-51.68115704,South America,Falkland Islands (Islas Malvinas),FK,,Falkland Islands (Islas Malvinas),2018-01-22,07:05
Tachyeres brachypterus,Animalia,DUCKS_GEESE_AND_SWANS_ANATIDAE,Falkland Steamer Duck,,6,-57.82915527,-51.681561,South America,Falkland Islands (Islas Malvinas),FK,,Falkland Islands - Stanley,2018-01-22,07:05
Tachyeres brachypterus,Animalia,DUCKS_GEESE_AND_SWANS_ANATIDAE,Falkland Steamer Duck,,35,-57.83579044,-51.68697646,South America,Falkland Islands (Islas Malvinas),FK,,Falkland Islands - Stanley,2018-01-22,07:10
Tachyeres brachypterus,Animalia,DUCKS_GEESE_AND_SWANS_ANATIDAE,Falkland Steamer Duck,,1,-57.8564,-51.6919,South America,Falkland Islands (Islas Malvinas),FK,,Falkland Islands - Stanley,2017-12-19,12:12
Cathartes aura,Animalia,NEW_WORLD_VULTURES_CATHARTIDAE,Turkey Vulture,,1,-57.8563,-51.692,South America,Falkland Islands (Islas Malvinas),FK,,Falkland Islands - Stanley,2017-12-19,12:12
Nycticorax nycticorax falklandicus,Animalia,HERONS_ARDEIDAE,Black-crowned Night Heron ssp falklandicus,,1,-57.8563,-51.692,South America,Falkland Islands (Islas Malvinas),FK,,Falkland Islands - Stanley,2017-12-19,12:11
Larus dominicanus,Animalia,GULLS_TERNS_AND_SKIMMERS_LARIDAE,Kelp Gull,,1,-60.55572331,-51.29195551,South America,Falkland Islands (Islas Malvinas),FK,,Falkland Islands - Carcass Island,2017-12-18,18:54
Spheniscus magellanicus,Animalia,PENGUINS_SPHENISCIDAE,Magellanic Penguin,,1,-60.55446267,-51.29171397,South America,Falkland Islands (Islas Malvinas),FK,,Falkland Islands - Carcass Island,2017-12-18,18:53
Spinus barbatus,Animalia,FINCHES_FRINGILLIDAE,Black-chinned Siskin,,1,-60.55681229,-51.29477333,South America,Falkland Islands (Islas Malvinas),FK,,Falkland Islands - Carcass Island,2017-12-18,18:51
Melanodera melanodera melanodera,Animalia,TANAGERS_AND_ALLIES_THRAUPIDAE,White-bridled Finch ssp melanodera,,1,-60.52802682,-51.30416481,South America,Falkland Islands (Islas Malvinas),FK,,Falkland Islands - Carcass Island,2017-12-18,18:51
Cinclodes antarcticus,Animalia,OVENBIRDS_FURNARIIDAE,Blackish Cinclodes,,1,-60.5556462,-51.29218027,South America,Falkland Islands (Islas Malvinas),FK,,Falkland Islands - Carcass Island,2017-12-18,18:51
Phalcoboenus australis,Animalia,CARACAS_AND_FALCONS_FALCONIDAE,Striated Caracara,,1,-60.55583864,-51.29170055,South America,Falkland Islands (Islas Malvinas),FK,,Falkland Islands - Carcass Island,2017-12-18,18:51
Chloephaga rubidiceps,Animalia,DUCKS_GEESE_AND_SWANS_ANATIDAE,Ruddy-headed Goose,,1,-60.52528024,-51.30888666,South America,Falkland Islands (Islas Malvinas),FK,,Falkland Islands - Carcass Island,2017-12-18,18:50
Thalassarche melanophris,Animalia,ALBATROSSES_DIOMEDEIDAE,Black-browed Albatross,,1,-60.0736,-51.3024,South America,Falkland Islands (Islas Malvinas),FK,,Falkland Islands - Saunders Island,2017-12-18,18:48
Ardenna gravis,Animalia,PETRELS_AND_SHEARWATERS_PROCELLARIIDAE,Great Shearwater,,1,-63.4572,-53.4869,South America,Falkland Islands (Islas Malvinas),FK,,Falkland Islands (Islas Malvinas),2017-12-17,11:57
Charadrius falklandicus,Animalia,PLOVERS_CHARADRIIDAE,Two-banded Plover,,1,-57.8382942080498,-51.4770509350466,South America,Falkland Islands (Islas Malvinas),FK,,Falkland Islands (Islas Malvinas),2017-01-08,11:16
Macronectes halli,Animalia,PETRELS_AND_SHEARWATERS_PROCELLARIIDAE,Northern Giant Petrel,,1,-57.8382942080498,-51.4770509350466,South America,Falkland Islands (Islas Malvinas),FK,,Falkland Islands (Islas Malvinas),2017-01-08,11:21
Haematopus ater,Animalia,OYSTERCATCHERS_HAEMATOPODIDAE,Blackish Oystercatcher,,1,-57.83118464,-51.69433315,South America,Falkland Islands (Islas Malvinas),FK,,Falkland Islands (Islas Malvinas),2017-01-07,17:41
Cathartes aura,Animalia,NEW_WORLD_VULTURES_CATHARTIDAE,Turkey Vulture,,2,-57.83117803,-51.69432552,South America,Falkland Islands (Islas Malvinas),FK,,Falkland Islands (Islas Malvinas),2017-01-07,17:42
Cathartes aura,Animalia,NEW_WORLD_VULTURES_CATHARTIDAE,Turkey Vulture,,1,-57.80137886,-51.69321199,South America,Falkland Islands (Islas Malvinas),FK,,Falkland Islands (Islas Malvinas),2017-01-09,09:57
Thalassarche melanophris,Animalia,ALBATROSSES_DIOMEDEIDAE,Black-browed Albatross,,1,-60.71247278,-51.34930772,South America,Falkland Islands (Islas Malvinas),FK,,Falkland Islands - West Island,2017-01-10,15:10
Eudyptes chrysocome,Animalia,PENGUINS_SPHENISCIDAE,Southern Rockhopper Penguin,,1,-60.71245207,-51.3493028,South America,Falkland Islands (Islas Malvinas),FK,,Falkland Islands - West Island,2017-01-10,15:10
Cinclodes antarcticus,Animalia,OVENBIRDS_FURNARIIDAE,Blackish Cinclodes,,1,-60.54822213,-51.27670608,South America,Falkland Islands (Islas Malvinas),FK,,Falkland Islands - Carcass Island,2017-01-11,10:10
Phalcoboenus australis,Animalia,CARACAS_AND_FALCONS_FALCONIDAE,Striated Caracara,,1,-60.57969506,-51.25826538,South America,Falkland Islands (Islas Malvinas),FK,,Falkland Islands - Carcass Island,2017-01-11,12:32
Mirounga leonina,Animalia,SEALS_PHOCIDAE,Southern Elephant Seal,,1,-60.60066368,-51.26426626,South America,Falkland Islands (Islas Malvinas),FK,,Falkland Islands - Carcass Island,2017-01-11,13:39
Phalcoboenus australis,Animalia,CARACAS_AND_FALCONS_FALCONIDAE,Striated Caracara,,1,-60.24893815,-51.30067625,South America,Falkland Islands (Islas Malvinas),FK,,Falkland Islands - Saunders Island,2017-01-15,15:22
Tachyeres brachypterus,Animalia,DUCKS_GEESE_AND_SWANS_ANATIDAE,Falkland Steamer Duck,,1,-60.24893625,-51.30067629,South America,Falkland Islands (Islas Malvinas),FK,,Falkland Islands - Saunders Island,2017-01-15,15:23
Pygoscelis papua,Animalia,PENGUINS_SPHENISCIDAE,Gentoo Penguin,,1,-60.23530655,-51.30513337,South America,Falkland Islands (Islas Malvinas),FK,,Falkland Islands - Saunders Island,2017-01-15,18:06
Mirounga leonina,Animalia,SEALS_PHOCIDAE,Southern Elephant Seal,,1,-60.31147433,-51.26983593,South America,Falkland Islands (Islas Malvinas),FK,,Falkland Islands - Saunders Island,2017-01-16,11:07
Thalassarche melanophris,Animalia,ALBATROSSES_DIOMEDEIDAE,Black-browed Albatross,,1,-60.31966592,-51.26906349,South America,Falkland Islands (Islas Malvinas),FK,,Falkland Islands - Saunders Island,2017-01-16,11:18
Eudyptes chrysocome,Animalia,PENGUINS_SPHENISCIDAE,Southern Rockhopper Penguin,,1,-60.31966623,-51.26906355,South America,Falkland Islands (Islas Malvinas),FK,,Falkland Islands - Saunders Island,2017-01-16,11:19
Mirounga leonina,Animalia,SEALS_PHOCIDAE,Southern Elephant Seal,,15,-60.32085159,-51.26667626,South America,Falkland Islands (Islas Malvinas),FK,,Falkland Islands - Saunders Island,2017-01-16,11:35
Mirounga leonina,Animalia,SEALS_PHOCIDAE,Southern Elephant Seal,,7,-60.32255237,-51.26459943,South America,Falkland Islands (Islas Malvinas),FK,,Falkland Islands - Saunders Island,2017-01-16,11:48
Haematopus leucopodus,Animalia,OYSTERCATCHERS_HAEMATOPODIDAE,Magellanic Oystercatcher,,1,-60.32313842,-51.26423519,South America,Falkland Islands (Islas Malvinas),FK,,Falkland Islands - Saunders Island,2017-01-16,11:50
Haematopus ater,Animalia,OYSTERCATCHERS_HAEMATOPODIDAE,Blackish Oystercatcher,,3,-60.32353606,-51.26417638,South America,Falkland Islands (Islas Malvinas),FK,,Falkland Islands - Saunders Island,2017-01-16,11:51
Mirounga leonina,Animalia,SEALS_PHOCIDAE,Southern Elephant Seal,,6,-60.32427485,-51.2633881,South America,Falkland Islands (Islas Malvinas),FK,,Falkland Islands - Saunders Island,2017-01-16,11:56
Tachyeres brachypterus,Animalia,DUCKS_GEESE_AND_SWANS_ANATIDAE,Falkland Steamer Duck,,2,-60.32328055,-51.26325873,South America,Falkland Islands (Islas Malvinas),FK,,Falkland Islands - Saunders Island,2017-01-16,12:00
Leucophaeus scoresbii,Animalia,GULLS_TERNS_AND_SKIMMERS_LARIDAE,Dolphin Gull,,1,-60.32328107,-51.26325874,South America,Falkland Islands (Islas Malvinas),FK,,Falkland Islands - Saunders Island,2017-01-16,12:01
Mirounga leonina,Animalia,SEALS_PHOCIDAE,Southern Elephant Seal,,25,-60.32073739,-51.26409229,South America,Falkland Islands (Islas Malvinas),FK,,Falkland Islands - Saunders Island,2017-01-16,12:19
Mirounga leonina,Animalia,SEALS_PHOCIDAE,Southern Elephant Seal,,5,-60.31708458,-51.26681323,South America,Falkland Islands (Islas Malvinas),FK,,Falkland Islands - Saunders Island,2017-01-16,12:30
Mirounga leonina,Animalia,SEALS_PHOCIDAE,Southern Elephant Seal,,2,-60.31450718,-51.26789917,South America,Falkland Islands (Islas Malvinas),FK,,Falkland Islands - Saunders Island,2017-01-16,13:04
Phalcoboenus australis,Animalia,CARACAS_AND_FALCONS_FALCONIDAE,Striated Caracara,,1,-60.26114028,-51.28634926,South America,Falkland Islands (Islas Malvinas),FK,,Falkland Islands - Saunders Island,2017-01-16,15:24
Phalcoboenus australis,Animalia,CARACAS_AND_FALCONS_FALCONIDAE,Striated Caracara,,1,-60.2526971,-51.29760378,South America,Falkland Islands (Islas Malvinas),FK,,Falkland Islands - Saunders Island,2017-01-16,15:46
Phalcoboenus australis,Animalia,CARACAS_AND_FALCONS_FALCONIDAE,Striated Caracara,,1,-60.25265208,-51.29785193,South America,Falkland Islands (Islas Malvinas),FK,,Falkland Islands - Saunders Island,2017-01-16,15:48
Leucophaeus scoresbii,Animalia,GULLS_TERNS_AND_SKIMMERS_LARIDAE,Dolphin Gull,,1,-60.24192579,-51.30395476,South America,Falkland Islands (Islas Malvinas),FK,,Falkland Islands - Saunders Island,2017-01-17,12:32
Thalassarche melanophris,Animalia,ALBATROSSES_DIOMEDEIDAE,Black-browed Albatross,,1,-60.21977621,-51.30807972,South America,Falkland Islands (Islas Malvinas),FK,,Falkland Islands - Saunders Island,2017-01-17,16:32
Eudyptes chrysocome,Animalia,PENGUINS_SPHENISCIDAE,Southern Rockhopper Penguin,,1,-60.21977215,-51.30808422,South America,Falkland Islands (Islas Malvinas),FK,,Falkland Islands - Saunders Island,2017-01-17,16:32
Chionis albus,Animalia,SHEATHBILLS_AND_ALLIES_CHIONIDAE,Snowy Sheathbill,,2,-60.22663675,-51.30735129,South America,Falkland Islands (Islas Malvinas),FK,,Falkland Islands - Saunders Island,2017-01-17,17:55
Phalcoboenus australis,Animalia,CARACAS_AND_FALCONS_FALCONIDAE,Striated Caracara,,1,-60.22684497,-51.30816873,South America,Falkland Islands (Islas Malvinas),FK,,Falkland Islands - Saunders Island,2017-01-17,18:44
Thalassarche melanophris,Animalia,ALBATROSSES_DIOMEDEIDAE,Black-browed Albatross,,200,-60.2231484,-51.30759145,South America,Falkland Islands (Islas Malvinas),FK,,Falkland Islands - Saunders Island,2017-01-18,10:28
Aptenodytes patagonicus,Animalia,PENGUINS_SPHENISCIDAE,King Penguin,,22,-60.23295749,-51.30836177,South America,Falkland Islands (Islas Malvinas),FK,,Falkland Islands - Saunders Island,2017-01-18,18:58
Mirounga leonina,Animalia,SEALS_PHOCIDAE,Southern Elephant Seal,,17,-59.07472469,-52.43116526,South America,Falkland Islands (Islas Malvinas),FK,,Falkland Islands - Sea Lion Islands,2017-01-19,17:30
Pelecanoides urinatrix,Animalia,PETRELS_AND_SHEARWATERS_PROCELLARIIDAE,Common Diving Petrel,,4,-60.73308582,-51.24143744,South America,Falkland Islands (Islas Malvinas),FK,,Falkland Islands (Islas Malvinas),2017-01-04,17:35
Pelecanoides urinatrix,Animalia,PETRELS_AND_SHEARWATERS_PROCELLARIIDAE,Common Diving Petrel,,5,-60.75206703,-51.23514491,South America,Falkland Islands (Islas Malvinas),FK,,Falkland Islands (Islas Malvinas),2017-01-04,17:39
Pachyptila belcheri,Animalia,PETRELS_AND_SHEARWATERS_PROCELLARIIDAE,Slender-billed Prion,,4,-60.75315686,-51.23477236,South America,Falkland Islands (Islas Malvinas),FK,,Falkland Islands (Islas Malvinas),2017-01-04,17:39
Pelecanoides urinatrix,Animalia,PETRELS_AND_SHEARWATERS_PROCELLARIIDAE,Common Diving Petrel,,25,-60.80897915,-51.21587676,South America,Falkland Islands (Islas Malvinas),FK,,Falkland Islands (Islas Malvinas),2017-01-04,17:49
Pelecanoides urinatrix,Animalia,PETRELS_AND_SHEARWATERS_PROCELLARIIDAE,Common Diving Petrel,,4,-60.88326626,-51.22134145,South America,Falkland Islands (Islas Malvinas),FK,,Falkland Islands (Islas Malvinas),2017-01-04,18:02
Melanodera melanodera melanodera,Animalia,TANAGERS_AND_ALLIES_THRAUPIDAE,White-bridled Finch ssp melanodera,,2,-60.5236005,-51.30557031,South America,Falkland Islands (Islas Malvinas),FK,,Falkland Islands - Carcass Island,2017-01-04,13:29
Phalcoboenus australis,Animalia,CARACAS_AND_FALCONS_FALCONIDAE,Striated Caracara,,2,-60.53321045,-51.29725296,South America,Falkland Islands (Islas Malvinas),FK,,Falkland Islands - Carcass Island,2017-01-04,14:02
Haematopus leucopodus,Animalia,OYSTERCATCHERS_HAEMATOPODIDAE,Magellanic Oystercatcher,,8,-60.54522155,-51.2925054,South America,Falkland Islands (Islas Malvinas),FK,,Falkland Islands - Carcass Island,2017-01-04,14:29
Haematopus ater,Animalia,OYSTERCATCHERS_HAEMATOPODIDAE,Blackish Oystercatcher,,2,-60.54521907,-51.29253394,South America,Falkland Islands (Islas Malvinas),FK,,Falkland Islands - Carcass Island,2017-01-04,14:29
Phalcoboenus australis,Animalia,CARACAS_AND_FALCONS_FALCONIDAE,Striated Caracara,,1,-60.54522265,-51.29253837,South America,Falkland Islands (Islas Malvinas),FK,,Falkland Islands - Carcass Island,2017-01-04,14:30
Spinus barbatus,Animalia,FINCHES_FRINGILLIDAE,Black-chinned Siskin,,9,-60.55147404,-51.29109659,South America,Falkland Islands (Islas Malvinas),FK,,Falkland Islands - Carcass Island,2017-01-04,14:40
Phalcoboenus australis,Animalia,CARACAS_AND_FALCONS_FALCONIDAE,Striated Caracara,,4,-60.55417722,-51.29136167,South America,Falkland Islands (Islas Malvinas),FK,,Falkland Islands - Carcass Island,2017-01-04,14:45
Larus dominicanus,Animalia,GULLS_TERNS_AND_SKIMMERS_LARIDAE,Kelp Gull,,10,-60.55566763,-51.29212723,South America,Falkland Islands (Islas Malvinas),FK,,Falkland Islands - Carcass Island,2017-01-04,15:16
Tachyeres brachypterus,Animalia,DUCKS_GEESE_AND_SWANS_ANATIDAE,Falkland Steamer Duck,,15,-60.55570111,-51.29215167,South America,Falkland Islands (Islas Malvinas),FK,,Falkland Islands - Carcass Island,2017-01-04,15:17
Haematopus ater,Animalia,OYSTERCATCHERS_HAEMATOPODIDAE,Blackish Oystercatcher,,2,-60.55708982,-51.29379761,South America,Falkland Islands (Islas Malvinas),FK,,Falkland Islands - Carcass Island,2017-01-04,15:26
Phalcoboenus australis,Animalia,CARACAS_AND_FALCONS_FALCONIDAE,Striated Caracara,,3,-60.52953142,-51.30797623,South America,Falkland Islands (Islas Malvinas),FK,,Falkland Islands - Carcass Island,2017-01-04,11:46
Melanodera melanodera melanodera,Animalia,TANAGERS_AND_ALLIES_THRAUPIDAE,White-bridled Finch ssp melanodera,,3,-60.52543571,-51.30855175,South America,Falkland Islands (Islas Malvinas),FK,,Falkland Islands - Carcass Island,2017-01-04,12:06
Melanodera melanodera melanodera,Animalia,TANAGERS_AND_ALLIES_THRAUPIDAE,White-bridled Finch ssp melanodera,,6,-60.52461434,-51.30894688,South America,Falkland Islands (Islas Malvinas),FK,,Falkland Islands - Carcass Island,2017-01-04,12:12
Chloephaga rubidiceps,Animalia,DUCKS_GEESE_AND_SWANS_ANATIDAE,Ruddy-headed Goose,,14,-60.52406717,-51.30908492,South America,Falkland Islands (Islas Malvinas),FK,,Falkland Islands - Carcass Island,2017-01-04,12:17
Haematopus leucopodus,Animalia,OYSTERCATCHERS_HAEMATOPODIDAE,Magellanic Oystercatcher,,2,-60.52185295,-51.30942856,South America,Falkland Islands (Islas Malvinas),FK,,Falkland Islands - Carcass Island,2017-01-04,12:34
Pygoscelis papua,Animalia,PENGUINS_SPHENISCIDAE,Gentoo Penguin,,7,-60.52168957,-51.30937739,South America,Falkland Islands (Islas Malvinas),FK,,Falkland Islands - Carcass Island,2017-01-04,12:36
Chloephaga rubidiceps,Animalia,DUCKS_GEESE_AND_SWANS_ANATIDAE,Ruddy-headed Goose,,1,-60.52182592,-51.3094169,South America,Falkland Islands (Islas Malvinas),FK,,Falkland Islands - Carcass Island,2017-01-04,12:41
Macronectes giganteus,Animalia,PETRELS_AND_SHEARWATERS_PROCELLARIIDAE,Southern Giant Petrel,,3,-60.52360079,-51.30557037,South America,Falkland Islands (Islas Malvinas),FK,,Falkland Islands - Carcass Island,2017-01-04,13:29
Haematopus ater,Animalia,OYSTERCATCHERS_HAEMATOPODIDAE,Blackish Oystercatcher,,3,-61.3001995,-51.72300612,South America,Falkland Islands (Islas Malvinas),FK,,Falkland Islands (Islas Malvinas),2017-01-03,15:42
Cinclodes antarcticus,Animalia,OVENBIRDS_FURNARIIDAE,Blackish Cinclodes,,1,-60.5858318,-51.2985905,South America,Falkland Islands (Islas Malvinas),FK,,Falkland Islands - Carcass Island,2017-01-04,07:34
Spheniscus magellanicus,Animalia,PENGUINS_SPHENISCIDAE,Magellanic Penguin,,7,-60.58559343,-51.2987549,South America,Falkland Islands (Islas Malvinas),FK,,Falkland Islands - Carcass Island,2017-01-04,07:35
Pygoscelis papua,Animalia,PENGUINS_SPHENISCIDAE,Gentoo Penguin,,2,-60.57410564,-51.3023715,South America,Falkland Islands (Islas Malvinas),FK,,Falkland Islands - Carcass Island,2017-01-04,07:41
Tachyeres brachypterus,Animalia,DUCKS_GEESE_AND_SWANS_ANATIDAE,Falkland Steamer Duck,,10,-60.52905762,-51.30748591,South America,Falkland Islands (Islas Malvinas),FK,,Falkland Islands - Carcass Island,2017-01-04,11:33
Cinclodes antarcticus,Animalia,OVENBIRDS_FURNARIIDAE,Blackish Cinclodes,,4,-60.5290677,-51.30746044,South America,Falkland Islands (Islas Malvinas),FK,,Falkland Islands - Carcass Island,2017-01-04,11:34
Cinclodes antarcticus,Animalia,OVENBIRDS_FURNARIIDAE,Blackish Cinclodes,,4,-60.52925249,-51.30771197,South America,Falkland Islands (Islas Malvinas),FK,,Falkland Islands - Carcass Island,2017-01-04,11:41
Haematopus leucopodus,Animalia,OYSTERCATCHERS_HAEMATOPODIDAE,Magellanic Oystercatcher,,2,-60.52922803,-51.30768576,South America,Falkland Islands (Islas Malvinas),FK,,Falkland Islands - Carcass Island,2017-01-04,11:41
Phalcoboenus australis,Animalia,CARACAS_AND_FALCONS_FALCONIDAE,Striated Caracara,,3,-61.30082721,-51.72216892,South America,Falkland Islands (Islas Malvinas),FK,,Falkland Islands (Islas Malvinas),2017-01-03,11:42
Oryctolagus cuniculus,Animalia,HARES_AND_RABBITS_LEPORIDAE,European Rabbit,,1,-61.30162623,-51.72145995,South America,Falkland Islands (Islas Malvinas),FK,,Falkland Islands (Islas Malvinas),2017-01-03,11:57
Arctocephalus australis,Animalia,FUR_SEALS_OTARIIDAE,South American Fur Seal,,2,-61.31164374,-51.71761565,South America,Falkland Islands (Islas Malvinas),FK,,Falkland Islands (Islas Malvinas),2017-01-03,13:24
Phalcoboenus australis,Animalia,CARACAS_AND_FALCONS_FALCONIDAE,Striated Caracara,,1,-61.30701425,-51.7185493,South America,Falkland Islands (Islas Malvinas),FK,,Falkland Islands (Islas Malvinas),2017-01-03,13:48
Arctocephalus australis,Animalia,FUR_SEALS_OTARIIDAE,South American Fur Seal,,3,-61.36089846,-51.79763268,South America,Falkland Islands (Islas Malvinas),FK,,Falkland Islands (Islas Malvinas),2017-01-03,09:29
Phalcoboenus australis,Animalia,CARACAS_AND_FALCONS_FALCONIDAE,Striated Caracara,,2,-61.29939808,-51.72458711,South America,Falkland Islands (Islas Malvinas),FK,,Falkland Islands (Islas Malvinas),2017-01-03,11:31
Balaenoptera borealis schlegelli,Animalia,RORQUAL_WHALES_BALAENOPTERIDAE,Southern Sei Whale,,8,-61.23255599,-51.96086624,South America,Falkland Islands (Islas Malvinas),FK,,Falkland Islands (Islas Malvinas),2017-01-03,08:44
Oceanites oceanicus,Animalia,OCEANITIDAE,Wilson's Storm Petrel,,2,-61.35521735,-51.8614468,South America,Falkland Islands (Islas Malvinas),FK,,Falkland Islands (Islas Malvinas),2017-01-03,09:13
Thalassarche melanophris,Animalia,ALBATROSSES_DIOMEDEIDAE,Black-browed Albatross,,1,-60.6652483,-52.28336109,South America,Falkland Islands (Islas Malvinas),FK,,Falkland Islands - West Island,2017-01-03,06:53
Spheniscus magellanicus,Animalia,PENGUINS_SPHENISCIDAE,Magellanic Penguin,,20,-60.66827015,-52.28294542,South America,Falkland Islands (Islas Malvinas),FK,,Falkland Islands - West Island,2017-01-03,06:53
Thalassarche melanophris,Animalia,ALBATROSSES_DIOMEDEIDAE,Black-browed Albatross,,3,-60.71500274,-52.27243404,South America,Falkland Islands (Islas Malvinas),FK,,Falkland Islands - West Island,2017-01-03,07:00
Lagenorhynchus australis,Animalia,DOLPHINS_DELPHINIDAE,Peale's Dolphin,,6,-60.74101851,-52.26653715,South America,Falkland Islands (Islas Malvinas),FK,,Falkland Islands - West Island,2017-01-03,07:04
Thalassarche melanophris,Animalia,ALBATROSSES_DIOMEDEIDAE,Black-browed Albatross,,11,-61.07529523,-52.08799826,South America,Falkland Islands (Islas Malvinas),FK,,Falkland Islands - West Island,2017-01-03,08:08
Lagenorhynchus australis,Animalia,DOLPHINS_DELPHINIDAE,Peale's Dolphin,,6,-61.12696246,-52.04635441,South America,Falkland Islands (Islas Malvinas),FK,,Falkland Islands - West Island,2017-01-03,08:20
Thalassarche melanophris,Animalia,ALBATROSSES_DIOMEDEIDAE,Black-browed Albatross,,3,-61.15873921,-52.02046578,South America,Falkland Islands (Islas Malvinas),FK,,Falkland Islands (Islas Malvinas),2017-01-03,08:27
Chloephaga rubidiceps,Animalia,DUCKS_GEESE_AND_SWANS_ANATIDAE,Ruddy-headed Goose,,5,-58.07052631,-51.75853881,South America,Falkland Islands (Islas Malvinas),FK,,Falkland Islands (Islas Malvinas),2017-01-02,15:49
Leucophaeus scoresbii,Animalia,GULLS_TERNS_AND_SKIMMERS_LARIDAE,Dolphin Gull,,2,-58.07042249,-51.75849989,South America,Falkland Islands (Islas Malvinas),FK,,Falkland Islands (Islas Malvinas),2017-01-02,15:51
Chloephaga rubidiceps,Animalia,DUCKS_GEESE_AND_SWANS_ANATIDAE,Ruddy-headed Goose,,7,-58.06748118,-51.75903181,South America,Falkland Islands (Islas Malvinas),FK,,Falkland Islands (Islas Malvinas),2017-01-02,16:05
Aptenodytes patagonicus,Animalia,PENGUINS_SPHENISCIDAE,King Penguin,,8,-58.06658873,-51.75927013,South America,Falkland Islands (Islas Malvinas),FK,,Falkland Islands (Islas Malvinas),2017-01-02,16:06
Charadrius falklandicus,Animalia,PLOVERS_CHARADRIIDAE,Two-banded Plover,,7,-58.06587475,-51.75954204,South America,Falkland Islands (Islas Malvinas),FK,,Falkland Islands (Islas Malvinas),2017-01-02,16:08
Thalassarche melanophris,Animalia,ALBATROSSES_DIOMEDEIDAE,Black-browed Albatross,,1,-60.5222283,-52.31218055,South America,Falkland Islands (Islas Malvinas),FK,,Falkland Islands (Islas Malvinas),2017-01-03,06:31
Thalassarche melanophris,Animalia,ALBATROSSES_DIOMEDEIDAE,Black-browed Albatross,,2,-60.58282545,-52.30014144,South America,Falkland Islands (Islas Malvinas),FK,,Falkland Islands (Islas Malvinas),2017-01-03,06:40
Thalassarche melanophris,Animalia,ALBATROSSES_DIOMEDEIDAE,Black-browed Albatross,,1,-60.60317698,-52.29606719,South America,Falkland Islands (Islas Malvinas),FK,,Falkland Islands - West Island,2017-01-03,06:43
Cathartes aura,Animalia,NEW_WORLD_VULTURES_CATHARTIDAE,Turkey Vulture,,1,-57.82195453,-51.6910523,South America,Falkland Islands (Islas Malvinas),FK,,Falkland Islands (Islas Malvinas),2017-01-02,11:59
Lophonetta specularioides,Animalia,DUCKS_GEESE_AND_SWANS_ANATIDAE,Crested Duck,,4,-57.82082048,-51.69403871,South America,Falkland Islands (Islas Malvinas),FK,,Falkland Islands (Islas Malvinas),2017-01-02,12:52
Chloephaga picta,Animalia,DUCKS_GEESE_AND_SWANS_ANATIDAE,Upland Goose,,15,-57.82159753,-51.6940744,South America,Falkland Islands (Islas Malvinas),FK,,Falkland Islands (Islas Malvinas),2017-01-02,12:54
Anas flavirostris,Animalia,DUCKS_GEESE_AND_SWANS_ANATIDAE,Yellow-billed Teal,,2,-57.82348613,-51.69434574,South America,Falkland Islands (Islas Malvinas),FK,,Falkland Islands (Islas Malvinas),2017-01-02,12:57
Haematopus leucopodus,Animalia,OYSTERCATCHERS_HAEMATOPODIDAE,Magellanic Oystercatcher,,2,-57.82939897,-51.69435964,South America,Falkland Islands (Islas Malvinas),FK,,Falkland Islands (Islas Malvinas),2017-01-02,13:08
Tachyeres brachypterus,Animalia,DUCKS_GEESE_AND_SWANS_ANATIDAE,Falkland Steamer Duck,,15,-57.82945422,-51.69433729,South America,Falkland Islands (Islas Malvinas),FK,,Falkland Islands (Islas Malvinas),2017-01-02,13:08
Cathartes aura,Animalia,NEW_WORLD_VULTURES_CATHARTIDAE,Turkey Vulture,,3,-57.83622406,-51.69367974,South America,Falkland Islands (Islas Malvinas),FK,,Falkland Islands (Islas Malvinas),2017-01-02,13:19
Chloephaga picta,Animalia,DUCKS_GEESE_AND_SWANS_ANATIDAE,Upland Goose,,2,-57.85007506,-51.69273477,South America,Falkland Islands (Islas Malvinas),FK,,Falkland Islands (Islas Malvinas),2017-01-02,13:36
Haematopus leucopodus,Animalia,OYSTERCATCHERS_HAEMATOPODIDAE,Magellanic Oystercatcher,,5,-57.86319368,-51.69160776,South America,Falkland Islands (Islas Malvinas),FK,,Falkland Islands (Islas Malvinas),2017-01-02,13:56
Leucophaeus scoresbii,Animalia,GULLS_TERNS_AND_SKIMMERS_LARIDAE,Dolphin Gull,,2,-57.8632611,-51.69159883,South America,Falkland Islands (Islas Malvinas),FK,,Falkland Islands (Islas Malvinas),2017-01-02,13:57
Turdus falcklandii,Animalia,THRUSHES_TURDIDAE,Austral Thrush,,1,-58.08003812,-51.72604369,South America,Falkland Islands (Islas Malvinas),FK,,Falkland Islands (Islas Malvinas),2017-01-02,15:07
Aptenodytes patagonicus,Animalia,PENGUINS_SPHENISCIDAE,King Penguin,,21,-58.06903374,-51.75830497,South America,Falkland Islands (Islas Malvinas),FK,,Falkland Islands (Islas Malvinas),2017-01-02,15:33
Spheniscus magellanicus,Animalia,PENGUINS_SPHENISCIDAE,Magellanic Penguin,,6,-57.79646385,-51.66570069,South America,Falkland Islands (Islas Malvinas),FK,,Falkland Islands (Islas Malvinas),2017-01-02,11:43
Tachyeres brachypterus,Animalia,DUCKS_GEESE_AND_SWANS_ANATIDAE,Falkland Steamer Duck,,2,-57.7977257,-51.6657307,South America,Falkland Islands (Islas Malvinas),FK,,Falkland Islands (Islas Malvinas),2017-01-02,11:43
Leucophaeus scoresbii,Animalia,GULLS_TERNS_AND_SKIMMERS_LARIDAE,Dolphin Gull,,1,-57.82843372,-51.67489775,South America,Falkland Islands (Islas Malvinas),FK,,Falkland Islands (Islas Malvinas),2017-01-02,11:49
Tachyeres brachypterus,Animalia,DUCKS_GEESE_AND_SWANS_ANATIDAE,Falkland Steamer Duck,,4,-57.82952565,-51.68429949,South America,Falkland Islands (Islas Malvinas),FK,,Falkland Islands (Islas Malvinas),2017-01-02,11:53
Ardenna grisea,Animalia,PETRELS_AND_SHEARWATERS_PROCELLARIIDAE,Sooty Shearwater,,6,-57.7430111,-51.96366295,South America,Falkland Islands (Islas Malvinas),FK,,Falkland Islands (Islas Malvinas),2017-01-02,10:04
Spheniscus magellanicus,Animalia,PENGUINS_SPHENISCIDAE,Magellanic Penguin,,6,-57.73493974,-51.91702492,South America,Falkland Islands (Islas Malvinas),FK,,Falkland Islands (Islas Malvinas),2017-01-02,10:17
Pelecanoides urinatrix,Animalia,PETRELS_AND_SHEARWATERS_PROCELLARIIDAE,Common Diving Petrel,,1,-57.73219786,-51.89921047,South America,Falkland Islands (Islas Malvinas),FK,,Falkland Islands (Islas Malvinas),2017-01-02,10:22
Ardenna grisea,Animalia,PETRELS_AND_SHEARWATERS_PROCELLARIIDAE,Sooty Shearwater,,4,-57.73198896,-51.89811768,South America,Falkland Islands (Islas Malvinas),FK,,Falkland Islands (Islas Malvinas),2017-01-02,10:22
Spheniscus magellanicus,Animalia,PENGUINS_SPHENISCIDAE,Magellanic Penguin,,2,-57.72776969,-51.86255665,South America,Falkland Islands (Islas Malvinas),FK,,Falkland Islands (Islas Malvinas),2017-01-02,10:32
Thalassarche melanophris,Animalia,ALBATROSSES_DIOMEDEIDAE,Black-browed Albatross,,4,-57.77894924,-52.24131478,South America,Falkland Islands (Islas Malvinas),FK,,Falkland Islands (Islas Malvinas),2017-01-02,08:48
Thalassarche melanophris,Animalia,ALBATROSSES_DIOMEDEIDAE,Black-browed Albatross,,4,-57.77597297,-52.21154881,South America,Falkland Islands (Islas Malvinas),FK,,Falkland Islands (Islas Malvinas),2017-01-02,08:56
Thalassarche melanophris,Animalia,ALBATROSSES_DIOMEDEIDAE,Black-browed Albatross,,3,-57.77531683,-52.20134757,South America,Falkland Islands (Islas Malvinas),FK,,Falkland Islands (Islas Malvinas),2017-01-02,08:59
Thalassarche melanophris,Animalia,ALBATROSSES_DIOMEDEIDAE,Black-browed Albatross,,3,-57.77290794,-52.1604138,South America,Falkland Islands (Islas Malvinas),FK,,Falkland Islands (Islas Malvinas),2017-01-02,09:10
Balaenoptera borealis schlegelli,Animalia,RORQUAL_WHALES_BALAENOPTERIDAE,Southern Sei Whale,,1,-57.7642379,-52.10614357,South America,Falkland Islands (Islas Malvinas),FK,,Falkland Islands (Islas Malvinas),2017-01-02,09:25
Garrodia nereis,Animalia,OCEANITIDAE,Grey-backed Storm Petrel,,2,-57.83576496,-52.58178234,South America,Falkland Islands (Islas Malvinas),FK,,Falkland Islands (Islas Malvinas),2017-01-02,07:24
Lagenorhynchus australis,Animalia,DOLPHINS_DELPHINIDAE,Peale's Dolphin,,8,-57.79904946,-52.34571188,South America,Falkland Islands (Islas Malvinas),FK,,Falkland Islands (Islas Malvinas),2017-01-02,08:21
Thalassarche melanophris,Animalia,ALBATROSSES_DIOMEDEIDAE,Black-browed Albatross,,1,-57.79501442,-52.3226256,South America,Falkland Islands (Islas Malvinas),FK,,Falkland Islands (Islas Malvinas),2017-01-02,08:27
Diomedea epomophora,Animalia,ALBATROSSES_DIOMEDEIDAE,Southern Royal Albatross,,1,-57.79148978,-52.30112343,South America,Falkland Islands (Islas Malvinas),FK,,Falkland Islands (Islas Malvinas),2017-01-02,08:32
Garrodia nereis,Animalia,OCEANITIDAE,Grey-backed Storm Petrel,,1,-57.86725937,-52.78913519,South America,Falkland Islands (Islas Malvinas),FK,,Falkland Islands (Islas Malvinas),2017-01-02,06:33
Diomedea exulans,Animalia,ALBATROSSES_DIOMEDEIDAE,Wandering Albatross,,2,-57.86581428,-52.77960241,South America,Falkland Islands (Islas Malvinas),FK,,Falkland Islands (Islas Malvinas),2017-01-02,06:36
Garrodia nereis,Animalia,OCEANITIDAE,Grey-backed Storm Petrel,,1,-57.86351974,-52.76424971,South America,Falkland Islands (Islas Malvinas),FK,,Falkland Islands (Islas Malvinas),2017-01-02,06:39
Pachyptila belcheri,Animalia,PETRELS_AND_SHEARWATERS_PROCELLARIIDAE,Slender-billed Prion,,3,-57.85555721,-52.7114151,South America,Falkland Islands (Islas Malvinas),FK,,Falkland Islands (Islas Malvinas),2017-01-02,06:52
Garrodia nereis,Animalia,OCEANITIDAE,Grey-backed Storm Petrel,,1,-57.84212601,-52.62301371,South America,Falkland Islands (Islas Malvinas),FK,,Falkland Islands (Islas Malvinas),2017-01-02,07:14
Garrodia nereis,Animalia,OCEANITIDAE,Grey-backed Storm Petrel,,1,-57.83975715,-52.60748822,South America,Falkland Islands (Islas Malvinas),FK,,Falkland Islands (Islas Malvinas),2017-01-02,07:18
Pachyptila belcheri,Animalia,PETRELS_AND_SHEARWATERS_PROCELLARIIDAE,Slender-billed Prion,,1,-57.90464941,-53.03378152,South America,Falkland Islands (Islas Malvinas),FK,,Falkland Islands (Islas Malvinas),2017-01-02,05:34
Diomedea exulans,Animalia,ALBATROSSES_DIOMEDEIDAE,Wandering Albatross,,1,-57.88973067,-52.93626585,South America,Falkland Islands (Islas Malvinas),FK,,Falkland Islands (Islas Malvinas),2017-01-02,05:57
Pachyptila belcheri,Animalia,PETRELS_AND_SHEARWATERS_PROCELLARIIDAE,Slender-billed Prion,,1,-57.88913745,-52.93317358,South America,Falkland Islands (Islas Malvinas),FK,,Falkland Islands (Islas Malvinas),2017-01-02,05:58
Diomedea exulans,Animalia,ALBATROSSES_DIOMEDEIDAE,Wandering Albatross,,1,-57.90864378,-53.05746612,South America,Falkland Islands (Islas Malvinas),FK,,Falkland Islands (Islas Malvinas),2017-01-02,05:28
Diomedea exulans,Animalia,ALBATROSSES_DIOMEDEIDAE,Wandering Albatross,,1,-57.90864378,-53.05746612,South America,Falkland Islands (Islas Malvinas),FK,,Falkland Islands (Islas Malvinas),2017-01-02,05:28
Pachyptila belcheri,Animalia,PETRELS_AND_SHEARWATERS_PROCELLARIIDAE,Slender-billed Prion,,1,-57.90464941,-53.03378152,South America,Falkland Islands (Islas Malvinas),FK,,Falkland Islands (Islas Malvinas),2017-01-02,05:34
Diomedea exulans,Animalia,ALBATROSSES_DIOMEDEIDAE,Wandering Albatross,,1,-57.88973067,-52.93626585,South America,Falkland Islands (Islas Malvinas),FK,,Falkland Islands (Islas Malvinas),2017-01-02,05:57
Pachyptila belcheri,Animalia,PETRELS_AND_SHEARWATERS_PROCELLARIIDAE,Slender-billed Prion,,1,-57.88913745,-52.93317358,South America,Falkland Islands (Islas Malvinas),FK,,Falkland Islands (Islas Malvinas),2017-01-02,05:58
Garrodia nereis,Animalia,OCEANITIDAE,Grey-backed Storm Petrel,,1,-57.86725937,-52.78913519,South America,Falkland Islands (Islas Malvinas),FK,,Falkland Islands (Islas Malvinas),2017-01-02,06:33
Diomedea exulans,Animalia,ALBATROSSES_DIOMEDEIDAE,Wandering Albatross,,2,-57.86581428,-52.77960241,South America,Falkland Islands (Islas Malvinas),FK,,Falkland Islands (Islas Malvinas),2017-01-02,06:36
Garrodia nereis,Animalia,OCEANITIDAE,Grey-backed Storm Petrel,,1,-57.86351974,-52.76424971,South America,Falkland Islands (Islas Malvinas),FK,,Falkland Islands (Islas Malvinas),2017-01-02,06:39
Pachyptila belcheri,Animalia,PETRELS_AND_SHEARWATERS_PROCELLARIIDAE,Slender-billed Prion,,3,-57.85555721,-52.7114151,South America,Falkland Islands (Islas Malvinas),FK,,Falkland Islands (Islas Malvinas),2017-01-02,06:52
Garrodia nereis,Animalia,OCEANITIDAE,Grey-backed Storm Petrel,,1,-57.84212601,-52.62301371,South America,Falkland Islands (Islas Malvinas),FK,,Falkland Islands (Islas Malvinas),2017-01-02,07:14
Garrodia nereis,Animalia,OCEANITIDAE,Grey-backed Storm Petrel,,1,-57.83975715,-52.60748822,South America,Falkland Islands (Islas Malvinas),FK,,Falkland Islands (Islas Malvinas),2017-01-02,07:18
Garrodia nereis,Animalia,OCEANITIDAE,Grey-backed Storm Petrel,,2,-57.83576496,-52.58178234,South America,Falkland Islands (Islas Malvinas),FK,,Falkland Islands (Islas Malvinas),2017-01-02,07:24
Lagenorhynchus australis,Animalia,DOLPHINS_DELPHINIDAE,Peale's Dolphin,,8,-57.79904946,-52.34571188,South America,Falkland Islands (Islas Malvinas),FK,,Falkland Islands (Islas Malvinas),2017-01-02,08:21
Thalassarche melanophris,Animalia,ALBATROSSES_DIOMEDEIDAE,Black-browed Albatross,,1,-57.79501442,-52.3226256,South America,Falkland Islands (Islas Malvinas),FK,,Falkland Islands (Islas Malvinas),2017-01-02,08:27
Diomedea epomophora,Animalia,ALBATROSSES_DIOMEDEIDAE,Southern Royal Albatross,,1,-57.79148978,-52.30112343,South America,Falkland Islands (Islas Malvinas),FK,,Falkland Islands (Islas Malvinas),2017-01-02,08:32
Thalassarche melanophris,Animalia,ALBATROSSES_DIOMEDEIDAE,Black-browed Albatross,,4,-57.77894924,-52.24131478,South America,Falkland Islands (Islas Malvinas),FK,,Falkland Islands (Islas Malvinas),2017-01-02,08:48
Thalassarche melanophris,Animalia,ALBATROSSES_DIOMEDEIDAE,Black-browed Albatross,,4,-57.77597297,-52.21154881,South America,Falkland Islands (Islas Malvinas),FK,,Falkland Islands (Islas Malvinas),2017-01-02,08:56
Thalassarche melanophris,Animalia,ALBATROSSES_DIOMEDEIDAE,Black-browed Albatross,,3,-57.77531683,-52.20134757,South America,Falkland Islands (Islas Malvinas),FK,,Falkland Islands (Islas Malvinas),2017-01-02,08:59
Thalassarche melanophris,Animalia,ALBATROSSES_DIOMEDEIDAE,Black-browed Albatross,,3,-57.77290794,-52.1604138,South America,Falkland Islands (Islas Malvinas),FK,,Falkland Islands (Islas Malvinas),2017-01-02,09:10
Balaenoptera borealis schlegelli,Animalia,RORQUAL_WHALES_BALAENOPTERIDAE,Southern Sei Whale,,1,-57.7642379,-52.10614357,South America,Falkland Islands (Islas Malvinas),FK,,Falkland Islands (Islas Malvinas),2017-01-02,09:25
Ardenna grisea,Animalia,PETRELS_AND_SHEARWATERS_PROCELLARIIDAE,Sooty Shearwater,,6,-57.7430111,-51.96366295,South America,Falkland Islands (Islas Malvinas),FK,,Falkland Islands (Islas Malvinas),2017-01-02,10:04
Spheniscus magellanicus,Animalia,PENGUINS_SPHENISCIDAE,Magellanic Penguin,,6,-57.73493974,-51.91702492,South America,Falkland Islands (Islas Malvinas),FK,,Falkland Islands (Islas Malvinas),2017-01-02,10:17
Pelecanoides urinatrix,Animalia,PETRELS_AND_SHEARWATERS_PROCELLARIIDAE,Common Diving Petrel,,1,-57.73219786,-51.89921047,South America,Falkland Islands (Islas Malvinas),FK,,Falkland Islands (Islas Malvinas),2017-01-02,10:22
Ardenna grisea,Animalia,PETRELS_AND_SHEARWATERS_PROCELLARIIDAE,Sooty Shearwater,,4,-57.73198896,-51.89811768,South America,Falkland Islands (Islas Malvinas),FK,,Falkland Islands (Islas Malvinas),2017-01-02,10:22
Spheniscus magellanicus,Animalia,PENGUINS_SPHENISCIDAE,Magellanic Penguin,,2,-57.72776969,-51.86255665,South America,Falkland Islands (Islas Malvinas),FK,,Falkland Islands (Islas Malvinas),2017-01-02,10:32
Stercorarius antarcticus antarcticus,Animalia,SKUAS_STERCORARIIDAE,Falkland Brown Skua,,2,-57.71842914,-51.80683214,South America,Falkland Islands (Islas Malvinas),FK,,Falkland Islands (Islas Malvinas),2017-01-02,10:47
Spheniscus magellanicus,Animalia,PENGUINS_SPHENISCIDAE,Magellanic Penguin,,6,-57.79646385,-51.66570069,South America,Falkland Islands (Islas Malvinas),FK,,Falkland Islands (Islas Malvinas),2017-01-02,11:43
Tachyeres brachypterus,Animalia,DUCKS_GEESE_AND_SWANS_ANATIDAE,Falkland Steamer Duck,,2,-57.7977257,-51.6657307,South America,Falkland Islands (Islas Malvinas),FK,,Falkland Islands (Islas Malvinas),2017-01-02,11:43
Leucophaeus scoresbii,Animalia,GULLS_TERNS_AND_SKIMMERS_LARIDAE,Dolphin Gull,,1,-57.82843372,-51.67489775,South America,Falkland Islands (Islas Malvinas),FK,,Falkland Islands (Islas Malvinas),2017-01-02,11:49
Tachyeres brachypterus,Animalia,DUCKS_GEESE_AND_SWANS_ANATIDAE,Falkland Steamer Duck,,4,-57.82952565,-51.68429949,South America,Falkland Islands (Islas Malvinas),FK,,Falkland Islands (Islas Malvinas),2017-01-02,11:53
Chloephaga hybrida malvinarum,Animalia,DUCKS_GEESE_AND_SWANS_ANATIDAE,Kelp Goose ssp malvinarum,,2,-57.82653872,-51.68762456,South America,Falkland Islands (Islas Malvinas),FK,,Falkland Islands (Islas Malvinas),2017-01-02,11:55
Nycticorax nycticorax falklandicus,Animalia,HERONS_ARDEIDAE,Black-crowned Night Heron ssp falklandicus,,2,-57.82084668,-51.6940214,South America,Falkland Islands (Islas Malvinas),FK,,Falkland Islands (Islas Malvinas),2017-01-02,12:52
Lophonetta specularioides,Animalia,DUCKS_GEESE_AND_SWANS_ANATIDAE,Crested Duck,,4,-57.82082048,-51.69403871,South America,Falkland Islands (Islas Malvinas),FK,,Falkland Islands (Islas Malvinas),2017-01-02,12:52
Chloephaga picta,Animalia,DUCKS_GEESE_AND_SWANS_ANATIDAE,Upland Goose,,15,-57.82159753,-51.6940744,South America,Falkland Islands (Islas Malvinas),FK,,Falkland Islands (Islas Malvinas),2017-01-02,12:54
Anas flavirostris,Animalia,DUCKS_GEESE_AND_SWANS_ANATIDAE,Yellow-billed Teal,,2,-57.82348613,-51.69434574,South America,Falkland Islands (Islas Malvinas),FK,,Falkland Islands (Islas Malvinas),2017-01-02,12:57
Haematopus leucopodus,Animalia,OYSTERCATCHERS_HAEMATOPODIDAE,Magellanic Oystercatcher,,2,-57.82939897,-51.69435964,South America,Falkland Islands (Islas Malvinas),FK,,Falkland Islands (Islas Malvinas),2017-01-02,13:08
Tachyeres brachypterus,Animalia,DUCKS_GEESE_AND_SWANS_ANATIDAE,Falkland Steamer Duck,,15,-57.82945422,-51.69433729,South America,Falkland Islands (Islas Malvinas),FK,,Falkland Islands (Islas Malvinas),2017-01-02,13:08
Cathartes aura falklandicus,Animalia,NEW_WORLD_VULTURES_CATHARTIDAE,Turkey Vulture ssp falklandicus,,3,-57.83622406,-51.69367974,South America,Falkland Islands (Islas Malvinas),FK,,Falkland Islands (Islas Malvinas),2017-01-02,13:19
Chloephaga picta,Animalia,DUCKS_GEESE_AND_SWANS_ANATIDAE,Upland Goose,,2,-57.85007506,-51.69273477,South America,Falkland Islands (Islas Malvinas),FK,,Falkland Islands (Islas Malvinas),2017-01-02,13:36
Haematopus leucopodus,Animalia,OYSTERCATCHERS_HAEMATOPODIDAE,Magellanic Oystercatcher,,5,-57.86319368,-51.69160776,South America,Falkland Islands (Islas Malvinas),FK,,Falkland Islands (Islas Malvinas),2017-01-02,13:56
Leucophaeus scoresbii,Animalia,GULLS_TERNS_AND_SKIMMERS_LARIDAE,Dolphin Gull,,2,-57.8632611,-51.69159883,South America,Falkland Islands (Islas Malvinas),FK,,Falkland Islands (Islas Malvinas),2017-01-02,13:57
Turdus falcklandii,Animalia,THRUSHES_TURDIDAE,Austral Thrush,,1,-58.08003812,-51.72604369,South America,Falkland Islands (Islas Malvinas),FK,,Falkland Islands (Islas Malvinas),2017-01-02,15:07
Aptenodytes patagonicus,Animalia,PENGUINS_SPHENISCIDAE,King Penguin,,21,-58.06903374,-51.75830497,South America,Falkland Islands (Islas Malvinas),FK,,Falkland Islands (Islas Malvinas),2017-01-02,15:33
Pygoscelis papua,Animalia,PENGUINS_SPHENISCIDAE,Gentoo Penguin,,501,-58.06912586,-51.75840537,South America,Falkland Islands (Islas Malvinas),FK,,Falkland Islands (Islas Malvinas),2017-01-02,15:34
Chloephaga rubidiceps,Animalia,DUCKS_GEESE_AND_SWANS_ANATIDAE,Ruddy-headed Goose,,5,-58.07052631,-51.75853881,South America,Falkland Islands (Islas Malvinas),FK,,Falkland Islands (Islas Malvinas),2017-01-02,15:49
Leucophaeus scoresbii,Animalia,GULLS_TERNS_AND_SKIMMERS_LARIDAE,Dolphin Gull,,2,-58.07042249,-51.75849989,South America,Falkland Islands (Islas Malvinas),FK,,Falkland Islands (Islas Malvinas),2017-01-02,15:51
Chloephaga rubidiceps,Animalia,DUCKS_GEESE_AND_SWANS_ANATIDAE,Ruddy-headed Goose,,7,-58.06748118,-51.75903181,South America,Falkland Islands (Islas Malvinas),FK,,Falkland Islands (Islas Malvinas),2017-01-02,16:05
Aptenodytes patagonicus,Animalia,PENGUINS_SPHENISCIDAE,King Penguin,,8,-58.06658873,-51.75927013,South America,Falkland Islands (Islas Malvinas),FK,,Falkland Islands (Islas Malvinas),2017-01-02,16:06
Charadrius falklandicus,Animalia,PLOVERS_CHARADRIIDAE,Two-banded Plover,,7,-58.06587475,-51.75954204,South America,Falkland Islands (Islas Malvinas),FK,,Falkland Islands (Islas Malvinas),2017-01-02,16:08
Thalassarche melanophris,Animalia,ALBATROSSES_DIOMEDEIDAE,Black-browed Albatross,,1,-60.5222283,-52.31218055,South America,Falkland Islands (Islas Malvinas),FK,,Falkland Islands (Islas Malvinas),2017-01-03,06:31
Thalassarche melanophris,Animalia,ALBATROSSES_DIOMEDEIDAE,Black-browed Albatross,,2,-60.58282545,-52.30014144,South America,Falkland Islands (Islas Malvinas),FK,,Falkland Islands (Islas Malvinas),2017-01-03,06:40
Thalassarche melanophris,Animalia,ALBATROSSES_DIOMEDEIDAE,Black-browed Albatross,,1,-60.60317698,-52.29606719,South America,Falkland Islands (Islas Malvinas),FK,,Falkland Islands - West Island,2017-01-03,06:43
Thalassarche melanophris,Animalia,ALBATROSSES_DIOMEDEIDAE,Black-browed Albatross,,1,-60.6652483,-52.28336109,South America,Falkland Islands (Islas Malvinas),FK,,Falkland Islands - West Island,2017-01-03,06:53
Spheniscus magellanicus,Animalia,PENGUINS_SPHENISCIDAE,Magellanic Penguin,,20,-60.66827015,-52.28294542,South America,Falkland Islands (Islas Malvinas),FK,,Falkland Islands - West Island,2017-01-03,06:53
Thalassarche melanophris,Animalia,ALBATROSSES_DIOMEDEIDAE,Black-browed Albatross,,3,-60.71500274,-52.27243404,South America,Falkland Islands (Islas Malvinas),FK,,Falkland Islands - West Island,2017-01-03,07:00
Lagenorhynchus australis,Animalia,DOLPHINS_DELPHINIDAE,Peale's Dolphin,,6,-60.74101851,-52.26653715,South America,Falkland Islands (Islas Malvinas),FK,,Falkland Islands - West Island,2017-01-03,07:04
Thalassarche melanophris,Animalia,ALBATROSSES_DIOMEDEIDAE,Black-browed Albatross,,11,-61.07529523,-52.08799826,South America,Falkland Islands (Islas Malvinas),FK,,Falkland Islands - West Island,2017-01-03,08:08
Lagenorhynchus australis,Animalia,DOLPHINS_DELPHINIDAE,Peale's Dolphin,,6,-61.12696246,-52.04635441,South America,Falkland Islands (Islas Malvinas),FK,,Falkland Islands - West Island,2017-01-03,08:20
Thalassarche melanophris,Animalia,ALBATROSSES_DIOMEDEIDAE,Black-browed Albatross,,3,-61.15873921,-52.02046578,South America,Falkland Islands (Islas Malvinas),FK,,Falkland Islands (Islas Malvinas),2017-01-03,08:27
Stercorarius antarcticus antarcticus,Animalia,SKUAS_STERCORARIIDAE,Falkland Brown Skua,,2,-61.18589307,-51.99877336,South America,Falkland Islands (Islas Malvinas),FK,,Falkland Islands (Islas Malvinas),2017-01-03,08:33
Balaenoptera borealis schlegelli,Animalia,RORQUAL_WHALES_BALAENOPTERIDAE,Southern Sei Whale,,8,-61.23255599,-51.96086624,South America,Falkland Islands (Islas Malvinas),FK,,Falkland Islands (Islas Malvinas),2017-01-03,08:44
Oceanites oceanicus,Animalia,OCEANITIDAE,Wilson's Storm Petrel,,2,-61.35521735,-51.8614468,South America,Falkland Islands (Islas Malvinas),FK,,Falkland Islands (Islas Malvinas),2017-01-03,09:13
Arctocephalus australis,Animalia,FUR_SEALS_OTARIIDAE,South American Fur Seal,,3,-61.36089846,-51.79763268,South America,Falkland Islands (Islas Malvinas),FK,,Falkland Islands (Islas Malvinas),2017-01-03,09:29
Phalcoboenus australis,Animalia,CARACAS_AND_FALCONS_FALCONIDAE,Striated Caracara,,2,-61.29939808,-51.72458711,South America,Falkland Islands (Islas Malvinas),FK,,Falkland Islands (Islas Malvinas),2017-01-03,11:31
Chloephaga picta,Animalia,DUCKS_GEESE_AND_SWANS_ANATIDAE,Upland Goose,,7,-61.30058613,-51.72303808,South America,Falkland Islands (Islas Malvinas),FK,,Falkland Islands (Islas Malvinas),2017-01-03,11:35
Turdus falcklandii falcklandii,Animalia,THRUSHES_TURDIDAE,Austral Thrush ssp falcklandii,,1,-61.30056212,-51.72301553,South America,Falkland Islands (Islas Malvinas),FK,,Falkland Islands (Islas Malvinas),2017-01-03,11:36
Muscisaxicola maclovianus maclovianus,Animalia,TYRANT_FLYCATCHERS_TYRANNIDAE,Dark-faced Ground Tyrant ssp maclovianus,,11,-61.3005646,-51.72303762,South America,Falkland Islands (Islas Malvinas),FK,,Falkland Islands (Islas Malvinas),2017-01-03,11:37
Phalcoboenus australis,Animalia,CARACAS_AND_FALCONS_FALCONIDAE,Striated Caracara,,3,-61.30082721,-51.72216892,South America,Falkland Islands (Islas Malvinas),FK,,Falkland Islands (Islas Malvinas),2017-01-03,11:42
Turdus falcklandii falcklandii,Animalia,THRUSHES_TURDIDAE,Austral Thrush ssp falcklandii,,3,-61.30082133,-51.72204313,South America,Falkland Islands (Islas Malvinas),FK,,Falkland Islands (Islas Malvinas),2017-01-03,11:47
Oryctolagus cuniculus,Animalia,HARES_AND_RABBITS_LEPORIDAE,European Rabbit,,1,-61.30162623,-51.72145995,South America,Falkland Islands (Islas Malvinas),FK,,Falkland Islands (Islas Malvinas),2017-01-03,11:57
Chloephaga rubidiceps,Animalia,DUCKS_GEESE_AND_SWANS_ANATIDAE,Ruddy-headed Goose,,8,-61.30469201,-51.71982903,South America,Falkland Islands (Islas Malvinas),FK,,Falkland Islands (Islas Malvinas),2017-01-03,12:07
Thalassarche melanophris,Animalia,ALBATROSSES_DIOMEDEIDAE,Black-browed Albatross,,501,-61.31172197,-51.71762001,South America,Falkland Islands (Islas Malvinas),FK,,Falkland Islands (Islas Malvinas),2017-01-03,13:22
Eudyptes chrysocome chrysocome,Animalia,PENGUINS_SPHENISCIDAE,Southern Rockhopper Penguin ssp chrysocome,,501,-61.31171991,-51.71763389,South America,Falkland Islands (Islas Malvinas),FK,,Falkland Islands - New Island,2017-01-03,13:23
Stercorarius antarcticus antarcticus,Animalia,SKUAS_STERCORARIIDAE,Falkland Brown Skua,,6,-61.31167205,-51.71759366,South America,Falkland Islands (Islas Malvinas),FK,,Falkland Islands (Islas Malvinas),2017-01-03,13:24
Arctocephalus australis,Animalia,FUR_SEALS_OTARIIDAE,South American Fur Seal,,2,-61.31164374,-51.71761565,South America,Falkland Islands (Islas Malvinas),FK,,Falkland Islands (Islas Malvinas),2017-01-03,13:24
Phalcoboenus australis,Animalia,CARACAS_AND_FALCONS_FALCONIDAE,Striated Caracara,,1,-61.30701425,-51.7185493,South America,Falkland Islands (Islas Malvinas),FK,,Falkland Islands (Islas Malvinas),2017-01-03,13:48
Haematopus ater,Animalia,OYSTERCATCHERS_HAEMATOPODIDAE,Blackish Oystercatcher,,3,-61.3001995,-51.72300612,South America,Falkland Islands (Islas Malvinas),FK,,Falkland Islands (Islas Malvinas),2017-01-03,15:42
Cinclodes antarcticus,Animalia,OVENBIRDS_FURNARIIDAE,Blackish Cinclodes,,1,-60.5858318,-51.2985905,South America,Falkland Islands (Islas Malvinas),FK,,Falkland Islands - Carcass Island,2017-01-04,07:34
Spheniscus magellanicus,Animalia,PENGUINS_SPHENISCIDAE,Magellanic Penguin,,7,-60.58559343,-51.2987549,South America,Falkland Islands (Islas Malvinas),FK,,Falkland Islands - Carcass Island,2017-01-04,07:35
Pygoscelis papua,Animalia,PENGUINS_SPHENISCIDAE,Gentoo Penguin,,2,-60.57410564,-51.3023715,South America,Falkland Islands (Islas Malvinas),FK,,Falkland Islands - Carcass Island,2017-01-04,07:41
Tachyeres brachypterus,Animalia,DUCKS_GEESE_AND_SWANS_ANATIDAE,Falkland Steamer Duck,,10,-60.52905762,-51.30748591,South America,Falkland Islands (Islas Malvinas),FK,,Falkland Islands - Carcass Island,2017-01-04,11:33
Cathartes aura falklandicus,Animalia,NEW_WORLD_VULTURES_CATHARTIDAE,Turkey Vulture ssp falklandicus,,3,-60.52904817,-51.30747145,South America,Falkland Islands (Islas Malvinas),FK,,Falkland Islands - Carcass Island,2017-01-04,11:33
Cinclodes antarcticus antarcticus,Animalia,OVENBIRDS_FURNARIIDAE,Blackish Cinclodes ssp antarcticus,,4,-60.5290677,-51.30746044,South America,Falkland Islands (Islas Malvinas),FK,,Falkland Islands - Carcass Island,2017-01-04,11:34
Troglodytes cobbi,Animalia,WRENS_TROGLODYTIDAE,Cobb's Wren,,3,-60.5290572,-51.30748223,South America,Falkland Islands (Islas Malvinas),FK,,Falkland Islands - Carcass Island,2017-01-04,11:41
Cinclodes antarcticus,Animalia,OVENBIRDS_FURNARIIDAE,Blackish Cinclodes,,4,-60.52925249,-51.30771197,South America,Falkland Islands (Islas Malvinas),FK,,Falkland Islands - Carcass Island,2017-01-04,11:41
Haematopus leucopodus,Animalia,OYSTERCATCHERS_HAEMATOPODIDAE,Magellanic Oystercatcher,,2,-60.52922803,-51.30768576,South America,Falkland Islands (Islas Malvinas),FK,,Falkland Islands - Carcass Island,2017-01-04,11:41
Phalcoboenus australis,Animalia,CARACAS_AND_FALCONS_FALCONIDAE,Striated Caracara,,3,-60.52953142,-51.30797623,South America,Falkland Islands (Islas Malvinas),FK,,Falkland Islands - Carcass Island,2017-01-04,11:46
Melanodera melanodera melanodera,Animalia,TANAGERS_AND_ALLIES_THRAUPIDAE,White-bridled Finch ssp melanodera,,3,-60.52543571,-51.30855175,South America,Falkland Islands (Islas Malvinas),FK,,Falkland Islands - Carcass Island,2017-01-04,12:06
Melanodera melanodera,Animalia,TANAGERS_AND_ALLIES_THRAUPIDAE,White-bridled Finch,,6,-60.52461434,-51.30894688,South America,Falkland Islands (Islas Malvinas),FK,,Falkland Islands - Carcass Island,2017-01-04,12:12
Chloephaga rubidiceps,Animalia,DUCKS_GEESE_AND_SWANS_ANATIDAE,Ruddy-headed Goose,,14,-60.52406717,-51.30908492,South America,Falkland Islands (Islas Malvinas),FK,,Falkland Islands - Carcass Island,2017-01-04,12:17
Spheniscus magellanicus,Animalia,PENGUINS_SPHENISCIDAE,Magellanic Penguin,,1001,-60.52184495,-51.30944321,South America,Falkland Islands (Islas Malvinas),FK,,Falkland Islands - Carcass Island,2017-01-04,12:34
Haematopus leucopodus,Animalia,OYSTERCATCHERS_HAEMATOPODIDAE,Magellanic Oystercatcher,,2,-60.52185295,-51.30942856,South America,Falkland Islands (Islas Malvinas),FK,,Falkland Islands - Carcass Island,2017-01-04,12:34
Pygoscelis papua,Animalia,PENGUINS_SPHENISCIDAE,Gentoo Penguin,,7,-60.52168957,-51.30937739,South America,Falkland Islands (Islas Malvinas),FK,,Falkland Islands - Carcass Island,2017-01-04,12:36
Chloephaga rubidiceps,Animalia,DUCKS_GEESE_AND_SWANS_ANATIDAE,Ruddy-headed Goose,,1,-60.52182592,-51.3094169,South America,Falkland Islands (Islas Malvinas),FK,,Falkland Islands - Carcass Island,2017-01-04,12:41
Troglodytes cobbi,Animalia,WRENS_TROGLODYTIDAE,Cobb's Wren,,1,-60.52153892,-51.30872189,South America,Falkland Islands (Islas Malvinas),FK,,Falkland Islands - Carcass Island,2017-01-04,12:51
Troglodytes cobbi,Animalia,WRENS_TROGLODYTIDAE,Cobb's Wren,,1,-60.52272401,-51.30707002,South America,Falkland Islands (Islas Malvinas),FK,,Falkland Islands - Carcass Island,2017-01-04,13:01
Gallinago paraguaiae magellanica,Animalia,SANDPIPERS_AND_ALLIES_SCOLOPACIDAE,South American Snipe ssp magellanica,,1,-60.52360762,-51.3055696,South America,Falkland Islands (Islas Malvinas),FK,,Falkland Islands - Carcass Island,2017-01-04,13:28
Melanodera melanodera,Animalia,TANAGERS_AND_ALLIES_THRAUPIDAE,White-bridled Finch,,2,-60.5236005,-51.30557031,South America,Falkland Islands (Islas Malvinas),FK,,Falkland Islands - Carcass Island,2017-01-04,13:29
Macronectes giganteus,Animalia,PETRELS_AND_SHEARWATERS_PROCELLARIIDAE,Southern Giant Petrel,,3,-60.52360079,-51.30557037,South America,Falkland Islands (Islas Malvinas),FK,,Falkland Islands - Carcass Island,2017-01-04,13:29
Cistothorus platensis falklandicus,Animalia,WRENS_TROGLODYTIDAE,Grass Wren ssp falklandicus,,1,-60.5226559,-51.30405109,South America,Falkland Islands (Islas Malvinas),FK,,Falkland Islands - Carcass Island,2017-01-04,13:33
Pygoscelis papua papua,Animalia,PENGUINS_SPHENISCIDAE,Gentoo Penguin ssp papua,,220,-60.52649235,-51.3022279,South America,Falkland Islands (Islas Malvinas),FK,,Falkland Islands - Carcass Island,2017-01-04,13:41
Phalcoboenus australis,Animalia,CARACAS_AND_FALCONS_FALCONIDAE,Striated Caracara,,2,-60.53321045,-51.29725296,South America,Falkland Islands (Islas Malvinas),FK,,Falkland Islands - Carcass Island,2017-01-04,14:02
Haematopus leucopodus,Animalia,OYSTERCATCHERS_HAEMATOPODIDAE,Magellanic Oystercatcher,,8,-60.54522155,-51.2925054,South America,Falkland Islands (Islas Malvinas),FK,,Falkland Islands - Carcass Island,2017-01-04,14:29
Haematopus ater,Animalia,OYSTERCATCHERS_HAEMATOPODIDAE,Blackish Oystercatcher,,2,-60.54521907,-51.29253394,South America,Falkland Islands (Islas Malvinas),FK,,Falkland Islands - Carcass Island,2017-01-04,14:29
Phalcoboenus australis,Animalia,CARACAS_AND_FALCONS_FALCONIDAE,Striated Caracara,,1,-60.54522265,-51.29253837,South America,Falkland Islands (Islas Malvinas),FK,,Falkland Islands - Carcass Island,2017-01-04,14:30
Spinus barbatus,Animalia,FINCHES_FRINGILLIDAE,Black-chinned Siskin,,9,-60.55147404,-51.29109659,South America,Falkland Islands (Islas Malvinas),FK,,Falkland Islands - Carcass Island,2017-01-04,14:40
Phalcoboenus australis,Animalia,CARACAS_AND_FALCONS_FALCONIDAE,Striated Caracara,,4,-60.55417722,-51.29136167,South America,Falkland Islands (Islas Malvinas),FK,,Falkland Islands - Carcass Island,2017-01-04,14:45
Troglodytes cobbi,Animalia,WRENS_TROGLODYTIDAE,Cobb's Wren,,2,-60.55518063,-51.29175585,South America,Falkland Islands (Islas Malvinas),FK,,Falkland Islands - Carcass Island,2017-01-04,14:49
Larus dominicanus austrinus,Animalia,GULLS_TERNS_AND_SKIMMERS_LARIDAE,Kelp Gull ssp austrinus,,10,-60.55566763,-51.29212723,South America,Falkland Islands (Islas Malvinas),FK,,Falkland Islands - Carcass Island,2017-01-04,15:16
Tachyeres brachypterus,Animalia,DUCKS_GEESE_AND_SWANS_ANATIDAE,Falkland Steamer Duck,,15,-60.55570111,-51.29215167,South America,Falkland Islands (Islas Malvinas),FK,,Falkland Islands - Carcass Island,2017-01-04,15:17
Chloephaga hybrida malvinarum,Animalia,DUCKS_GEESE_AND_SWANS_ANATIDAE,Kelp Goose ssp malvinarum,,36,-60.55569398,-51.29215578,South America,Falkland Islands (Islas Malvinas),FK,,Falkland Islands - Carcass Island,2017-01-04,15:18
Lophonetta specularioides specularioides,Animalia,DUCKS_GEESE_AND_SWANS_ANATIDAE,Crested Duck ssp specularioides,,3,-60.55669588,-51.29272263,South America,Falkland Islands (Islas Malvinas),FK,,Falkland Islands - Carcass Island,2017-01-04,15:22
Haematopus ater,Animalia,OYSTERCATCHERS_HAEMATOPODIDAE,Blackish Oystercatcher,,2,-60.55708982,-51.29379761,South America,Falkland Islands (Islas Malvinas),FK,,Falkland Islands - Carcass Island,2017-01-04,15:26
Pelecanoides urinatrix,Animalia,PETRELS_AND_SHEARWATERS_PROCELLARIIDAE,Common Diving Petrel,,4,-60.73308582,-51.24143744,South America,Falkland Islands (Islas Malvinas),FK,,Falkland Islands (Islas Malvinas),2017-01-04,17:35
Pelecanoides urinatrix,Animalia,PETRELS_AND_SHEARWATERS_PROCELLARIIDAE,Common Diving Petrel,,5,-60.75206703,-51.23514491,South America,Falkland Islands (Islas Malvinas),FK,,Falkland Islands (Islas Malvinas),2017-01-04,17:39
Pachyptila belcheri,Animalia,PETRELS_AND_SHEARWATERS_PROCELLARIIDAE,Slender-billed Prion,,4,-60.75315686,-51.23477236,South America,Falkland Islands (Islas Malvinas),FK,,Falkland Islands (Islas Malvinas),2017-01-04,17:39
Pelecanoides urinatrix,Animalia,PETRELS_AND_SHEARWATERS_PROCELLARIIDAE,Common Diving Petrel,,25,-60.80897915,-51.21587676,South America,Falkland Islands (Islas Malvinas),FK,,Falkland Islands (Islas Malvinas),2017-01-04,17:49
Pachyptila belcheri,Animalia,PETRELS_AND_SHEARWATERS_PROCELLARIIDAE,Slender-billed Prion,,101,-60.81074116,-51.21538864,South America,Falkland Islands (Islas Malvinas),FK,,Falkland Islands (Islas Malvinas),2017-01-04,17:49
Leucocarbo atriceps albiventer,Animalia,CORMORANTS_PHALACROCORACIDAE,Imperial Shag ssp albiventer,,11,-60.81277781,-51.2149372,South America,Falkland Islands (Islas Malvinas),FK,,Falkland Islands (Islas Malvinas),2017-01-04,17:50
Pelecanoides urinatrix,Animalia,PETRELS_AND_SHEARWATERS_PROCELLARIIDAE,Common Diving Petrel,,4,-60.88326626,-51.22134145,South America,Falkland Islands (Islas Malvinas),FK,,Falkland Islands (Islas Malvinas),2017-01-04,18:02
Ardenna gravis,Animalia,PETRELS_AND_SHEARWATERS_PROCELLARIIDAE,Great Shearwater,,1,-55.13642594,-50.69610977,South America,Falkland Islands (Islas Malvinas),FK,,Falkland Islands (Islas Malvinas),2016-11-03,
Garrodia nereis,Animalia,OCEANITIDAE,Grey-backed Storm Petrel,,2,-55.13642594,-50.69610977,South America,Falkland Islands (Islas Malvinas),FK,,Falkland Islands (Islas Malvinas),2016-11-03,
Melanodera melanodera,Animalia,TANAGERS_AND_ALLIES_THRAUPIDAE,White-bridled Finch,,1,-57.90706789,-51.62671304,South America,Falkland Islands (Islas Malvinas),FK,,Falkland Islands (Islas Malvinas),2016-12-02,
Populus spec.,Plantae,SALICACEAE,,,1,-60.55366059,-51.29135972,South America,Falkland Islands (Islas Malvinas),FK,,Falkland Islands - Carcass Island,2016-12-01,
Rumex spec.,Plantae,POLYGONACEAE,Sorrel,,1,-60.55366059,-51.29135972,South America,Falkland Islands (Islas Malvinas),FK,,Falkland Islands - Carcass Island,2016-12-01,
Viola spec.,Plantae,VIOLACEAE,,,1,-60.55366059,-51.29135972,South America,Falkland Islands (Islas Malvinas),FK,,Falkland Islands - Carcass Island,2016-12-01,
Arctocephalus australis,Animalia,FUR_SEALS_OTARIIDAE,South American Fur Seal,,1,-60.26366272,-51.28043016,South America,Falkland Islands (Islas Malvinas),FK,,Falkland Islands - Saunders Island,2016-12-01,
Leistes loyca falklandica,Animalia,ICTERIDS_ICTERIDAE,Long-tailed Meadowlark ssp falklandica,,1,-57.8905884,-51.62217743,South America,Falkland Islands (Islas Malvinas),FK,,Falkland Islands (Islas Malvinas),2016-12-02,
Anthus correndera grayi,Animalia,PIPITS_EN_WAGTAILS_MOTACILLIDAE,Correndera Pipit ssp grayi,,1,-57.83843092,-51.62533195,South America,Falkland Islands (Islas Malvinas),FK,,Falkland Islands (Islas Malvinas),2016-12-02,
Muscisaxicola maclovianus maclovianus,Animalia,TYRANT_FLYCATCHERS_TYRANNIDAE,Dark-faced Ground Tyrant ssp maclovianus,,1,-57.79813844,-51.62350747,South America,Falkland Islands (Islas Malvinas),FK,,Falkland Islands (Islas Malvinas),2016-12-02,
Gallinago paraguaiae magellanica,Animalia,SANDPIPERS_AND_ALLIES_SCOLOPACIDAE,South American Snipe ssp magellanica,,1,-57.882383,-51.46835996,South America,Falkland Islands (Islas Malvinas),FK,,Falkland Islands (Islas Malvinas),2016-12-02,
Charadrius modestus,Animalia,PLOVERS_CHARADRIIDAE,Rufous-chested Plover,,4,-57.85307008,-51.65078167,South America,Falkland Islands (Islas Malvinas),FK,,Falkland Islands (Islas Malvinas),2016-12-02,
Charadrius falklandicus,Animalia,PLOVERS_CHARADRIIDAE,Two-banded Plover,,2,-57.88328248,-51.62180228,South America,Falkland Islands (Islas Malvinas),FK,,Falkland Islands (Islas Malvinas),2016-12-02,
Oceanites oceanicus,Animalia,OCEANITIDAE,Wilson's Storm Petrel,,1,-57.85213625,-51.73117904,South America,Falkland Islands (Islas Malvinas),FK,,Falkland Islands (Islas Malvinas),2016-12-02,
Lophonetta specularioides,Animalia,DUCKS_GEESE_AND_SWANS_ANATIDAE,Crested Duck,,1,-57.85213625,-51.73117904,South America,Falkland Islands (Islas Malvinas),FK,,Falkland Islands (Islas Malvinas),2016-12-02,
Melanodera melanodera,Animalia,TANAGERS_AND_ALLIES_THRAUPIDAE,White-bridled Finch,,1,-60.55366059,-51.29393605,South America,Falkland Islands (Islas Malvinas),FK,,Falkland Islands - Carcass Island,2016-12-01,
Spinus barbatus,Animalia,FINCHES_FRINGILLIDAE,Black-chinned Siskin,,1,-60.55366059,-51.29393605,South America,Falkland Islands (Islas Malvinas),FK,,Falkland Islands - Carcass Island,2016-12-01,
Turdus falcklandii,Animalia,THRUSHES_TURDIDAE,Austral Thrush,,1,-60.55366059,-51.29393605,South America,Falkland Islands (Islas Malvinas),FK,,Falkland Islands - Carcass Island,2016-12-01,
Cinclodes antarcticus,Animalia,OVENBIRDS_FURNARIIDAE,Blackish Cinclodes,,1,-60.55366059,-51.29393605,South America,Falkland Islands (Islas Malvinas),FK,,Falkland Islands - Carcass Island,2016-12-01,
Caracara plancus,Animalia,CARACAS_AND_FALCONS_FALCONIDAE,Southern Crested Caracara,,1,-60.26228943,-51.28644282,South America,Falkland Islands (Islas Malvinas),FK,,Falkland Islands - Saunders Island,2016-12-01,
Phalcoboenus australis,Animalia,CARACAS_AND_FALCONS_FALCONIDAE,Striated Caracara,,1,-60.26228943,-51.28644282,South America,Falkland Islands (Islas Malvinas),FK,,Falkland Islands - Saunders Island,2016-12-01,
Leucophaeus scoresbii,Animalia,GULLS_TERNS_AND_SKIMMERS_LARIDAE,Dolphin Gull,,1,-60.26228943,-51.28644282,South America,Falkland Islands (Islas Malvinas),FK,,Falkland Islands - Saunders Island,2016-12-01,
Chroicocephalus maculipennis,Animalia,GULLS_TERNS_AND_SKIMMERS_LARIDAE,Brown-hooded Gull,,1,-60.26228943,-51.28644282,South America,Falkland Islands (Islas Malvinas),FK,,Falkland Islands - Saunders Island,2016-12-01,
Haematopus ater,Animalia,OYSTERCATCHERS_HAEMATOPODIDAE,Blackish Oystercatcher,,1,-60.26228943,-51.28644282,South America,Falkland Islands (Islas Malvinas),FK,,Falkland Islands - Saunders Island,2016-12-01,
Haematopus leucopodus,Animalia,OYSTERCATCHERS_HAEMATOPODIDAE,Magellanic Oystercatcher,,1,-60.26228943,-51.28644282,South America,Falkland Islands (Islas Malvinas),FK,,Falkland Islands - Saunders Island,2016-12-01,
Chionis albus,Animalia,SHEATHBILLS_AND_ALLIES_CHIONIDAE,Snowy Sheathbill,,1,-60.26228943,-51.28644282,South America,Falkland Islands (Islas Malvinas),FK,,Falkland Islands - Saunders Island,2016-12-01,
Thalassarche melanophris,Animalia,ALBATROSSES_DIOMEDEIDAE,Black-browed Albatross,,1,-60.26228943,-51.28644282,South America,Falkland Islands (Islas Malvinas),FK,,Falkland Islands - Saunders Island,2016-12-01,
Spheniscus magellanicus,Animalia,PENGUINS_SPHENISCIDAE,Magellanic Penguin,,1,-60.55366059,-51.29393605,South America,Falkland Islands (Islas Malvinas),FK,,Falkland Islands - Carcass Island,2016-12-01,
Eudyptes chrysocome,Animalia,PENGUINS_SPHENISCIDAE,Southern Rockhopper Penguin,,1,-60.24306336,-51.29760708,South America,Falkland Islands (Islas Malvinas),FK,,Falkland Islands - Saunders Island,2016-12-01,
Pygoscelis papua,Animalia,PENGUINS_SPHENISCIDAE,Gentoo Penguin,,1,-60.24443665,-51.29760708,South America,Falkland Islands (Islas Malvinas),FK,,Falkland Islands - Saunders Island,2016-12-01,
Chloephaga hybrida,Animalia,DUCKS_GEESE_AND_SWANS_ANATIDAE,Kelp Goose,,1,-60.55640717,-51.29608289,South America,Falkland Islands (Islas Malvinas),FK,,Falkland Islands - Carcass Island,2016-12-01,
Tachyeres brachypterus,Animalia,DUCKS_GEESE_AND_SWANS_ANATIDAE,Falkland Steamer Duck,,1,-60.55640717,-51.2947948,South America,Falkland Islands (Islas Malvinas),FK,,Falkland Islands - Carcass Island,2016-12-01,
Troglodytes cobbi,Animalia,WRENS_TROGLODYTIDAE,Cobb's Wren,,1,-60.55778046,-51.29050091,South America,Falkland Islands (Islas Malvinas),FK,,Falkland Islands - Carcass Island,2016-12-01,
Leucophaeus scoresbii,Animalia,GULLS_TERNS_AND_SKIMMERS_LARIDAE,Dolphin Gull,,1,-57.856,-51.6918,South America,Falkland Islands (Islas Malvinas),FK,,Falkland Islands (Islas Malvinas),2016-11-03,12:14
Tachyeres brachypterus,Animalia,DUCKS_GEESE_AND_SWANS_ANATIDAE,Falkland Steamer Duck,,1,-60.2449,-51.3134,South America,Falkland Islands (Islas Malvinas),FK,,Falkland Islands - Saunders Island,2016-11-02,17:56
Thalassarche melanophris,Animalia,ALBATROSSES_DIOMEDEIDAE,Black-browed Albatross,,1,-60.2449,-51.3134,South America,Falkland Islands (Islas Malvinas),FK,,Falkland Islands - Saunders Island,2016-11-02,17:56
Eudyptes chrysocome,Animalia,PENGUINS_SPHENISCIDAE,Southern Rockhopper Penguin,,1,-60.2449,-51.3134,South America,Falkland Islands (Islas Malvinas),FK,,Falkland Islands - Saunders Island,2016-11-02,17:56
Pygoscelis papua,Animalia,PENGUINS_SPHENISCIDAE,Gentoo Penguin,,1,-60.2449,-51.3134,South America,Falkland Islands (Islas Malvinas),FK,,Falkland Islands - Saunders Island,2016-11-02,17:56
Aptenodytes patagonicus,Animalia,PENGUINS_SPHENISCIDAE,King Penguin,,1,-60.2449,-51.3134,South America,Falkland Islands (Islas Malvinas),FK,,Falkland Islands - Saunders Island,2016-11-02,17:56
Chloephaga rubidiceps,Animalia,DUCKS_GEESE_AND_SWANS_ANATIDAE,Ruddy-headed Goose,,1,-60.5557,-51.2922,South America,Falkland Islands (Islas Malvinas),FK,,Falkland Islands - Carcass Island,2016-11-02,08:39
Spheniscus magellanicus,Animalia,PENGUINS_SPHENISCIDAE,Magellanic Penguin,,1,-60.5281,-51.3078,South America,Falkland Islands (Islas Malvinas),FK,,Falkland Islands - Carcass Island,2016-11-02,10:49
Pygoscelis papua,Animalia,PENGUINS_SPHENISCIDAE,Gentoo Penguin,,1,-60.5281,-51.3078,South America,Falkland Islands (Islas Malvinas),FK,,Falkland Islands - Carcass Island,2016-11-02,10:49
Spinus barbatus,Animalia,FINCHES_FRINGILLIDAE,Black-chinned Siskin,,1,-60.5558,-51.2922,South America,Falkland Islands (Islas Malvinas),FK,,Falkland Islands - Carcass Island,2016-11-02,08:32
Melanodera melanodera,Animalia,TANAGERS_AND_ALLIES_THRAUPIDAE,White-bridled Finch,,1,-60.5557,-51.2922,South America,Falkland Islands (Islas Malvinas),FK,,Falkland Islands - Carcass Island,2016-11-02,08:39
Tachyeres brachypterus,Animalia,DUCKS_GEESE_AND_SWANS_ANATIDAE,Falkland Steamer Duck,,1,-60.5283,-51.3056,South America,Falkland Islands (Islas Malvinas),FK,,Falkland Islands - Carcass Island,2016-11-02,11:19
Chionis albus,Animalia,SHEATHBILLS_AND_ALLIES_CHIONIDAE,Snowy Sheathbill,,1,-60.5215,-51.3083,South America,Falkland Islands (Islas Malvinas),FK,,Falkland Islands - Carcass Island,2016-11-02,10:25
Cinclodes antarcticus,Animalia,OVENBIRDS_FURNARIIDAE,Blackish Cinclodes,,1,-60.5543,-51.2912,South America,Falkland Islands (Islas Malvinas),FK,,Falkland Islands - Carcass Island,2016-11-02,09:11
Phalcoboenus australis,Animalia,CARACAS_AND_FALCONS_FALCONIDAE,Striated Caracara,,1,-60.5557,-51.2922,South America,Falkland Islands (Islas Malvinas),FK,,Falkland Islands - Carcass Island,2016-11-02,08:39
Tachyeres brachypterus,Animalia,DUCKS_GEESE_AND_SWANS_ANATIDAE,Falkland Steamer Duck,,1,-60.5558,-51.2921,South America,Falkland Islands (Islas Malvinas),FK,,Falkland Islands - Carcass Island,2016-11-02,08:35
Haematopus leucopodus,Animalia,OYSTERCATCHERS_HAEMATOPODIDAE,Magellanic Oystercatcher,,1,-60.5558,-51.2922,South America,Falkland Islands (Islas Malvinas),FK,,Falkland Islands - Carcass Island,2016-11-02,08:32
Cathartes aura falklandicus,Animalia,NEW_WORLD_VULTURES_CATHARTIDAE,Turkey Vulture ssp falklandicus,,1,-60.5558,-51.2922,South America,Falkland Islands (Islas Malvinas),FK,,Falkland Islands - Carcass Island,2016-11-02,08:32
Larus dominicanus,Animalia,GULLS_TERNS_AND_SKIMMERS_LARIDAE,Kelp Gull,,1,-60.5558,-51.2922,South America,Falkland Islands (Islas Malvinas),FK,,Falkland Islands - Carcass Island,2016-11-02,08:32
Tachyeres brachypterus,Animalia,DUCKS_GEESE_AND_SWANS_ANATIDAE,Falkland Steamer Duck,,2,-60.22899628,-51.3058354,South America,Falkland Islands (Islas Malvinas),FK,,Falkland Islands - Saunders Island,2016-11-02,
Thalassarche melanophris,Animalia,ALBATROSSES_DIOMEDEIDAE,Black-browed Albatross,,150,-60.2161789,-51.308461,South America,Falkland Islands (Islas Malvinas),FK,,Falkland Islands - Saunders Island,2016-11-02,
Phalcoboenus australis,Animalia,CARACAS_AND_FALCONS_FALCONIDAE,Striated Caracara,,2,-60.23918152,-51.30663669,South America,Falkland Islands (Islas Malvinas),FK,,Falkland Islands - Saunders Island,2016-11-02,
Eudyptes chrysocome chrysocome,Animalia,PENGUINS_SPHENISCIDAE,Southern Rockhopper Penguin ssp chrysocome,,2000,-60.23918152,-51.30663669,South America,Falkland Islands (Islas Malvinas),FK,,Falkland Islands - Saunders Island,2016-11-02,
Aptenodytes patagonicus,Animalia,PENGUINS_SPHENISCIDAE,King Penguin,,16,-60.23918152,-51.30663669,South America,Falkland Islands (Islas Malvinas),FK,,Falkland Islands - Saunders Island,2016-11-02,
Pygoscelis papua ellsworthi,Animalia,PENGUINS_SPHENISCIDAE,Gentoo Penguin ssp ellsworthi,,5000,-60.23918152,-51.30663669,South America,Falkland Islands (Islas Malvinas),FK,,Falkland Islands - Saunders Island,2016-11-02,
Turdus falcklandii,Animalia,THRUSHES_TURDIDAE,Austral Thrush,,6,-60.55438042,-51.29142055,South America,Falkland Islands (Islas Malvinas),FK,,Falkland Islands - Carcass Island,2016-11-02,
Larus dominicanus,Animalia,GULLS_TERNS_AND_SKIMMERS_LARIDAE,Kelp Gull,,2,-60.55348635,-51.29191525,South America,Falkland Islands (Islas Malvinas),FK,,Falkland Islands - Carcass Island,2016-11-02,
Haematopus leucopodus,Animalia,OYSTERCATCHERS_HAEMATOPODIDAE,Magellanic Oystercatcher,,4,-60.55348635,-51.29191525,South America,Falkland Islands (Islas Malvinas),FK,,Falkland Islands - Carcass Island,2016-11-02,
Chionis albus,Animalia,SHEATHBILLS_AND_ALLIES_CHIONIDAE,Snowy Sheathbill,,1,-60.55348635,-51.29191525,South America,Falkland Islands (Islas Malvinas),FK,,Falkland Islands - Carcass Island,2016-11-02,
Lophonetta specularioides specularioides,Animalia,DUCKS_GEESE_AND_SWANS_ANATIDAE,Crested Duck ssp specularioides,,2,-60.55348635,-51.29191525,South America,Falkland Islands (Islas Malvinas),FK,,Falkland Islands - Carcass Island,2016-11-02,
Spheniscus magellanicus,Animalia,PENGUINS_SPHENISCIDAE,Magellanic Penguin,,8,-60.55348635,-51.29191525,South America,Falkland Islands (Islas Malvinas),FK,,Falkland Islands - Carcass Island,2016-11-02,
Chloephaga picta leucoptera,Animalia,DUCKS_GEESE_AND_SWANS_ANATIDAE,Upland Goose ssp leucoptera,,4,-60.55348635,-51.29191525,South America,Falkland Islands (Islas Malvinas),FK,,Falkland Islands - Carcass Island,2016-11-02,
Melanodera melanodera,Animalia,TANAGERS_AND_ALLIES_THRAUPIDAE,White-bridled Finch,,2,-60.55348635,-51.29191525,South America,Falkland Islands (Islas Malvinas),FK,,Falkland Islands - Carcass Island,2016-11-02,
Spinus barbatus,Animalia,FINCHES_FRINGILLIDAE,Black-chinned Siskin,,8,-60.55348635,-51.29191525,South America,Falkland Islands (Islas Malvinas),FK,,Falkland Islands - Carcass Island,2016-11-02,
Tachyeres brachypterus,Animalia,DUCKS_GEESE_AND_SWANS_ANATIDAE,Falkland Steamer Duck,,2,-60.55348635,-51.29191525,South America,Falkland Islands (Islas Malvinas),FK,,Falkland Islands - Carcass Island,2016-11-02,
Leistes loyca falklandica,Animalia,ICTERIDS_ICTERIDAE,Long-tailed Meadowlark ssp falklandica,,3,-60.55348635,-51.29191525,South America,Falkland Islands (Islas Malvinas),FK,,Falkland Islands - Carcass Island,2016-11-02,
Cathartes aura falklandicus,Animalia,NEW_WORLD_VULTURES_CATHARTIDAE,Turkey Vulture ssp falklandicus,,1,-60.55348635,-51.29191525,South America,Falkland Islands (Islas Malvinas),FK,,Falkland Islands - Carcass Island,2016-11-02,
Troglodytes cobbi,Animalia,WRENS_TROGLODYTIDAE,Cobb's Wren,,2,-60.55348635,-51.29191525,South America,Falkland Islands (Islas Malvinas),FK,,Falkland Islands - Carcass Island,2016-11-02,
Chloephaga rubidiceps,Animalia,DUCKS_GEESE_AND_SWANS_ANATIDAE,Ruddy-headed Goose,,10,-60.55736303,-51.29080418,South America,Falkland Islands (Islas Malvinas),FK,,Falkland Islands - Carcass Island,2016-11-02,
Chloephaga hybrida malvinarum,Animalia,DUCKS_GEESE_AND_SWANS_ANATIDAE,Kelp Goose ssp malvinarum,,10,-60.55736303,-51.29080418,South America,Falkland Islands (Islas Malvinas),FK,,Falkland Islands - Carcass Island,2016-11-02,
Phalcoboenus australis,Animalia,CARACAS_AND_FALCONS_FALCONIDAE,Striated Caracara,,4,-60.55736303,-51.29080418,South America,Falkland Islands (Islas Malvinas),FK,,Falkland Islands - Carcass Island,2016-11-02,
Cistothorus platensis falklandicus,Animalia,WRENS_TROGLODYTIDAE,Grass Wren ssp falklandicus,,1,-60.55736303,-51.29080418,South America,Falkland Islands (Islas Malvinas),FK,,Falkland Islands - Carcass Island,2016-11-02,
Ardenna grisea,Animalia,PETRELS_AND_SHEARWATERS_PROCELLARIIDAE,Sooty Shearwater,,30,-57.6979,-51.6597,South America,Falkland Islands (Islas Malvinas),FK,,Falkland Islands (Islas Malvinas),2015-12-19,13:58
Chionis albus,Animalia,SHEATHBILLS_AND_ALLIES_CHIONIDAE,Snowy Sheathbill,,1,-60.2276,-51.3075,South America,Falkland Islands (Islas Malvinas),FK,,Falkland Islands - Saunders Island,2015-12-18,17:03
Eudyptes chrysocome,Animalia,PENGUINS_SPHENISCIDAE,Southern Rockhopper Penguin,,1,-60.2267,-51.3081,South America,Falkland Islands (Islas Malvinas),FK,,Falkland Islands - Saunders Island,2015-12-18,15:54
Leucophaeus scoresbii,Animalia,GULLS_TERNS_AND_SKIMMERS_LARIDAE,Dolphin Gull,,1,-60.2358,-51.3083,South America,Falkland Islands (Islas Malvinas),FK,,Falkland Islands - Saunders Island,2015-12-18,15:24
Phalcoboenus australis,Animalia,CARACAS_AND_FALCONS_FALCONIDAE,Striated Caracara,,1,-60.2358,-51.3084,South America,Falkland Islands (Islas Malvinas),FK,,Falkland Islands - Saunders Island,2015-12-18,15:23
Aptenodytes patagonicus,Animalia,PENGUINS_SPHENISCIDAE,King Penguin,,1,-60.2358,-51.3083,South America,Falkland Islands (Islas Malvinas),FK,,Falkland Islands - Saunders Island,2015-12-18,15:22
Pygoscelis papua,Animalia,PENGUINS_SPHENISCIDAE,Gentoo Penguin,,1,-60.2358,-51.3084,South America,Falkland Islands (Islas Malvinas),FK,,Falkland Islands - Saunders Island,2015-12-18,15:22
Melanodera melanodera melanodera,Animalia,TANAGERS_AND_ALLIES_THRAUPIDAE,White-bridled Finch ssp melanodera,,1,-60.5555,-51.2952,South America,Falkland Islands (Islas Malvinas),FK,,Falkland Islands - Carcass Island,2015-12-18,11:50
Phalcoboenus australis,Animalia,CARACAS_AND_FALCONS_FALCONIDAE,Striated Caracara,,1,-60.5542,-51.2908,South America,Falkland Islands (Islas Malvinas),FK,,Falkland Islands - Carcass Island,2015-12-18,10:27
Phalcoboenus australis,Animalia,CARACAS_AND_FALCONS_FALCONIDAE,Striated Caracara,,1,-60.5573,-51.2936,South America,Falkland Islands (Islas Malvinas),FK,,Falkland Islands - Carcass Island,2015-12-18,09:40
Cathartes aura falklandicus,Animalia,NEW_WORLD_VULTURES_CATHARTIDAE,Turkey Vulture ssp falklandicus,,1,-60.557,-51.2939,South America,Falkland Islands (Islas Malvinas),FK,,Falkland Islands - Carcass Island,2015-12-18,09:37
Phalacrocorax magellanicus,Animalia,CORMORANTS_PHALACROCORACIDAE,Rock Shag,,1,-60.557,-51.2939,South America,Falkland Islands (Islas Malvinas),FK,,Falkland Islands - Carcass Island,2015-12-18,09:37
Spheniscus magellanicus,Animalia,PENGUINS_SPHENISCIDAE,Magellanic Penguin,,1,-60.557,-51.2939,South America,Falkland Islands (Islas Malvinas),FK,,Falkland Islands - Carcass Island,2015-12-18,09:36
Tachyeres brachypterus,Animalia,DUCKS_GEESE_AND_SWANS_ANATIDAE,Falkland Steamer Duck,,1,-60.557,-51.2939,South America,Falkland Islands (Islas Malvinas),FK,,Falkland Islands - Carcass Island,2015-12-18,09:36
Haematopus leucopodus,Animalia,OYSTERCATCHERS_HAEMATOPODIDAE,Magellanic Oystercatcher,,1,-60.557,-51.2939,South America,Falkland Islands (Islas Malvinas),FK,,Falkland Islands - Carcass Island,2015-12-18,09:36
Haematopus ater,Animalia,OYSTERCATCHERS_HAEMATOPODIDAE,Blackish Oystercatcher,,1,-60.557,-51.2939,South America,Falkland Islands (Islas Malvinas),FK,,Falkland Islands - Carcass Island,2015-12-18,09:36
Turdus falcklandii,Animalia,THRUSHES_TURDIDAE,Austral Thrush,,1,-60.5569,-51.2946,South America,Falkland Islands (Islas Malvinas),FK,,Falkland Islands - Carcass Island,2015-12-18,09:31
Cinclodes antarcticus,Animalia,OVENBIRDS_FURNARIIDAE,Blackish Cinclodes,,1,-60.5569,-51.2946,South America,Falkland Islands (Islas Malvinas),FK,,Falkland Islands - Carcass Island,2015-12-18,09:31
Eubalaena australis,Animalia,RIGHT_WHALES_BALAENIDAE,Southern Right Whale,,1,-63.0898,-53.1745,South America,Falkland Islands (Islas Malvinas),FK,,Falkland Islands (Islas Malvinas),2015-12-17,15:03
