scientificName,kingdom,family,vernacularName,previousIdentifications,individualCount,longitudeDecimal,latitudeDecimal,continent,country,countryCode,stateProvince,locality,eventDate,eventTime
Fratercula arctica,Animalia,AUKS_ALCIDAE,Atlantic Puffin,,1,-6.79858982563,61.7730404062,Europe,Faroe Islands,FO,,Faroe Islands,2014-08-25,
Troglodytes troglodytes borealis,Animalia,WRENS_TROGLODYTIDAE,Faroe Wren,,1,-6.54406316,62.36031835,Europe,Faroe Islands,FO,,Faroe Islands,2014-07-13,14:51
Stercorarius skua,Animalia,SKUAS_STERCORARIIDAE,Great Skua,,1,-7.21435569227,62.0651352066,Europe,Faroe Islands,FO,,Faroe Islands,2011-06-14,
Tadorna cana,Animalia,DUCKS_GEESE_AND_SWANS_ANATIDAE,South African Shelduck,,1,-6.83974587918,62.0478881839,Europe,Faroe Islands,FO,,Faroe Islands,2011-07-14,10:00
Globicephala melas,Animalia,DOLPHINS_DELPHINIDAE,Long-Finned Pilot Whale,,1,-6.7504119873,62.0630549537,Europe,Faroe Islands,FO,,Faroe Islands,1976-06-24,
Delichon urbicum,Animalia,SWALLOWS_HIRUNDINIDAE,Common House Martin,,3,-7.64785767,62.10484315,Europe,Faroe Islands,FO,,Faroe Islands,1976-06-13,
Globicephala melas,Animalia,DOLPHINS_DELPHINIDAE,Long-Finned Pilot Whale,,6,-7.22076416016,62.1462593122,Europe,Faroe Islands,FO,,Faroe Islands,1976-06-10,
Haematopus ostralegus,Animalia,OYSTERCATCHERS_HAEMATOPODIDAE,Eurasian Oystercatcher,,8,-6.7886066,62.362034,Europe,Faroe Islands,FO,,Faroe Islands,2018-07-24,18:11
Larus fuscus,Animalia,GULLS_TERNS_AND_SKIMMERS_LARIDAE,Lesser Black-backed Gull,,1,-6.6741085,62.009849,Europe,Faroe Islands,FO,,Faroe Islands,2018-07-23,15:35
Arenaria interpres,Animalia,SANDPIPERS_AND_ALLIES_SCOLOPACIDAE,Ruddy Turnstone,,1,-7.15295121073723,62.0536675412453,Europe,Faroe Islands,FO,,Faroe Islands,2019-12-22,11:08
Arenaria interpres,Animalia,SANDPIPERS_AND_ALLIES_SCOLOPACIDAE,Ruddy Turnstone,,1,-7.15355705469847,62.053709807909,Europe,Faroe Islands,FO,,Faroe Islands,2019-12-22,11:08
Arenaria interpres,Animalia,SANDPIPERS_AND_ALLIES_SCOLOPACIDAE,Ruddy Turnstone,,1,-7.15339578688145,62.0539016569708,Europe,Faroe Islands,FO,,Faroe Islands,2019-12-22,11:08
Sturnus vulgaris,Animalia,STARLINGS_STURNIDAE,Common Starling,,1,-7.15170700103045,62.0544039783851,Europe,Faroe Islands,FO,,Faroe Islands,2019-12-22,11:10
Corvus cornix,Animalia,CROWS_AND_JAYS_CORVIDAE,Hooded Crow,,1,-7.15511474758387,62.0540119578488,Europe,Faroe Islands,FO,,Faroe Islands,2019-12-22,11:15
Arenaria interpres,Animalia,SANDPIPERS_AND_ALLIES_SCOLOPACIDAE,Ruddy Turnstone,,1,-7.15536687523127,62.0538897155412,Europe,Faroe Islands,FO,,Faroe Islands,2019-12-22,11:16
Arenaria interpres,Animalia,SANDPIPERS_AND_ALLIES_SCOLOPACIDAE,Ruddy Turnstone,,1,-7.15536687523127,62.0538897155412,Europe,Faroe Islands,FO,,Faroe Islands,2019-12-22,11:16
Arenaria interpres,Animalia,SANDPIPERS_AND_ALLIES_SCOLOPACIDAE,Ruddy Turnstone,,1,-7.15536687523127,62.0538897155412,Europe,Faroe Islands,FO,,Faroe Islands,2019-12-22,11:16
Arenaria interpres,Animalia,SANDPIPERS_AND_ALLIES_SCOLOPACIDAE,Ruddy Turnstone,,1,-7.15536687523127,62.0538897155412,Europe,Faroe Islands,FO,,Faroe Islands,2019-12-22,11:16
Arenaria interpres,Animalia,SANDPIPERS_AND_ALLIES_SCOLOPACIDAE,Ruddy Turnstone,,1,-7.15536687523127,62.0538897155412,Europe,Faroe Islands,FO,,Faroe Islands,2019-12-22,11:16
Arenaria interpres,Animalia,SANDPIPERS_AND_ALLIES_SCOLOPACIDAE,Ruddy Turnstone,,1,-7.15536687523127,62.0538897155412,Europe,Faroe Islands,FO,,Faroe Islands,2019-12-22,11:16
Arenaria interpres,Animalia,SANDPIPERS_AND_ALLIES_SCOLOPACIDAE,Ruddy Turnstone,,1,-7.15536687523127,62.0538897155412,Europe,Faroe Islands,FO,,Faroe Islands,2019-12-22,11:16
Arenaria interpres,Animalia,SANDPIPERS_AND_ALLIES_SCOLOPACIDAE,Ruddy Turnstone,,1,-7.15536687523127,62.0538897155412,Europe,Faroe Islands,FO,,Faroe Islands,2019-12-22,11:16
Arenaria interpres,Animalia,SANDPIPERS_AND_ALLIES_SCOLOPACIDAE,Ruddy Turnstone,,1,-7.15536687523127,62.0538897155412,Europe,Faroe Islands,FO,,Faroe Islands,2019-12-22,11:16
Arenaria interpres,Animalia,SANDPIPERS_AND_ALLIES_SCOLOPACIDAE,Ruddy Turnstone,,1,-7.15536687523127,62.0538897155412,Europe,Faroe Islands,FO,,Faroe Islands,2019-12-22,11:16
Caltha palustris,Plantae,RANUNCULACEAE,Marsh-marigold,,1,-6.8140984,62.243469,Europe,Faroe Islands,FO,,Faroe Islands,2018-07-25,16:17
Fratercula arctica,Animalia,AUKS_ALCIDAE,Atlantic Puffin,,2000,-7.67302752,62.09841558,Europe,Faroe Islands,FO,,Faroe Islands,2018-07-22,
Mimulus guttatus,Plantae,PHRYMACEAE,Monkeyflower,,10000,-6.9444859,62.32586,Europe,Faroe Islands,FO,,Faroe Islands,2018-07-21,15:37
Eriophorum angustifolium,Plantae,CYPERACEAE,Common Cottongrass,,1,-6.7597246,62.029621,Europe,Faroe Islands,FO,,Faroe Islands,2018-07-20,12:37
Anthus pratensis,Animalia,PIPITS_EN_WAGTAILS_MOTACILLIDAE,Meadow Pipit,,1,-5.575328,62.406055,Europe,Faroe Islands,FO,,Faroe Islands - Atlantic Ocean,2019-05-19,09:52
Cepphus grylle,Animalia,AUKS_ALCIDAE,Black Guillemot,,2,-7.168532371521,62.1533432006836,Europe,Faroe Islands,FO,,Faroe Islands,2019-10-15,09:33
Corvus cornix,Animalia,CROWS_AND_JAYS_CORVIDAE,Hooded Crow,,2,-6.6725902557373,62.0067443847656,Europe,Faroe Islands,FO,,Faroe Islands,2019-10-14,08:13
Sturnus vulgaris,Animalia,STARLINGS_STURNIDAE,Common Starling,,1,-6.67255401611328,62.0067443847656,Europe,Faroe Islands,FO,,Faroe Islands,2019-10-14,08:13
Passer domesticus,Animalia,OLD_WORLD_SPARROWS_PASSERIDAE,House Sparrow,,1,-6.6717700958252,62.0063171386719,Europe,Faroe Islands,FO,,Faroe Islands,2019-10-14,08:16
Columba livia,Animalia,PIGEONS_AND_DOVES_COLUMBIDAE,Rock Dove,,10,-6.6716513633728,62.0054092407227,Europe,Faroe Islands,FO,,Faroe Islands,2019-10-14,08:23
Troglodytes troglodytes borealis,Animalia,WRENS_TROGLODYTIDAE,Faroe Wren,,1,-6.67100381851196,62.0060043334961,Europe,Faroe Islands,FO,,Faroe Islands,2019-10-14,08:59
Turdus merula,Animalia,THRUSHES_TURDIDAE,Common Blackbird,,2,-6.67367124557495,62.0093765258789,Europe,Faroe Islands,FO,,Faroe Islands,2019-10-14,09:21
Streptopelia decaocto,Animalia,PIGEONS_AND_DOVES_COLUMBIDAE,Eurasian Collared Dove,,4,-6.777268409729,62.0144805908203,Europe,Faroe Islands,FO,,Faroe Islands,2019-10-14,14:10
Cygnus cygnus,Animalia,DUCKS_GEESE_AND_SWANS_ANATIDAE,Whooper Swan,,5,-6.9944314956665,62.1239471435547,Europe,Faroe Islands,FO,,Faroe Islands,2019-10-12,08:07
Anthus petrosus,Animalia,PIPITS_EN_WAGTAILS_MOTACILLIDAE,Eurasian Rock Pipit,,1,-7.64909553527832,62.1024742126465,Europe,Faroe Islands,FO,,Faroe Islands,2019-10-12,11:19
Chroicocephalus philadelphia,Animalia,GULLS_TERNS_AND_SKIMMERS_LARIDAE,Bonaparte's Gull,,1,-7.32599401473999,62.0709381103516,Europe,Faroe Islands,FO,,Faroe Islands,2019-10-12,18:04
Passer domesticus,Animalia,OLD_WORLD_SPARROWS_PASSERIDAE,House Sparrow,,15,-7.30930421501398,62.0724963108332,Europe,Faroe Islands,FO,,Faroe Islands,2019-10-10,11:22
Rissa tridactyla,Animalia,GULLS_TERNS_AND_SKIMMERS_LARIDAE,Black-legged Kittiwake,,3,-6.71388339996338,61.552791595459,Europe,Faroe Islands,FO,,Faroe Islands,2019-10-08,16:50
Turdus merula,Animalia,THRUSHES_TURDIDAE,Common Blackbird,,20,-6.78052186965942,62.0161514282227,Europe,Faroe Islands,FO,,Faroe Islands,2019-10-08,19:24
Bombycilla garrulus,Animalia,WAXWINGS_BOMBYCILLIDAE,Bohemian Waxwing,,1,-7.30827236175537,62.0720863342285,Europe,Faroe Islands,FO,,Faroe Islands,2019-10-10,13:13
Chroicocephalus philadelphia,Animalia,GULLS_TERNS_AND_SKIMMERS_LARIDAE,Bonaparte's Gull,,1,-7.31314277648926,62.0702171325684,Europe,Faroe Islands,FO,,Faroe Islands,2019-10-10,18:55
Aythya collaris,Animalia,DUCKS_GEESE_AND_SWANS_ANATIDAE,Ring-necked Duck,,1,-6.83592319488525,61.4678192138672,Europe,Faroe Islands,FO,,Faroe Islands,2019-10-07,15:44
Anthus petrosus,Animalia,PIPITS_EN_WAGTAILS_MOTACILLIDAE,Eurasian Rock Pipit,,5,-6.941705374053625,62.32583755167418,Europe,Faroe Islands,FO,,Faroe Islands,2019-10-09,12:07
Passer domesticus,Animalia,OLD_WORLD_SPARROWS_PASSERIDAE,House Sparrow,,25,-6.694022649905359,62.07032424403547,Europe,Faroe Islands,FO,,Faroe Islands,2019-10-09,08:47
Turdus merula,Animalia,THRUSHES_TURDIDAE,Common Blackbird,,10,-6.781422598293779,62.01612945651823,Europe,Faroe Islands,FO,,Faroe Islands,2019-10-08,18:20
Rissa tridactyla,Animalia,GULLS_TERNS_AND_SKIMMERS_LARIDAE,Black-legged Kittiwake,,1,-6.695838170132316,61.57436527317536,Europe,Faroe Islands,FO,,Faroe Islands,2019-10-08,15:54
Morus bassanus,Animalia,GANNETS_AND_BOOBIES_SULIDAE,Northern Gannet,,50,-6.697023287421741,61.57253303105158,Europe,Faroe Islands,FO,,Faroe Islands,2019-10-08,15:54
Sturnus vulgaris,Animalia,STARLINGS_STURNIDAE,Common Starling,,2,-7.27828979492188,62.0679969787598,Europe,Faroe Islands,FO,,Faroe Islands,2019-10-03,19:43
Corvus cornix,Animalia,CROWS_AND_JAYS_CORVIDAE,Hooded Crow,,1,-7.24619007110596,62.0676879882813,Europe,Faroe Islands,FO,,Faroe Islands,2019-10-03,19:57
Sturnus vulgaris,Animalia,STARLINGS_STURNIDAE,Common Starling,,15,-7.15097427368164,62.0564308166504,Europe,Faroe Islands,FO,,Faroe Islands,2019-10-04,08:44
Corvus cornix,Animalia,CROWS_AND_JAYS_CORVIDAE,Hooded Crow,,5,-7.15093564987183,62.0564041137695,Europe,Faroe Islands,FO,,Faroe Islands,2019-10-04,08:44
Anthus petrosus,Animalia,PIPITS_EN_WAGTAILS_MOTACILLIDAE,Eurasian Rock Pipit,,1,-7.14727067947388,62.0566482543945,Europe,Faroe Islands,FO,,Faroe Islands,2019-10-04,09:13
Passer domesticus,Animalia,OLD_WORLD_SPARROWS_PASSERIDAE,House Sparrow,,10,-7.14851570129395,62.0556793212891,Europe,Faroe Islands,FO,,Faroe Islands,2019-10-04,09:17
Mergus serrator,Animalia,DUCKS_GEESE_AND_SWANS_ANATIDAE,Red-breasted Merganser,,2,-7.15321588516235,62.0543479919434,Europe,Faroe Islands,FO,,Faroe Islands,2019-10-04,09:30
Arenaria interpres,Animalia,SANDPIPERS_AND_ALLIES_SCOLOPACIDAE,Ruddy Turnstone,,2,-7.15470361709595,62.0541114807129,Europe,Faroe Islands,FO,,Faroe Islands,2019-10-04,09:40
Cygnus cygnus,Animalia,DUCKS_GEESE_AND_SWANS_ANATIDAE,Whooper Swan,,1,-7.00282955169678,62.1268501281738,Europe,Faroe Islands,FO,,Faroe Islands,2019-10-04,10:25
Fulmarus glacialis,Animalia,PETRELS_AND_SHEARWATERS_PROCELLARIIDAE,Northern Fulmar,,1,-6.67552328109741,61.9364166259766,Europe,Faroe Islands,FO,,Faroe Islands,2019-10-04,12:46
Morus bassanus,Animalia,GANNETS_AND_BOOBIES_SULIDAE,Northern Gannet,,1,-6.60765552520752,61.715087890625,Europe,Faroe Islands,FO,,Faroe Islands,2019-10-04,13:46
Rissa tridactyla,Animalia,GULLS_TERNS_AND_SKIMMERS_LARIDAE,Black-legged Kittiwake,,3,-6.62887859344482,61.6601066589355,Europe,Faroe Islands,FO,,Faroe Islands,2019-10-04,14:00
Somateria mollissima faeroeensis,Animalia,DUCKS_GEESE_AND_SWANS_ANATIDAE,Common Eider ssp faeroeensis,,8,-6.8152322769165,61.5515403747559,Europe,Faroe Islands,FO,,Faroe Islands,2019-10-04,14:48
Somateria mollissima faeroeensis,Animalia,DUCKS_GEESE_AND_SWANS_ANATIDAE,Common Eider ssp faeroeensis,,5,-6.93142175674438,61.5945243835449,Europe,Faroe Islands,FO,,Faroe Islands,2019-10-04,17:32
Aythya collaris,Animalia,DUCKS_GEESE_AND_SWANS_ANATIDAE,Ring-necked Duck,,1,-6.8343358039856,61.4688377380371,Europe,Faroe Islands,FO,,Faroe Islands,2019-10-05,12:49
Aythya collaris,Animalia,DUCKS_GEESE_AND_SWANS_ANATIDAE,Ring-necked Duck,,1,-6.8359522819519,61.4678421020508,Europe,Faroe Islands,FO,,Faroe Islands,2019-10-06,11:32
Rissa tridactyla,Animalia,GULLS_TERNS_AND_SKIMMERS_LARIDAE,Black-legged Kittiwake,,25,-6.745109217669032,61.544567413507174,Europe,Faroe Islands,FO,,Faroe Islands,2019-10-06,16:47
Aythya collaris,Animalia,DUCKS_GEESE_AND_SWANS_ANATIDAE,Ring-necked Duck,,1,-6.836099093786288,61.46775798412176,Europe,Faroe Islands,FO,,Faroe Islands,2019-10-06,11:36
Aythya collaris,Animalia,DUCKS_GEESE_AND_SWANS_ANATIDAE,Ring-necked Duck,,1,-6.835322259000349,61.46817125385763,Europe,Faroe Islands,FO,,Faroe Islands,2019-10-05,11:53
Aythya collaris,Animalia,DUCKS_GEESE_AND_SWANS_ANATIDAE,Ring-necked Duck,,1,-6.8359522819519,61.4678421020508,Europe,Faroe Islands,FO,,Faroe Islands,2019-10-06,11:32
Rissa tridactyla,Animalia,GULLS_TERNS_AND_SKIMMERS_LARIDAE,Black-legged Kittiwake,,3,-6.80940866470337,61.5548706054688,Europe,Faroe Islands,FO,,Faroe Islands,2019-10-06,18:14
Aythya collaris,Animalia,DUCKS_GEESE_AND_SWANS_ANATIDAE,Ring-necked Duck,,1,-6.83602285385132,61.4678421020508,Europe,Faroe Islands,FO,,Faroe Islands,2019-10-06,11:32
Aythya collaris,Animalia,DUCKS_GEESE_AND_SWANS_ANATIDAE,Ring-necked Duck,,1,-6.83197116851807,61.5531883239746,Europe,Faroe Islands,FO,,Faroe Islands,2019-10-05,20:37
Aythya collaris,Animalia,DUCKS_GEESE_AND_SWANS_ANATIDAE,Ring-necked Duck,,1,-6.83197116851807,61.5531883239746,Europe,Faroe Islands,FO,,Faroe Islands,2019-10-05,20:37
Aythya collaris,Animalia,DUCKS_GEESE_AND_SWANS_ANATIDAE,Ring-necked Duck,,1,-6.83431482315064,61.4687881469727,Europe,Faroe Islands,FO,,Faroe Islands,2019-10-05,11:47
Sturnus vulgaris,Animalia,STARLINGS_STURNIDAE,Common Starling,,2,-7.27868270874023,62.0675010681152,Europe,Faroe Islands,FO,,Faroe Islands,2019-10-03,19:35
Corvus cornix,Animalia,CROWS_AND_JAYS_CORVIDAE,Hooded Crow,,1,-7.15088176727295,62.0564994812012,Europe,Faroe Islands,FO,,Faroe Islands,2019-10-04,07:42
Anthus petrosus,Animalia,PIPITS_EN_WAGTAILS_MOTACILLIDAE,Eurasian Rock Pipit,,1,-7.14828062057495,62.0557250976563,Europe,Faroe Islands,FO,,Faroe Islands,2019-10-04,08:15
Mergus serrator,Animalia,DUCKS_GEESE_AND_SWANS_ANATIDAE,Red-breasted Merganser,,2,-7.15325450897217,62.0543212890625,Europe,Faroe Islands,FO,,Faroe Islands,2019-10-04,08:29
Arenaria interpres,Animalia,SANDPIPERS_AND_ALLIES_SCOLOPACIDAE,Ruddy Turnstone,,2,-7.15477132797241,62.054069519043,Europe,Faroe Islands,FO,,Faroe Islands,2019-10-04,08:39
Cygnus cygnus,Animalia,DUCKS_GEESE_AND_SWANS_ANATIDAE,Whooper Swan,,1,-7.00279903411865,62.1268730163574,Europe,Faroe Islands,FO,,Faroe Islands,2019-10-04,09:23
Somateria mollissima faeroeensis,Animalia,DUCKS_GEESE_AND_SWANS_ANATIDAE,Common Eider ssp faeroeensis,,50,-6.96274948120117,61.5905990600586,Europe,Faroe Islands,FO,,Faroe Islands,2019-10-04,17:14
Morus bassanus,Animalia,GANNETS_AND_BOOBIES_SULIDAE,Northern Gannet,,1,-6.689072716987402,61.561160967742616,Europe,Faroe Islands,FO,,Faroe Islands,2019-10-04,13:24
Rissa tridactyla,Animalia,GULLS_TERNS_AND_SKIMMERS_LARIDAE,Black-legged Kittiwake,,2,-6.631509494042612,61.65436911402424,Europe,Faroe Islands,FO,,Faroe Islands,2019-10-04,13:00
Fulmarus glacialis,Animalia,PETRELS_AND_SHEARWATERS_PROCELLARIIDAE,Northern Fulmar,,1,-6.676157880580682,61.93719585897581,Europe,Faroe Islands,FO,,Faroe Islands,2019-10-04,11:44
Cygnus cygnus,Animalia,DUCKS_GEESE_AND_SWANS_ANATIDAE,Whooper Swan,,1,-7.0028636790877234,62.1268838178945,Europe,Faroe Islands,FO,,Faroe Islands,2019-10-04,09:23
Mergus serrator,Animalia,DUCKS_GEESE_AND_SWANS_ANATIDAE,Red-breasted Merganser,,2,-7.1532764285869455,62.05434083478716,Europe,Faroe Islands,FO,,Faroe Islands,2019-10-04,08:29
Passer domesticus,Animalia,OLD_WORLD_SPARROWS_PASSERIDAE,House Sparrow,,30,-7.147666839889388,62.05502660019514,Europe,Faroe Islands,FO,,Faroe Islands,2019-10-04,08:21
Anthus petrosus,Animalia,PIPITS_EN_WAGTAILS_MOTACILLIDAE,Eurasian Rock Pipit,,1,-7.147581260658006,62.05657142685918,Europe,Faroe Islands,FO,,Faroe Islands,2019-10-04,08:11
Passer domesticus,Animalia,OLD_WORLD_SPARROWS_PASSERIDAE,House Sparrow,,1,-7.147581260658006,62.05657142685918,Europe,Faroe Islands,FO,,Faroe Islands,2019-10-04,08:11
Corvus cornix,Animalia,CROWS_AND_JAYS_CORVIDAE,Hooded Crow,,15,-7.150977104908927,62.0564311557096,Europe,Faroe Islands,FO,,Faroe Islands,2019-10-04,07:42
Corvus cornix,Animalia,CROWS_AND_JAYS_CORVIDAE,Hooded Crow,,1,-7.2461807727881204,62.0668627275732,Europe,Faroe Islands,FO,,Faroe Islands,2019-10-03,18:56
Sturnus vulgaris,Animalia,STARLINGS_STURNIDAE,Common Starling,,2,-7.276167869574647,62.06821208825527,Europe,Faroe Islands,FO,,Faroe Islands,2019-10-03,18:45
Passer domesticus,Animalia,OLD_WORLD_SPARROWS_PASSERIDAE,House Sparrow,,1,-7.14729785919189,62.0567169189453,Europe,Faroe Islands,FO,,Faroe Islands,2019-10-04,08:10
Anthus petrosus,Animalia,PIPITS_EN_WAGTAILS_MOTACILLIDAE,Eurasian Rock Pipit,,1,-7.14711761474609,62.0567893981934,Europe,Faroe Islands,FO,,Faroe Islands,2019-10-04,08:10
Mergus serrator,Animalia,DUCKS_GEESE_AND_SWANS_ANATIDAE,Red-breasted Merganser,,2,-7.15311908721924,62.0544052124023,Europe,Faroe Islands,FO,,Faroe Islands,2019-10-04,08:28
Arenaria interpres,Animalia,SANDPIPERS_AND_ALLIES_SCOLOPACIDAE,Ruddy Turnstone,,2,-7.15481042861939,62.0541076660156,Europe,Faroe Islands,FO,,Faroe Islands,2019-10-04,08:39
Cygnus cygnus,Animalia,DUCKS_GEESE_AND_SWANS_ANATIDAE,Whooper Swan,,1,-7.00281047821045,62.1268501281738,Europe,Faroe Islands,FO,,Faroe Islands,2019-10-04,09:23
Fulmarus glacialis,Animalia,PETRELS_AND_SHEARWATERS_PROCELLARIIDAE,Northern Fulmar,,1,-6.67565965652466,61.9365577697754,Europe,Faroe Islands,FO,,Faroe Islands,2019-10-04,11:45
Corvus cornix,Animalia,CROWS_AND_JAYS_CORVIDAE,Hooded Crow,,3,-7.15129709243774,62.0561370849609,Europe,Faroe Islands,FO,,Faroe Islands,2019-10-04,07:34
Globicephala melas melas,Animalia,DOLPHINS_DELPHINIDAE,Long-finned Pilot Whale (Northern Atlantic),,8,-10.10054493,61.26960754,Europe,Faroe Islands,FO,,Faroe Islands - Atlantic Ocean,2019-09-02,15:12
Corvus cornix,Animalia,CROWS_AND_JAYS_CORVIDAE,Hooded Crow,,1,-6.7738938331604,62.0087966918945,Europe,Faroe Islands,FO,,Faroe Islands,2019-08-20,13:59
Somateria mollissima,Animalia,DUCKS_GEESE_AND_SWANS_ANATIDAE,Common Eider,,2,-6.7738938331604,62.0087966918945,Europe,Faroe Islands,FO,,Faroe Islands,2019-08-20,14:04
Somateria mollissima,Animalia,DUCKS_GEESE_AND_SWANS_ANATIDAE,Common Eider,,18,-6.7606757953763,62.0071397094305,Europe,Faroe Islands,FO,,Faroe Islands,2019-08-20,15:01
Somateria mollissima,Animalia,DUCKS_GEESE_AND_SWANS_ANATIDAE,Common Eider,,6,-6.7712202295661,62.0037397907178,Europe,Faroe Islands,FO,,Faroe Islands,2019-08-20,10:34
Vanessa cardui,Animalia,BRUSHFOOTED_BUTTERFLIES_NYMPHALIDAE,Painted Lady,,1,-6.79275906341369,61.9520394585636,Europe,Faroe Islands,FO,,Faroe Islands,2019-08-04,15:32
Vanessa cardui,Animalia,BRUSHFOOTED_BUTTERFLIES_NYMPHALIDAE,Painted Lady,,1,-6.79489303842619,61.952124118477,Europe,Faroe Islands,FO,,Faroe Islands,2019-08-04,16:31
Vanessa cardui,Animalia,BRUSHFOOTED_BUTTERFLIES_NYMPHALIDAE,Painted Lady,,1,-7.29824256896973,62.1098022460938,Europe,Faroe Islands,FO,,Faroe Islands,2019-08-09,11:10
Narthecium ossifragum,Plantae,Nartheciaceae,Bog Asphodel,,1,-7.1783343,62.25254108,Europe,Faroe Islands,FO,,Faroe Islands,2019-07-29,
Vanessa cardui,Animalia,BRUSHFOOTED_BUTTERFLIES_NYMPHALIDAE,Painted Lady,,1,-7.13766670227051,62.0525856018066,Europe,Faroe Islands,FO,,Faroe Islands,2019-08-04,14:57
Vanessa cardui,Animalia,BRUSHFOOTED_BUTTERFLIES_NYMPHALIDAE,Painted Lady,,1,-7.13941287994385,62.0512428283691,Europe,Faroe Islands,FO,,Faroe Islands,2019-08-04,15:03
Vanessa cardui,Animalia,BRUSHFOOTED_BUTTERFLIES_NYMPHALIDAE,Painted Lady,,1,-7.15707206726074,62.0537071228027,Europe,Faroe Islands,FO,,Faroe Islands,2019-08-03,14:05
Vanessa cardui,Animalia,BRUSHFOOTED_BUTTERFLIES_NYMPHALIDAE,Painted Lady,,1,-7.14911632239819,62.0482118200304,Europe,Faroe Islands,FO,,Faroe Islands,2019-08-03,18:01
Vanessa cardui,Animalia,BRUSHFOOTED_BUTTERFLIES_NYMPHALIDAE,Painted Lady,,1,-7.1502161026001,62.0491828918457,Europe,Faroe Islands,FO,,Faroe Islands,2019-07-31,10:13
Vanessa cardui,Animalia,BRUSHFOOTED_BUTTERFLIES_NYMPHALIDAE,Painted Lady,,1,-7.14996433258057,62.0487327575684,Europe,Faroe Islands,FO,,Faroe Islands,2019-07-31,10:14
Bombus lucorum-gr.,Animalia,Apidae,Bombus lucorum-complex,,1,-7.15952765196562,62.0560287278334,Europe,Faroe Islands,FO,,Faroe Islands,2019-07-31,20:17
Cystopteris fragilis,Plantae,CYSTOPTERIDACEAE,Brittle Bladder Fern,,1,-7.177097797393799,62.24923478213407,Europe,Faroe Islands,FO,,Faroe Islands,2019-07-29,14:34
Sterna paradisaea,Animalia,GULLS_TERNS_AND_SKIMMERS_LARIDAE,Arctic Tern,,1,-7.3260147222222,62.070829722222,Europe,Faroe Islands,FO,,Faroe Islands,2019-07-07,11:15
Oenanthe oenanthe,Animalia,OLD_WORLD_FLYCATCHERS_MUSCICAPIDAE,Northern Wheatear,,1,-7.6393563888889,62.105928055556,Europe,Faroe Islands,FO,,Faroe Islands,2019-07-08,18:05
Anthus petrosus,Animalia,PIPITS_EN_WAGTAILS_MOTACILLIDAE,Eurasian Rock Pipit,,1,-7.58223,62.103293055556,Europe,Faroe Islands,FO,,Faroe Islands,2019-07-09,12:15
Calidris maritima,Animalia,SANDPIPERS_AND_ALLIES_SCOLOPACIDAE,Purple Sandpiper,,1,-7.5900863888889,62.111205,Europe,Faroe Islands,FO,,Faroe Islands,2019-07-09,14:10
Pluvialis apricaria,Animalia,PLOVERS_CHARADRIIDAE,European Golden Plover,,1,-7.6062147222222,62.108249722222,Europe,Faroe Islands,FO,,Faroe Islands,2019-07-09,14:50
Numenius phaeopus,Animalia,SANDPIPERS_AND_ALLIES_SCOLOPACIDAE,Eurasian Whimbrel,,1,-7.6136713888889,62.106974722222,Europe,Faroe Islands,FO,,Faroe Islands,2019-07-09,15:03
Somateria mollissima,Animalia,DUCKS_GEESE_AND_SWANS_ANATIDAE,Common Eider,,1,-7.4395863888889,62.109596388889,Europe,Faroe Islands,FO,,Faroe Islands,2019-07-04,11:36
Fratercula arctica,Animalia,AUKS_ALCIDAE,Atlantic Puffin,,1,-7.4360413888889,62.107766388889,Europe,Faroe Islands,FO,,Faroe Islands,2019-07-04,11:52
Fratercula arctica,Animalia,AUKS_ALCIDAE,Atlantic Puffin,,1,-6.7635880555556,62.335383055556,Europe,Faroe Islands,FO,,Faroe Islands,2019-07-04,19:45
Gallinago gallinago,Animalia,SANDPIPERS_AND_ALLIES_SCOLOPACIDAE,Common Snipe,,1,-6.7668947222222,62.33469,Europe,Faroe Islands,FO,,Faroe Islands,2019-07-04,20:24
Numenius phaeopus,Animalia,SANDPIPERS_AND_ALLIES_SCOLOPACIDAE,Eurasian Whimbrel,,1,-7.6354713888889,62.106708055556,Europe,Faroe Islands,FO,,Faroe Islands,2019-07-10,12:19
Fratercula arctica,Animalia,AUKS_ALCIDAE,Atlantic Puffin,,1,-7.6350580555556,62.108296388889,Europe,Faroe Islands,FO,,Faroe Islands,2019-07-10,12:38
Fratercula arctica,Animalia,AUKS_ALCIDAE,Atlantic Puffin,,1,-7.6350547222222,62.108298055556,Europe,Faroe Islands,FO,,Faroe Islands,2019-07-10,12:42
Fratercula arctica,Animalia,AUKS_ALCIDAE,Atlantic Puffin,,1,-7.6528363888889,62.104403055556,Europe,Faroe Islands,FO,,Faroe Islands,2019-07-10,14:03
Fratercula arctica,Animalia,AUKS_ALCIDAE,Atlantic Puffin,,1,-7.6533113888889,62.104206388889,Europe,Faroe Islands,FO,,Faroe Islands,2019-07-10,14:11
Fratercula arctica,Animalia,AUKS_ALCIDAE,Atlantic Puffin,,1,-7.6581863888889,62.102779722222,Europe,Faroe Islands,FO,,Faroe Islands,2019-07-10,14:37
Fratercula arctica,Animalia,AUKS_ALCIDAE,Atlantic Puffin,,1,-7.6546830555556,62.103913055556,Europe,Faroe Islands,FO,,Faroe Islands,2019-07-10,14:22
Numenius phaeopus,Animalia,SANDPIPERS_AND_ALLIES_SCOLOPACIDAE,Eurasian Whimbrel,,1,-7.2842213888889,62.103939722222,Europe,Faroe Islands,FO,,Faroe Islands,2019-07-11,12:20
Mergus serrator,Animalia,DUCKS_GEESE_AND_SWANS_ANATIDAE,Red-breasted Merganser,,1,-7.2924380555556,62.109833055556,Europe,Faroe Islands,FO,,Faroe Islands,2019-07-11,13:04
Vanessa cardui,Animalia,BRUSHFOOTED_BUTTERFLIES_NYMPHALIDAE,Painted Lady,,1,-7.15021371841431,62.0490875244141,Europe,Faroe Islands,FO,,Faroe Islands,2019-07-09,17:40
Vanessa cardui,Animalia,BRUSHFOOTED_BUTTERFLIES_NYMPHALIDAE,Painted Lady,,1,-7.14844751358032,62.0475769042969,Europe,Faroe Islands,FO,,Faroe Islands,2019-07-09,17:44
Vanessa cardui,Animalia,BRUSHFOOTED_BUTTERFLIES_NYMPHALIDAE,Painted Lady,,1,-7.15640163421631,62.0539283752441,Europe,Faroe Islands,FO,,Faroe Islands,2019-07-10,09:06
Vanessa cardui,Animalia,BRUSHFOOTED_BUTTERFLIES_NYMPHALIDAE,Painted Lady,,1,-7.11480951309204,62.0985527038574,Europe,Faroe Islands,FO,,Faroe Islands,2019-07-18,12:49
Vanessa cardui,Animalia,BRUSHFOOTED_BUTTERFLIES_NYMPHALIDAE,Painted Lady,,1,-6.84454965591431,62.0446624755859,Europe,Faroe Islands,FO,,Faroe Islands,2019-06-23,14:32
Vanessa cardui,Animalia,BRUSHFOOTED_BUTTERFLIES_NYMPHALIDAE,Painted Lady,,1,-7.15182018280029,62.0534744262695,Europe,Faroe Islands,FO,,Faroe Islands,2019-06-24,08:46
Vanessa cardui,Animalia,BRUSHFOOTED_BUTTERFLIES_NYMPHALIDAE,Painted Lady,,3,-6.96874904632568,61.9871139526367,Europe,Faroe Islands,FO,,Faroe Islands,2019-06-24,16:16
Vanessa cardui,Animalia,BRUSHFOOTED_BUTTERFLIES_NYMPHALIDAE,Painted Lady,,1,-6.96805572509766,61.9866065979004,Europe,Faroe Islands,FO,,Faroe Islands,2019-06-24,16:40
Vanessa cardui,Animalia,BRUSHFOOTED_BUTTERFLIES_NYMPHALIDAE,Painted Lady,,1,-6.96805572509766,61.9866065979004,Europe,Faroe Islands,FO,,Faroe Islands,2019-06-24,16:41
Vanessa cardui,Animalia,BRUSHFOOTED_BUTTERFLIES_NYMPHALIDAE,Painted Lady,,2,-6.96730804443359,61.9860420227051,Europe,Faroe Islands,FO,,Faroe Islands,2019-06-24,16:45
Vanessa cardui,Animalia,BRUSHFOOTED_BUTTERFLIES_NYMPHALIDAE,Painted Lady,,1,-6.96487760543823,61.9846611022949,Europe,Faroe Islands,FO,,Faroe Islands,2019-06-24,16:48
Vanessa cardui,Animalia,BRUSHFOOTED_BUTTERFLIES_NYMPHALIDAE,Painted Lady,,1,-6.97552299499512,61.9867668151855,Europe,Faroe Islands,FO,,Faroe Islands,2019-06-25,10:41
Vanessa cardui,Animalia,BRUSHFOOTED_BUTTERFLIES_NYMPHALIDAE,Painted Lady,,1,-7.1576976776123,62.0537643432617,Europe,Faroe Islands,FO,,Faroe Islands,2019-07-01,10:43
Vanessa cardui,Animalia,BRUSHFOOTED_BUTTERFLIES_NYMPHALIDAE,Painted Lady,,1,-7.1576976776123,62.0537643432617,Europe,Faroe Islands,FO,,Faroe Islands,2019-07-01,11:03
Vanessa cardui,Animalia,BRUSHFOOTED_BUTTERFLIES_NYMPHALIDAE,Painted Lady,,1,-6.96621990203857,61.9856491088867,Europe,Faroe Islands,FO,,Faroe Islands,2019-07-02,18:11
Vanessa cardui,Animalia,BRUSHFOOTED_BUTTERFLIES_NYMPHALIDAE,Painted Lady,,1,-6.96611404418945,61.9854621887207,Europe,Faroe Islands,FO,,Faroe Islands,2019-07-03,10:59
Vanessa cardui,Animalia,BRUSHFOOTED_BUTTERFLIES_NYMPHALIDAE,Painted Lady,,1,-6.96637964248657,61.9855537414551,Europe,Faroe Islands,FO,,Faroe Islands,2019-07-03,11:00
Vanessa cardui,Animalia,BRUSHFOOTED_BUTTERFLIES_NYMPHALIDAE,Painted Lady,,1,-7.15717649459839,62.0537910461426,Europe,Faroe Islands,FO,,Faroe Islands,2019-07-08,16:29
Vanessa cardui,Animalia,BRUSHFOOTED_BUTTERFLIES_NYMPHALIDAE,Painted Lady,,1,-7.15673303604126,62.0535926818848,Europe,Faroe Islands,FO,,Faroe Islands,2019-07-09,08:47
Vanessa cardui,Animalia,BRUSHFOOTED_BUTTERFLIES_NYMPHALIDAE,Painted Lady,,15,-6.96424942463636,61.9844981737341,Europe,Faroe Islands,FO,,Faroe Islands,2019-06-17,18:28
Vanessa cardui,Animalia,BRUSHFOOTED_BUTTERFLIES_NYMPHALIDAE,Painted Lady,,1,-6.85055160522461,62.03857421875,Europe,Faroe Islands,FO,,Faroe Islands,2019-06-23,13:36
Vanessa cardui,Animalia,BRUSHFOOTED_BUTTERFLIES_NYMPHALIDAE,Painted Lady,,2,-6.84957551956177,62.0411491394043,Europe,Faroe Islands,FO,,Faroe Islands,2019-06-23,13:51
Vanessa cardui,Animalia,BRUSHFOOTED_BUTTERFLIES_NYMPHALIDAE,Painted Lady,,1,-6.84810066223145,62.0430030822754,Europe,Faroe Islands,FO,,Faroe Islands,2019-06-23,14:12
Phoenicurus phoenicurus,Animalia,OLD_WORLD_FLYCATCHERS_MUSCICAPIDAE,Common Redstart,,1,-5.28442383,62.46156653,Europe,Faroe Islands,FO,,Faroe Islands - Atlantic Ocean,2019-05-19,
Anthus pratensis,Animalia,PIPITS_EN_WAGTAILS_MOTACILLIDAE,Meadow Pipit,,1,-5.4454422,62.35972487,Europe,Faroe Islands,FO,,Faroe Islands - Atlantic Ocean,2019-05-19,
Anthus pratensis,Animalia,PIPITS_EN_WAGTAILS_MOTACILLIDAE,Meadow Pipit,,1,-5.57831001281738,62.3417358398438,Europe,Faroe Islands,FO,,Faroe Islands - Atlantic Ocean,2019-05-19,08:21
Phoenicurus phoenicurus,Animalia,OLD_WORLD_FLYCATCHERS_MUSCICAPIDAE,Common Redstart,,1,-5.57528495788574,62.7808380126953,Europe,Faroe Islands,FO,,Faroe Islands - Atlantic Ocean,2019-05-19,10:23
Calidris alpina,Animalia,SANDPIPERS_AND_ALLIES_SCOLOPACIDAE,Dunlin,,1,-5.58052015304565,62.2326354980469,Europe,Faroe Islands,FO,,Faroe Islands - Atlantic Ocean,2019-05-19,07:50
Phoenicurus phoenicurus,Animalia,OLD_WORLD_FLYCATCHERS_MUSCICAPIDAE,Common Redstart,,1,-5.57609272003174,62.4305381774902,Europe,Faroe Islands,FO,,Faroe Islands - Atlantic Ocean,2019-05-19,09:45
Calidris alpina,Animalia,SANDPIPERS_AND_ALLIES_SCOLOPACIDAE,Dunlin,,1,-5.58052015304565,62.2326354980469,Europe,Faroe Islands,FO,,Faroe Islands - Atlantic Ocean,2019-05-19,07:50
Anthus pratensis,Animalia,PIPITS_EN_WAGTAILS_MOTACILLIDAE,Meadow Pipit,,1,-5.57831001281738,62.3417358398438,Europe,Faroe Islands,FO,,Faroe Islands - Atlantic Ocean,2019-05-19,08:21
Phoenicurus phoenicurus,Animalia,OLD_WORLD_FLYCATCHERS_MUSCICAPIDAE,Common Redstart,,1,-5.57528495788574,62.7808380126953,Europe,Faroe Islands,FO,,Faroe Islands - Atlantic Ocean,2019-05-19,10:23
Phoenicurus phoenicurus,Animalia,OLD_WORLD_FLYCATCHERS_MUSCICAPIDAE,Common Redstart,,1,-5.57617044448853,62.4395904541016,Europe,Faroe Islands,FO,,Faroe Islands - Atlantic Ocean,2019-05-19,08:48
Anthus pratensis,Animalia,PIPITS_EN_WAGTAILS_MOTACILLIDAE,Meadow Pipit,,1,-5.579714715412646,62.3214280419363,Europe,Faroe Islands,FO,,Faroe Islands - Atlantic Ocean,2019-05-19,08:15
Calidris alpina,Animalia,SANDPIPERS_AND_ALLIES_SCOLOPACIDAE,Dunlin,,1,-5.580389457101057,62.22872991062049,Europe,Faroe Islands,FO,,Faroe Islands - Atlantic Ocean,2019-05-19,07:49
Anthus pratensis,Animalia,PIPITS_EN_WAGTAILS_MOTACILLIDAE,Meadow Pipit,,1,-5.580171999999948,62.32011,Europe,Faroe Islands,FO,,Faroe Islands - Atlantic Ocean,2019-05-19,09:15
Calidris alpina,Animalia,SANDPIPERS_AND_ALLIES_SCOLOPACIDAE,Dunlin,,1,-5.580854000000045,62.228691,Europe,Faroe Islands,FO,,Faroe Islands - Atlantic Ocean,2019-05-19,09:49
Phoenicurus phoenicurus,Animalia,OLD_WORLD_FLYCATCHERS_MUSCICAPIDAE,Common Redstart,,1,-5.575513999999998,62.778027,Europe,Faroe Islands,FO,,Faroe Islands - Atlantic Ocean,2019-05-19,11:22
Phoenicurus phoenicurus,Animalia,OLD_WORLD_FLYCATCHERS_MUSCICAPIDAE,Common Redstart,,1,-5.575276790191955,62.78203243861234,Europe,Faroe Islands,FO,,Faroe Islands - Atlantic Ocean,2019-05-19,11:23
Anthus pratensis,Animalia,PIPITS_EN_WAGTAILS_MOTACILLIDAE,Meadow Pipit,,1,-5.58006668,62.31980896,Europe,Faroe Islands,FO,,Faroe Islands - Atlantic Ocean,2019-05-19,09:15
Phoenicurus phoenicurus,Animalia,OLD_WORLD_FLYCATCHERS_MUSCICAPIDAE,Common Redstart,,1,-5.57609272003174,62.4305381774902,Europe,Faroe Islands,FO,,Faroe Islands - Atlantic Ocean,2019-05-19,09:45
Anthus pratensis,Animalia,PIPITS_EN_WAGTAILS_MOTACILLIDAE,Meadow Pipit,,1,-5.579993999999942,62.3212,Europe,Faroe Islands,FO,,Faroe Islands - Atlantic Ocean,2019-05-19,09:15
Corvus cornix,Animalia,CROWS_AND_JAYS_CORVIDAE,Hooded Crow,,1,-6.77710819244385,62.0134735107422,Europe,Faroe Islands,FO,,Faroe Islands,2019-05-09,15:54
Fulmarus glacialis,Animalia,PETRELS_AND_SHEARWATERS_PROCELLARIIDAE,Northern Fulmar,,60,-6.66554213,62.6345787,Europe,Faroe Islands,FO,,Faroe Islands - Atlantic Ocean,2018-09-21,11:10
Hyperoodon ampullatus,Animalia,BEAKED_WHALES_ZIPHIIDAE,North Atlantic Bottlenose Whale,,1,-6.6655421257019,62.634578704834,Europe,Faroe Islands,FO,,Faroe Islands - Atlantic Ocean,2018-09-21,11:10
Fulmarus glacialis,Animalia,PETRELS_AND_SHEARWATERS_PROCELLARIIDAE,Northern Fulmar,,50,-6.20448541641235,62.3734397888184,Europe,Faroe Islands,FO,,Faroe Islands,2018-09-21,12:52
Stercorarius skua,Animalia,SKUAS_STERCORARIIDAE,Great Skua,,1,-6.23210000991821,62.2434043884277,Europe,Faroe Islands,FO,,Faroe Islands,2018-09-21,13:33
Stercorarius skua,Animalia,SKUAS_STERCORARIIDAE,Great Skua,,2,-6.28286743164063,62.1936950683594,Europe,Faroe Islands,FO,,Faroe Islands,2018-09-21,13:49
Fulmarus glacialis,Animalia,PETRELS_AND_SHEARWATERS_PROCELLARIIDAE,Northern Fulmar,,60,-6.66554213,62.6345787,Europe,Faroe Islands,FO,,Faroe Islands - Atlantic Ocean,2018-09-21,11:10
Stercorarius skua,Animalia,SKUAS_STERCORARIIDAE,Great Skua,,1,-6.22476863861084,62.2512016296387,Europe,Faroe Islands,FO,,Faroe Islands,2018-09-21,13:31
Stercorarius skua,Animalia,SKUAS_STERCORARIIDAE,Great Skua,,3,-6.24113893508911,62.2331275939941,Europe,Faroe Islands,FO,,Faroe Islands,2018-09-21,13:37
Morus bassanus,Animalia,GANNETS_AND_BOOBIES_SULIDAE,Northern Gannet,,1,-6.55587291717529,61.6945152282715,Europe,Faroe Islands,FO,,Faroe Islands,2018-09-21,17:24
Morus bassanus,Animalia,GANNETS_AND_BOOBIES_SULIDAE,Northern Gannet,,1,-6.5703239440918,61.5877990722656,Europe,Faroe Islands,FO,,Faroe Islands,2018-09-21,18:08
Hyperoodon ampullatus,Animalia,BEAKED_WHALES_ZIPHIIDAE,North Atlantic Bottlenose Whale,,1,-6.6655421257019,62.634578704834,Europe,Faroe Islands,FO,,Faroe Islands - Atlantic Ocean,2018-09-21,11:10
Balaenoptera physalus,Animalia,RORQUAL_WHALES_BALAENOPTERIDAE,Fin Whale,,1,-6.62888336,62.61672211,Europe,Faroe Islands,FO,,Faroe Islands - Atlantic Ocean,2018-09-21,11:17
Fulmarus glacialis,Animalia,PETRELS_AND_SHEARWATERS_PROCELLARIIDAE,Northern Fulmar,,50,-6.20448541641235,62.3734397888184,Europe,Faroe Islands,FO,,Faroe Islands,2018-09-21,12:52
Fulmarus glacialis,Animalia,PETRELS_AND_SHEARWATERS_PROCELLARIIDAE,Northern Fulmar,,1200,-6.18096733093262,62.300895690918,Europe,Faroe Islands,FO,,Faroe Islands,2018-09-21,13:16
Stercorarius skua,Animalia,SKUAS_STERCORARIIDAE,Great Skua,,1,-6.23210000991821,62.2434043884277,Europe,Faroe Islands,FO,,Faroe Islands,2018-09-21,13:33
Stercorarius skua,Animalia,SKUAS_STERCORARIIDAE,Great Skua,,2,-6.28286743164063,62.1936950683594,Europe,Faroe Islands,FO,,Faroe Islands,2018-09-21,13:49
Anacamptis pyramidalis,Plantae,ORCHIDACEAE,Pyramidal Orchid,,1,-6.82,61.55,Europe,Faroe Islands,FO,,Faroe Islands,2018-06-27,
Somateria mollissima,Animalia,DUCKS_GEESE_AND_SWANS_ANATIDAE,Common Eider,,101,-6.79824372,61.95556458,Europe,Faroe Islands,FO,,Faroe Islands,2018-06-27,
Oenanthe oenanthe,Animalia,OLD_WORLD_FLYCATCHERS_MUSCICAPIDAE,Northern Wheatear,,1,-6.88256207,61.58620487,Europe,Faroe Islands,FO,,Faroe Islands,2018-06-27,
Anas acuta,Animalia,DUCKS_GEESE_AND_SWANS_ANATIDAE,Northern Pintail,,2,-6.97002182,61.60614332,Europe,Faroe Islands,FO,,Faroe Islands,2018-06-27,
Stercorarius skua,Animalia,SKUAS_STERCORARIIDAE,Great Skua,,1,-6.67828503,61.39317583,Europe,Faroe Islands,FO,,Faroe Islands,2018-06-27,
Stercorarius parasiticus,Animalia,SKUAS_STERCORARIIDAE,Parasitic Jaeger,,1,-6.67828503,61.39317583,Europe,Faroe Islands,FO,,Faroe Islands,2018-06-27,
Rissa tridactyla,Animalia,GULLS_TERNS_AND_SKIMMERS_LARIDAE,Black-legged Kittiwake,,1,-6.67781984,61.57621142,Europe,Faroe Islands,FO,,Faroe Islands,2018-06-27,
Anthus petrosus,Animalia,PIPITS_EN_WAGTAILS_MOTACILLIDAE,Eurasian Rock Pipit,,1,-6.98637086,62.33488379,Europe,Faroe Islands,FO,,Faroe Islands,2018-06-27,
Fratercula arctica,Animalia,AUKS_ALCIDAE,Atlantic Puffin,,1,-7.2356369,62.22138028,Europe,Faroe Islands,FO,,Faroe Islands,2018-06-27,
Uria aalge,Animalia,AUKS_ALCIDAE,Common Murre,,1001,-6.97694664,61.63735518,Europe,Faroe Islands,FO,,Faroe Islands,2018-06-27,
Cepphus grylle,Animalia,AUKS_ALCIDAE,Black Guillemot,,1,-7.23220368,62.21401903,Europe,Faroe Islands,FO,,Faroe Islands,2018-06-27,
Arenaria interpres,Animalia,SANDPIPERS_AND_ALLIES_SCOLOPACIDAE,Ruddy Turnstone,,1,-7.31460114,62.07327664,Europe,Faroe Islands,FO,,Faroe Islands,2018-06-27,
Sturnus vulgaris,Animalia,STARLINGS_STURNIDAE,Common Starling,,1001,-7.31460114,62.07327664,Europe,Faroe Islands,FO,,Faroe Islands,2018-06-27,
Passer domesticus,Animalia,OLD_WORLD_SPARROWS_PASSERIDAE,House Sparrow,,1,-7.31460114,62.07327664,Europe,Faroe Islands,FO,,Faroe Islands,2018-06-27,
Morus bassanus,Animalia,GANNETS_AND_BOOBIES_SULIDAE,Northern Gannet,,1,-6.68608704,61.64976019,Europe,Faroe Islands,FO,,Faroe Islands,2018-06-27,
Gavia stellata,Animalia,DIVERS_GAVIIDAE,Red-throated Diver,,2,-7.15656281,62.24091092,Europe,Faroe Islands,FO,,Faroe Islands,2018-06-27,
Numenius phaeopus,Animalia,SANDPIPERS_AND_ALLIES_SCOLOPACIDAE,Eurasian Whimbrel,,1,-6.60091555,62.29035749,Europe,Faroe Islands,FO,,Faroe Islands,2018-06-27,
Gallinago gallinago,Animalia,SANDPIPERS_AND_ALLIES_SCOLOPACIDAE,Common Snipe,,1,-6.60091555,62.29035749,Europe,Faroe Islands,FO,,Faroe Islands,2018-06-27,
Sterna paradisaea,Animalia,GULLS_TERNS_AND_SKIMMERS_LARIDAE,Arctic Tern,,1,-6.60091555,62.29035749,Europe,Faroe Islands,FO,,Faroe Islands,2018-06-27,
Fulmarus glacialis,Animalia,PETRELS_AND_SHEARWATERS_PROCELLARIIDAE,Northern Fulmar,,1001,-6.60091555,62.29035749,Europe,Faroe Islands,FO,,Faroe Islands,2018-06-27,
Anthus petrosus,Animalia,PIPITS_EN_WAGTAILS_MOTACILLIDAE,Eurasian Rock Pipit,,1,-7.11284409,62.09881421,Europe,Faroe Islands,FO,,Faroe Islands,2018-06-27,
Cygnus cygnus,Animalia,DUCKS_GEESE_AND_SWANS_ANATIDAE,Whooper Swan,,4,-7.00092087,62.12820024,Europe,Faroe Islands,FO,,Faroe Islands,2018-06-27,
Corvus corax,Animalia,CROWS_AND_JAYS_CORVIDAE,Northern Raven,,1,-7.14225312,62.15121545,Europe,Faroe Islands,FO,,Faroe Islands,2018-06-27,
Corvus cornix,Animalia,CROWS_AND_JAYS_CORVIDAE,Hooded Crow,,1,-7.31386128,62.07195852,Europe,Faroe Islands,FO,,Faroe Islands,2018-06-27,
Mergus serrator,Animalia,DUCKS_GEESE_AND_SWANS_ANATIDAE,Red-breasted Merganser,,5,-7.31386128,62.07195852,Europe,Faroe Islands,FO,,Faroe Islands,2018-06-27,
Calidris alpina,Animalia,SANDPIPERS_AND_ALLIES_SCOLOPACIDAE,Dunlin,,5,-7.31386128,62.07195852,Europe,Faroe Islands,FO,,Faroe Islands,2018-06-27,
Charadrius hiaticula,Animalia,PLOVERS_CHARADRIIDAE,Common Ringed Plover,,20,-7.31386128,62.07195852,Europe,Faroe Islands,FO,,Faroe Islands,2018-06-27,
Fulmarus glacialis,Animalia,PETRELS_AND_SHEARWATERS_PROCELLARIIDAE,Northern Fulmar,,1,-6.76660649478436,62.0061715801515,Europe,Faroe Islands,FO,,Faroe Islands,2017-06-19,18:16
Streptopelia decaocto,Animalia,PIGEONS_AND_DOVES_COLUMBIDAE,Eurasian Collared Dove,,2,-6.7786506190896,62.0156400790438,Europe,Faroe Islands,FO,,Faroe Islands,2017-06-19,17:05
Calidris alpina,Animalia,SANDPIPERS_AND_ALLIES_SCOLOPACIDAE,Dunlin,,2,-7.25237298756838,62.0677359506841,Europe,Faroe Islands,FO,,Faroe Islands,2017-06-18,18:36
Stercorarius skua,Animalia,SKUAS_STERCORARIIDAE,Great Skua,,1,-6.28858387470245,62.3180578239259,Europe,Faroe Islands,FO,,Faroe Islands,2017-06-17,18:10
Columba livia,Animalia,PIGEONS_AND_DOVES_COLUMBIDAE,Rock Dove,,15,-6.66744656860828,62.0043241492476,Europe,Faroe Islands,FO,,Faroe Islands,2017-06-15,22:29
Larus fuscus,Animalia,GULLS_TERNS_AND_SKIMMERS_LARIDAE,Lesser Black-backed Gull,,1,-6.67711358517408,62.0078362021303,Europe,Faroe Islands,FO,,Faroe Islands,2017-06-15,22:31
Fulmarus glacialis,Animalia,PETRELS_AND_SHEARWATERS_PROCELLARIIDAE,Northern Fulmar,,1,-6.65668051689863,62.0013016686862,Europe,Faroe Islands,FO,,Faroe Islands,2017-06-15,22:27
Fulmarus glacialis,Animalia,PETRELS_AND_SHEARWATERS_PROCELLARIIDAE,Northern Fulmar,,1,-6.66320901364088,62.0028115299621,Europe,Faroe Islands,FO,,Faroe Islands,2017-06-15,22:28
Turdus merula,Animalia,THRUSHES_TURDIDAE,Common Blackbird,,1,-6.7721,62.0099,Europe,Faroe Islands,FO,,Faroe Islands,2017-08-06,18:27
Corvus cornix,Animalia,CROWS_AND_JAYS_CORVIDAE,Hooded Crow,,1,-6.7813,62.0172,Europe,Faroe Islands,FO,,Faroe Islands,2017-08-06,17:27
Turdus merula,Animalia,THRUSHES_TURDIDAE,Common Blackbird,,1,-6.7783,62.0166,Europe,Faroe Islands,FO,,Faroe Islands,2017-08-06,17:17
Passer domesticus,Animalia,OLD_WORLD_SPARROWS_PASSERIDAE,House Sparrow,,1,-6.7788,62.0157,Europe,Faroe Islands,FO,,Faroe Islands,2017-08-06,17:14
Streptopelia decaocto,Animalia,PIGEONS_AND_DOVES_COLUMBIDAE,Eurasian Collared Dove,,1,-6.7787,62.0156,Europe,Faroe Islands,FO,,Faroe Islands,2017-08-06,17:13
Sturnus vulgaris,Animalia,STARLINGS_STURNIDAE,Common Starling,,1,-6.7787,62.0156,Europe,Faroe Islands,FO,,Faroe Islands,2017-08-06,17:13
Larus fuscus,Animalia,GULLS_TERNS_AND_SKIMMERS_LARIDAE,Lesser Black-backed Gull,,1,-6.7786,62.0155,Europe,Faroe Islands,FO,,Faroe Islands,2017-08-06,17:13
Sturnus vulgaris,Animalia,STARLINGS_STURNIDAE,Common Starling,,1,-6.7928,61.952,Europe,Faroe Islands,FO,,Faroe Islands,2017-08-06,16:03
Somateria mollissima,Animalia,DUCKS_GEESE_AND_SWANS_ANATIDAE,Common Eider,,1,-6.7929,61.9515,Europe,Faroe Islands,FO,,Faroe Islands,2017-08-06,15:49
Passer domesticus,Animalia,OLD_WORLD_SPARROWS_PASSERIDAE,House Sparrow,,1,-6.7333,62.084,Europe,Faroe Islands,FO,,Faroe Islands,2017-08-06,12:03
Sturnus vulgaris,Animalia,STARLINGS_STURNIDAE,Common Starling,,1,-6.7209,62.0834,Europe,Faroe Islands,FO,,Faroe Islands,2017-08-06,12:01
Corvus cornix,Animalia,CROWS_AND_JAYS_CORVIDAE,Hooded Crow,,1,-6.7201,62.0834,Europe,Faroe Islands,FO,,Faroe Islands,2017-08-06,12:01
Larus fuscus,Animalia,GULLS_TERNS_AND_SKIMMERS_LARIDAE,Lesser Black-backed Gull,,1,-6.7201,62.0833,Europe,Faroe Islands,FO,,Faroe Islands,2017-08-06,12:00
Larus fuscus,Animalia,GULLS_TERNS_AND_SKIMMERS_LARIDAE,Lesser Black-backed Gull,,1,-6.691,62.0669,Europe,Faroe Islands,FO,,Faroe Islands,2017-08-06,10:30
Fratercula arctica,Animalia,AUKS_ALCIDAE,Atlantic Puffin,,1,-6.9417,62.3264,Europe,Faroe Islands,FO,,Faroe Islands,2017-08-05,16:52
Corvus corax,Animalia,CROWS_AND_JAYS_CORVIDAE,Northern Raven,,1,-7.1422,62.1015,Europe,Faroe Islands,FO,,Faroe Islands,2017-08-04,12:05
Cygnus cygnus,Animalia,DUCKS_GEESE_AND_SWANS_ANATIDAE,Whooper Swan,,1,-6.9947,62.124,Europe,Faroe Islands,FO,,Faroe Islands,2017-08-04,11:48
Fulmarus glacialis,Animalia,PETRELS_AND_SHEARWATERS_PROCELLARIIDAE,Northern Fulmar,,1,-6.755,62.0176,Europe,Faroe Islands,FO,,Faroe Islands,2017-08-04,11:01
Corvus cornix,Animalia,CROWS_AND_JAYS_CORVIDAE,Hooded Crow,,1,-6.755,62.0176,Europe,Faroe Islands,FO,,Faroe Islands,2017-08-04,10:58
Somateria mollissima,Animalia,DUCKS_GEESE_AND_SWANS_ANATIDAE,Common Eider,,1,-6.7552,62.0175,Europe,Faroe Islands,FO,,Faroe Islands,2017-08-04,10:53
Passer domesticus,Animalia,OLD_WORLD_SPARROWS_PASSERIDAE,House Sparrow,,1,-6.7552,62.0175,Europe,Faroe Islands,FO,,Faroe Islands,2017-08-04,10:53
Sturnus vulgaris,Animalia,STARLINGS_STURNIDAE,Common Starling,,1,-6.7549,62.0175,Europe,Faroe Islands,FO,,Faroe Islands,2017-08-04,10:52
Larus fuscus,Animalia,GULLS_TERNS_AND_SKIMMERS_LARIDAE,Lesser Black-backed Gull,,1,-6.7549,62.0175,Europe,Faroe Islands,FO,,Faroe Islands,2017-08-04,10:52
Passer domesticus,Animalia,OLD_WORLD_SPARROWS_PASSERIDAE,House Sparrow,,1,-6.79284788668156,61.9520572246984,Europe,Faroe Islands,FO,,Faroe Islands,2017-06-11,13:04
Troglodytes troglodytes borealis,Animalia,WRENS_TROGLODYTIDAE,Faroe Wren,,1,-6.79707505,61.95315609,Europe,Faroe Islands,FO,,Faroe Islands,2017-06-11,13:02
Corvus cornix,Animalia,CROWS_AND_JAYS_CORVIDAE,Hooded Crow,,2,-6.76854573190212,61.9955087592825,Europe,Faroe Islands,FO,,Faroe Islands,2017-06-11,11:25
Columba livia,Animalia,PIGEONS_AND_DOVES_COLUMBIDAE,Rock Dove,,2,-6.76854573190212,61.9955087592825,Europe,Faroe Islands,FO,,Faroe Islands,2017-06-11,11:25
Larus fuscus,Animalia,GULLS_TERNS_AND_SKIMMERS_LARIDAE,Lesser Black-backed Gull,,1,-6.8181112781167,61.9607865519951,Europe,Faroe Islands,FO,,Faroe Islands,2017-06-11,12:06
Fulmarus glacialis,Animalia,PETRELS_AND_SHEARWATERS_PROCELLARIIDAE,Northern Fulmar,,10,-6.76854573190212,61.9955087592825,Europe,Faroe Islands,FO,,Faroe Islands,2017-06-11,11:25
Cygnus cygnus,Animalia,DUCKS_GEESE_AND_SWANS_ANATIDAE,Whooper Swan,,2,-6.99462217278779,62.1243156865239,Europe,Faroe Islands,FO,,Faroe Islands,2017-06-11,17:09
Somateria mollissima,Animalia,DUCKS_GEESE_AND_SWANS_ANATIDAE,Common Eider,,14,-6.76810501298364,62.0073052240385,Europe,Faroe Islands,FO,,Faroe Islands,2017-07-28,04:53
Larus fuscus,Animalia,GULLS_TERNS_AND_SKIMMERS_LARIDAE,Lesser Black-backed Gull,,1,-6.76804908250952,62.0072869044801,Europe,Faroe Islands,FO,,Faroe Islands,2017-07-28,04:53
Fulmarus glacialis,Animalia,PETRELS_AND_SHEARWATERS_PROCELLARIIDAE,Northern Fulmar,,1,-6.76788641010221,62.0073339933104,Europe,Faroe Islands,FO,,Faroe Islands,2017-07-28,04:53
Fulmarus glacialis,Animalia,PETRELS_AND_SHEARWATERS_PROCELLARIIDAE,Northern Fulmar,,1,-6.7168,62.0142,Europe,Faroe Islands,FO,,Faroe Islands,2017-07-12,18:46
Sturnus vulgaris,Animalia,STARLINGS_STURNIDAE,Common Starling,,1,-6.7849,62.0226,Europe,Faroe Islands,FO,,Faroe Islands,2017-07-12,15:30
Gavia stellata,Animalia,DIVERS_GAVIIDAE,Red-throated Diver,,1,-7.1604,62.2415,Europe,Faroe Islands,FO,,Faroe Islands,2017-07-12,12:35
Corvus corax,Animalia,CROWS_AND_JAYS_CORVIDAE,Northern Raven,,1,-7.0106,62.1959,Europe,Faroe Islands,FO,,Faroe Islands,2017-07-12,11:51
Gavia stellata,Animalia,DIVERS_GAVIIDAE,Red-throated Diver,,1,-7.0478,62.2788,Europe,Faroe Islands,FO,,Faroe Islands,2017-07-11,21:34
Gavia stellata,Animalia,DIVERS_GAVIIDAE,Red-throated Diver,,1,-7.0513,62.304,Europe,Faroe Islands,FO,,Faroe Islands,2017-07-11,20:26
Haematopus ostralegus,Animalia,OYSTERCATCHERS_HAEMATOPODIDAE,Eurasian Oystercatcher,,1,-6.9414,62.3243,Europe,Faroe Islands,FO,,Faroe Islands,2017-07-11,19:19
Fratercula arctica,Animalia,AUKS_ALCIDAE,Atlantic Puffin,,1,-6.9414,62.3245,Europe,Faroe Islands,FO,,Faroe Islands,2017-07-11,18:59
Passer domesticus,Animalia,OLD_WORLD_SPARROWS_PASSERIDAE,House Sparrow,,1,-6.733,62.083,Europe,Faroe Islands,FO,,Faroe Islands,2017-07-11,17:23
Sturnus vulgaris,Animalia,STARLINGS_STURNIDAE,Common Starling,,1,-6.726,62.0823,Europe,Faroe Islands,FO,,Faroe Islands,2017-07-11,17:19
Sturnus vulgaris,Animalia,STARLINGS_STURNIDAE,Common Starling,,1,-6.6909,62.0667,Europe,Faroe Islands,FO,,Faroe Islands,2017-07-11,09:46
Fulmarus glacialis,Animalia,PETRELS_AND_SHEARWATERS_PROCELLARIIDAE,Northern Fulmar,,1,-6.6909,62.0667,Europe,Faroe Islands,FO,,Faroe Islands,2017-07-11,09:40
Numenius phaeopus,Animalia,SANDPIPERS_AND_ALLIES_SCOLOPACIDAE,Eurasian Whimbrel,,2,-6.5066,62.3313,Europe,Faroe Islands,FO,,Faroe Islands,2017-07-10,17:38
Fulmarus glacialis,Animalia,PETRELS_AND_SHEARWATERS_PROCELLARIIDAE,Northern Fulmar,,1,-6.5433,62.36,Europe,Faroe Islands,FO,,Faroe Islands,2017-07-10,15:15
Sterna paradisaea,Animalia,GULLS_TERNS_AND_SKIMMERS_LARIDAE,Arctic Tern,,1,-6.5228,62.2999,Europe,Faroe Islands,FO,,Faroe Islands,2017-07-10,14:55
Sterna paradisaea,Animalia,GULLS_TERNS_AND_SKIMMERS_LARIDAE,Arctic Tern,,1,-6.5226,62.3009,Europe,Faroe Islands,FO,,Faroe Islands,2017-07-10,14:45
Sterna paradisaea,Animalia,GULLS_TERNS_AND_SKIMMERS_LARIDAE,Arctic Tern,,1,-6.5701,62.2248,Europe,Faroe Islands,FO,,Faroe Islands,2017-07-10,10:45
Numenius phaeopus,Animalia,SANDPIPERS_AND_ALLIES_SCOLOPACIDAE,Eurasian Whimbrel,,1,-6.572,62.2249,Europe,Faroe Islands,FO,,Faroe Islands,2017-07-10,10:43
Gallinago gallinago,Animalia,SANDPIPERS_AND_ALLIES_SCOLOPACIDAE,Common Snipe,,1,-6.9417,62.3243,Europe,Faroe Islands,FO,,Faroe Islands,2017-07-09,17:27
Fratercula arctica,Animalia,AUKS_ALCIDAE,Atlantic Puffin,,1,-6.9413,62.3244,Europe,Faroe Islands,FO,,Faroe Islands,2017-07-09,16:53
Haematopus ostralegus,Animalia,OYSTERCATCHERS_HAEMATOPODIDAE,Eurasian Oystercatcher,,1,-6.9416,62.3243,Europe,Faroe Islands,FO,,Faroe Islands,2017-07-09,16:45
Gavia stellata,Animalia,DIVERS_GAVIIDAE,Red-throated Diver,,1,-7.0683,62.2918,Europe,Faroe Islands,FO,,Faroe Islands,2017-07-09,13:10
Cepphus grylle,Animalia,AUKS_ALCIDAE,Black Guillemot,,1,-7.0833,62.2665,Europe,Faroe Islands,FO,,Faroe Islands,2017-07-09,12:43
Gavia stellata,Animalia,DIVERS_GAVIIDAE,Red-throated Diver,,2,-7.1532,62.2392,Europe,Faroe Islands,FO,,Faroe Islands,2017-07-09,09:29
Gavia stellata,Animalia,DIVERS_GAVIIDAE,Red-throated Diver,,1,-7.1549,62.2389,Europe,Faroe Islands,FO,,Faroe Islands,2017-07-09,09:22
Cygnus cygnus,Animalia,DUCKS_GEESE_AND_SWANS_ANATIDAE,Whooper Swan,,2,-6.9986,62.1255,Europe,Faroe Islands,FO,,Faroe Islands,2017-07-08,22:28
Cygnus cygnus,Animalia,DUCKS_GEESE_AND_SWANS_ANATIDAE,Whooper Swan,,2,-6.9986,62.1254,Europe,Faroe Islands,FO,,Faroe Islands,2017-07-08,22:24
Mergus serrator,Animalia,DUCKS_GEESE_AND_SWANS_ANATIDAE,Red-breasted Merganser,,1,-7.2235,62.0489,Europe,Faroe Islands,FO,,Faroe Islands,2017-07-08,10:11
Corvus cornix,Animalia,CROWS_AND_JAYS_CORVIDAE,Hooded Crow,,1,-7.3222,62.0695,Europe,Faroe Islands,FO,,Faroe Islands,2017-07-08,09:44
Sterna paradisaea,Animalia,GULLS_TERNS_AND_SKIMMERS_LARIDAE,Arctic Tern,,1,-7.3205,62.0702,Europe,Faroe Islands,FO,,Faroe Islands,2017-07-08,09:39
Somateria mollissima,Animalia,DUCKS_GEESE_AND_SWANS_ANATIDAE,Common Eider,,1,-7.3205,62.0702,Europe,Faroe Islands,FO,,Faroe Islands,2017-07-08,09:38
Sturnus vulgaris,Animalia,STARLINGS_STURNIDAE,Common Starling,,1,-7.4312,62.1076,Europe,Faroe Islands,FO,,Faroe Islands,2017-07-08,07:50
Numenius phaeopus,Animalia,SANDPIPERS_AND_ALLIES_SCOLOPACIDAE,Eurasian Whimbrel,,1,-7.4368,62.1103,Europe,Faroe Islands,FO,,Faroe Islands,2017-07-08,07:46
Numenius phaeopus,Animalia,SANDPIPERS_AND_ALLIES_SCOLOPACIDAE,Eurasian Whimbrel,,1,-7.4371,62.1103,Europe,Faroe Islands,FO,,Faroe Islands,2017-07-07,19:11
Sturnus vulgaris,Animalia,STARLINGS_STURNIDAE,Common Starling,,1,-7.4369,62.1103,Europe,Faroe Islands,FO,,Faroe Islands,2017-07-07,18:59
Passer domesticus,Animalia,OLD_WORLD_SPARROWS_PASSERIDAE,House Sparrow,,1,-7.4369,62.1103,Europe,Faroe Islands,FO,,Faroe Islands,2017-07-07,18:59
Fratercula arctica,Animalia,AUKS_ALCIDAE,Atlantic Puffin,,1,-7.3944,62.0901,Europe,Faroe Islands,FO,,Faroe Islands,2017-07-07,18:48
Numenius phaeopus,Animalia,SANDPIPERS_AND_ALLIES_SCOLOPACIDAE,Eurasian Whimbrel,,1,-7.2574,62.0682,Europe,Faroe Islands,FO,,Faroe Islands,2017-07-07,18:17
Sturnus vulgaris,Animalia,STARLINGS_STURNIDAE,Common Starling,,1,-7.2529,62.0739,Europe,Faroe Islands,FO,,Faroe Islands,2017-07-07,18:06
Sterna paradisaea,Animalia,GULLS_TERNS_AND_SKIMMERS_LARIDAE,Arctic Tern,,1,-7.1571,62.0536,Europe,Faroe Islands,FO,,Faroe Islands,2017-07-07,17:39
Sturnus vulgaris,Animalia,STARLINGS_STURNIDAE,Common Starling,,1,-7.1569,62.0536,Europe,Faroe Islands,FO,,Faroe Islands,2017-07-07,17:38
Passer domesticus,Animalia,OLD_WORLD_SPARROWS_PASSERIDAE,House Sparrow,,1,-7.1568,62.0535,Europe,Faroe Islands,FO,,Faroe Islands,2017-07-07,17:34
Mergus serrator,Animalia,DUCKS_GEESE_AND_SWANS_ANATIDAE,Red-breasted Merganser,,1,-7.1571,62.0536,Europe,Faroe Islands,FO,,Faroe Islands,2017-07-07,17:34
Sturnus vulgaris,Animalia,STARLINGS_STURNIDAE,Common Starling,,1,-7.1723,62.1155,Europe,Faroe Islands,FO,,Faroe Islands,2017-07-07,17:12
Sterna paradisaea,Animalia,GULLS_TERNS_AND_SKIMMERS_LARIDAE,Arctic Tern,,1,-7.1723,62.1155,Europe,Faroe Islands,FO,,Faroe Islands,2017-07-07,17:11
Corvus corax,Animalia,CROWS_AND_JAYS_CORVIDAE,Northern Raven,,1,-7.2619,62.1765,Europe,Faroe Islands,FO,,Faroe Islands,2017-07-07,10:32
Fratercula arctica,Animalia,AUKS_ALCIDAE,Atlantic Puffin,,1,-7.2535,62.1729,Europe,Faroe Islands,FO,,Faroe Islands,2017-07-07,10:29
Cepphus grylle,Animalia,AUKS_ALCIDAE,Black Guillemot,,1,-7.1678,62.149,Europe,Faroe Islands,FO,,Faroe Islands,2017-07-07,10:04
Anthus petrosus,Animalia,PIPITS_EN_WAGTAILS_MOTACILLIDAE,Eurasian Rock Pipit,,2,-7.16654909951019,62.0460369423481,Europe,Faroe Islands,FO,,Faroe Islands,2017-07-03,09:40
Cygnus cygnus,Animalia,DUCKS_GEESE_AND_SWANS_ANATIDAE,Whooper Swan,,1,-6.9981,62.1254,Europe,Faroe Islands,FO,,Faroe Islands,2017-07-06,18:17
Passer domesticus,Animalia,OLD_WORLD_SPARROWS_PASSERIDAE,House Sparrow,,1,-6.7853,62.022,Europe,Faroe Islands,FO,,Faroe Islands,2017-07-06,16:14
Sturnus vulgaris,Animalia,STARLINGS_STURNIDAE,Common Starling,,1,-6.76849260846923,62.0378118868699,Europe,Faroe Islands,FO,,Faroe Islands,2017-07-05,08:42
Passer domesticus,Animalia,OLD_WORLD_SPARROWS_PASSERIDAE,House Sparrow,,1,-6.77355490671188,62.0260829426517,Europe,Faroe Islands,FO,,Faroe Islands,2017-07-05,08:49
Streptopelia decaocto,Animalia,PIGEONS_AND_DOVES_COLUMBIDAE,Eurasian Collared Dove,,1,-6.77352926570686,62.0261825234154,Europe,Faroe Islands,FO,,Faroe Islands,2017-07-05,08:51
Corvus cornix,Animalia,CROWS_AND_JAYS_CORVIDAE,Hooded Crow,,2,-6.77356556306932,62.0261979961069,Europe,Faroe Islands,FO,,Faroe Islands,2017-07-05,08:51
Turdus merula,Animalia,THRUSHES_TURDIDAE,Common Blackbird,,1,-6.76921558750371,62.0238875109447,Europe,Faroe Islands,FO,,Faroe Islands,2017-07-05,09:24
Corvus cornix,Animalia,CROWS_AND_JAYS_CORVIDAE,Hooded Crow,,1,-6.76792820438594,62.025807722139,Europe,Faroe Islands,FO,,Faroe Islands,2017-07-05,09:31
Turdus merula,Animalia,THRUSHES_TURDIDAE,Common Blackbird,,1,-6.7673644606489,62.0277083581664,Europe,Faroe Islands,FO,,Faroe Islands,2017-07-05,09:48
Somateria mollissima,Animalia,DUCKS_GEESE_AND_SWANS_ANATIDAE,Common Eider,,9,-6.79240434157195,61.9515256342304,Europe,Faroe Islands,FO,,Faroe Islands,2017-07-05,12:40
Fulmarus glacialis,Animalia,PETRELS_AND_SHEARWATERS_PROCELLARIIDAE,Northern Fulmar,,15,-6.79280395275546,61.9516140682807,Europe,Faroe Islands,FO,,Faroe Islands,2017-07-05,12:42
Corvus cornix,Animalia,CROWS_AND_JAYS_CORVIDAE,Hooded Crow,,1,-6.77902382567811,62.0175489159236,Europe,Faroe Islands,FO,,Faroe Islands,2017-07-05,15:40
Turdus merula,Animalia,THRUSHES_TURDIDAE,Common Blackbird,,1,-6.77928592789457,62.0171518600802,Europe,Faroe Islands,FO,,Faroe Islands,2017-07-05,15:41
Passer domesticus,Animalia,OLD_WORLD_SPARROWS_PASSERIDAE,House Sparrow,,5,-6.78113294959851,62.0168685046728,Europe,Faroe Islands,FO,,Faroe Islands,2017-07-05,15:45
Streptopelia decaocto,Animalia,PIGEONS_AND_DOVES_COLUMBIDAE,Eurasian Collared Dove,,1,-6.77803567510859,62.0158876705767,Europe,Faroe Islands,FO,,Faroe Islands,2017-07-05,16:34
Somateria mollissima,Animalia,DUCKS_GEESE_AND_SWANS_ANATIDAE,Common Eider,,1,-6.8794,61.9037,Europe,Faroe Islands,FO,,Faroe Islands,2017-07-04,16:19
Fulmarus glacialis,Animalia,PETRELS_AND_SHEARWATERS_PROCELLARIIDAE,Northern Fulmar,,1,-6.8234,61.9532,Europe,Faroe Islands,FO,,Faroe Islands,2017-07-04,15:57
Somateria mollissima,Animalia,DUCKS_GEESE_AND_SWANS_ANATIDAE,Common Eider,,1,-6.7931,61.9519,Europe,Faroe Islands,FO,,Faroe Islands,2017-07-04,13:55
Passer domesticus,Animalia,OLD_WORLD_SPARROWS_PASSERIDAE,House Sparrow,,1,-6.7943,61.9519,Europe,Faroe Islands,FO,,Faroe Islands,2017-07-04,13:46
Sturnus vulgaris,Animalia,STARLINGS_STURNIDAE,Common Starling,,1,-6.8461,61.9816,Europe,Faroe Islands,FO,,Faroe Islands,2017-07-04,13:28
Corvus cornix,Animalia,CROWS_AND_JAYS_CORVIDAE,Hooded Crow,,1,-6.8486,61.9914,Europe,Faroe Islands,FO,,Faroe Islands,2017-07-04,12:52
Larus fuscus,Animalia,GULLS_TERNS_AND_SKIMMERS_LARIDAE,Lesser Black-backed Gull,,1,-6.8455,61.9953,Europe,Faroe Islands,FO,,Faroe Islands,2017-07-04,12:41
Sturnus vulgaris,Animalia,STARLINGS_STURNIDAE,Common Starling,,1,-6.8002,62.0325,Europe,Faroe Islands,FO,,Faroe Islands,2017-07-04,12:18
Columba livia,Animalia,PIGEONS_AND_DOVES_COLUMBIDAE,Rock Dove,,1,-6.8027,62.0356,Europe,Faroe Islands,FO,,Faroe Islands,2017-07-04,11:51
Corvus cornix,Animalia,CROWS_AND_JAYS_CORVIDAE,Hooded Crow,,2,-6.69604167726916,62.0679266318054,Europe,Faroe Islands,FO,,Faroe Islands,2017-07-04,15:02
Sturnus vulgaris,Animalia,STARLINGS_STURNIDAE,Common Starling,,4,-6.7680408,62.0373737,Europe,Faroe Islands,FO,,Faroe Islands,2017-07-03,06:05
Corvus cornix,Animalia,CROWS_AND_JAYS_CORVIDAE,Hooded Crow,,2,-7.14571373658127,62.1033619990707,Europe,Faroe Islands,FO,,Faroe Islands,2017-07-03,08:34
Sturnus vulgaris,Animalia,STARLINGS_STURNIDAE,Common Starling,,8,-7.15093991690523,62.0537456957398,Europe,Faroe Islands,FO,,Faroe Islands,2017-07-03,08:59
Sturnus vulgaris,Animalia,STARLINGS_STURNIDAE,Common Starling,,1,-7.15094477671073,62.0537682065639,Europe,Faroe Islands,FO,,Faroe Islands,2017-07-03,08:59
Passer domesticus,Animalia,OLD_WORLD_SPARROWS_PASSERIDAE,House Sparrow,,1,-7.15084076397829,62.0537866222426,Europe,Faroe Islands,FO,,Faroe Islands,2017-07-03,09:00
Mergus serrator,Animalia,DUCKS_GEESE_AND_SWANS_ANATIDAE,Red-breasted Merganser,,3,-7.15171768171589,62.053866849066,Europe,Faroe Islands,FO,,Faroe Islands,2017-07-03,09:07
Passer domesticus,Animalia,OLD_WORLD_SPARROWS_PASSERIDAE,House Sparrow,,6,-7.15090033732122,62.0537669677402,Europe,Faroe Islands,FO,,Faroe Islands,2017-07-03,09:16
Numenius phaeopus,Animalia,SANDPIPERS_AND_ALLIES_SCOLOPACIDAE,Eurasian Whimbrel,,1,-7.25568348789548,62.0720650091598,Europe,Faroe Islands,FO,,Faroe Islands,2017-07-03,10:08
Fratercula arctica,Animalia,AUKS_ALCIDAE,Atlantic Puffin,,6,-7.44046877962342,62.1093680088599,Europe,Faroe Islands,FO,,Faroe Islands,2017-07-03,11:46
Fratercula arctica,Animalia,AUKS_ALCIDAE,Atlantic Puffin,,41,-7.44121531630949,62.1092228771026,Europe,Faroe Islands,FO,,Faroe Islands,2017-07-03,11:48
Cepphus grylle,Animalia,AUKS_ALCIDAE,Black Guillemot,,1,-7.15046105999935,62.1534811278606,Europe,Faroe Islands,FO,,Faroe Islands,2017-07-03,14:09
Cepphus grylle,Animalia,AUKS_ALCIDAE,Black Guillemot,,3,-7.17623579791899,62.1439281303646,Europe,Faroe Islands,FO,,Faroe Islands,2017-07-03,15:42
Cygnus cygnus,Animalia,DUCKS_GEESE_AND_SWANS_ANATIDAE,Whooper Swan,,1,-7.02681578883339,62.1258358703195,Europe,Faroe Islands,FO,,Faroe Islands,2017-07-03,18:17
Turdus merula,Animalia,THRUSHES_TURDIDAE,Common Blackbird,,1,-6.76887019190139,62.0099034510116,Europe,Faroe Islands,FO,,Faroe Islands,2017-07-03,19:30
Turdus merula,Animalia,THRUSHES_TURDIDAE,Common Blackbird,,1,-6.76880678397015,62.0098305874239,Europe,Faroe Islands,FO,,Faroe Islands,2017-07-03,19:40
Streptopelia decaocto,Animalia,PIGEONS_AND_DOVES_COLUMBIDAE,Eurasian Collared Dove,,1,-6.77194110832482,62.0101382798283,Europe,Faroe Islands,FO,,Faroe Islands,2017-07-03,19:55
Streptopelia decaocto,Animalia,PIGEONS_AND_DOVES_COLUMBIDAE,Eurasian Collared Dove,,1,-6.7803,62.0158,Europe,Faroe Islands,FO,,Faroe Islands,2017-07-03,14:33
Turdus merula,Animalia,THRUSHES_TURDIDAE,Common Blackbird,,1,-6.7794,62.0156,Europe,Faroe Islands,FO,,Faroe Islands,2017-07-03,14:29
Columba livia,Animalia,PIGEONS_AND_DOVES_COLUMBIDAE,Rock Dove,,1,-6.759,62.0121,Europe,Faroe Islands,FO,,Faroe Islands,2017-07-03,12:35
Turdus merula,Animalia,THRUSHES_TURDIDAE,Common Blackbird,,1,-6.7574,62.0137,Europe,Faroe Islands,FO,,Faroe Islands,2017-07-03,12:29
Passer domesticus,Animalia,OLD_WORLD_SPARROWS_PASSERIDAE,House Sparrow,,1,-6.7573,62.0147,Europe,Faroe Islands,FO,,Faroe Islands,2017-07-03,12:25
Corvus cornix,Animalia,CROWS_AND_JAYS_CORVIDAE,Hooded Crow,,1,-6.7552,62.0176,Europe,Faroe Islands,FO,,Faroe Islands,2017-07-03,11:58
Sturnus vulgaris,Animalia,STARLINGS_STURNIDAE,Common Starling,,1,-6.755,62.0175,Europe,Faroe Islands,FO,,Faroe Islands,2017-07-03,11:04
Somateria mollissima,Animalia,DUCKS_GEESE_AND_SWANS_ANATIDAE,Common Eider,,1,-6.7549,62.0175,Europe,Faroe Islands,FO,,Faroe Islands,2017-07-03,11:04
Larus fuscus,Animalia,GULLS_TERNS_AND_SKIMMERS_LARIDAE,Lesser Black-backed Gull,,1,-6.7551,62.0176,Europe,Faroe Islands,FO,,Faroe Islands,2017-07-03,10:50
Larus fuscus,Animalia,GULLS_TERNS_AND_SKIMMERS_LARIDAE,Lesser Black-backed Gull,,1,-6.7664,62.0075,Europe,Faroe Islands,FO,,Faroe Islands,2017-07-02,22:21
Larus fuscus,Animalia,GULLS_TERNS_AND_SKIMMERS_LARIDAE,Lesser Black-backed Gull,,9,-6.73606047108729,61.9870502191066,Europe,Faroe Islands,FO,,Faroe Islands,2017-07-02,22:00
Somateria mollissima,Animalia,DUCKS_GEESE_AND_SWANS_ANATIDAE,Common Eider,,70,-6.74876678367942,61.9921501591542,Europe,Faroe Islands,FO,,Faroe Islands,2017-07-02,22:02
Caltha palustris,Plantae,RANUNCULACEAE,Marsh-marigold,,1,-6.78048134,62.01527515,Europe,Faroe Islands,FO,,Faroe Islands,2017-05-29,09:07
Columba livia,Animalia,PIGEONS_AND_DOVES_COLUMBIDAE,Rock Dove,,4,-6.77965164,62.01592257,Europe,Faroe Islands,FO,,Faroe Islands,2017-05-29,08:44
Turdus merula,Animalia,THRUSHES_TURDIDAE,Common Blackbird,,1,-6.77966595,62.01626892,Europe,Faroe Islands,FO,,Faroe Islands,2017-05-29,08:47
Streptopelia decaocto,Animalia,PIGEONS_AND_DOVES_COLUMBIDAE,Eurasian Collared Dove,,5,-6.78050995,62.01584202,Europe,Faroe Islands,FO,,Faroe Islands,2017-05-29,08:30
Corvus cornix,Animalia,CROWS_AND_JAYS_CORVIDAE,Hooded Crow,,1,-6.78005219,62.01587424,Europe,Faroe Islands,FO,,Faroe Islands,2017-05-29,08:40
Rubus spectabilis,Plantae,ROSACEAE,Salmonberry,,1,-6.78025246,62.01675488,Europe,Faroe Islands,FO,,Faroe Islands,2017-05-29,08:49
Somateria mollissima,Animalia,DUCKS_GEESE_AND_SWANS_ANATIDAE,Common Eider,,1,-6.76823616,62.00241435,Europe,Faroe Islands,FO,,Faroe Islands,2017-05-29,
Fulmarus glacialis,Animalia,PETRELS_AND_SHEARWATERS_PROCELLARIIDAE,Northern Fulmar,,2,-6.76823616,62.00241435,Europe,Faroe Islands,FO,,Faroe Islands,2017-05-29,07:45
Larus fuscus,Animalia,GULLS_TERNS_AND_SKIMMERS_LARIDAE,Lesser Black-backed Gull,,1,-6.76960945,62.00563753,Europe,Faroe Islands,FO,,Faroe Islands,2017-05-29,
Corvus cornix,Animalia,CROWS_AND_JAYS_CORVIDAE,Hooded Crow,,2,-6.77317143,62.00849715,Europe,Faroe Islands,FO,,Faroe Islands,2017-05-29,
Sturnus vulgaris,Animalia,STARLINGS_STURNIDAE,Common Starling,,3,-6.77370071,62.01143571,Europe,Faroe Islands,FO,,Faroe Islands,2017-05-29,08:20
Passer domesticus,Animalia,OLD_WORLD_SPARROWS_PASSERIDAE,House Sparrow,,1,-6.7755568,62.01189691,Europe,Faroe Islands,FO,,Faroe Islands,2017-05-29,08:25
Stercorarius skua,Animalia,SKUAS_STERCORARIIDAE,Great Skua,,1,-6.28858387470245,62.3180578239259,Europe,Faroe Islands,FO,,Faroe Islands,2017-06-17,18:10
Charadrius hiaticula,Animalia,PLOVERS_CHARADRIIDAE,Common Ringed Plover,,10,-7.25237298756838,62.0677359506841,Europe,Faroe Islands,FO,,Faroe Islands,2017-06-18,18:36
Calidris alpina,Animalia,SANDPIPERS_AND_ALLIES_SCOLOPACIDAE,Dunlin,,2,-7.25237298756838,62.0677359506841,Europe,Faroe Islands,FO,,Faroe Islands,2017-06-18,18:36
Streptopelia decaocto,Animalia,PIGEONS_AND_DOVES_COLUMBIDAE,Eurasian Collared Dove,,2,-6.7786506190896,62.0156400790438,Europe,Faroe Islands,FO,,Faroe Islands,2017-06-19,17:05
Fulmarus glacialis,Animalia,PETRELS_AND_SHEARWATERS_PROCELLARIIDAE,Northern Fulmar,,1,-6.76660649478436,62.0061715801515,Europe,Faroe Islands,FO,,Faroe Islands,2017-06-19,18:16
Fulmarus glacialis,Animalia,PETRELS_AND_SHEARWATERS_PROCELLARIIDAE,Northern Fulmar,,1,-6.65668051689863,62.0013016686862,Europe,Faroe Islands,FO,,Faroe Islands,2017-06-15,22:27
Fulmarus glacialis,Animalia,PETRELS_AND_SHEARWATERS_PROCELLARIIDAE,Northern Fulmar,,1,-6.66320901364088,62.0028115299621,Europe,Faroe Islands,FO,,Faroe Islands,2017-06-15,22:28
Columba livia,Animalia,PIGEONS_AND_DOVES_COLUMBIDAE,Rock Dove,,15,-6.66744656860828,62.0043241492476,Europe,Faroe Islands,FO,,Faroe Islands,2017-06-15,22:29
Sturnus vulgaris,Animalia,STARLINGS_STURNIDAE,Common Starling,,1,-6.66334480047226,62.0008596978438,Europe,Faroe Islands,FO,,Faroe Islands,2017-06-15,22:30
Larus fuscus,Animalia,GULLS_TERNS_AND_SKIMMERS_LARIDAE,Lesser Black-backed Gull,,1,-6.67711358517408,62.0078362021303,Europe,Faroe Islands,FO,,Faroe Islands,2017-06-15,22:31
Fulmarus glacialis,Animalia,PETRELS_AND_SHEARWATERS_PROCELLARIIDAE,Northern Fulmar,,10,-6.76854573190212,61.9955087592825,Europe,Faroe Islands,FO,,Faroe Islands,2017-06-11,11:25
Columba livia,Animalia,PIGEONS_AND_DOVES_COLUMBIDAE,Rock Dove,,2,-6.76854573190212,61.9955087592825,Europe,Faroe Islands,FO,,Faroe Islands,2017-06-11,11:25
Somateria mollissima,Animalia,DUCKS_GEESE_AND_SWANS_ANATIDAE,Common Eider,,2,-6.76854573190212,61.9955087592825,Europe,Faroe Islands,FO,,Faroe Islands,2017-06-11,11:25
Corvus cornix,Animalia,CROWS_AND_JAYS_CORVIDAE,Hooded Crow,,2,-6.76854573190212,61.9955087592825,Europe,Faroe Islands,FO,,Faroe Islands,2017-06-11,11:25
Sturnus vulgaris,Animalia,STARLINGS_STURNIDAE,Common Starling,,10,-6.76854573190212,61.9955087592825,Europe,Faroe Islands,FO,,Faroe Islands,2017-06-11,11:26
Larus fuscus,Animalia,GULLS_TERNS_AND_SKIMMERS_LARIDAE,Lesser Black-backed Gull,,1,-6.8181112781167,61.9607865519951,Europe,Faroe Islands,FO,,Faroe Islands,2017-06-11,12:06
Sturnus vulgaris,Animalia,STARLINGS_STURNIDAE,Common Starling,,30,-6.7929270118475,61.9520864775404,Europe,Faroe Islands,FO,,Faroe Islands,2017-06-11,13:04
Passer domesticus,Animalia,OLD_WORLD_SPARROWS_PASSERIDAE,House Sparrow,,1,-6.79284788668156,61.9520572246984,Europe,Faroe Islands,FO,,Faroe Islands,2017-06-11,13:04
Cygnus cygnus,Animalia,DUCKS_GEESE_AND_SWANS_ANATIDAE,Whooper Swan,,2,-6.99462217278779,62.1243156865239,Europe,Faroe Islands,FO,,Faroe Islands,2017-06-11,17:09
Troglodytes troglodytes borealis,Animalia,WRENS_TROGLODYTIDAE,Faroe Wren,,1,-6.77961353,62.01624451,Europe,Faroe Islands,FO,,Faroe Islands,2017-05-29,08:52
Sturnus vulgaris,Animalia,STARLINGS_STURNIDAE,Common Starling,,2,-6.76494394,62.00760476,Europe,Faroe Islands,FO,,Faroe Islands,2017-05-29,
Sturnus vulgaris,Animalia,STARLINGS_STURNIDAE,Common Starling,,1,-6.76851341752221,62.0083071985914,Europe,Faroe Islands,FO,,Faroe Islands,2017-05-29,07:24
Corvus cornix,Animalia,CROWS_AND_JAYS_CORVIDAE,Hooded Crow,,2,-6.77305754061278,62.010782669831,Europe,Faroe Islands,FO,,Faroe Islands,2017-05-29,07:46
Somateria mollissima,Animalia,DUCKS_GEESE_AND_SWANS_ANATIDAE,Common Eider,,7,-6.76169592013988,62.0080584821301,Europe,Faroe Islands,FO,,Faroe Islands,2017-05-29,10:02
Somateria mollissima,Animalia,DUCKS_GEESE_AND_SWANS_ANATIDAE,Common Eider,,3,-6.75416873099838,62.0166723149709,Europe,Faroe Islands,FO,,Faroe Islands,2017-05-29,10:43
Larus fuscus,Animalia,GULLS_TERNS_AND_SKIMMERS_LARIDAE,Lesser Black-backed Gull,,1,-6.75420611661476,62.0165293030877,Europe,Faroe Islands,FO,,Faroe Islands,2017-05-29,10:47
Fulmarus glacialis,Animalia,PETRELS_AND_SHEARWATERS_PROCELLARIIDAE,Northern Fulmar,,1,-6.75418146446774,62.0165537620895,Europe,Faroe Islands,FO,,Faroe Islands,2017-05-29,10:47
Larus fuscus,Animalia,GULLS_TERNS_AND_SKIMMERS_LARIDAE,Lesser Black-backed Gull,,30,-6.76649855514117,62.0163440435119,Europe,Faroe Islands,FO,,Faroe Islands,2017-05-29,11:45
Mergus serrator,Animalia,DUCKS_GEESE_AND_SWANS_ANATIDAE,Red-breasted Merganser,,4,-7.1577566,62.0536521,Europe,Faroe Islands,FO,,Faroe Islands,2017-05-15,11:36
Corvus cornix,Animalia,CROWS_AND_JAYS_CORVIDAE,Hooded Crow,,3,-7.23880676,62.05535391,Europe,Faroe Islands,FO,,Faroe Islands,2017-05-15,12:13
Sturnus vulgaris,Animalia,STARLINGS_STURNIDAE,Common Starling,,4,-7.15372532,62.0780693,Europe,Faroe Islands,FO,,Faroe Islands,2017-05-15,13:07
Sturnus vulgaris,Animalia,STARLINGS_STURNIDAE,Common Starling,,1,-6.83021356,62.05808873,Europe,Faroe Islands,FO,,Faroe Islands,2017-05-15,14:11
Sturnus vulgaris,Animalia,STARLINGS_STURNIDAE,Common Starling,,1,-6.8301415,62.05810674,Europe,Faroe Islands,FO,,Faroe Islands,2017-05-15,15:43
Cygnus cygnus,Animalia,DUCKS_GEESE_AND_SWANS_ANATIDAE,Whooper Swan,,2,-7.00807837,62.12794975,Europe,Faroe Islands,FO,,Faroe Islands,2017-05-17,17:14
Sturnus vulgaris,Animalia,STARLINGS_STURNIDAE,Common Starling,,8,-7.13634533,62.04586981,Europe,Faroe Islands,FO,,Faroe Islands,2017-05-17,17:56
Fulmarus glacialis,Animalia,PETRELS_AND_SHEARWATERS_PROCELLARIIDAE,Northern Fulmar,,1,-6.83013755,62.05809789,Europe,Faroe Islands,FO,,Faroe Islands,2017-05-18,13:14
Fratercula arctica,Animalia,AUKS_ALCIDAE,Atlantic Puffin,,1,-6.94165917,62.32679713,Europe,Faroe Islands,FO,,Faroe Islands,2017-05-18,15:40
Somateria mollissima,Animalia,DUCKS_GEESE_AND_SWANS_ANATIDAE,Common Eider,,100,-7.35882595,62.08216093,Europe,Faroe Islands,FO,,Faroe Islands,2017-05-18,18:46
Sterna paradisaea,Animalia,GULLS_TERNS_AND_SKIMMERS_LARIDAE,Arctic Tern,,2,-7.32144431,62.07561375,Europe,Faroe Islands,FO,,Faroe Islands,2017-05-18,18:48
Mergus serrator,Animalia,DUCKS_GEESE_AND_SWANS_ANATIDAE,Red-breasted Merganser,,2,-7.1572925,62.0537452,Europe,Faroe Islands,FO,,Faroe Islands,2017-05-18,19:17
Passer domesticus,Animalia,OLD_WORLD_SPARROWS_PASSERIDAE,House Sparrow,,4,-6.79300524,61.95187091,Europe,Faroe Islands,FO,,Faroe Islands,2017-05-19,12:37
Sturnus vulgaris,Animalia,STARLINGS_STURNIDAE,Common Starling,,4,-6.79307801,61.95198282,Europe,Faroe Islands,FO,,Faroe Islands,2017-05-19,12:38
Somateria mollissima,Animalia,DUCKS_GEESE_AND_SWANS_ANATIDAE,Common Eider,,10,-6.79354181,61.95194087,Europe,Faroe Islands,FO,,Faroe Islands,2017-05-19,12:38
Larus fuscus,Animalia,GULLS_TERNS_AND_SKIMMERS_LARIDAE,Lesser Black-backed Gull,,20,-6.79366754,61.95198358,Europe,Faroe Islands,FO,,Faroe Islands,2017-05-19,12:38
Fulmarus glacialis,Animalia,PETRELS_AND_SHEARWATERS_PROCELLARIIDAE,Northern Fulmar,,10,-6.79531801,61.95263573,Europe,Faroe Islands,FO,,Faroe Islands,2017-05-19,12:41
Streptopelia decaocto,Animalia,PIGEONS_AND_DOVES_COLUMBIDAE,Eurasian Collared Dove,,2,-6.77248788,62.01051429,Europe,Faroe Islands,FO,,Faroe Islands,2017-05-19,13:09
Corvus cornix,Animalia,CROWS_AND_JAYS_CORVIDAE,Hooded Crow,,1,-7.2433566,62.06040571,Europe,Faroe Islands,FO,,Faroe Islands,2017-05-20,07:01
Sturnus vulgaris,Animalia,STARLINGS_STURNIDAE,Common Starling,,7,-7.24478056,62.06263178,Europe,Faroe Islands,FO,,Faroe Islands,2017-05-20,07:01
Haematopus ostralegus,Animalia,OYSTERCATCHERS_HAEMATOPODIDAE,Eurasian Oystercatcher,,40,-7.3091125208884,62.069316603957,Europe,Faroe Islands,FO,,Faroe Islands,2005-06-03,
Anser anser forma domestica,Animalia,DUCKS_GEESE_AND_SWANS_ANATIDAE,Domesticated Goose,,7,-7.1793365199119,62.24132666012,Europe,Faroe Islands,FO,,Faroe Islands,2005-06-03,
Fulmarus glacialis,Animalia,PETRELS_AND_SHEARWATERS_PROCELLARIIDAE,Northern Fulmar,,1,-7.1793365199119,62.24132666012,Europe,Faroe Islands,FO,,Faroe Islands,2005-06-03,
Somateria mollissima,Animalia,DUCKS_GEESE_AND_SWANS_ANATIDAE,Common Eider,,40,-6.7681503260974,62.007490706722,Europe,Faroe Islands,FO,,Faroe Islands,2005-06-02,
Corvus cornix,Animalia,CROWS_AND_JAYS_CORVIDAE,Hooded Crow,,2,-6.76896652860008,62.0079946247073,Europe,Faroe Islands,FO,,Faroe Islands,2016-09-01,14:57
Passer domesticus,Animalia,OLD_WORLD_SPARROWS_PASSERIDAE,House Sparrow,,1,-6.767578125,62.002194090264,Europe,Faroe Islands,FO,,Faroe Islands,2016-08-07,
Turdus merula,Animalia,THRUSHES_TURDIDAE,Common Blackbird,,1,-6.767578125,62.002194090264,Europe,Faroe Islands,FO,,Faroe Islands,2016-08-07,
Columba livia,Animalia,PIGEONS_AND_DOVES_COLUMBIDAE,Rock Dove,,1,-6.7771911621094,62.005739594463,Europe,Faroe Islands,FO,,Faroe Islands,2016-08-07,15:00
Larus fuscus,Animalia,GULLS_TERNS_AND_SKIMMERS_LARIDAE,Lesser Black-backed Gull,,1,-6.7744445800781,62.009606946567,Europe,Faroe Islands,FO,,Faroe Islands,2016-08-07,15:00
Somateria mollissima,Animalia,DUCKS_GEESE_AND_SWANS_ANATIDAE,Common Eider,,1,-6.7620849609375,61.999937645437,Europe,Faroe Islands,FO,,Faroe Islands,2016-08-07,15:00
Corvus cornix,Animalia,CROWS_AND_JAYS_CORVIDAE,Hooded Crow,,1,-6.85102,62.0493216666667,Europe,Faroe Islands,FO,,Faroe Islands,2016-08-10,09:05
Columba livia,Animalia,PIGEONS_AND_DOVES_COLUMBIDAE,Rock Dove,,35,-6.83563666666667,62.0007616666667,Europe,Faroe Islands,FO,,Faroe Islands,2016-08-10,16:41
Columba livia,Animalia,PIGEONS_AND_DOVES_COLUMBIDAE,Rock Dove,,60,-6.89028,61.9979666666667,Europe,Faroe Islands,FO,,Faroe Islands,2016-08-10,17:28
Cygnus cygnus,Animalia,DUCKS_GEESE_AND_SWANS_ANATIDAE,Whooper Swan,,4,-6.99455333333333,62.1240483333333,Europe,Faroe Islands,FO,,Faroe Islands,2016-08-08,10:30
Columba livia,Animalia,PIGEONS_AND_DOVES_COLUMBIDAE,Rock Dove,,1,-6.67039,62.0072816666667,Europe,Faroe Islands,FO,,Faroe Islands,2016-08-08,13:49
Columba livia,Animalia,PIGEONS_AND_DOVES_COLUMBIDAE,Rock Dove,,2,-6.66675333333333,62.006325,Europe,Faroe Islands,FO,,Faroe Islands,2016-08-08,14:59
Columba livia,Animalia,PIGEONS_AND_DOVES_COLUMBIDAE,Rock Dove,,1,-6.65014,61.9947666666667,Europe,Faroe Islands,FO,,Faroe Islands,2016-08-08,16:53
Passer domesticus,Animalia,OLD_WORLD_SPARROWS_PASSERIDAE,House Sparrow,,7,-6.670835,62.00622,Europe,Faroe Islands,FO,,Faroe Islands,2016-08-08,19:46
Columba livia,Animalia,PIGEONS_AND_DOVES_COLUMBIDAE,Rock Dove,,2,-6.67329666666667,62.01426,Europe,Faroe Islands,FO,,Faroe Islands,2016-08-09,11:42
Columba livia,Animalia,PIGEONS_AND_DOVES_COLUMBIDAE,Rock Dove,,2,-6.67567166666667,62.00837,Europe,Faroe Islands,FO,,Faroe Islands,2016-08-09,12:23
Turdus merula,Animalia,THRUSHES_TURDIDAE,Common Blackbird,,1,-6.644715,61.99041,Europe,Faroe Islands,FO,,Faroe Islands,2016-08-09,16:26
Troglodytes troglodytes borealis,Animalia,WRENS_TROGLODYTIDAE,Faroe Wren,,1,-6.64415333333333,61.9901633333333,Europe,Faroe Islands,FO,,Faroe Islands,2016-08-09,16:35
Troglodytes troglodytes borealis,Animalia,WRENS_TROGLODYTIDAE,Faroe Wren,,2,-6.77827617339044,62.0178315438276,Europe,Faroe Islands,FO,,Faroe Islands,2016-06-18,10:00
Corvus cornix,Animalia,CROWS_AND_JAYS_CORVIDAE,Hooded Crow,,4,-6.77949321787351,62.0174536805387,Europe,Faroe Islands,FO,,Faroe Islands,2016-06-18,10:00
Turdus merula,Animalia,THRUSHES_TURDIDAE,Common Blackbird,,2,-6.77907724398883,62.0166183996305,Europe,Faroe Islands,FO,,Faroe Islands,2016-06-18,10:14
Streptopelia decaocto,Animalia,PIGEONS_AND_DOVES_COLUMBIDAE,Eurasian Collared Dove,,1,-6.77920548430659,62.0169106405424,Europe,Faroe Islands,FO,,Faroe Islands,2016-06-18,10:14
Gavia stellata,Animalia,DIVERS_GAVIIDAE,Red-throated Diver,,1,-7.15364048464947,62.240640482527,Europe,Faroe Islands,FO,,Faroe Islands,2016-06-19,16:44
Stercorarius skua,Animalia,SKUAS_STERCORARIIDAE,Great Skua,,2,-7.21103310585,62.1427276694,Europe,Faroe Islands,FO,,Faroe Islands,2012-08-07,
Haematopus ostralegus,Animalia,OYSTERCATCHERS_HAEMATOPODIDAE,Eurasian Oystercatcher,,1,-7.222326028381087,62.08958053588867,Europe,Faroe Islands,FO,,Faroe Islands,2007-06-18,
Balaenoptera musculus,Animalia,RORQUAL_WHALES_BALAENOPTERIDAE,Blue Whale,,1,-5.00042617321014,62.0892977714539,Europe,Faroe Islands,FO,,Faroe Islands - Atlantic Ocean,2015-09-24,11:56
Balaenoptera musculus,Animalia,RORQUAL_WHALES_BALAENOPTERIDAE,Blue Whale,,1,-5.04624031484,62.1427173296,Europe,Faroe Islands,FO,,Faroe Islands - Atlantic Ocean,2015-09-24,
Balaenoptera musculus,Animalia,RORQUAL_WHALES_BALAENOPTERIDAE,Blue Whale,,1,-4.96848952,62.08288955,Europe,Faroe Islands,FO,,Faroe Islands - Atlantic Ocean,2015-09-24,13:14
Fulmarus glacialis,Animalia,PETRELS_AND_SHEARWATERS_PROCELLARIIDAE,Northern Fulmar,,1,-6.65524575142812,61.9473716746772,Europe,Faroe Islands,FO,,Faroe Islands,2015-07-01,16:42
Fulmarus glacialis,Animalia,PETRELS_AND_SHEARWATERS_PROCELLARIIDAE,Northern Fulmar,,1,-6.66103183033354,62.0629753605449,Europe,Faroe Islands,FO,,Faroe Islands,2015-07-01,18:45
