scientificName,kingdom,family,vernacularName,previousIdentifications,individualCount,longitudeDecimal,latitudeDecimal,continent,country,countryCode,stateProvince,locality,eventDate,eventTime
Morpho helenor,Animalia,BRUSHFOOTED_BUTTERFLIES_NYMPHALIDAE,Helenor Morpho,,1,-53.0841065571,4.26315075875,South America,French Guiana,GF,,French Guiana,2014-07-09,
Eudocimus ruber,Animalia,IBISSES_AND_SPOONBILLS_THRESKIORNITHIDAE,Scarlet Ibis,,20,-52.3324584996,4.9442003585,South America,French Guiana,GF,,French Guiana,2014-07-22,
Actitis macularius,Animalia,SANDPIPERS_AND_ALLIES_SCOLOPACIDAE,Spotted Sandpiper,,1,-52.3324584996,4.9442003585,South America,French Guiana,GF,,French Guiana,2014-07-22,
Haematopus palliatus,Animalia,OYSTERCATCHERS_HAEMATOPODIDAE,American Oystercatcher,,40,-52.3324584996,4.9442003585,South America,French Guiana,GF,,French Guiana,2014-07-22,
Saimiri sciureus,Animalia,NEW_WORLD_MONKEYS_CEBIDAE,Common Squirrel Monkey,,10,-53.0425643991,5.42040147588,South America,French Guiana,GF,,French Guiana,2014-07-21,
Sapajus apella,Animalia,NEW_WORLD_MONKEYS_CEBIDAE,Black-capped Capuchin,,10,-53.0603029579,3.85110092622,South America,French Guiana,GF,,French Guiana,2014-07-08,
Alouatta macconnelli,Animalia,SPIDER_MONKEYS_ATELIDAE,Guianan Red Howler Monkey,,6,-52.1374512278,4.29839153094,South America,French Guiana,GF,,French Guiana,2014-07-11,
Egretta thula,Animalia,HERONS_ARDEIDAE,Snowy Egret,,1,-52.6311492955,5.15975591559,South America,French Guiana,GF,,French Guiana - Matoury,2014-07-11,
Ramphocelus carbo,Animalia,TANAGERS_AND_ALLIES_THRAUPIDAE,Silver-beaked Tanager,,3,-52.1511841379,4.30113034077,South America,French Guiana,GF,,French Guiana,2014-07-16,
Bubulcus ibis,Animalia,HERONS_ARDEIDAE,Western Cattle Egret,,1,-52.1511841379,4.30113034077,South America,French Guiana,GF,,French Guiana,2014-07-16,
Thraupis episcopus,Animalia,TANAGERS_AND_ALLIES_THRAUPIDAE,Blue-grey Tanager,,1,-53.3422856033,3.59675652238,South America,French Guiana,GF,,French Guiana,2014-07-07,
Atelopus flavescens,Animalia,Bufonidae,Cayenne stubfoot toad,,1,-53.1152352691,3.54851069038,South America,French Guiana,GF,,French Guiana,2014-07-09,
Atelopus spumarius,Animalia,Bufonidae,Pebas Stubfoot Toad,,1,-53.1225590408,3.7721743772,South America,French Guiana,GF,,French Guiana,2014-07-09,
Dermochelys coriacea,Animalia,Dermochelydae,Leatherback Turtle,,100,-52.2982120523,4.94447114864,South America,French Guiana,GF,,French Guiana - Rémire-Montjoly,2014-07-18,
Iguana iguana,Animalia,Iguanidae,Common Green Iguana,,1,-52.6098633371,5.11775394466,South America,French Guiana,GF,,French Guiana,2014-07-19,
Chelonia mydas,Animalia,Cheloniidae,Green Turtle,,6,-52.5878906809,5.2846055419,South America,French Guiana,GF,,French Guiana,2014-07-18,
Saguinus midas,Animalia,CALLITRICHIDAE,Golden-handed Tamarin,,20,-52.1447754186,4.55379190014,South America,French Guiana,GF,,French Guiana,2014-07-16,
Busarellus nigricollis,Animalia,HAWKS_AND_EAGLES_ACCIPITRIDAE,Black-collared Hawk,,1,-52.0610046666,4.51819816963,South America,French Guiana,GF,,French Guiana,2014-07-16,
Ardea cocoi,Animalia,HERONS_ARDEIDAE,Cocoi Heron,,1,-52.0610046666,4.51819816963,South America,French Guiana,GF,,French Guiana,2014-07-16,
Ardea alba,Animalia,HERONS_ARDEIDAE,Great Egret,,1,-52.0610046666,4.51819816963,South America,French Guiana,GF,,French Guiana,2014-07-16,
Jacana jacana,Animalia,JACANAS_JACANIDAE,Wattled Jacana,,20,-52.2605323826,4.89801124325,South America,French Guiana,GF,,French Guiana,2014-07-19,
Pteroglossus aracari,Animalia,TOUCANS_BARBETS_RAMPHASTIDAE,Black-necked Aracari,,3,-53.0786137283,3.55289671888,South America,French Guiana,GF,,French Guiana,2014-07-11,
Megaceryle torquata,Animalia,KINGFISHERS_ALCEDINIDAE,Ringed Kingfisher,,1,-52.0616054539,4.51471854814,South America,French Guiana,GF,,French Guiana,2014-07-16,
Butorides striata,Animalia,HERONS_ARDEIDAE,Striated Heron,,1,-52.0616054539,4.51471854814,South America,French Guiana,GF,,French Guiana,2014-07-16,
Fregata magnificens,Animalia,FRIGATEBIRDS_FREGATTIDAE,Magnificent Frigatebird,,5,-52.6377868722,5.10298133261,South America,French Guiana,GF,,French Guiana,2014-07-18,14:00
Egretta caerulea,Animalia,HERONS_ARDEIDAE,Little Blue Heron,,1,-52.3369538786,4.93947513344,South America,French Guiana,GF,,French Guiana - Rémire-Montjoly,2014-07-17,18:00
Cathartes aura,Animalia,NEW_WORLD_VULTURES_CATHARTIDAE,Turkey Vulture,,9,-52.3369538786,4.93947513344,South America,French Guiana,GF,,French Guiana - Rémire-Montjoly,2014-07-17,18:00
Megaceryle torquata,Animalia,KINGFISHERS_ALCEDINIDAE,Ringed Kingfisher,,1,-53.0423927587,5.42049829725,South America,French Guiana,GF,,French Guiana,2014-07-20,17:00
Pandion haliaetus,Animalia,OSPREY_PANDIONIDAE,Western Osprey,,1,-53.0423927587,5.42049829725,South America,French Guiana,GF,,French Guiana,2014-07-20,17:00
Buteo nitidus nitidus,Animalia,HAWKS_AND_EAGLES_ACCIPITRIDAE,Grey-lined Hawk ssp nitidus,,1,-53.925447464,5.74520989035,South America,French Guiana,GF,,French Guiana,2014-04-27,
Dermochelys coriacea,Animalia,Dermochelydae,Leatherback Turtle,,1,-53.925447464,5.74520989035,South America,French Guiana,GF,,French Guiana,2014-04-27,
Dermochelys coriacea,Animalia,Dermochelydae,Leatherback Turtle,,2,-53.9406394958,5.74715272684,South America,French Guiana,GF,,French Guiana,2014-04-26,
Chelonia mydas,Animalia,Cheloniidae,Green Turtle,,5,-53.9406394958,5.74715272684,South America,French Guiana,GF,,French Guiana,2014-04-26,
Chelonia mydas,Animalia,Cheloniidae,Green Turtle,,1,-53.9406394958,5.74715272684,South America,French Guiana,GF,,French Guiana,2014-04-26,
Cacicus cela,Animalia,ICTERIDS_ICTERIDAE,Yellow-rumped Cacique,,1,-53.9337784052,5.74633075836,South America,French Guiana,GF,,French Guiana - Awala-Yalimapo,2014-04-26,
Coragyps atratus,Animalia,NEW_WORLD_VULTURES_CATHARTIDAE,Black Vulture,,1,-54.0256977081,5.50065922318,South America,French Guiana,GF,,French Guiana,2014-04-26,
Volatinia jacarina,Animalia,TANAGERS_AND_ALLIES_THRAUPIDAE,Blue-black Grassquit,,2,-52.20703125,4.8063647085,South America,French Guiana,GF,,French Guiana,2013-02-11,
Rupornis magnirostris,Animalia,HAWKS_AND_EAGLES_ACCIPITRIDAE,Roadside Hawk,,1,-51.976318359375,4.5545219984171,South America,French Guiana,GF,,French Guiana,2013-02-11,
Platalea ajaja,Animalia,IBISSES_AND_SPOONBILLS_THRESKIORNITHIDAE,Roseate Spoonbill,,1,-51.976318359375,4.5545219984171,South America,French Guiana,GF,,French Guiana,2013-02-11,
Conirostrum bicolor,Animalia,TANAGERS_AND_ALLIES_THRAUPIDAE,Bicolored Conebill,,5,-51.976318359375,4.5545219984171,South America,French Guiana,GF,,French Guiana,2013-02-11,
Crotophaga major,Animalia,CUCKOOS_AND_COUCALS_CUCULIDAE,Greater Ani,,1,-51.976318359375,4.5545219984171,South America,French Guiana,GF,,French Guiana,2013-02-11,
Opisthocomus hoazin,Animalia,HOATZIN_OPISTHOCOMIDAE,Hoatzin,,1,-51.976318359375,4.5545219984171,South America,French Guiana,GF,,French Guiana,2013-02-11,
Donacobius atricapilla,Animalia,Donacobiidae,Black-capped Donacobius,,10,-51.976318359375,4.5545219984171,South America,French Guiana,GF,,French Guiana,2013-02-11,
Porphyrio martinica,Animalia,RAILS_RALLIDAE,Purple Gallinule,,1,-51.976318359375,4.5545219984171,South America,French Guiana,GF,,French Guiana,2013-02-11,
Anhinga anhinga,Animalia,ANHINGAS_ANHINGIDAE,Anhinga,,2,-51.976318359375,4.5545219984171,South America,French Guiana,GF,,French Guiana,2013-02-11,
Ixobrychus exilis,Animalia,HERONS_ARDEIDAE,Least Bittern,,10,-51.976318359375,4.5545219984171,South America,French Guiana,GF,,French Guiana,2013-02-11,
Porphyrio flavirostris,Animalia,RAILS_RALLIDAE,Azure Gallinule,,10,-51.976318359375,4.5545219984171,South America,French Guiana,GF,,French Guiana,2013-02-11,
Cathartes burrovianus,Animalia,NEW_WORLD_VULTURES_CATHARTIDAE,Lesser Yellow-headed Vulture,,1,-51.976318359375,4.5545219984171,South America,French Guiana,GF,,French Guiana,2013-02-11,
Charadrius collaris,Animalia,PLOVERS_CHARADRIIDAE,Collared Plover,,10,-51.976318359375,4.5545219984171,South America,French Guiana,GF,,French Guiana,2013-02-11,
Fluvicola pica,Animalia,TYRANT_FLYCATCHERS_TYRANNIDAE,Pied Water Tyrant,,10,-51.976318359375,4.5545219984171,South America,French Guiana,GF,,French Guiana,2013-02-11,
Quiscalus lugubris,Animalia,ICTERIDS_ICTERIDAE,Carib Grackle,,50,-51.976318359375,4.5545219984171,South America,French Guiana,GF,,French Guiana,2013-02-11,
Arenaria interpres,Animalia,SANDPIPERS_AND_ALLIES_SCOLOPACIDAE,Ruddy Turnstone,,20,-51.976318359375,4.5545219984171,South America,French Guiana,GF,,French Guiana,2013-02-11,
Sakesphorus canadensis,Animalia,ANTBIRDS_THAMNOPHILIDAE,Black-crested Antshrike,,1,-51.976318359375,4.5545219984171,South America,French Guiana,GF,,French Guiana,2013-02-11,
Sakesphorus canadensis,Animalia,ANTBIRDS_THAMNOPHILIDAE,Black-crested Antshrike,,1,-51.976318359375,4.5545219984171,South America,French Guiana,GF,,French Guiana,2013-02-11,
Actitis macularius,Animalia,SANDPIPERS_AND_ALLIES_SCOLOPACIDAE,Spotted Sandpiper,,3,-51.976318359375,4.5545219984171,South America,French Guiana,GF,,French Guiana,2013-02-11,
Ramphocelus carbo,Animalia,TANAGERS_AND_ALLIES_THRAUPIDAE,Silver-beaked Tanager,,3,-51.976318359375,4.5545219984171,South America,French Guiana,GF,,French Guiana,2013-02-11,
Arundinicola leucocephala,Animalia,TYRANT_FLYCATCHERS_TYRANNIDAE,White-headed Marsh Tyrant,,10,-51.976318359375,4.5545219984171,South America,French Guiana,GF,,French Guiana,2013-02-11,
Chloroceryle americana,Animalia,KINGFISHERS_ALCEDINIDAE,Green Kingfisher,,1,-51.976318359375,4.5545219984171,South America,French Guiana,GF,,French Guiana,2013-02-11,
Megaceryle torquata,Animalia,KINGFISHERS_ALCEDINIDAE,Ringed Kingfisher,,1,-51.976318359375,4.5545219984171,South America,French Guiana,GF,,French Guiana,2013-02-11,
Jacana jacana,Animalia,JACANAS_JACANIDAE,Wattled Jacana,,50,-51.976318359375,4.5545219984171,South America,French Guiana,GF,,French Guiana,2013-02-11,
Coragyps atratus,Animalia,NEW_WORLD_VULTURES_CATHARTIDAE,Black Vulture,,10,-51.976318359375,4.5545219984171,South America,French Guiana,GF,,French Guiana,2013-02-11,
Eudocimus ruber,Animalia,IBISSES_AND_SPOONBILLS_THRESKIORNITHIDAE,Scarlet Ibis,,10,-51.976318359375,4.5545219984171,South America,French Guiana,GF,,French Guiana,2013-02-11,
Butorides striata,Animalia,HERONS_ARDEIDAE,Striated Heron,,1,-51.976318359375,4.5545219984171,South America,French Guiana,GF,,French Guiana,2013-02-11,
Nyctanassa violacea,Animalia,HERONS_ARDEIDAE,Yellow-crowned Night Heron,,50,-51.976318359375,4.5545219984171,South America,French Guiana,GF,,French Guiana,2013-02-11,
Egretta tricolor,Animalia,HERONS_ARDEIDAE,Tricolored Heron,,10,-51.976318359375,4.5545219984171,South America,French Guiana,GF,,French Guiana,2013-02-11,
Tolmomyias assimilis,Animalia,TYRANT_FLYCATCHERS_TYRANNIDAE,Zimmer's Flatbill,,1,-53.04330847454668,3.9474997520446777,South America,French Guiana,GF,,French Guiana,2011-04-27,
Sapajus apella,Animalia,NEW_WORLD_MONKEYS_CEBIDAE,Black-capped Capuchin,,5,-52.5841903687,5.28672888326,South America,French Guiana,GF,,French Guiana,2000-12-26,
Anableps anableps,Animalia,ANABLEPIDAE,Largescale foureyes,,10,-52.64186859,5.16911717,South America,French Guiana,GF,,French Guiana,2000-12-25,
Saimiri sciureus,Animalia,NEW_WORLD_MONKEYS_CEBIDAE,Common Squirrel Monkey,,10,-52.5852203369,5.28621608963,South America,French Guiana,GF,,French Guiana,2000-12-26,
Iguana iguana,Animalia,Iguanidae,Common Green Iguana,,1,-52.5852203369,5.28621608963,South America,French Guiana,GF,,French Guiana,2000-12-26,
Sporophila americana,Animalia,TANAGERS_AND_ALLIES_THRAUPIDAE,Wing-barred Seedeater,,2,-54.0157413483,5.49493502074,South America,French Guiana,GF,,French Guiana,2011-12-10,
Neoneura joana,Animalia,POND_DAMSELS_COENAGRIONIDAE,,,1,-54.349,4.105,South America,French Guiana,GF,,French Guiana,2010-07-17,
Neoneura joana,Animalia,POND_DAMSELS_COENAGRIONIDAE,,,2,-54.358683,4.0693,South America,French Guiana,GF,,French Guiana,2010-07-23,
Neoneura joana,Animalia,POND_DAMSELS_COENAGRIONIDAE,,,1,-54.3476193223,4.04136446275,South America,French Guiana,GF,,French Guiana - Papaïchton,2010-07-22,
Hetaerina laesa,Animalia,BROADWINGED_DAMSELS_CALOPTERYGIDAE,,,1,-54.3473911285,4.04098770479,South America,French Guiana,GF,,French Guiana - Papaïchton,2010-07-22,
Argia translata,Animalia,POND_DAMSELS_COENAGRIONIDAE,Dusky Dancer,,1,-54.3457603455,4.03948940058,South America,French Guiana,GF,,French Guiana - Papaïchton,2010-07-22,
Fylgia amazonica,Animalia,SKIMMERS_LIBELLULIDAE,White-eyed Skimmer,,1,-54.3490507709,4.04208203951,South America,French Guiana,GF,,French Guiana - Papaïchton,2010-07-25,
Diastatops pullata,Animalia,SKIMMERS_LIBELLULIDAE,,,1,-54.3490507709,4.04208203951,South America,French Guiana,GF,,French Guiana - Papaïchton,2010-07-24,
Perithemis lais,Animalia,SKIMMERS_LIBELLULIDAE,Fine-banded Amberwing,,1,-54.3490507709,4.04208203951,South America,French Guiana,GF,,French Guiana - Papaïchton,2010-07-24,
Neoneura myrthea,Animalia,POND_DAMSELS_COENAGRIONIDAE,,,1,-54.3490507709,4.04208203951,South America,French Guiana,GF,,French Guiana - Papaïchton,2010-07-24,
Perilestes attenuatus,Animalia,SHORTWINGS_PERILESTIDAE,Attenuate Twigtail,,1,-54.3490507709,4.04208203951,South America,French Guiana,GF,,French Guiana - Papaïchton,2010-07-24,
Oceanodroma monorhis,Animalia,STORM_PETRELS_HYDROBATIDAE,Swinhoe's Storm Petrel,,1,-51.69067383,4.61475346,South America,French Guiana,GF,,French Guiana Exclusive Economic Zone,2017-05-26,
Anartia jatrophae,Animalia,BRUSHFOOTED_BUTTERFLIES_NYMPHALIDAE,White Peacock,,1,-52.34484673,4.86437646,South America,French Guiana,GF,,French Guiana - Matoury,2000-07-15,
Bradypus tridactylus,Animalia,THREETOED_SLOTHS_BRADYPODIDAE,Pale-throated Three-toed Sloth,,1,-52.3445034,4.86421254,South America,French Guiana,GF,,French Guiana - Matoury,2000-07-07,
Saimiri sciureus,Animalia,NEW_WORLD_MONKEYS_CEBIDAE,Common Squirrel Monkey,,15,-52.3445034,4.86421254,South America,French Guiana,GF,,French Guiana - Matoury,2000-07-07,
Dermochelys coriacea,Animalia,Dermochelydae,Leatherback Turtle,,15,-53.94813538,5.74523338,South America,French Guiana,GF,,French Guiana - Awala-Yalimapo,2000-07-15,
Thraupis episcopus,Animalia,TANAGERS_AND_ALLIES_THRAUPIDAE,Blue-grey Tanager,,1,-52.32011565,4.9396995,South America,French Guiana,GF,,French Guiana - Rémire-Montjoly,2018-05-18,
Crotophaga ani,Animalia,CUCKOOS_AND_COUCALS_CUCULIDAE,Smooth-billed Ani,,1,-52.32011565,4.9396995,South America,French Guiana,GF,,French Guiana - Rémire-Montjoly,2018-05-18,
Nyctanassa violacea,Animalia,HERONS_ARDEIDAE,Yellow-crowned Night Heron,,1,-52.32602118,4.94539622,South America,French Guiana,GF,,French Guiana - Rémire-Montjoly,2018-05-18,
Nyctanassa violacea,Animalia,HERONS_ARDEIDAE,Yellow-crowned Night Heron,,1,-52.32602118,4.94539622,South America,French Guiana,GF,,French Guiana - Rémire-Montjoly,2018-05-18,
Egretta tricolor,Animalia,HERONS_ARDEIDAE,Tricolored Heron,,1,-52.32602118,4.94539622,South America,French Guiana,GF,,French Guiana - Rémire-Montjoly,2018-05-18,
Ardea alba,Animalia,HERONS_ARDEIDAE,Great Egret,,1,-52.27628621,4.9267208,South America,French Guiana,GF,,French Guiana - Rémire-Montjoly,2018-05-17,
Jacana jacana,Animalia,JACANAS_JACANIDAE,Wattled Jacana,,1,-53.0476583,5.42076704,South America,French Guiana,GF,,French Guiana,2018-05-16,
Milvago chimachima,Animalia,CARACAS_AND_FALCONS_FALCONIDAE,Yellow-headed Caracara,,1,-53.6724152,5.609945,South America,French Guiana,GF,,French Guiana,2018-05-15,
Rupornis magnirostris,Animalia,HAWKS_AND_EAGLES_ACCIPITRIDAE,Roadside Hawk,,1,-53.94555888,5.74595244,South America,French Guiana,GF,,French Guiana - Awala-Yalimapo,2018-05-15,
Thraupis episcopus,Animalia,TANAGERS_AND_ALLIES_THRAUPIDAE,Blue-grey Tanager,,1,-53.94555888,5.74595244,South America,French Guiana,GF,,French Guiana - Awala-Yalimapo,2018-05-15,
Cathartes aura,Animalia,NEW_WORLD_VULTURES_CATHARTIDAE,Turkey Vulture,,1,-53.93402689,5.74620245,South America,French Guiana,GF,,French Guiana - Awala-Yalimapo,2018-05-02,
Charadrius semipalmatus,Animalia,PLOVERS_CHARADRIIDAE,Semipalmated Plover,,1,-53.93402689,5.74620245,South America,French Guiana,GF,,French Guiana - Awala-Yalimapo,2018-05-02,
Platalea ajaja,Animalia,IBISSES_AND_SPOONBILLS_THRESKIORNITHIDAE,Roseate Spoonbill,,1,-53.93402689,5.74620245,South America,French Guiana,GF,,French Guiana - Awala-Yalimapo,2018-05-02,
Rynchops niger,Animalia,GULLS_TERNS_AND_SKIMMERS_LARIDAE,Black Skimmer,,1,-53.93402689,5.74620245,South America,French Guiana,GF,,French Guiana - Awala-Yalimapo,2018-05-02,
Coragyps atratus,Animalia,NEW_WORLD_VULTURES_CATHARTIDAE,Black Vulture,,1,-53.93402689,5.74620245,South America,French Guiana,GF,,French Guiana - Awala-Yalimapo,2018-05-02,
Rupornis magnirostris,Animalia,HAWKS_AND_EAGLES_ACCIPITRIDAE,Roadside Hawk,,1,-53.93402689,5.74620245,South America,French Guiana,GF,,French Guiana - Awala-Yalimapo,2018-05-02,
Celeus flavus,Animalia,WOODPECKERS_PICIDAE,Cream-colored Woodpecker,,1,-53.043722,5.41799247,South America,French Guiana,GF,,French Guiana,2018-05-01,
Cathartes aura,Animalia,NEW_WORLD_VULTURES_CATHARTIDAE,Turkey Vulture,,1,-52.04975767,4.45306596,South America,French Guiana,GF,,French Guiana,2018-05-01,
Arundinicola leucocephala,Animalia,TYRANT_FLYCATCHERS_TYRANNIDAE,White-headed Marsh Tyrant,,1,-52.04975767,4.45306596,South America,French Guiana,GF,,French Guiana,2018-05-01,
Ardea cocoi,Animalia,HERONS_ARDEIDAE,Cocoi Heron,,1,-52.04975767,4.45306596,South America,French Guiana,GF,,French Guiana,2018-05-01,
Jacana jacana,Animalia,JACANAS_JACANIDAE,Wattled Jacana,,1,-52.04975767,4.45306596,South America,French Guiana,GF,,French Guiana,2018-05-01,
Butorides striata,Animalia,HERONS_ARDEIDAE,Striated Heron,,1,-52.04975767,4.45306596,South America,French Guiana,GF,,French Guiana,2018-05-01,
Chloroceryle americana,Animalia,KINGFISHERS_ALCEDINIDAE,Green Kingfisher,,1,-52.04975767,4.45306596,South America,French Guiana,GF,,French Guiana,2018-05-01,
Egretta caerulea,Animalia,HERONS_ARDEIDAE,Little Blue Heron,,1,-52.33173069,4.9436993,South America,French Guiana,GF,,French Guiana - Rémire-Montjoly,2018-04-28,
Egretta thula,Animalia,HERONS_ARDEIDAE,Snowy Egret,,1,-52.33173069,4.9436993,South America,French Guiana,GF,,French Guiana - Rémire-Montjoly,2018-04-28,
Arenaria interpres,Animalia,SANDPIPERS_AND_ALLIES_SCOLOPACIDAE,Ruddy Turnstone,,1,-52.33173069,4.9436993,South America,French Guiana,GF,,French Guiana - Rémire-Montjoly,2018-04-28,
Charadrius semipalmatus,Animalia,PLOVERS_CHARADRIIDAE,Semipalmated Plover,,1,-52.33173069,4.9436993,South America,French Guiana,GF,,French Guiana - Rémire-Montjoly,2018-04-28,
Thraupis episcopus,Animalia,TANAGERS_AND_ALLIES_THRAUPIDAE,Blue-grey Tanager,,1,-52.58333144,5.28139585,South America,French Guiana,GF,,French Guiana,2018-04-27,
Thraupis palmarum,Animalia,TANAGERS_AND_ALLIES_THRAUPIDAE,Palm Tanager,,1,-52.58333144,5.28139585,South America,French Guiana,GF,,French Guiana,2018-04-27,
Sporophila americana,Animalia,TANAGERS_AND_ALLIES_THRAUPIDAE,Wing-barred Seedeater,,1,-52.58333144,5.28139585,South America,French Guiana,GF,,French Guiana,2018-04-27,
Pavo cristatus,Animalia,FRANCOLINS_QUAILS_PARTRIDGES_AND_PHEASANTS_PHASIANIDAE,Indian Peafowl,,1,-52.59082875,5.28748957,South America,French Guiana,GF,,French Guiana,2018-04-27,
Pavo cristatus,Animalia,FRANCOLINS_QUAILS_PARTRIDGES_AND_PHEASANTS_PHASIANIDAE,Indian Peafowl,,1,-52.59082875,5.28748957,South America,French Guiana,GF,,French Guiana,2018-04-27,
Arenaria interpres,Animalia,SANDPIPERS_AND_ALLIES_SCOLOPACIDAE,Ruddy Turnstone,,1,-52.59082875,5.28748957,South America,French Guiana,GF,,French Guiana,2018-04-27,
Rynchops niger,Animalia,GULLS_TERNS_AND_SKIMMERS_LARIDAE,Black Skimmer,,1,-52.62060299,5.15847766,South America,French Guiana,GF,,French Guiana,2018-04-27,
Progne chalybea,Animalia,SWALLOWS_HIRUNDINIDAE,Grey-breasted Martin,,1,-52.62060299,5.15847766,South America,French Guiana,GF,,French Guiana,2018-04-27,
Crotophaga major,Animalia,CUCKOOS_AND_COUCALS_CUCULIDAE,Greater Ani,,1,-52.04356327,4.49156275,South America,French Guiana,GF,,French Guiana,2018-04-30,
Pteroglossus aracari,Animalia,TOUCANS_BARBETS_RAMPHASTIDAE,Black-necked Aracari,,1,-52.04356327,4.49156275,South America,French Guiana,GF,,French Guiana,2018-04-30,
Tachycineta albiventer,Animalia,SWALLOWS_HIRUNDINIDAE,White-winged Swallow,,1,-52.04356327,4.49156275,South America,French Guiana,GF,,French Guiana,2018-04-30,
Crotophaga ani,Animalia,CUCKOOS_AND_COUCALS_CUCULIDAE,Smooth-billed Ani,,1,-52.04356327,4.49156275,South America,French Guiana,GF,,French Guiana,2018-04-30,
Donacobius atricapilla,Animalia,Donacobiidae,Black-capped Donacobius,,1,-52.04356327,4.49156275,South America,French Guiana,GF,,French Guiana,2018-04-30,
Ardea cocoi,Animalia,HERONS_ARDEIDAE,Cocoi Heron,,1,-52.04356327,4.49156275,South America,French Guiana,GF,,French Guiana,2018-04-30,
Progne chalybea,Animalia,SWALLOWS_HIRUNDINIDAE,Grey-breasted Martin,,1,-52.04356327,4.49156275,South America,French Guiana,GF,,French Guiana,2018-04-30,
Fluvicola pica,Animalia,TYRANT_FLYCATCHERS_TYRANNIDAE,Pied Water Tyrant,,1,-52.04356327,4.49156275,South America,French Guiana,GF,,French Guiana,2018-04-30,
Arundinicola leucocephala,Animalia,TYRANT_FLYCATCHERS_TYRANNIDAE,White-headed Marsh Tyrant,,1,-52.04356327,4.49156275,South America,French Guiana,GF,,French Guiana,2018-04-30,
Ardea alba,Animalia,HERONS_ARDEIDAE,Great Egret,,1,-52.04356327,4.49156275,South America,French Guiana,GF,,French Guiana,2018-04-30,
Ardea cocoi,Animalia,HERONS_ARDEIDAE,Cocoi Heron,,1,-52.04356327,4.49156275,South America,French Guiana,GF,,French Guiana,2018-04-30,
Busarellus nigricollis,Animalia,HAWKS_AND_EAGLES_ACCIPITRIDAE,Black-collared Hawk,,1,-52.04356327,4.49156275,South America,French Guiana,GF,,French Guiana,2018-04-30,
Jacana jacana,Animalia,JACANAS_JACANIDAE,Wattled Jacana,,1,-52.04356327,4.49156275,South America,French Guiana,GF,,French Guiana,2018-04-30,
Dermochelys coriacea,Animalia,Dermochelydae,Leatherback Turtle,,1,-53.9489517211914,5.74495983123779,South America,French Guiana,GF,,French Guiana - Awala-Yalimapo,2018-07-12,03:45
Ardea alba,Animalia,HERONS_ARDEIDAE,Great Egret,,1,-52.33092753,4.94369417,South America,French Guiana,GF,,French Guiana - Rémire-Montjoly,2018-06-30,10:41
Pierella hyalinus,Animalia,BRUSHFOOTED_BUTTERFLIES_NYMPHALIDAE,,,1,-53.39994907,3.85738233,South America,French Guiana,GF,,French Guiana,2015-09-03,
Anartia jatrophae,Animalia,BRUSHFOOTED_BUTTERFLIES_NYMPHALIDAE,White Peacock,,1,-52.25847065,4.87939976,South America,French Guiana,GF,,French Guiana - Rémire-Montjoly,2015-08-30,
Dryas iulia,Animalia,BRUSHFOOTED_BUTTERFLIES_NYMPHALIDAE,Julia Heliconian,,1,-52.49708131,4.94755743,South America,French Guiana,GF,,French Guiana - Montsinéry-Tonnégrande,2015-07-18,
Anartia amathea,Animalia,BRUSHFOOTED_BUTTERFLIES_NYMPHALIDAE,Red Peacock,,1,-52.4941054,4.94806983,South America,French Guiana,GF,,French Guiana - Montsinéry-Tonnégrande,2015-07-18,
Dryas iulia,Animalia,BRUSHFOOTED_BUTTERFLIES_NYMPHALIDAE,Julia Heliconian,,1,-52.49358773,4.95071665,South America,French Guiana,GF,,French Guiana,2015-07-18,
Hamadryas feronia,Animalia,BRUSHFOOTED_BUTTERFLIES_NYMPHALIDAE,,,1,-52.4946177,4.94695418,South America,French Guiana,GF,,French Guiana - Montsinéry-Tonnégrande,2015-07-18,
Heraclides thoas,Animalia,SWALLOWTAILS_PAPILIONIDAE,Thoas swallowtail,,1,-52.25941613,4.87512577,South America,French Guiana,GF,,French Guiana - Rémire-Montjoly,2015-08-30,
Tringa semipalmata,Animalia,SANDPIPERS_AND_ALLIES_SCOLOPACIDAE,Willet,,1,-52.33870978,4.93689579,South America,French Guiana,GF,,French Guiana,2015-08-31,
Charadrius semipalmatus,Animalia,PLOVERS_CHARADRIIDAE,Semipalmated Plover,,1,-52.63178222,5.15897923,South America,French Guiana,GF,,French Guiana,2014-07-11,
Progne chalybea,Animalia,SWALLOWS_HIRUNDINIDAE,Grey-breasted Martin,,1,-53.21362438,3.62896294,South America,French Guiana,GF,,French Guiana,2014-07-10,
Egretta thula,Animalia,HERONS_ARDEIDAE,Snowy Egret,,1,-52.62724403,5.1578454,South America,French Guiana,GF,,French Guiana,2012-05-08,
Egretta tricolor,Animalia,HERONS_ARDEIDAE,Tricolored Heron,,1,-52.62724403,5.1578454,South America,French Guiana,GF,,French Guiana,2012-05-08,
Thraupis episcopus,Animalia,TANAGERS_AND_ALLIES_THRAUPIDAE,Blue-grey Tanager,,1,-52.62720554,5.15937547,South America,French Guiana,GF,,French Guiana,2012-05-08,
Pavo cristatus,Animalia,FRANCOLINS_QUAILS_PARTRIDGES_AND_PHEASANTS_PHASIANIDAE,Indian Peafowl,,1,-52.59090901,5.28726523,South America,French Guiana,GF,,French Guiana,2012-05-07,
Iguana iguana,Animalia,Iguanidae,Common Green Iguana,,4,-52.59090901,5.28726523,South America,French Guiana,GF,,French Guiana,2012-05-07,
Sapajus apella,Animalia,NEW_WORLD_MONKEYS_CEBIDAE,Black-capped Capuchin,,1,-52.59090901,5.28726523,South America,French Guiana,GF,,French Guiana,2012-05-07,
Chelonia mydas,Animalia,Cheloniidae,Green Turtle,,1,-52.57936478,5.28028095,South America,French Guiana,GF,,French Guiana,2012-05-07,
Sotalia guianensis,Animalia,DOLPHINS_DELPHINIDAE,Guyana Dolphin,,2,-52.63778457,5.19922613,South America,French Guiana,GF,,French Guiana,2012-05-07,
Rynchops niger,Animalia,GULLS_TERNS_AND_SKIMMERS_LARIDAE,Black Skimmer,,5,-52.61171251,5.22358681,South America,French Guiana,GF,,French Guiana,2012-05-07,
Egretta thula,Animalia,HERONS_ARDEIDAE,Snowy Egret,,1,-52.62736913,5.15802107,South America,French Guiana,GF,,French Guiana,2012-05-06,
Arenaria interpres,Animalia,SANDPIPERS_AND_ALLIES_SCOLOPACIDAE,Ruddy Turnstone,,1,-52.62846701,5.16277702,South America,French Guiana,GF,,French Guiana,2012-05-06,
Trichechus manatus,Animalia,MANATEES_TRICHECHIDAE,West Indian Manatee,,2,-52.62624625,5.16052391,South America,French Guiana,GF,,French Guiana,2012-05-06,
Charadrius semipalmatus,Animalia,PLOVERS_CHARADRIIDAE,Semipalmated Plover,,1,-52.62818077,5.16219317,South America,French Guiana,GF,,French Guiana,2012-05-06,
Bradypus tridactylus,Animalia,THREETOED_SLOTHS_BRADYPODIDAE,Pale-throated Three-toed Sloth,,1,-52.59595692,5.11214319,South America,French Guiana,GF,,French Guiana,2016-01-05,
Thraupis palmarum,Animalia,TANAGERS_AND_ALLIES_THRAUPIDAE,Palm Tanager,,1,-52.333896048367,4.9415614542333,South America,French Guiana,GF,,French Guiana - Rémire-Montjoly,2015-08-31,
Actitis macularius,Animalia,SANDPIPERS_AND_ALLIES_SCOLOPACIDAE,Spotted Sandpiper,,1,-52.33879544,4.93680468,South America,French Guiana,GF,,French Guiana,2015-08-31,
Chelidoptera tenebrosa,Animalia,PUFFBIRDS_BUCCONIDAE,Swallow-winged Puffbird,,1,-53.541398048401,3.7463905798554,South America,French Guiana,GF,,French Guiana,2015-09-01,
Charadrius collaris,Animalia,PLOVERS_CHARADRIIDAE,Collared Plover,,1,-52.630576193333,5.1636924779538,South America,French Guiana,GF,,French Guiana - Rémire-Montjoly,2015-07-25,
Arenaria interpres,Animalia,SANDPIPERS_AND_ALLIES_SCOLOPACIDAE,Ruddy Turnstone,,5,-52.33580544591,4.9428970715636,South America,French Guiana,GF,,French Guiana - Rémire-Montjoly,2015-08-31,
Arenaria interpres,Animalia,SANDPIPERS_AND_ALLIES_SCOLOPACIDAE,Ruddy Turnstone,,1,-52.329797297716,4.9430680945211,South America,French Guiana,GF,,French Guiana - Rémire-Montjoly,2015-08-28,
Calidris canutus,Animalia,SANDPIPERS_AND_ALLIES_SCOLOPACIDAE,Red Knot,,10,-52.335376292467,4.9429398273071,South America,French Guiana,GF,,French Guiana - Rémire-Montjoly,2015-08-31,
Charadrius semipalmatus,Animalia,PLOVERS_CHARADRIIDAE,Semipalmated Plover,,3,-52.335376292467,4.9429398273071,South America,French Guiana,GF,,French Guiana - Rémire-Montjoly,2015-08-31,
Calidris alba,Animalia,SANDPIPERS_AND_ALLIES_SCOLOPACIDAE,Sanderling,,12,-52.335376292467,4.9429398273071,South America,French Guiana,GF,,French Guiana - Rémire-Montjoly,2015-08-31,
Eira barbara,Animalia,WEASELS_AND_RELATIVES_MUSTELIDAE,Tayra,,3,-53.528995513916,3.7655111240285,South America,French Guiana,GF,,French Guiana,2015-09-03,
Piaya cayana,Animalia,CUCKOOS_AND_COUCALS_CUCULIDAE,Squirrel Cuckoo,,1,-53.528995513916,3.7655111240285,South America,French Guiana,GF,,French Guiana,2015-09-03,
Morpho achilles,Animalia,BRUSHFOOTED_BUTTERFLIES_NYMPHALIDAE,,,1,-53.545067310333,3.753938213113,South America,French Guiana,GF,,French Guiana,2015-09-02,
Ibycter americanus,Animalia,CARACAS_AND_FALCONS_FALCONIDAE,Red-throated Caracara,,2,-53.545067310333,3.753938213113,South America,French Guiana,GF,,French Guiana,2015-09-01,
Morpho menelaus,Animalia,BRUSHFOOTED_BUTTERFLIES_NYMPHALIDAE,,,1,-53.545067310333,3.753938213113,South America,French Guiana,GF,,French Guiana,2015-09-01,
Saimiri sciureus,Animalia,NEW_WORLD_MONKEYS_CEBIDAE,Common Squirrel Monkey,,5,-53.545067310333,3.753938213113,South America,French Guiana,GF,,French Guiana,2015-09-01,
Fluvicola pica,Animalia,TYRANT_FLYCATCHERS_TYRANNIDAE,Pied Water Tyrant,,1,-52.33833745122,4.9373388014197,South America,French Guiana,GF,,French Guiana,2015-08-31,
Saguinus midas,Animalia,CALLITRICHIDAE,Golden-handed Tamarin,,4,-52.653561718762,5.1730752657476,South America,French Guiana,GF,,French Guiana,2015-08-27,
Bradypus tridactylus,Animalia,THREETOED_SLOTHS_BRADYPODIDAE,Pale-throated Three-toed Sloth,,1,-52.652914300561,5.1723057685171,South America,French Guiana,GF,,French Guiana,2015-08-13,
Eudocimus ruber,Animalia,IBISSES_AND_SPOONBILLS_THRESKIORNITHIDAE,Scarlet Ibis,,49,-52.629082202911,5.1511170973964,South America,French Guiana,GF,,French Guiana,2015-08-09,
Ramphocelus carbo,Animalia,TANAGERS_AND_ALLIES_THRAUPIDAE,Silver-beaked Tanager,,1,-52.329548271373,4.9424220400362,South America,French Guiana,GF,,French Guiana - Rémire-Montjoly,2015-08-31,
Tyrannus savana,Animalia,TYRANT_FLYCATCHERS_TYRANNIDAE,Fork-tailed Flycatcher,,7,-52.653472200036,5.1708098458609,South America,French Guiana,GF,,French Guiana,2015-07-22,
Thraupis episcopus,Animalia,TANAGERS_AND_ALLIES_THRAUPIDAE,Blue-grey Tanager,,2,-52.653225604445,5.1706284483029,South America,French Guiana,GF,,French Guiana,2015-07-22,
Sotalia guianensis,Animalia,DOLPHINS_DELPHINIDAE,Guyana Dolphin,,1,-52.603440284729,5.2153871537743,South America,French Guiana,GF,,French Guiana - Rémire-Montjoly,2015-08-09,
Egretta tricolor,Animalia,HERONS_ARDEIDAE,Tricolored Heron,,1,-52.33138198033,4.9437100147689,South America,French Guiana,GF,,French Guiana - Rémire-Montjoly,2015-08-28,
Fregata magnificens,Animalia,FRIGATEBIRDS_FREGATTIDAE,Magnificent Frigatebird,,2,-52.341138012707,4.9365162469672,South America,French Guiana,GF,,French Guiana,2015-08-31,
Eudocimus ruber,Animalia,IBISSES_AND_SPOONBILLS_THRESKIORNITHIDAE,Scarlet Ibis,,1,-52.338452283293,4.9371469834828,South America,French Guiana,GF,,French Guiana,2015-08-31,
Eudocimus ruber,Animalia,IBISSES_AND_SPOONBILLS_THRESKIORNITHIDAE,Scarlet Ibis,,2,-52.336105853319,4.9228443241419,South America,French Guiana,GF,,French Guiana - Rémire-Montjoly,2015-08-30,
Eudocimus ruber,Animalia,IBISSES_AND_SPOONBILLS_THRESKIORNITHIDAE,Scarlet Ibis,,12,-52.338187582791,4.9386112953234,South America,French Guiana,GF,,French Guiana - Rémire-Montjoly,2015-08-30,
Butorides striata,Animalia,HERONS_ARDEIDAE,Striated Heron,,1,-52.490041851997,4.94575969611,South America,French Guiana,GF,,French Guiana - Montsinéry-Tonnégrande,2015-07-18,
Progne tapera,Animalia,SWALLOWS_HIRUNDINIDAE,Brown-chested Martin,,1,-52.339267507195,4.9372750012936,South America,French Guiana,GF,,French Guiana,2015-08-31,
Egretta caerulea,Animalia,HERONS_ARDEIDAE,Little Blue Heron,,1,-52.338752523065,4.9368901962143,South America,French Guiana,GF,,French Guiana,2015-08-31,
Egretta thula,Animalia,HERONS_ARDEIDAE,Snowy Egret,,1,-52.338752523065,4.9368901962143,South America,French Guiana,GF,,French Guiana,2015-08-31,
Bradypus tridactylus,Animalia,THREETOED_SLOTHS_BRADYPODIDAE,Pale-throated Three-toed Sloth,,1,-52.261158227921,4.8764894101274,South America,French Guiana,GF,,French Guiana - Rémire-Montjoly,2015-08-30,
Iguana iguana,Animalia,Iguanidae,Common Green Iguana,,1,-52.338477261364,4.9372110341453,South America,French Guiana,GF,,French Guiana,2015-08-30,
Chelonia mydas,Animalia,Cheloniidae,Green Turtle,,3,-52.588519155979,5.2852366452135,South America,French Guiana,GF,,French Guiana,2015-08-09,
Sapajus apella,Animalia,NEW_WORLD_MONKEYS_CEBIDAE,Black-capped Capuchin,,15,-52.589778453112,5.2876303500278,South America,French Guiana,GF,,French Guiana,2015-08-09,
Ara macao,Animalia,PARROTS_PSITTACIDAE,Scarlet Macaw,,1,-52.589778453112,5.2876303500278,South America,French Guiana,GF,,French Guiana,2015-08-09,
Platalea ajaja,Animalia,IBISSES_AND_SPOONBILLS_THRESKIORNITHIDAE,Roseate Spoonbill,,11,-52.664365321398,5.1971158640357,South America,French Guiana,GF,,French Guiana,2015-08-02,
Rynchops niger,Animalia,GULLS_TERNS_AND_SKIMMERS_LARIDAE,Black Skimmer,,20,-52.664365321398,5.1971158640357,South America,French Guiana,GF,,French Guiana,2015-08-02,
Saguinus midas,Animalia,CALLITRICHIDAE,Golden-handed Tamarin,,3,-52.933266162872,5.2755695892657,South America,French Guiana,GF,,French Guiana,2015-07-24,
Dermochelys coriacea,Animalia,Dermochelydae,Leatherback Turtle,,3,-52.641448527575,5.1704462159133,South America,French Guiana,GF,,French Guiana,2015-07-26,
Coragyps atratus,Animalia,NEW_WORLD_VULTURES_CATHARTIDAE,Black Vulture,,10,-52.653207331896,5.1819861057154,South America,French Guiana,GF,,French Guiana,2015-08-02,
Dermochelys coriacea,Animalia,Dermochelydae,Leatherback Turtle,,3,-53.967590332031,5.6884163660945,South America,French Guiana,GF,,French Guiana - Awala-Yalimapo,1998-05-16,
Didelphis marsupialis,Animalia,OPOSSUMS_DIDELPHIDAE,Common Opossum,,1,-52.28706113,4.71570553,South America,French Guiana,GF,,French Guiana,2016-01-07,02:44
Dendrobates tinctorius,Animalia,Dendrobatidae,Dyeing Poison Frog,,2,-52.27922334,4.60621127,South America,French Guiana,GF,,French Guiana,2016-01-08,05:05
Dendrobates tinctorius,Animalia,Dendrobatidae,Dyeing Poison Frog,,1,-52.27897767,4.61026828,South America,French Guiana,GF,,French Guiana,2016-01-08,06:51
Saguinus midas,Animalia,CALLITRICHIDAE,Golden-handed Tamarin,,1,-52.1795158,4.55362604,South America,French Guiana,GF,,French Guiana,2016-01-09,13:37
Iguana iguana,Animalia,Iguanidae,Common Green Iguana,,2,-52.62584702,5.14083098,South America,French Guiana,GF,,French Guiana,2016-01-11,04:02
Egretta thula,Animalia,HERONS_ARDEIDAE,Snowy Egret,,1,-52.64210386,5.17114619,South America,French Guiana,GF,,French Guiana,2016-01-13,16:34
Chloroceryle americana,Animalia,KINGFISHERS_ALCEDINIDAE,Green Kingfisher,,1,-52.0426895167,4.50508735917,South America,French Guiana,GF,,French Guiana,2015-08-10,
Himantopus mexicanus,Animalia,STILTS_AND_AVOCETS_RECURVIROSTRIDAE,Black-necked Stilt,,6,-53.7845420872,5.66258839787,South America,French Guiana,GF,,French Guiana,2015-08-16,
Bradypus tridactylus,Animalia,THREETOED_SLOTHS_BRADYPODIDAE,Pale-throated Three-toed Sloth,,1,-52.2626638417,4.8895535326,South America,French Guiana,GF,,French Guiana - Rémire-Montjoly,2015-08-12,
Rynchops niger,Animalia,GULLS_TERNS_AND_SKIMMERS_LARIDAE,Black Skimmer,,7,-52.6346111315,5.14734937702,South America,French Guiana,GF,,French Guiana,2015-08-19,
Leucophaeus atricilla,Animalia,GULLS_TERNS_AND_SKIMMERS_LARIDAE,Laughing Gull,,3,-52.6346111315,5.14734937702,South America,French Guiana,GF,,French Guiana,2015-08-17,
Elanoides forficatus,Animalia,HAWKS_AND_EAGLES_ACCIPITRIDAE,Swallow-tailed Kite,,3,-52.0225524972,4.50414271729,South America,French Guiana,GF,,French Guiana,2015-08-11,
Arundinicola leucocephala,Animalia,TYRANT_FLYCATCHERS_TYRANNIDAE,White-headed Marsh Tyrant,,1,-52.0225524972,4.50414271729,South America,French Guiana,GF,,French Guiana,2015-08-10,
Jacana jacana,Animalia,JACANAS_JACANIDAE,Wattled Jacana,,15,-52.0245409014,4.49804186252,South America,French Guiana,GF,,French Guiana,2015-08-10,
Opisthocomus hoazin,Animalia,HOATZIN_OPISTHOCOMIDAE,Hoatzin,,2,-52.0245409014,4.49804186252,South America,French Guiana,GF,,French Guiana,2015-08-10,
Cathartes burrovianus,Animalia,NEW_WORLD_VULTURES_CATHARTIDAE,Lesser Yellow-headed Vulture,,3,-52.0245409014,4.49804186252,South America,French Guiana,GF,,French Guiana,2015-08-10,
Egretta thula,Animalia,HERONS_ARDEIDAE,Snowy Egret,,3,-52.3385757209,4.93704445224,South America,French Guiana,GF,,French Guiana,2015-08-04,
Egretta caerulea,Animalia,HERONS_ARDEIDAE,Little Blue Heron,,5,-52.3385757209,4.93704445224,South America,French Guiana,GF,,French Guiana,2015-08-04,
Actitis macularius,Animalia,SANDPIPERS_AND_ALLIES_SCOLOPACIDAE,Spotted Sandpiper,,3,-52.3253989222,4.94558920816,South America,French Guiana,GF,,French Guiana,2015-08-04,
Lepidothrix serena,Animalia,MANAKINS_PIPRIDAE,White-fronted Manakin,,1,-52.5164723396,4.11700158405,South America,French Guiana,GF,,French Guiana,1992-11-16,
Rupicola rupicola,Animalia,COTINGAS_COTINGIDAE,Guianan Cock-of-the-rock,,8,-52.5851154327,4.06697213947,South America,French Guiana,GF,,French Guiana,1992-11-10,
Notharchus macrorhynchos,Animalia,PUFFBIRDS_BUCCONIDAE,Guianan Puffbird,,1,-52.5391316414,4.12658975715,South America,French Guiana,GF,,French Guiana,1992-11-20,
Trogon viridis,Animalia,TROGONS_TROGONIDAE,Green-backed Trogon,,1,-52.5391316414,4.12658975715,South America,French Guiana,GF,,French Guiana,1992-11-20,
Ara macao,Animalia,PARROTS_PSITTACIDAE,Scarlet Macaw,,2,-52.5443887711,4.10808747577,South America,French Guiana,GF,,French Guiana,1992-11-15,
Elanoides forficatus,Animalia,HAWKS_AND_EAGLES_ACCIPITRIDAE,Swallow-tailed Kite,,10,-53.0525761843,5.27506479895,South America,French Guiana,GF,,French Guiana,1992-10-01,
