scientificName,kingdom,family,vernacularName,previousIdentifications,individualCount,longitudeDecimal,latitudeDecimal,continent,country,countryCode,stateProvince,locality,eventDate,eventTime
Ceratopteris thalictroides,Plantae,PTERIDACEAE,Watersprite,,1,9.329166667,0.615833333,Africa,Gabon,GA,,Gabon - Estuaire,2012-12-22,
Voyria primuloides,Plantae,GENTIANACEAE,,,1,9.461138889,0.562888889,Africa,Gabon,GA,,Gabon - Estuaire,2012-12-12,
Costus ligularis,Plantae,COSTACEAE,,,1,9.590555556,0.635277778,Africa,Gabon,GA,,Gabon - Akanda NP,2012-12-11,
Duparquetia orchidacea,Plantae,Fabaceae,,,1,9.728666667,0.538083333,Africa,Gabon,GA,,Gabon - Estuaire,2012-12-11,
Costus lucanusianus,Plantae,COSTACEAE,,,1,9.597472222,0.839,Africa,Gabon,GA,,Gabon - Estuaire,2012-12-10,
Costus ligularis,Plantae,COSTACEAE,,,1,9.597472222,0.839,Africa,Gabon,GA,,Gabon - Estuaire,2012-12-10,
Eidolon helvum,Animalia,OLD_WORLD_FRUITEATING_BATS_PTEROPODIDAE,African Straw-coloured Fruit Bat,,1001,9.4567823410034,0.37477702867564,Africa,Gabon,GA,,Gabon - Estuaire,2012-12-21,
Campethera caroli,Animalia,WOODPECKERS_PICIDAE,Brown-eared Woodpecker,,1,9.3441295623779,0.61539420388507,Africa,Gabon,GA,,Gabon - Estuaire,2012-12-22,
Lonchura spec.,Animalia,WAXBILLS_MUNIAS_ALLIES_ESTRILDIDAE,,,1,9.4695281982422,0.39687792971574,Africa,Gabon,GA,,Gabon - Estuaire,2012-12-15,
Merops variegatus,Animalia,BEEEATERS_MEROPIDAE,Blue-breasted Bee-eater,,1,9.3441295623779,0.61539420388507,Africa,Gabon,GA,,Gabon - Estuaire,2012-12-22,
Gypohierax angolensis,Animalia,HAWKS_AND_EAGLES_ACCIPITRIDAE,Palm-nut Vulture,,1,9.33837890625,0.33353617161476,Africa,Gabon,GA,,Gabon - Pongara NP,2012-12-18,
Lophoceros fasciatus fasciatus,Animalia,HORNBILLS_BUCEROTIDAE,African Pied Hornbill ssp fasciatus,,1,9.33837890625,0.33353617161476,Africa,Gabon,GA,,Gabon - Pongara NP,2012-12-18,
Burhinus vermiculatus buettikoferi,Animalia,THICKKNEES_BURHINIDAE,Water Thick-knee ssp buettikoferi,,1,9.33837890625,0.33353617161476,Africa,Gabon,GA,,Gabon - Pongara NP,2012-12-18,
Pteronetta hartlaubii,Animalia,DUCKS_GEESE_AND_SWANS_ANATIDAE,Hartlaub's Duck,,2,9.33837890625,0.33353617161476,Africa,Gabon,GA,,Gabon - Pongara NP,2012-12-18,
Dermochelys coriacea,Animalia,Dermochelydae,Leatherback Turtle,,1,9.34,0.34,Africa,Gabon,GA,,Gabon - Pongara NP,2012-12-16,20:30
Estrilda atricapilla,Animalia,WAXBILLS_MUNIAS_ALLIES_ESTRILDIDAE,Black-headed Waxbill,,2,9.587459564209,1.008844695013,Africa,Gabon,GA,,Gabon - Estuaire,2012-12-10,
Lanius humeralis,Animalia,SHRIKES_LANIIDAE,Northern Fiscal,,1,13.7215888831,-0.674526798949,Africa,Gabon,GA,,Gabon - Haut-Ogooué,2008-01-31,
Platysteira castanea,Animalia,WATTLEEYES_BATISES_PLATYSTEIRIDAE,Chestnut Wattle-eye,,2,12.8983009192,-0.77476901244,Africa,Gabon,GA,,Gabon - Ogooué-Lolo,2008-01-28,
Accipiter toussenelii toussenelii,Animalia,HAWKS_AND_EAGLES_ACCIPITRIDAE,Red-chested Goshawk ssp toussenelii,,1,12.8983009192,-0.77476901244,Africa,Gabon,GA,,Gabon - Ogooué-Lolo,2008-01-25,
Anax imperator,Animalia,DARNERS_AESHNIDAE,Blue Emperor,,1,13.1667709351,-1.64111581057,Africa,Gabon,GA,,Gabon - Haut-Ogooué,2008-09-17,
Turdus pelios,Animalia,THRUSHES_TURDIDAE,African Thrush,,1,9.43150252104684,0.4077640408653838,Africa,Gabon,GA,,Gabon - Estuaire,2020-01-14,09:27
Turdus pelios,Animalia,THRUSHES_TURDIDAE,African Thrush,,2,9.41216621,0.44889393,Africa,Gabon,GA,,Gabon - Estuaire,2019-03-06,
Turdus pelios,Animalia,THRUSHES_TURDIDAE,African Thrush,,1,9.448634999999967,0.4048666666666667,Africa,Gabon,GA,,Gabon - Estuaire,2017-07-09,12:45
Hydroprogne caspia,Animalia,GULLS_TERNS_AND_SKIMMERS_LARIDAE,Caspian Tern,,1,9.53750610352,0.652299140897,Africa,Gabon,GA,,Gabon - Akanda NP,2012-08-22,
Hydroprogne caspia,Animalia,GULLS_TERNS_AND_SKIMMERS_LARIDAE,Caspian Tern,,1,9.53750610352,0.652299140897,Africa,Gabon,GA,,Gabon - Akanda NP,2012-08-22,
Oceanites oceanicus,Animalia,OCEANITIDAE,Wilson's Storm Petrel,,1,9.22439575195,0.311735522514,Africa,Gabon,GA,,Gabon - Estuaire,2012-08-06,
Lonchura bicolor,Animalia,WAXBILLS_MUNIAS_ALLIES_ESTRILDIDAE,Black-and-white Mannikin,,1,9.47736797,0.36527405,Africa,Gabon,GA,,Gabon - Estuaire,2017-02-18,
Bubulcus ibis,Animalia,HERONS_ARDEIDAE,Western Cattle Egret,,20,9.47797585,0.36510478,Africa,Gabon,GA,,Gabon - Estuaire,2017-02-18,11:23
Centropus monachus,Animalia,CUCKOOS_AND_COUCALS_CUCULIDAE,Blue-headed Coucal,,1,9.47793754,0.3651083,Africa,Gabon,GA,,Gabon - Estuaire,2017-02-18,11:34
Turdus pelios,Animalia,THRUSHES_TURDIDAE,African Thrush,,1,9.47792446,0.36510026,Africa,Gabon,GA,,Gabon - Estuaire,2017-02-18,11:38
Camaroptera brevicaudata,Animalia,CISTICOLAS_AND_ALLIES_CISTICOLIDAE,Grey-backed Camaroptera,,1,9.47792231,0.36510124,Africa,Gabon,GA,,Gabon - Estuaire,2017-02-18,11:40
Passer griseus,Animalia,OLD_WORLD_SPARROWS_PASSERIDAE,Northern Grey-headed Sparrow,,1,9.4779056,0.36510395,Africa,Gabon,GA,,Gabon - Estuaire,2017-02-18,11:43
Anabathmis reichenbachii,Animalia,SUNBIRDS_NECTARINIIDAE,Reichenbach's Sunbird,,2,9.43399549,0.40878424,Africa,Gabon,GA,,Gabon - Estuaire,2017-02-16,22:33
Ploceus cucullatus,Animalia,WEAVERS_PLOCEIDAE,Village Weaver,,10,9.43389558,0.40901332,Africa,Gabon,GA,,Gabon - Estuaire,2017-02-16,22:36
Halcyon senegalensis,Animalia,KINGFISHERS_ALCEDINIDAE,Woodland Kingfisher,,1,9.43389503,0.40901647,Africa,Gabon,GA,,Gabon - Estuaire,2017-02-16,22:36
Turdus pelios,Animalia,THRUSHES_TURDIDAE,African Thrush,,1,9.43388862,0.40900427,Africa,Gabon,GA,,Gabon - Estuaire,2017-02-16,22:46
Passer griseus,Animalia,OLD_WORLD_SPARROWS_PASSERIDAE,Northern Grey-headed Sparrow,,1,9.43385095,0.40903467,Africa,Gabon,GA,,Gabon - Estuaire,2017-02-16,22:50
Bubulcus ibis,Animalia,HERONS_ARDEIDAE,Western Cattle Egret,,3,9.44727713,0.42240566,Africa,Gabon,GA,,Gabon - Estuaire,2017-02-15,17:01
Friesodielsia montana,Plantae,ANNONACEAE,,,1,11.734528987699,0.69710382507597,Africa,Gabon,GA,,Gabon - Wouleu-Ntem,2015-11-16,
Xylopia aethiopica,Plantae,ANNONACEAE,Ethiopian pepper,,1,11.730967014128,0.69811464472154,Africa,Gabon,GA,,Gabon - Wouleu-Ntem,2015-11-16,
Anonidium mannii,Plantae,ANNONACEAE,,,1,11.678867785813,0.69667470337744,Africa,Gabon,GA,,Gabon - Wouleu-Ntem,2015-11-16,
Monanthotaxis letouzeyi,Plantae,ANNONACEAE,,,1,11.678867785813,0.69667470337744,Africa,Gabon,GA,,Gabon - Wouleu-Ntem,2015-11-16,
Uvariopsis vanderystii,Plantae,ANNONACEAE,,,1,11.678867785813,0.69667470337744,Africa,Gabon,GA,,Gabon - Wouleu-Ntem,2015-11-16,
Halcyon senegalensis,Animalia,KINGFISHERS_ALCEDINIDAE,Woodland Kingfisher,,1,11.551209387544,0.78066198547128,Africa,Gabon,GA,,Gabon - Wouleu-Ntem,2015-11-16,
Hirundo smithii,Animalia,SWALLOWS_HIRUNDINIDAE,Wire-tailed Swallow,,1,11.550808397296,0.78114890949892,Africa,Gabon,GA,,Gabon - Wouleu-Ntem,2015-11-16,07:03
Psalidoprocne nitens,Animalia,SWALLOWS_HIRUNDINIDAE,Square-tailed Saw-wing,,1,11.494331805588,0.59613046393967,Africa,Gabon,GA,,Gabon - Wouleu-Ntem,2015-11-15,
Azanus mirza,Animalia,GOSSAMERWINGED_BUTTERFLIES_LYCAENIDAE,Pale Babul Blue,,1,11.494331805588,0.59613046393967,Africa,Gabon,GA,,Gabon - Wouleu-Ntem,2015-11-15,
Anonidium floribundum,Plantae,ANNONACEAE,,,1,11.49171396959,0.59698872407902,Africa,Gabon,GA,,Gabon - Wouleu-Ntem,2015-11-15,
Monanthotaxis mcphersonii,Plantae,ANNONACEAE,,,1,11.49171396959,0.59698872407902,Africa,Gabon,GA,,Gabon - Wouleu-Ntem,2015-11-15,
Piptostigma mortehanii,Plantae,ANNONACEAE,,,1,11.49171396959,0.59698872407902,Africa,Gabon,GA,,Gabon - Wouleu-Ntem,2015-11-15,
Uvariastrum zenkeri,Plantae,ANNONACEAE,,,1,11.49171396959,0.59698872407902,Africa,Gabon,GA,,Gabon - Wouleu-Ntem,2015-11-15,
Uvariodendron molundense,Plantae,ANNONACEAE,,,1,11.49171396959,0.59698872407902,Africa,Gabon,GA,,Gabon - Wouleu-Ntem,2015-11-15,
Begonia sessilifolia,Plantae,BEGONIACEAE,,,1,11.49171396959,0.59698872407902,Africa,Gabon,GA,,Gabon - Wouleu-Ntem,2015-11-15,
Begonia elatostemmoides,Plantae,BEGONIACEAE,,,1,11.49171396959,0.59698872407902,Africa,Gabon,GA,,Gabon - Wouleu-Ntem,2015-11-15,
Uvariopsis vanderystii,Plantae,ANNONACEAE,,,2,11.49171396959,0.59698872407902,Africa,Gabon,GA,,Gabon - Wouleu-Ntem,2015-11-15,
Greenwayodendron suaveolens,Plantae,ANNONACEAE,Molinda,,1,11.49171396959,0.59698872407902,Africa,Gabon,GA,,Gabon - Wouleu-Ntem,2015-11-15,
Monodora myristica,Plantae,ANNONACEAE,False nutmeg,,1,11.49171396959,0.59698872407902,Africa,Gabon,GA,,Gabon - Wouleu-Ntem,2015-11-15,
Hexalobus crispiflorus,Plantae,ANNONACEAE,,,1,11.49171396959,0.59698872407902,Africa,Gabon,GA,,Gabon - Wouleu-Ntem,2015-11-15,
Friesodielsia montana,Plantae,ANNONACEAE,,,1,11.4940478466,0.596743233366,Africa,Gabon,GA,,Gabon - Wouleu-Ntem,2015-11-15,
Monodora myristica,Plantae,ANNONACEAE,False nutmeg,,1,11.493509037973,0.59794264427983,Africa,Gabon,GA,,Gabon - Wouleu-Ntem,2015-11-15,
Friesodielsia enghiana,Plantae,ANNONACEAE,,,1,11.536476010806,0.68939214548495,Africa,Gabon,GA,,Gabon - Wouleu-Ntem,2015-11-14,
Annickia pilosa,Plantae,ANNONACEAE,,,1,11.536476010806,0.68939214548495,Africa,Gabon,GA,,Gabon - Wouleu-Ntem,2015-11-14,
Anonidium floribundum,Plantae,ANNONACEAE,,,1,11.536476010806,0.68939214548495,Africa,Gabon,GA,,Gabon - Wouleu-Ntem,2015-11-14,
Friesodielsia enghiana,Plantae,ANNONACEAE,,,1,11.536476010806,0.68939214548495,Africa,Gabon,GA,,Gabon - Wouleu-Ntem,2015-11-14,
Hexalobus crispiflorus,Plantae,ANNONACEAE,,,1,11.536476010806,0.68939214548495,Africa,Gabon,GA,,Gabon - Wouleu-Ntem,2015-11-14,
Annickia affinis,Plantae,ANNONACEAE,Yellow-wood,,1,11.536476010806,0.68939214548495,Africa,Gabon,GA,,Gabon - Wouleu-Ntem,2015-11-14,
Annickia pilosa,Plantae,ANNONACEAE,,,1,11.536476010806,0.68939214548495,Africa,Gabon,GA,,Gabon - Wouleu-Ntem,2015-11-14,
Greenwayodendron suaveolens,Plantae,ANNONACEAE,Molinda,,1,11.536476010806,0.68939214548495,Africa,Gabon,GA,,Gabon - Wouleu-Ntem,2015-11-14,
Anonidium mannii,Plantae,ANNONACEAE,,,1,11.536476010806,0.68939214548495,Africa,Gabon,GA,,Gabon - Wouleu-Ntem,2015-11-14,
Nymphaea heudelotii,Plantae,NYMPHAEACEAE,,,1,11.446824519517,1.7582082405404,Africa,Gabon,GA,,Gabon - Wouleu-Ntem,2015-11-13,
Nelsonia canescens,Plantae,ACANTHACEAE,Blue pussyleaf,,1,9.490083,0.418111,Africa,Gabon,GA,,Gabon - Estuaire,2015-03-07,
Barteria fistulosa,Plantae,PASSIFLORACEAE,,,1,11.4918744529,1.68272260917,Africa,Gabon,GA,,Gabon - Wouleu-Ntem,2015-11-13,
Danaus chrysippus,Animalia,BRUSHFOOTED_BUTTERFLIES_NYMPHALIDAE,African Monarch,,1,12.3745974863,0.44888901265,Africa,Gabon,GA,,Gabon - Ogooué-Ivindo,2015-11-12,
Raphia hookeri,Plantae,Arecaceae,Ivory Coast raphia palm,,1,12.3745974863,0.44888901265,Africa,Gabon,GA,,Gabon - Ogooué-Ivindo,2015-11-12,
Acraea penelope,Animalia,BRUSHFOOTED_BUTTERFLIES_NYMPHALIDAE,,,1,12.802593105,0.515032625315,Africa,Gabon,GA,,Gabon - Ivindo NP,2015-11-12,
Graphium leonidas,Animalia,SWALLOWTAILS_PAPILIONIDAE,Veined Swallowtail,,1,12.802593105,0.515032625315,Africa,Gabon,GA,,Gabon - Ivindo NP,2015-11-12,
Voyria primuloides,Plantae,GENTIANACEAE,,,1,13.2026429102,1.08074801034,Africa,Gabon,GA,,Gabon - Ogooué-Ivindo,2015-11-11,
Monanthotaxis latistamina,Plantae,ANNONACEAE,,,1,13.2026429102,1.08074801034,Africa,Gabon,GA,,Gabon - Ogooué-Ivindo,2015-11-11,
Lophoceros fasciatus,Animalia,HORNBILLS_BUCEROTIDAE,African Pied Hornbill,,1,12.8034514171,0.512629464643,Africa,Gabon,GA,,Gabon - Ivindo NP,2015-11-11,
Psittacus erithacus,Animalia,PARROTS_PSITTACIDAE,Grey Parrot,,1,12.8034514171,0.512629464643,Africa,Gabon,GA,,Gabon - Ivindo NP,2015-11-11,
Dryoscopus senegalensis,Animalia,HELMETSHRIKES_BUSHSHRIKES_MALACONOTIDAE,Red-eyed Puffback,,1,12.8034514171,0.512629464643,Africa,Gabon,GA,,Gabon - Ivindo NP,2015-11-11,
Monanthotaxis ferruginea,Plantae,ANNONACEAE,,,1,13.459583223,0.827464008804,Africa,Gabon,GA,,Gabon - Ogooué-Ivindo,2015-11-10,
Annickia affinis,Plantae,ANNONACEAE,Yellow-wood,,1,13.459583223,0.827464008804,Africa,Gabon,GA,,Gabon - Ogooué-Ivindo,2015-11-10,
Junonia oenone,Animalia,BRUSHFOOTED_BUTTERFLIES_NYMPHALIDAE,Dark Blue Pansy,,1,13.3358609641,0.774680617088,Africa,Gabon,GA,,Gabon - Ogooué-Ivindo,2015-11-10,
Byblia anvatara,Animalia,BRUSHFOOTED_BUTTERFLIES_NYMPHALIDAE,Common joker,,1,13.3358609641,0.774680617088,Africa,Gabon,GA,,Gabon - Ogooué-Ivindo,2015-11-10,
Dracaena arborea,Plantae,ASPARAGACEAE,,,1,13.3358609641,0.774680617088,Africa,Gabon,GA,,Gabon - Ogooué-Ivindo,2015-11-10,
Bostrychia hagedash,Animalia,IBISSES_AND_SPOONBILLS_THRESKIORNITHIDAE,Hadada Ibis,,1,13.3796900511,1.08294445967,Africa,Gabon,GA,,Gabon - Ogooué-Ivindo,2015-11-09,
Costus dubius,Plantae,COSTACEAE,,,1,13.405,1.092,Africa,Gabon,GA,,Gabon - Ogooué-Ivindo,2015-11-09,
Bycanistes subcylindricus,Animalia,HORNBILLS_BUCEROTIDAE,Black-and-white-casqued Hornbill,,1,12.8033933043,0.512572693273,Africa,Gabon,GA,,Gabon - Ivindo NP,2015-11-09,
Ceratogymna atrata,Animalia,HORNBILLS_BUCEROTIDAE,Black-casqued Hornbill,,1,12.8022488943,0.510026931689,Africa,Gabon,GA,,Gabon - Ivindo NP,2015-11-09,
Xylopia hypolampra,Plantae,ANNONACEAE,,,1,12.8022488943,0.510026931689,Africa,Gabon,GA,,Gabon - Ivindo NP,2015-11-09,
Tauraco macrorhynchus,Animalia,TURACOS_MUSOPHAGIDAE,Yellow-billed Turaco,,1,12.8022488943,0.510026931689,Africa,Gabon,GA,,Gabon - Ivindo NP,2015-11-09,
Xylopia le-testui,Plantae,ANNONACEAE,,,1,12.8022488943,0.510026931689,Africa,Gabon,GA,,Gabon - Ivindo NP,2015-11-08,
Xylopia hypolampra,Plantae,ANNONACEAE,,,1,12.8022488943,0.510026931689,Africa,Gabon,GA,,Gabon - Ivindo NP,2015-11-08,
Artabotrys rufus,Plantae,ANNONACEAE,,,1,12.8022488943,0.510026931689,Africa,Gabon,GA,,Gabon - Ivindo NP,2015-11-08,
Paraxerus poensis,Animalia,SQUIRRELS_CHIPMUNKS_AND_PRAIRIEDOGS_SCIURIDAE,Green Bush Squirrel,,1,12.8020772329,0.512344268045,Africa,Gabon,GA,,Gabon - Ivindo NP,2015-11-08,
Ispidina picta,Animalia,KINGFISHERS_ALCEDINIDAE,African Pygmy Kingfisher,,1,12.8029784551,0.513331281424,Africa,Gabon,GA,,Gabon - Ivindo NP,2015-11-08,
Motacilla aguimp,Animalia,PIPITS_EN_WAGTAILS_MOTACILLIDAE,African Pied Wagtail,,1,12.8029784551,0.513331281424,Africa,Gabon,GA,,Gabon - Ivindo NP,2015-11-08,
Turdus pelios,Animalia,THRUSHES_TURDIDAE,African Thrush,,1,12.8047379843,0.513717504009,Africa,Gabon,GA,,Gabon - Ivindo NP,2015-11-08,
Xylopia staudtii,Plantae,ANNONACEAE,,,1,12.7981290212,0.507938467127,Africa,Gabon,GA,,Gabon - Ivindo NP,2015-11-07,
Friesodielsia enghiana,Plantae,ANNONACEAE,,,1,12.7981290212,0.507938467127,Africa,Gabon,GA,,Gabon - Ivindo NP,2015-11-07,
Scaphopetalum thonneri,Plantae,MALVACEAE,,,1,12.7981290212,0.507938467127,Africa,Gabon,GA,,Gabon - Ivindo NP,2015-11-07,
Monanthotaxis diclina,Plantae,ANNONACEAE,,,1,12.7975290996,0.508252271278,Africa,Gabon,GA,,Gabon - Ivindo NP,2015-11-07,
Exellia scamnopetala,Plantae,ANNONACEAE,,,1,12.7975290996,0.508252271278,Africa,Gabon,GA,,Gabon - Ivindo NP,2015-11-07,
Monanthotaxis tripetala,Plantae,ANNONACEAE,,,1,12.7975290996,0.508252271278,Africa,Gabon,GA,,Gabon - Ivindo NP,2015-11-07,
Thonningia sanguinea,Plantae,BALANOPHORACEAE,,,1,12.7975290996,0.508252271278,Africa,Gabon,GA,,Gabon - Ivindo NP,2015-11-07,
Anonidium mannii,Plantae,ANNONACEAE,,,1,12.7975290996,0.508252271278,Africa,Gabon,GA,,Gabon - Ivindo NP,2015-11-07,
Cleistopholis patens,Plantae,ANNONACEAE,,,1,12.7975290996,0.508252271278,Africa,Gabon,GA,,Gabon - Ivindo NP,2015-11-07,
Treron calvus,Animalia,PIGEONS_AND_DOVES_COLUMBIDAE,African Green Pigeon,,1,12.8,0.51,Africa,Gabon,GA,,Gabon - Ivindo NP,2015-11-07,
Marattia fraxinea,Plantae,MARATTIACEAE,,,1,12.8046530468,0.512886944433,Africa,Gabon,GA,,Gabon - Ivindo NP,2015-11-07,
Cercopithecus cephus,Animalia,OLD_WORLD_MONKEYS_CERCOPITHECIDAE,Moustached Monkey,,1,12.8011339885,0.513230253423,Africa,Gabon,GA,,Gabon - Ivindo NP,2015-11-07,
Platycerium stemaria,Plantae,POLYPODIACEAE,Triangular staghorn fern,,1,12.8011339885,0.513230253423,Africa,Gabon,GA,,Gabon - Ivindo NP,2015-11-07,
Musanga cecropioides,Plantae,URTICACEAE,Aga umbrella-tree,,1,12.8011339885,0.513230253423,Africa,Gabon,GA,,Gabon - Ivindo NP,2015-11-07,
Lophoceros fasciatus,Animalia,HORNBILLS_BUCEROTIDAE,African Pied Hornbill,,1,12.8037947399,0.514031305913,Africa,Gabon,GA,,Gabon - Ivindo NP,2015-11-07,
Nephele rosae,Animalia,Sphingidae,,,1,12.8028506,0.51394548,Africa,Gabon,GA,,Gabon - Ivindo NP,2015-11-06,
Cercopithecus nictitans,Animalia,OLD_WORLD_MONKEYS_CERCOPITHECIDAE,Putty-nosed Monkey,,1,11.3111150125,0.267787189849,Africa,Gabon,GA,,Gabon - Wouleu-Ntem,2015-11-06,
Psidium guajava,Plantae,MYRTACEAE,Common guava,,1,11.0030668904,-0.0283259176752,Africa,Gabon,GA,,Gabon - Moyen-Ogooué,2015-11-06,
Xylopia hypolampra,Plantae,ANNONACEAE,,,1,10.8614453638,-0.100508580474,Africa,Gabon,GA,,Gabon - Moyen-Ogooué,2015-11-06,
Emilia coccinea,Plantae,Asteraceae,Scarlet tasselflower,,1,10.8614453638,-0.100508580474,Africa,Gabon,GA,,Gabon - Moyen-Ogooué,2015-11-06,
Merops albicollis,Animalia,BEEEATERS_MEROPIDAE,White-throated Bee-eater,,1,11.5519559375,-2.80005870275,Africa,Gabon,GA,,Gabon - Ngounié,2015-11-24,
Lanius humeralis,Animalia,SHRIKES_LANIIDAE,Northern Fiscal,,1,10.6542509724,-3.43974429012,Africa,Gabon,GA,,Gabon - Nyanga,2015-11-20,
Prinia bairdii,Animalia,CISTICOLAS_AND_ALLIES_CISTICOLIDAE,Banded Prinia,,1,11.5935820324,0.675470084707,Africa,Gabon,GA,,Gabon - Wouleu-Ntem,2015-11-17,
Estrilda atricapilla,Animalia,WAXBILLS_MUNIAS_ALLIES_ESTRILDIDAE,Black-headed Waxbill,,1,11.445,1.662,Africa,Gabon,GA,,Gabon - Wouleu-Ntem,2015-11-13,
Estrilda nonnula,Animalia,WAXBILLS_MUNIAS_ALLIES_ESTRILDIDAE,Black-crowned Waxbill,,1,11.577082034,1.60009615988,Africa,Gabon,GA,,Gabon - Wouleu-Ntem,2015-11-13,
Schistolais leucopogon,Animalia,CISTICOLAS_AND_ALLIES_CISTICOLIDAE,White-chinned Prinia,,1,11.577082034,1.60009615988,Africa,Gabon,GA,,Gabon - Wouleu-Ntem,2015-11-13,
Lamprotornis splendidus,Animalia,STARLINGS_STURNIDAE,Splendid Starling,,1,12.123692481,0.334844620267,Africa,Gabon,GA,,Gabon - Ogooué-Ivindo,2015-11-12,
Pholidornis rushiae,Animalia,HYLIIDAE,Tit Hylia,,1,12.123692481,0.334844620267,Africa,Gabon,GA,,Gabon - Ogooué-Ivindo,2015-11-12,
Megabyas flammulatus,Animalia,VANGAS_VANGIDAE,African Shrike-flycatcher,,1,12.8027209631,0.513374194718,Africa,Gabon,GA,,Gabon - Ivindo NP,2015-11-12,
Nigrita canicapillus,Animalia,WAXBILLS_MUNIAS_ALLIES_ESTRILDIDAE,Grey-headed Nigrita,,1,12.8022497875,0.512486418783,Africa,Gabon,GA,,Gabon - Ivindo NP,2015-11-10,
Tauraco macrorhynchus,Animalia,TURACOS_MUSOPHAGIDAE,Yellow-billed Turaco,,1,12.8040942548,0.513302672125,Africa,Gabon,GA,,Gabon - Ivindo NP,2015-11-08,
Glareola nuchalis,Animalia,COURSERS_AND_PRATINCOLES_GLAREOLIDAE,Rock Pratincole,,1,12.8061541913,0.512859231566,Africa,Gabon,GA,,Gabon - Ivindo NP,2015-11-08,
Treron calvus,Animalia,PIGEONS_AND_DOVES_COLUMBIDAE,African Green Pigeon,,1,12.8031501172,0.512430095302,Africa,Gabon,GA,,Gabon - Ivindo NP,2015-11-08,
Dryoscopus senegalensis,Animalia,HELMETSHRIKES_BUSHSHRIKES_MALACONOTIDAE,Red-eyed Puffback,,1,12.8031501172,0.512430095302,Africa,Gabon,GA,,Gabon - Ivindo NP,2015-11-08,
Bycanistes subcylindricus,Animalia,HORNBILLS_BUCEROTIDAE,Black-and-white-casqued Hornbill,,1,12.8031501172,0.512430095302,Africa,Gabon,GA,,Gabon - Ivindo NP,2015-11-08,
Ispidina picta,Animalia,KINGFISHERS_ALCEDINIDAE,African Pygmy Kingfisher,,1,12.8031501172,0.512430095302,Africa,Gabon,GA,,Gabon - Ivindo NP,2015-11-07,
Platysteira castanea,Animalia,WATTLEEYES_BATISES_PLATYSTEIRIDAE,Chestnut Wattle-eye,,1,12.8031501172,0.512430095302,Africa,Gabon,GA,,Gabon - Ivindo NP,2015-11-07,
Ceratogymna atrata,Animalia,HORNBILLS_BUCEROTIDAE,Black-casqued Hornbill,,1,12.8031501172,0.512430095302,Africa,Gabon,GA,,Gabon - Ivindo NP,2015-11-07,
Muscicapa caerulescens,Animalia,OLD_WORLD_FLYCATCHERS_MUSCICAPIDAE,Ashy Flycatcher,,1,12.8031501172,0.512430095302,Africa,Gabon,GA,,Gabon - Ivindo NP,2015-11-07,
Gymnobucco bonapartei,Animalia,Lybiidae,Grey-throated Barbet,,1,11.4544066778,0.351716753675,Africa,Gabon,GA,,Gabon - Wouleu-Ntem,2015-11-06,
Clappertonia ficifolia,Plantae,MALVACEAE,Bolo-bolo,,1,10.8620032659,-0.0996073579819,Africa,Gabon,GA,,Gabon - Moyen-Ogooué,2015-11-06,
Sauvagesia erecta,Plantae,OCHNACEAE,,,1,10.8620032659,-0.0996073579819,Africa,Gabon,GA,,Gabon - Moyen-Ogooué,2015-11-06,
Calopogonium mucunoides,Plantae,Fabaceae,Calopo,,1,10.8620032659,-0.0996073579819,Africa,Gabon,GA,,Gabon - Moyen-Ogooué,2015-11-06,
Xylopia aethiopica,Plantae,ANNONACEAE,Ethiopian pepper,,1,10.8620032659,-0.0996073579819,Africa,Gabon,GA,,Gabon - Moyen-Ogooué,2015-11-06,
Lamprotornis splendidus,Animalia,STARLINGS_STURNIDAE,Splendid Starling,,1,10.7672886549,-0.189428431297,Africa,Gabon,GA,,Gabon - Moyen-Ogooué,2015-11-06,
Terpsiphone viridis,Animalia,MONARCHS_MONARCHIDAE,African Paradise Flycatcher,,1,10.7672886549,-0.189428431297,Africa,Gabon,GA,,Gabon - Moyen-Ogooué,2015-11-06,
Pyrenestes ostrinus,Animalia,WAXBILLS_MUNIAS_ALLIES_ESTRILDIDAE,Black-bellied Seedcracker,,1,10.7672886549,-0.189428431297,Africa,Gabon,GA,,Gabon - Moyen-Ogooué,2015-11-06,
Camaroptera brevicaudata,Animalia,CISTICOLAS_AND_ALLIES_CISTICOLIDAE,Grey-backed Camaroptera,,1,10.7672886549,-0.189428431297,Africa,Gabon,GA,,Gabon - Moyen-Ogooué,2015-11-06,
Manniophyton fulvum,Plantae,EUPHORBIACEAE,Manniophyton,,1,10.5441293118,-0.218010316684,Africa,Gabon,GA,,Gabon - Moyen-Ogooué,2015-11-05,
Acmella uliginosa,Plantae,Asteraceae,,,1,10.3372344366,-0.0103864071002,Africa,Gabon,GA,,Gabon - Estuaire,2015-11-05,
Croton hirtus,Plantae,EUPHORBIACEAE,,,1,10.3372344366,-0.0103864071002,Africa,Gabon,GA,,Gabon - Estuaire,2015-11-05,
Spigelia anthelmia,Plantae,Loganiaceae,West Indian pinkroot,,1,9.96644586237,0.32109003105,Africa,Gabon,GA,,Gabon - Estuaire,2015-11-05,
Eclipta prostrata,Plantae,Asteraceae,White eclipta,,1,9.96644586237,0.32109003105,Africa,Gabon,GA,,Gabon - Estuaire,2015-11-05,
Synedrella nodiflora,Plantae,Asteraceae,Nodeweed,,1,9.96644586237,0.32109003105,Africa,Gabon,GA,,Gabon - Estuaire,2015-11-05,
Oxalis barrelieri,Plantae,OXALIDACEAE,Barrelier's woodsorrel,,1,9.96644586237,0.32109003105,Africa,Gabon,GA,,Gabon - Estuaire,2015-11-05,
Aterica galene,Animalia,BRUSHFOOTED_BUTTERFLIES_NYMPHALIDAE,Forest Glade Nymph,,1,9.49096485929,0.416138835029,Africa,Gabon,GA,,Gabon - Estuaire,2015-11-05,
Aterica galene,Animalia,BRUSHFOOTED_BUTTERFLIES_NYMPHALIDAE,Forest Glade Nymph,,1,9.49096485929,0.416138835029,Africa,Gabon,GA,,Gabon - Estuaire,2015-11-05,
Selaginella myosurus,Plantae,SELAGINELLACEAE,,,1,9.49096485929,0.416138835029,Africa,Gabon,GA,,Gabon - Estuaire,2015-11-05,
Lavigeria macrocarpa,Plantae,ICACINACEAE,,,1,9.49096485929,0.416138835029,Africa,Gabon,GA,,Gabon - Estuaire,2015-11-05,
Nelsonia canescens,Plantae,ACANTHACEAE,Blue pussyleaf,,1,9.4895701106,0.416982814383,Africa,Gabon,GA,,Gabon - Estuaire,2015-11-04,
Cleome rutidosperma,Plantae,CLEOMACEAE,Fringed spiderflower,,1,9.4895701106,0.416982814383,Africa,Gabon,GA,,Gabon - Estuaire,2015-11-04,
Synedrella nodiflora,Plantae,Asteraceae,Nodeweed,,1,9.4895701106,0.416982814383,Africa,Gabon,GA,,Gabon - Estuaire,2015-11-04,
Zizeeria knysna,Animalia,GOSSAMERWINGED_BUTTERFLIES_LYCAENIDAE,African Grass Blue,,1,9.4895701106,0.416982814383,Africa,Gabon,GA,,Gabon - Estuaire,2015-11-04,
Precis pelarga,Animalia,BRUSHFOOTED_BUTTERFLIES_NYMPHALIDAE,Fashion commodore,,1,9.4895701106,0.416982814383,Africa,Gabon,GA,,Gabon - Estuaire,2015-11-04,
Costus lucanusianus,Plantae,COSTACEAE,,,1,9.4895701106,0.416982814383,Africa,Gabon,GA,,Gabon - Estuaire,2015-11-04,
Ardea purpurea,Animalia,HERONS_ARDEIDAE,Purple Heron,,1,9.48977373584,0.418041588281,Africa,Gabon,GA,,Gabon - Estuaire,2015-11-04,
Passer griseus,Animalia,OLD_WORLD_SPARROWS_PASSERIDAE,Northern Grey-headed Sparrow,,1,9.42578142503,0.424238385315,Africa,Gabon,GA,,Gabon - Estuaire,2015-11-03,
Lonchura cucullata,Animalia,WAXBILLS_MUNIAS_ALLIES_ESTRILDIDAE,Bronze Mannikin,,1,9.42578142503,0.424238385315,Africa,Gabon,GA,,Gabon - Estuaire,2015-11-03,
Ploceus cucullatus,Animalia,WEAVERS_PLOCEIDAE,Village Weaver,,1,9.42578142503,0.424238385315,Africa,Gabon,GA,,Gabon - Estuaire,2015-11-03,
Zizeeria knysna,Animalia,GOSSAMERWINGED_BUTTERFLIES_LYCAENIDAE,African Grass Blue,,1,9.48987051932,0.417211686553,Africa,Gabon,GA,,Gabon - Estuaire,2015-11-02,
Aterica galene,Animalia,BRUSHFOOTED_BUTTERFLIES_NYMPHALIDAE,Forest Glade Nymph,,1,9.48987051932,0.417211686553,Africa,Gabon,GA,,Gabon - Estuaire,2015-11-02,
Aterica galene,Animalia,BRUSHFOOTED_BUTTERFLIES_NYMPHALIDAE,Forest Glade Nymph,,1,9.48987051932,0.417211686553,Africa,Gabon,GA,,Gabon - Estuaire,2015-11-02,
Centropus monachus,Animalia,CUCKOOS_AND_COUCALS_CUCULIDAE,Blue-headed Coucal,,1,9.4896559426,0.417898310335,Africa,Gabon,GA,,Gabon - Estuaire,2015-11-03,
Lonchura bicolor,Animalia,WAXBILLS_MUNIAS_ALLIES_ESTRILDIDAE,Black-and-white Mannikin,,1,9.4896559426,0.414379344924,Africa,Gabon,GA,,Gabon - Estuaire,2015-11-04,
Ardea purpurea,Animalia,HERONS_ARDEIDAE,Purple Heron,,1,9.48967717632,0.418045162609,Africa,Gabon,GA,,Gabon - Estuaire,2015-11-02,
Cleistopholis patens,Plantae,ANNONACEAE,,,1,9.3359774386,0.602747380995,Africa,Gabon,GA,,Gabon - Estuaire,2015-11-01,
Uvaria klaineana,Plantae,ANNONACEAE,,,1,9.3359774386,0.602747380995,Africa,Gabon,GA,,Gabon - Estuaire,2015-11-01,
Passiflora foetida,Plantae,PASSIFLORACEAE,,,1,9.40339610068,0.463623255417,Africa,Gabon,GA,,Gabon - Estuaire,2015-11-01,
Turdus pelios,Animalia,THRUSHES_TURDIDAE,African Thrush,,1,9.41068600885,0.451613047942,Africa,Gabon,GA,,Gabon - Estuaire,2015-11-01,
Passer griseus,Animalia,OLD_WORLD_SPARROWS_PASSERIDAE,Northern Grey-headed Sparrow,,1,9.41068600885,0.451613047942,Africa,Gabon,GA,,Gabon - Estuaire,2015-11-01,
Ploceus cucullatus,Animalia,WEAVERS_PLOCEIDAE,Village Weaver,,1,9.41068600885,0.451613047942,Africa,Gabon,GA,,Gabon - Estuaire,2015-11-01,
Lonchura cucullata,Animalia,WAXBILLS_MUNIAS_ALLIES_ESTRILDIDAE,Bronze Mannikin,,1,9.41068600885,0.451613047942,Africa,Gabon,GA,,Gabon - Estuaire,2015-11-01,
Anabathmis reichenbachii,Animalia,SUNBIRDS_NECTARINIIDAE,Reichenbach's Sunbird,,1,9.41068600885,0.451613047942,Africa,Gabon,GA,,Gabon - Estuaire,2015-11-01,
Halcyon senegalensis,Animalia,KINGFISHERS_ALCEDINIDAE,Woodland Kingfisher,,1,9.41068600885,0.451613047942,Africa,Gabon,GA,,Gabon - Estuaire,2015-11-01,
Bubulcus ibis,Animalia,HERONS_ARDEIDAE,Western Cattle Egret,,1,9.41068600885,0.451613047942,Africa,Gabon,GA,,Gabon - Estuaire,2015-11-01,
Tacca leontopetaloides,Plantae,DIOSCOREACEAE,Polynesian Arrowroot,,1,9.40576694884,0.459585998529,Africa,Gabon,GA,,Gabon - Estuaire,2015-11-01,
Bubulcus ibis,Animalia,HERONS_ARDEIDAE,Western Cattle Egret,,1,9.49013669229778,0.418020507270688,Africa,Gabon,GA,,Gabon - Estuaire,2015-11-02,08:04
Psittacus erithacus,Animalia,PARROTS_PSITTACIDAE,Grey Parrot,,1,9.42564633934,0.424434944893,Africa,Gabon,GA,,Gabon - Estuaire,2015-11-03,16:30
Monanthotaxis letestui,Plantae,ANNONACEAE,,,1,13.2027912494,1.08011446512,Africa,Gabon,GA,,Gabon - Ogooué-Ivindo,2015-11-11,15:40
Neostenanthera myristicifolia,Plantae,ANNONACEAE,,,1,11.4940478466,0.596743233366,Africa,Gabon,GA,,Gabon - Wouleu-Ntem,2015-11-15,07:53
Halcyon malimbica,Animalia,KINGFISHERS_ALCEDINIDAE,Blue-breasted Kingfisher,,1,11.7342615135,0.697818035559,Africa,Gabon,GA,,Gabon - Wouleu-Ntem,2015-11-16,13:20
Calidris ferruginea,Animalia,SANDPIPERS_AND_ALLIES_SCOLOPACIDAE,Curlew Sandpiper,,1,9.5890045166,0.604923453663,Africa,Gabon,GA,,Gabon - Akanda NP,2012-08-22,
Calidris falcinellus,Animalia,SANDPIPERS_AND_ALLIES_SCOLOPACIDAE,Broad-billed Sandpiper,,1,9.5890045166,0.604923453663,Africa,Gabon,GA,,Gabon - Akanda NP,2012-08-22,
Thalasseus albididorsalis,Animalia,GULLS_TERNS_AND_SKIMMERS_LARIDAE,West African Crested Tern,,100,9.5890045166,0.604923453663,Africa,Gabon,GA,,Gabon - Akanda NP,2012-08-22,
Hydroprogne caspia,Animalia,GULLS_TERNS_AND_SKIMMERS_LARIDAE,Caspian Tern,,1,9.53750610352,0.652299140897,Africa,Gabon,GA,,Gabon - Akanda NP,2012-08-22,
Platysteira castanea,Animalia,WATTLEEYES_BATISES_PLATYSTEIRIDAE,Chestnut Wattle-eye,,1,11.561741548432126,-0.5709449999999379,Africa,Gabon,GA,,Gabon - Lopé NP,2012-08-17,
Oceanites oceanicus,Animalia,OCEANITIDAE,Wilson's Storm Petrel,,1,9.22439575195,0.311735522514,Africa,Gabon,GA,,Gabon - Estuaire,2012-08-06,
Bubulcus ibis,Animalia,HERONS_ARDEIDAE,Western Cattle Egret,,1,9.3536567688,0.344007332557,Africa,Gabon,GA,,Gabon - Estuaire,2012-08-05,
Vanellus lugubris,Animalia,PLOVERS_CHARADRIIDAE,Senegal Lapwing,,1,9.60168560439566,-2.1862149999999474,Africa,Gabon,GA,,Gabon - Loango NP,2011-03-27,
Platysteira castanea,Animalia,WATTLEEYES_BATISES_PLATYSTEIRIDAE,Chestnut Wattle-eye,,1,9.60168560439566,-2.1862149999999474,Africa,Gabon,GA,,Gabon - Loango NP,2011-03-27,
Pelecanus rufescens,Animalia,PELICANS_PELECANIDAE,Pink-backed Pelican,,1,9.60168560439566,-2.1862149999999474,Africa,Gabon,GA,,Gabon - Loango NP,2011-03-27,
Merops breweri,Animalia,BEEEATERS_MEROPIDAE,Black-headed Bee-eater,,1,10.404160443728314,-2.5448649999999304,Africa,Gabon,GA,,Gabon - Moukalaba Doudou NP,2011-03-24,
Columba unicincta,Animalia,PIGEONS_AND_DOVES_COLUMBIDAE,Afep Pigeon,,2,13.1278,0.7417,Africa,Gabon,GA,,Gabon - Ogooué-Ivindo,2015-07-31,14:30
Urotriorchis macrourus,Animalia,HAWKS_AND_EAGLES_ACCIPITRIDAE,Long-tailed Hawk,,1,13.5608196259,0.211457754078,Africa,Gabon,GA,,Gabon - Ogooué-Ivindo,2015-08-02,
Merops pusillus meridionalis,Animalia,BEEEATERS_MEROPIDAE,Little Bee-eater ssp meridionalis,,4,14.2918,-1.5893,Africa,Gabon,GA,,Gabon - Haut-Ogooué,2015-08-03,
Merops breweri,Animalia,BEEEATERS_MEROPIDAE,Black-headed Bee-eater,,1,13.9376,-1.6056,Africa,Gabon,GA,,Gabon - Haut-Ogooué,2015-08-04,07:50
Eremomela salvadorii,Animalia,CISTICOLAS_AND_ALLIES_CISTICOLIDAE,Salvadori's Eremomela,,1,14.3003,-1.5895,Africa,Gabon,GA,,Gabon - Haut-Ogooué,2015-08-03,
Merops albicollis,Animalia,BEEEATERS_MEROPIDAE,White-throated Bee-eater,,1,14.2918,-1.5893,Africa,Gabon,GA,,Gabon - Haut-Ogooué,2015-08-03,
Apaloderma aequatoriale,Animalia,TROGONS_TROGONIDAE,Bare-cheeked Trogon,,1,12.7995,0.5093,Africa,Gabon,GA,,Gabon - Ivindo NP,2015-08-01,08:46
Prionops rufiventris rufiventris,Animalia,VANGAS_VANGIDAE,Rufous-bellied Helmetshrike ssp rufiventris,,3,13.1278,0.7417,Africa,Gabon,GA,,Gabon - Ogooué-Ivindo,2015-07-31,14:30
Smithornis rufolateralis rufolateralis,Animalia,CALYPTOMENIDAE,Rufous-sided Broadbill ssp rufolateralis,,1,12.8039,0.5128,Africa,Gabon,GA,,Gabon - Ivindo NP,2015-07-30,12:52
Bycanistes albotibialis,Animalia,HORNBILLS_BUCEROTIDAE,White-thighed Hornbill,,2,12.8035,0.5118,Africa,Gabon,GA,,Gabon - Ivindo NP,2015-07-30,12:51
Chrysococcyx flavigularis,Animalia,CUCKOOS_AND_COUCALS_CUCULIDAE,Yellow-throated Cuckoo,,1,12.8042,0.5131,Africa,Gabon,GA,,Gabon - Ivindo NP,2015-07-29,14:10
Ispidina lecontei lecontei,Animalia,KINGFISHERS_ALCEDINIDAE,African Dwarf Kingfisher ssp lecontei,,1,12.7954,0.5077,Africa,Gabon,GA,,Gabon - Ivindo NP,2015-07-29,10:15
Lophoceros fasciatus fasciatus,Animalia,HORNBILLS_BUCEROTIDAE,African Pied Hornbill ssp fasciatus,,10,12.7954,0.5077,Africa,Gabon,GA,,Gabon - Ivindo NP,2015-07-29,10:14
Psittacus erithacus,Animalia,PARROTS_PSITTACIDAE,Grey Parrot,,20,12.8027,0.5118,Africa,Gabon,GA,,Gabon - Ivindo NP,2015-07-29,07:03
Bycanistes fistulator sharpii,Animalia,HORNBILLS_BUCEROTIDAE,Piping Hornbill ssp sharpii,,25,12.8026,0.5116,Africa,Gabon,GA,,Gabon - Ivindo NP,2015-07-29,07:02
Cecropis abyssinica,Animalia,SWALLOWS_HIRUNDINIDAE,Lesser Striped Swallow,,20,11.5925,-0.1009,Africa,Gabon,GA,,Gabon - Lopé NP,2015-07-27,07:20
Vanellus lugubris,Animalia,PLOVERS_CHARADRIIDAE,Senegal Lapwing,,3,11.5933,-0.1001,Africa,Gabon,GA,,Gabon - Lopé NP,2015-07-27,14:36
Horizocerus hartlaubi hartlaubi,Animalia,HORNBILLS_BUCEROTIDAE,Black Dwarf Hornbill ssp hartlaubi,,2,11.6106,-0.189,Africa,Gabon,GA,,Gabon - Lopé NP,2015-07-26,09:54
Egretta gularis,Animalia,HERONS_ARDEIDAE,Western Reef Heron,,15,9.4725,0.6555,Africa,Gabon,GA,,Gabon - Akanda NP,2015-07-24,15:01
Gypohierax angolensis,Animalia,HAWKS_AND_EAGLES_ACCIPITRIDAE,Palm-nut Vulture,,5,9.4725,0.6555,Africa,Gabon,GA,,Gabon - Akanda NP,2015-07-24,15:01
Merops malimbicus,Animalia,BEEEATERS_MEROPIDAE,Rosy Bee-eater,,8,9.468,0.6515,Africa,Gabon,GA,,Gabon - Akanda NP,2015-07-24,12:02
Nigrita luteifrons luteifrons,Animalia,WAXBILLS_MUNIAS_ALLIES_ESTRILDIDAE,Pale-fronted Nigrita ssp luteifrons,,8,9.4709,0.652,Africa,Gabon,GA,,Gabon - Akanda NP,2015-07-24,12:51
Ploceus subpersonatus,Animalia,WEAVERS_PLOCEIDAE,Loango Weaver,,1,9.4694,0.6533,Africa,Gabon,GA,,Gabon - Akanda NP,2015-07-24,12:01
Lophoceros fasciatus fasciatus,Animalia,HORNBILLS_BUCEROTIDAE,African Pied Hornbill ssp fasciatus,,4,9.4698,0.6543,Africa,Gabon,GA,,Gabon - Akanda NP,2015-07-24,11:01
Bubulcus ibis,Animalia,HERONS_ARDEIDAE,Western Cattle Egret,,1,9.4378,0.5387,Africa,Gabon,GA,,Gabon - Estuaire,2015-07-24,09:01
Passer griseus griseus,Animalia,OLD_WORLD_SPARROWS_PASSERIDAE,Northern Grey-headed Sparrow ssp griseus,,2,9.4178,0.4332,Africa,Gabon,GA,,Gabon - Estuaire,2015-07-24,07:15
Lonchura cucullata cucullata,Animalia,WAXBILLS_MUNIAS_ALLIES_ESTRILDIDAE,Bronze Mannikin ssp cucullata,,15,9.4178,0.4332,Africa,Gabon,GA,,Gabon - Estuaire,2015-07-24,07:15
