scientificName,kingdom,family,vernacularName,previousIdentifications,individualCount,longitudeDecimal,latitudeDecimal,continent,country,countryCode,stateProvince,locality,eventDate,eventTime
Haliaeetus albicilla groenlandicus,Animalia,HAWKS_AND_EAGLES_ACCIPITRIDAE,White-tailed Eagle ssp groenlandicus,,1,-50.6109237671,67.015473109,North America,Greenland,GL,,Greenland,2013-07-07,
Gavia stellata,Animalia,DIVERS_GAVIIDAE,Red-throated Diver,,1,-25.4401184899095,70.7860881615326,North America,Greenland,GL,,Greenland,2014-09-01,20:31
Rissa tridactyla,Animalia,GULLS_TERNS_AND_SKIMMERS_LARIDAE,Black-legged Kittiwake,,1,-21.9928550755,70.3031402779,North America,Greenland,GL,,Greenland,2013-09-04,
Anthus pratensis,Animalia,PIPITS_EN_WAGTAILS_MOTACILLIDAE,Meadow Pipit,,1,-21.9626426732,70.4846981157,North America,Greenland,GL,,Greenland,2013-09-04,
Anthus pratensis,Animalia,PIPITS_EN_WAGTAILS_MOTACILLIDAE,Meadow Pipit,,1,-21.9729423558,70.4903744731,North America,Greenland,GL,,Greenland,2013-09-04,
Larus hyperboreus hyperboreus,Animalia,GULLS_TERNS_AND_SKIMMERS_LARIDAE,Glaucous Gull ssp hyperboreus,,1,-21.9746589696,70.490890427,North America,Greenland,GL,,Greenland,2013-09-04,
Larus hyperboreus hyperboreus,Animalia,GULLS_TERNS_AND_SKIMMERS_LARIDAE,Glaucous Gull ssp hyperboreus,,1,-27.656250447,70.7456516576,North America,Greenland,GL,,Greenland,2013-09-02,
Haliaeetus albicilla groenlandicus,Animalia,HAWKS_AND_EAGLES_ACCIPITRIDAE,White-tailed Eagle ssp groenlandicus,,1,-51.8823623666,63.9643196371,North America,Greenland,GL,,Greenland,2008-02-10,
Haliaeetus albicilla groenlandicus,Animalia,HAWKS_AND_EAGLES_ACCIPITRIDAE,White-tailed Eagle ssp groenlandicus,,1,-51.7372083668,64.1751071435,North America,Greenland,GL,,Greenland - Nuuk,2008-02-08,
Stercorarius skua,Animalia,SKUAS_STERCORARIIDAE,Great Skua,,1,-21.181640625,68.9741635834,North America,Greenland,GL,,Greenland,2013-09-05,
Rissa tridactyla,Animalia,GULLS_TERNS_AND_SKIMMERS_LARIDAE,Black-legged Kittiwake,,1,-21.181640625,68.9741635834,North America,Greenland,GL,,Greenland,2013-09-05,
Fulmarus glacialis auduboni,Animalia,PETRELS_AND_SHEARWATERS_PROCELLARIIDAE,Northern Fulmar ssp auduboni,,1,-21.181640625,68.9741635834,North America,Greenland,GL,,Greenland,2013-09-05,
Uria aalge aalge,Animalia,AUKS_ALCIDAE,Atlantic Murre,,1,-21.181640625,68.9741635834,North America,Greenland,GL,,Greenland,2013-09-05,
Taraxacum officinale s.l. (incl. all sec.),Plantae,Asteraceae,Common Dandelion,,1,-21.9705963135,70.4850249792,North America,Greenland,GL,,Greenland,2013-09-04,
Oxyria digyna,Plantae,POLYGONACEAE,Mountain Sorrel,,1,-21.9705963135,70.4850249792,North America,Greenland,GL,,Greenland,2013-09-04,
Epilobium latifolium,Plantae,ONAGRACEAE,,,1,-21.9705963135,70.4850249792,North America,Greenland,GL,,Greenland,2013-09-04,
Eriophorum scheuchzeri,Plantae,CYPERACEAE,White cottongrass,,1,-21.9705963135,70.4850249792,North America,Greenland,GL,,Greenland,2013-09-04,
Saxifraga cernua,Plantae,SAXIFRAGACEAE,Drooping Saxifrage,,1,-21.9705963135,70.4850249792,North America,Greenland,GL,,Greenland,2013-09-04,
Polygonum viviparum,Plantae,POLYGONACEAE,,,1,-21.9705963135,70.4850249792,North America,Greenland,GL,,Greenland,2013-09-04,
Oxyria digyna,Plantae,POLYGONACEAE,Mountain Sorrel,,1,-21.9705963135,70.4850249792,North America,Greenland,GL,,Greenland,2013-09-04,
Cerastium alpinum,Plantae,CARYOPHYLLACEAE,Alpine Mouse-ear,,1,-21.9705963135,70.4850249792,North America,Greenland,GL,,Greenland,2013-09-04,
Rissa tridactyla,Animalia,GULLS_TERNS_AND_SKIMMERS_LARIDAE,Black-legged Kittiwake,,1,-21.5310573578,69.1986162975,North America,Greenland,GL,,Greenland,2013-09-04,
Fulmarus glacialis glacialis,Animalia,PETRELS_AND_SHEARWATERS_PROCELLARIIDAE,Northern Fulmar ssp glacialis,,1,-21.5310573578,69.1986162975,North America,Greenland,GL,,Greenland,2013-09-04,
Calidris canutus,Animalia,SANDPIPERS_AND_ALLIES_SCOLOPACIDAE,Red Knot,,1,-21.9705104828,70.4854263835,North America,Greenland,GL,,Greenland,2013-09-04,
Calidris maritima,Animalia,SANDPIPERS_AND_ALLIES_SCOLOPACIDAE,Purple Sandpiper,,1,-21.9705104828,70.4854263835,North America,Greenland,GL,,Greenland,2013-09-04,
Oenanthe oenanthe leucorhoa,Animalia,OLD_WORLD_FLYCATCHERS_MUSCICAPIDAE,Greenland Northern Wheatear,,1,-21.9705104828,70.4854263835,North America,Greenland,GL,,Greenland,2013-09-04,
Anthus pratensis,Animalia,PIPITS_EN_WAGTAILS_MOTACILLIDAE,Meadow Pipit,,1,-21.9705104828,70.4854263835,North America,Greenland,GL,,Greenland,2013-09-04,
Arenaria interpres interpres,Animalia,SANDPIPERS_AND_ALLIES_SCOLOPACIDAE,Ruddy Turnstone ssp interpres,,1,-21.9705104828,70.4854263835,North America,Greenland,GL,,Greenland,2013-09-04,
Potentilla crantzii,Plantae,ROSACEAE,Alpine Cinquefoil,,1,-25.0646209717,71.293967423,North America,Greenland,GL,,Greenland,2013-09-03,
Rhodiola rosea,Plantae,CRASSULACEAE,Rosewort,,1,-25.0646209717,71.293967423,North America,Greenland,GL,,Greenland,2013-09-03,
Dryas octopetala,Plantae,ROSACEAE,Mountain Avens,,1,-25.0646209717,71.293967423,North America,Greenland,GL,,Greenland,2013-09-03,
Arctostaphylos alpinus,Plantae,ERICACEAE,,,1,-25.0646209717,71.293967423,North America,Greenland,GL,,Greenland,2013-09-03,
Pyrola grandiflora,Plantae,ERICACEAE,Large-flowered wintergreen,,1,-25.0646209717,71.293967423,North America,Greenland,GL,,Greenland,2013-09-03,
Eriophorum scheuchzeri,Plantae,CYPERACEAE,White cottongrass,,1,-25.0646209717,71.293967423,North America,Greenland,GL,,Greenland,2013-09-03,
Rhodiola rosea,Plantae,CRASSULACEAE,Rosewort,,1,-25.7649993896,71.2617892397,North America,Greenland,GL,,Greenland,2013-09-03,
Diphasiastrum alpinum,Plantae,LYCOPODIACEAE,Alpine Clubmoss,,1,-25.7649993896,71.2617892397,North America,Greenland,GL,,Greenland,2013-09-03,
Eriophorum scheuchzeri,Plantae,CYPERACEAE,White cottongrass,,1,-25.7649993896,71.2617892397,North America,Greenland,GL,,Greenland,2013-09-03,
Harrimanella hypnoides,Plantae,ERICACEAE,Mossplant,,1,-25.7649993896,71.2617892397,North America,Greenland,GL,,Greenland,2013-09-03,
Betula nana,Plantae,BETULACEAE,Dwarf Birch,,1,-25.7649993896,71.2617892397,North America,Greenland,GL,,Greenland,2013-09-03,
Cassiope tetragona,Plantae,ERICACEAE,White arctic mountain heather,,1,-25.7649993896,71.2617892397,North America,Greenland,GL,,Greenland,2013-09-03,
Epilobium latifolium,Plantae,ONAGRACEAE,,,1,-25.7649993896,71.2617892397,North America,Greenland,GL,,Greenland,2013-09-03,
Rhodiola rosea,Plantae,CRASSULACEAE,Rosewort,,1,-25.7649993896,71.2617892397,North America,Greenland,GL,,Greenland,2013-09-03,
Corvus corax principalis,Animalia,CROWS_AND_JAYS_CORVIDAE,Northern Raven ssp principalis,,1,-25.0654792786,71.2921505563,North America,Greenland,GL,,Greenland,2013-09-03,
Alopex lagopus,Animalia,DOGS_CANIDAE,,,1,-25.0654792786,71.2921505563,North America,Greenland,GL,,Greenland,2013-09-03,
Ovibos moschatus,Animalia,BOVIDS_BOVIDAE,Muskox,,1,-25.0654792786,71.2921505563,North America,Greenland,GL,,Greenland,2013-09-03,
Anser brachyrhynchus,Animalia,DUCKS_GEESE_AND_SWANS_ANATIDAE,Pink-footed Goose,,1,-25.0654792786,71.2921505563,North America,Greenland,GL,,Greenland,2013-09-03,
Fulmarus glacialis glacialis,Animalia,PETRELS_AND_SHEARWATERS_PROCELLARIIDAE,Northern Fulmar ssp glacialis,,1,-25.0654792786,71.2921505563,North America,Greenland,GL,,Greenland,2013-09-03,
Rhodiola rosea,Plantae,CRASSULACEAE,Rosewort,,1,-27.7267456055,70.9319008383,North America,Greenland,GL,,Greenland,2013-09-02,
Dryas octopetala,Plantae,ROSACEAE,Mountain Avens,,1,-27.7267456055,70.9319008383,North America,Greenland,GL,,Greenland,2013-09-02,
Betula nana,Plantae,BETULACEAE,Dwarf Birch,,1,-27.7267456055,70.9319008383,North America,Greenland,GL,,Greenland,2013-09-02,
Tofieldia pusilla,Plantae,Tofieldiaceae,Scottish Asphodel,,1,-27.7267456055,70.9319008383,North America,Greenland,GL,,Greenland,2013-09-02,
Juncus arcticus,Plantae,JUNCACEAE,Arctic rush,,1,-27.7267456055,70.9319008383,North America,Greenland,GL,,Greenland,2013-09-02,
Epilobium latifolium,Plantae,ONAGRACEAE,,,1,-27.7267456055,70.9319008383,North America,Greenland,GL,,Greenland,2013-09-02,
Polygonum viviparum,Plantae,POLYGONACEAE,,,1,-27.7267456055,70.9319008383,North America,Greenland,GL,,Greenland,2013-09-02,
Pagophilus groenlandicus,Animalia,SEALS_PHOCIDAE,Harp Seal,,1,-27.9711914062,70.6517808538,North America,Greenland,GL,,Greenland,2013-09-02,
Larus hyperboreus hyperboreus,Animalia,GULLS_TERNS_AND_SKIMMERS_LARIDAE,Glaucous Gull ssp hyperboreus,,1,-27.9711914062,70.6517808538,North America,Greenland,GL,,Greenland,2013-09-02,
Calcarius lapponicus subcalcaratus,Animalia,Calcariidae,Lapland Longspur ssp subcalcaratus,,1,-27.7459716797,70.9408716622,North America,Greenland,GL,,Greenland,2013-09-02,
Falco rusticolus,Animalia,CARACAS_AND_FALCONS_FALCONIDAE,Gyrfalcon,,1,-27.7459716797,70.9408716622,North America,Greenland,GL,,Greenland,2013-09-02,
Corvus corax principalis,Animalia,CROWS_AND_JAYS_CORVIDAE,Northern Raven ssp principalis,,1,-27.7459716797,70.9408716622,North America,Greenland,GL,,Greenland,2013-09-02,
Plectrophenax nivalis nivalis,Animalia,Calcariidae,Snow Bunting ssp nivalis,,1,-27.7459716797,70.9408716622,North America,Greenland,GL,,Greenland,2013-09-02,
Gavia immer,Animalia,DIVERS_GAVIIDAE,Common Loon,,1,-27.7459716797,70.9408716622,North America,Greenland,GL,,Greenland,2013-09-02,
Arctostaphylos alpinus,Plantae,ERICACEAE,,,1,-25.5102539062,70.7898471434,North America,Greenland,GL,,Greenland,2013-09-01,
Epilobium latifolium,Plantae,ONAGRACEAE,,,1,-25.5102539062,70.7898471434,North America,Greenland,GL,,Greenland,2013-09-01,
Eriophorum scheuchzeri,Plantae,CYPERACEAE,White cottongrass,,1,-25.5102539062,70.7898471434,North America,Greenland,GL,,Greenland,2013-09-01,
Phyllodoce caerulea,Plantae,ERICACEAE,Blue Heath,,1,-25.5102539062,70.7898471434,North America,Greenland,GL,,Greenland,2013-09-01,
Potentilla crantzii,Plantae,ROSACEAE,Alpine Cinquefoil,,1,-25.5102539062,70.7898471434,North America,Greenland,GL,,Greenland,2013-09-01,
Diphasiastrum alpinum,Plantae,LYCOPODIACEAE,Alpine Clubmoss,,1,-25.5102539062,70.7898471434,North America,Greenland,GL,,Greenland,2013-09-01,
Loiseleuria procumbens,Plantae,ERICACEAE,Trailing Azalea,,1,-25.5102539062,70.7898471434,North America,Greenland,GL,,Greenland,2013-09-01,
Cassiope tetragona,Plantae,ERICACEAE,White arctic mountain heather,,1,-25.5102539062,70.7898471434,North America,Greenland,GL,,Greenland,2013-09-01,
Gavia stellata,Animalia,DIVERS_GAVIIDAE,Red-throated Diver,,1,-25.5349731445,70.8018178276,North America,Greenland,GL,,Greenland,2013-09-01,
Rissa tridactyla,Animalia,GULLS_TERNS_AND_SKIMMERS_LARIDAE,Black-legged Kittiwake,,1,-25.4086303711,70.7832941067,North America,Greenland,GL,,Greenland,2013-09-01,
Larus hyperboreus leuceretes,Animalia,GULLS_TERNS_AND_SKIMMERS_LARIDAE,Glaucous Gull ssp leuceretes,,1,-23.6535644531,70.3796985484,North America,Greenland,GL,,Greenland,2013-09-01,
Stercorarius pomarinus,Animalia,SKUAS_STERCORARIIDAE,Pomarine Jaeger,,1,-23.6535644531,70.3796985484,North America,Greenland,GL,,Greenland,2013-09-01,
Fulmarus glacialis glacialis,Animalia,PETRELS_AND_SHEARWATERS_PROCELLARIIDAE,Northern Fulmar ssp glacialis,,1,-23.6535644531,70.3796985484,North America,Greenland,GL,,Greenland,2013-09-01,
Rissa tridactyla,Animalia,GULLS_TERNS_AND_SKIMMERS_LARIDAE,Black-legged Kittiwake,,1,-23.6535644531,70.3796985484,North America,Greenland,GL,,Greenland,2013-09-01,
Rissa tridactyla,Animalia,GULLS_TERNS_AND_SKIMMERS_LARIDAE,Black-legged Kittiwake,,1,-21.1706542969,70.6472305086,North America,Greenland,GL,,Greenland,2013-09-01,
Stercorarius pomarinus,Animalia,SKUAS_STERCORARIIDAE,Pomarine Jaeger,,3,-21.1706542969,70.6472305086,North America,Greenland,GL,,Greenland,2013-09-01,
Fulmarus glacialis glacialis,Animalia,PETRELS_AND_SHEARWATERS_PROCELLARIIDAE,Northern Fulmar ssp glacialis,,1,-21.1706542969,70.6472305086,North America,Greenland,GL,,Greenland,2013-09-01,
Stercorarius pomarinus,Animalia,SKUAS_STERCORARIIDAE,Pomarine Jaeger,,1,-21.1706542969,70.6472305086,North America,Greenland,GL,,Greenland,2013-09-01,
Branta leucopsis,Animalia,DUCKS_GEESE_AND_SWANS_ANATIDAE,Barnacle Goose,,1,-24.0696716309,72.530603441,North America,Greenland,GL,,Greenland,2013-08-31,
Ovibos moschatus,Animalia,BOVIDS_BOVIDAE,Muskox,,5,-24.0696716309,72.530603441,North America,Greenland,GL,,Greenland,2013-08-31,
Honckenya peploides var. diffusa,Plantae,CARYOPHYLLACEAE,,,1,-24.0696716309,72.530603441,North America,Greenland,GL,,Greenland,2013-08-31,
Cassiope tetragona,Plantae,ERICACEAE,White arctic mountain heather,,1,-24.0696716309,72.530603441,North America,Greenland,GL,,Greenland,2013-08-31,
Eriophorum scheuchzeri,Plantae,CYPERACEAE,White cottongrass,,1,-24.0696716309,72.530603441,North America,Greenland,GL,,Greenland,2013-08-31,
Saxifraga oppositifolia,Plantae,SAXIFRAGACEAE,Purple Saxifrage,,1,-24.0696716309,72.530603441,North America,Greenland,GL,,Greenland,2013-08-31,
Oxyria digyna,Plantae,POLYGONACEAE,Mountain Sorrel,,1,-24.0696716309,72.530603441,North America,Greenland,GL,,Greenland,2013-08-31,
Saxifraga aizoides,Plantae,SAXIFRAGACEAE,Yellow Saxifrage,,1,-24.0696716309,72.530603441,North America,Greenland,GL,,Greenland,2013-08-31,
Silene acaulis,Plantae,CARYOPHYLLACEAE,Moss Campion,,1,-24.0696716309,72.530603441,North America,Greenland,GL,,Greenland,2013-08-31,
Lesquerella arctica,Plantae,Brassicaceae,,,1,-24.4830322266,72.9357621983,North America,Greenland,GL,,Greenland,2013-08-30,
Arctous alpina,Plantae,ERICACEAE,Alpine bearberry,,1,-24.4830322266,72.9357621983,North America,Greenland,GL,,Greenland,2013-08-30,
Betula nana,Plantae,BETULACEAE,Dwarf Birch,,1,-24.4830322266,72.9357621983,North America,Greenland,GL,,Greenland,2013-08-30,
Dryas octopetala,Plantae,ROSACEAE,Mountain Avens,,1,-24.4830322266,72.9357621983,North America,Greenland,GL,,Greenland,2013-08-30,
Cassiope tetragona,Plantae,ERICACEAE,White arctic mountain heather,,1,-24.4830322266,72.9357621983,North America,Greenland,GL,,Greenland,2013-08-30,
Saxifraga aizoides,Plantae,SAXIFRAGACEAE,Yellow Saxifrage,,1,-24.4830322266,72.9357621983,North America,Greenland,GL,,Greenland,2013-08-30,
Lepus arcticus,Animalia,HARES_AND_RABBITS_LEPORIDAE,Arctic Hare,,5,-24.4830322266,72.9357621983,North America,Greenland,GL,,Greenland,2013-08-30,
Silene acaulis,Plantae,CARYOPHYLLACEAE,Moss Campion,,1,-25.1696777344,73.3215531,North America,Greenland,GL,,Greenland,2013-08-30,
Eriophorum scheuchzeri,Plantae,CYPERACEAE,White cottongrass,,1,-25.1696777344,73.3215531,North America,Greenland,GL,,Greenland,2013-08-30,
Arctous alpina,Plantae,ERICACEAE,Alpine bearberry,,1,-25.1696777344,73.3215531,North America,Greenland,GL,,Greenland,2013-08-30,
Polygonum viviparum,Plantae,POLYGONACEAE,,,1,-25.1696777344,73.3215531,North America,Greenland,GL,,Greenland,2013-08-30,
Lesquerella arctica,Plantae,Brassicaceae,,,1,-25.1696777344,73.3215531,North America,Greenland,GL,,Greenland,2013-08-30,
Cassiope tetragona,Plantae,ERICACEAE,White arctic mountain heather,,1,-25.1696777344,73.3215531,North America,Greenland,GL,,Greenland,2013-08-30,
Saxifraga oppositifolia,Plantae,SAXIFRAGACEAE,Purple Saxifrage,,1,-25.1696777344,73.3215531,North America,Greenland,GL,,Greenland,2013-08-30,
Epilobium latifolium,Plantae,ONAGRACEAE,,,1,-25.1696777344,73.3215531,North America,Greenland,GL,,Greenland,2013-08-30,
Dryas octopetala,Plantae,ROSACEAE,Mountain Avens,,1,-25.1696777344,73.3215531,North America,Greenland,GL,,Greenland,2013-08-30,
Saxifraga aizoides,Plantae,SAXIFRAGACEAE,Yellow Saxifrage,,1,-25.1696777344,73.3215531,North America,Greenland,GL,,Greenland,2013-08-30,
Tofieldia pusilla,Plantae,Tofieldiaceae,Scottish Asphodel,,1,-25.1696777344,73.3215531,North America,Greenland,GL,,Greenland,2013-08-30,
Saxifraga aizoides,Plantae,SAXIFRAGACEAE,Yellow Saxifrage,,1,-25.1696777344,73.3215531,North America,Greenland,GL,,Greenland,2013-08-30,
Betula nana,Plantae,BETULACEAE,Dwarf Birch,,1,-25.1696777344,73.3215531,North America,Greenland,GL,,Greenland,2013-08-30,
Plectrophenax nivalis nivalis,Animalia,Calcariidae,Snow Bunting ssp nivalis,,1,-25.1696777344,73.3215531,North America,Greenland,GL,,Greenland,2013-08-30,
Acanthis hornemanni hornemanni,Animalia,FINCHES_FRINGILLIDAE,Arctic Redpoll ssp hornemanni,,1,-25.1696777344,73.3215531,North America,Greenland,GL,,Greenland,2013-08-30,
Ovibos moschatus,Animalia,BOVIDS_BOVIDAE,Muskox,,1,-25.1696777344,73.3215531,North America,Greenland,GL,,Greenland,2013-08-30,
Ovibos moschatus,Animalia,BOVIDS_BOVIDAE,Muskox,,1,-25.1696777344,73.3215531,North America,Greenland,GL,,Greenland,2013-08-30,
Lepus arcticus,Animalia,HARES_AND_RABBITS_LEPORIDAE,Arctic Hare,,2,-25.1696777344,73.3215531,North America,Greenland,GL,,Greenland,2013-08-30,
Lepus arcticus,Animalia,HARES_AND_RABBITS_LEPORIDAE,Arctic Hare,,1,-25.1696777344,73.3215531,North America,Greenland,GL,,Greenland,2013-08-30,
Trisetum spicatum,Plantae,Poaceae,Spike trisetum,,1,-20.1691818237,74.2844934246,North America,Greenland,GL,,Greenland,2013-08-29,
Huperzia selago subsp. arctica,Plantae,LYCOPODIACEAE,,,1,-20.1691818237,74.2844934246,North America,Greenland,GL,,Greenland,2013-08-29,
Cassiope tetragona,Plantae,ERICACEAE,White arctic mountain heather,,1,-20.1691818237,74.2844934246,North America,Greenland,GL,,Greenland,2013-08-29,
Silene spec.,Plantae,CARYOPHYLLACEAE,,,1,-20.1691818237,74.2844934246,North America,Greenland,GL,,Greenland,2013-08-29,
Silene uralensis subsp. arctica,Plantae,CARYOPHYLLACEAE,,,1,-20.1691818237,74.2844934246,North America,Greenland,GL,,Greenland,2013-08-29,
Papaver radicatum,Plantae,PAPAVERACEAE,,,1,-20.1691818237,74.2844934246,North America,Greenland,GL,,Greenland,2013-08-29,
Eriophorum scheuchzeri,Plantae,CYPERACEAE,White cottongrass,,1,-20.1691818237,74.2844934246,North America,Greenland,GL,,Greenland,2013-08-29,
Papaver radicatum,Plantae,PAPAVERACEAE,,,1,-20.1691818237,74.2844934246,North America,Greenland,GL,,Greenland,2013-08-29,
Oxyria digyna,Plantae,POLYGONACEAE,Mountain Sorrel,,1,-20.1691818237,74.2844934246,North America,Greenland,GL,,Greenland,2013-08-29,
Stellaria longipes,Plantae,CARYOPHYLLACEAE,Longstalk starwort,,1,-20.1691818237,74.2844934246,North America,Greenland,GL,,Greenland,2013-08-29,
Saxifraga cernua,Plantae,SAXIFRAGACEAE,Drooping Saxifrage,,1,-20.1691818237,74.2844934246,North America,Greenland,GL,,Greenland,2013-08-29,
Polygonum viviparum,Plantae,POLYGONACEAE,,,1,-20.1691818237,74.2844934246,North America,Greenland,GL,,Greenland,2013-08-29,
Festuca vivipara,Plantae,Poaceae,Viviparous Sheep's-fescue,,1,-20.1691818237,74.2844934246,North America,Greenland,GL,,Greenland,2013-08-29,
Fulmarus glacialis glacialis,Animalia,PETRELS_AND_SHEARWATERS_PROCELLARIIDAE,Northern Fulmar ssp glacialis,,1,-20.0411224365,74.1879581154,North America,Greenland,GL,,Greenland,2013-08-29,
Stercorarius pomarinus,Animalia,SKUAS_STERCORARIIDAE,Pomarine Jaeger,,1,-20.0411224365,74.1879581154,North America,Greenland,GL,,Greenland,2013-08-29,
Anser brachyrhynchus,Animalia,DUCKS_GEESE_AND_SWANS_ANATIDAE,Pink-footed Goose,,1,-20.0411224365,74.1879581154,North America,Greenland,GL,,Greenland,2013-08-29,
Oenanthe oenanthe leucorhoa,Animalia,OLD_WORLD_FLYCATCHERS_MUSCICAPIDAE,Greenland Northern Wheatear,,1,-20.172958374,74.283470472,North America,Greenland,GL,,Greenland,2013-08-29,
Corvus corax principalis,Animalia,CROWS_AND_JAYS_CORVIDAE,Northern Raven ssp principalis,,1,-20.172958374,74.283470472,North America,Greenland,GL,,Greenland,2013-08-29,
Odobenus rosmarus,Animalia,WALRUSES_ODOBENIDAE,Walrus,,9,-20.1564788818,74.2648600121,North America,Greenland,GL,,Greenland,2013-08-29,
Somateria mollissima borealis,Animalia,DUCKS_GEESE_AND_SWANS_ANATIDAE,Common Eider ssp borealis,,1,-20.1564788818,74.2648600121,North America,Greenland,GL,,Greenland,2013-08-29,
Ovibos moschatus,Animalia,BOVIDS_BOVIDAE,Muskox,,3,-20.0950241089,74.2831914737,North America,Greenland,GL,,Greenland,2013-08-29,
Alle alle alle,Animalia,AUKS_ALCIDAE,Little Auk ssp alle,,1,-14.23828125,75.7373027894,North America,Greenland,GL,,Greenland,2013-08-28,
Fulmarus glacialis glacialis,Animalia,PETRELS_AND_SHEARWATERS_PROCELLARIIDAE,Northern Fulmar ssp glacialis,,1,-14.23828125,75.7373027894,North America,Greenland,GL,,Greenland,2013-08-28,
Rissa tridactyla,Animalia,GULLS_TERNS_AND_SKIMMERS_LARIDAE,Black-legged Kittiwake,,1,-8.26171875,77.7675823827,North America,Greenland,GL,,Greenland,2013-08-27,
Fulmarus glacialis glacialis,Animalia,PETRELS_AND_SHEARWATERS_PROCELLARIIDAE,Northern Fulmar ssp glacialis,,1,-8.26171875,77.7675823827,North America,Greenland,GL,,Greenland,2013-08-27,
Uria lomvia lomvia,Animalia,AUKS_ALCIDAE,Thick-billed Murre ssp lomvia,,1,-8.26171875,77.7675823827,North America,Greenland,GL,,Greenland,2013-08-27,
Cystophora cristata,Animalia,SEALS_PHOCIDAE,Hooded Seal,,1,-20.21484375,70.815812159313,North America,Greenland,GL,,Greenland,2005-09-05,
Pusa hispida,Animalia,SEALS_PHOCIDAE,Ringed Seal,,1,-28.0632019043,70.5047417488,North America,Greenland,GL,,Greenland,2005-09-17,
Orcinus orca,Animalia,DOLPHINS_DELPHINIDAE,Killer Whale,,1,-11.25,68.3991800434,North America,Greenland,GL,,Greenland,1985-07-12,
Balaenoptera borealis,Animalia,RORQUAL_WHALES_BALAENOPTERIDAE,Sei Whale,,1,-54.2601013184,69.3435260486,North America,Greenland,GL,,Greenland,1982-07-01,
Orcinus orca,Animalia,DOLPHINS_DELPHINIDAE,Killer Whale,,1,-54.2601013184,69.3435260486,North America,Greenland,GL,,Greenland,1982-07-01,
Balaenoptera physalus physalus,Animalia,RORQUAL_WHALES_BALAENOPTERIDAE,Northern Fin Whale,,1,-11.42578125,69.7181066991,North America,Greenland,GL,,Greenland,2004-06-07,
Hyperoodon ampullatus,Animalia,BEAKED_WHALES_ZIPHIIDAE,North Atlantic Bottlenose Whale,,25,-11.42578125,69.7181066991,North America,Greenland,GL,,Greenland,2004-06-07,
Ovibos moschatus,Animalia,BOVIDS_BOVIDAE,Muskox,,5,-20.57899418,74.48759573,North America,Greenland,GL,,Greenland,2019-07-29,
Ranunculus nivalis,Plantae,RANUNCULACEAE,Snowy buttercup,,1,-20.49282017,74.48489483,North America,Greenland,GL,,Greenland,2019-07-21,
Larus glaucoides,Animalia,GULLS_TERNS_AND_SKIMMERS_LARIDAE,Iceland Gull,,6,-43.293025970459,60.0776596069336,North America,Greenland,GL,,Greenland - Kujalleq,2019-08-25,09:51
Corvus corax,Animalia,CROWS_AND_JAYS_CORVIDAE,Northern Raven,,1,-46.0684547424316,60.6943168640137,North America,Greenland,GL,,Greenland - Kujalleq,2019-08-26,06:48
Oenanthe oenanthe,Animalia,OLD_WORLD_FLYCATCHERS_MUSCICAPIDAE,Northern Wheatear,,5,-46.0416412353516,60.7220191955566,North America,Greenland,GL,,Greenland - Kujalleq,2019-08-26,10:34
Plectrophenax nivalis,Animalia,Calcariidae,Snow Bunting,,12,-46.0416412353516,60.7220191955566,North America,Greenland,GL,,Greenland - Kujalleq,2019-08-26,10:50
Haliaeetus albicilla,Animalia,HAWKS_AND_EAGLES_ACCIPITRIDAE,White-tailed Eagle,,2,-46.031494140625,60.7087936401367,North America,Greenland,GL,,Greenland - Kujalleq,2019-08-26,15:23
Pagophilus groenlandicus,Animalia,SEALS_PHOCIDAE,Harp Seal,,26,-49.69548416,61.97932816,North America,Greenland,GL,,Greenland - Paamiut,2019-08-27,11:21
Calcarius lapponicus,Animalia,Calcariidae,Lapland Longspur,,1,-49.6656913757324,61.9950256347656,North America,Greenland,GL,,Greenland - Paamiut,2019-08-27,14:18
Oenanthe oenanthe,Animalia,OLD_WORLD_FLYCATCHERS_MUSCICAPIDAE,Northern Wheatear,,7,-49.660083770752,61.9923362731934,North America,Greenland,GL,,Greenland - Paamiut,2019-08-27,14:41
Charadrius hiaticula,Animalia,PLOVERS_CHARADRIIDAE,Common Ringed Plover,,1,-45.2486190795898,60.1389579772949,North America,Greenland,GL,,Greenland - Kujalleq,2019-08-28,11:21
Larus glaucoides,Animalia,GULLS_TERNS_AND_SKIMMERS_LARIDAE,Iceland Gull,,1,-44.4693145751953,60.1208992004395,North America,Greenland,GL,,Greenland - Kujalleq,2019-08-29,07:46
Calcarius lapponicus,Animalia,Calcariidae,Lapland Longspur,,1,-51.09430518937399,69.22756237915645,North America,Greenland,GL,,Greenland,2019-07-10,20:38
Phalaropus lobatus,Animalia,SANDPIPERS_AND_ALLIES_SCOLOPACIDAE,Red-necked Phalarope,,1,-51.10294493812434,69.21481094724695,North America,Greenland,GL,,Greenland,2019-07-10,13:57
Calidris alpina,Animalia,SANDPIPERS_AND_ALLIES_SCOLOPACIDAE,Dunlin,,1,-20.5223743524402,74.483230705373,North America,Greenland,GL,,Greenland,2019-07-17,12:39
Arenaria interpres,Animalia,SANDPIPERS_AND_ALLIES_SCOLOPACIDAE,Ruddy Turnstone,,3,-20.48661933,74.47982531,North America,Greenland,GL,,Greenland,2019-07-17,17:21
Calidris alpina,Animalia,SANDPIPERS_AND_ALLIES_SCOLOPACIDAE,Dunlin,,2,-20.4916785657406,74.4787347363308,North America,Greenland,GL,,Greenland,2019-07-17,17:31
Calidris alpina,Animalia,SANDPIPERS_AND_ALLIES_SCOLOPACIDAE,Dunlin,,2,-20.5620887316763,74.4694719370455,North America,Greenland,GL,,Greenland,2019-07-18,08:58
Calidris alpina,Animalia,SANDPIPERS_AND_ALLIES_SCOLOPACIDAE,Dunlin,,1,-20.6214056164026,74.4662291044369,North America,Greenland,GL,,Greenland,2019-07-19,10:33
Calidris alpina,Animalia,SANDPIPERS_AND_ALLIES_SCOLOPACIDAE,Dunlin,,1,-20.6202978640795,74.4664347014827,North America,Greenland,GL,,Greenland,2019-07-19,10:33
Calidris alpina,Animalia,SANDPIPERS_AND_ALLIES_SCOLOPACIDAE,Dunlin,,1,-20.55516838,74.4774878,North America,Greenland,GL,,Greenland,2019-07-19,13:04
Arenaria interpres,Animalia,SANDPIPERS_AND_ALLIES_SCOLOPACIDAE,Ruddy Turnstone,,1,-20.5281901359558,74.487475049682,North America,Greenland,GL,,Greenland,2019-07-19,13:47
Arenaria interpres,Animalia,SANDPIPERS_AND_ALLIES_SCOLOPACIDAE,Ruddy Turnstone,,2,-20.5609410814941,74.4972032960504,North America,Greenland,GL,,Greenland,2019-07-19,15:37
Calidris alpina,Animalia,SANDPIPERS_AND_ALLIES_SCOLOPACIDAE,Dunlin,,1,-20.4787351470441,74.49886190705,North America,Greenland,GL,,Greenland,2019-07-19,17:02
Arenaria interpres,Animalia,SANDPIPERS_AND_ALLIES_SCOLOPACIDAE,Ruddy Turnstone,,1,-20.4984438512474,74.4804958580062,North America,Greenland,GL,,Greenland,2019-07-19,23:25
Ovibos moschatus,Animalia,BOVIDS_BOVIDAE,Muskox,,6,-20.5790015682578,74.4704354171575,North America,Greenland,GL,,Greenland,2019-07-20,09:59
Calidris alpina,Animalia,SANDPIPERS_AND_ALLIES_SCOLOPACIDAE,Dunlin,,1,-20.607840931043,74.4735258445144,North America,Greenland,GL,,Greenland,2019-07-21,14:52
Calidris alpina,Animalia,SANDPIPERS_AND_ALLIES_SCOLOPACIDAE,Dunlin,,2,-20.5949748773128,74.4763979455456,North America,Greenland,GL,,Greenland,2019-07-21,15:02
Calidris alpina,Animalia,SANDPIPERS_AND_ALLIES_SCOLOPACIDAE,Dunlin,,3,-20.5506211984903,74.4858421292156,North America,Greenland,GL,,Greenland,2019-07-21,15:59
Arenaria interpres,Animalia,SANDPIPERS_AND_ALLIES_SCOLOPACIDAE,Ruddy Turnstone,,1,-20.5350349657238,74.4966403255239,North America,Greenland,GL,,Greenland,2019-07-21,18:14
Calidris alpina,Animalia,SANDPIPERS_AND_ALLIES_SCOLOPACIDAE,Dunlin,,1,-20.5221795570105,74.4826772063971,North America,Greenland,GL,,Greenland,2019-07-22,10:12
Ovibos moschatus,Animalia,BOVIDS_BOVIDAE,Muskox,,5,-20.5733669176698,74.4771132571623,North America,Greenland,GL,,Greenland,2019-07-23,09:49
Ovibos moschatus,Animalia,BOVIDS_BOVIDAE,Muskox,,8,-20.5879474058747,74.4752672268078,North America,Greenland,GL,,Greenland,2019-07-23,09:56
Calidris alpina,Animalia,SANDPIPERS_AND_ALLIES_SCOLOPACIDAE,Dunlin,,1,-20.5951265897602,74.4743651244789,North America,Greenland,GL,,Greenland,2019-07-23,11:28
Ovibos moschatus,Animalia,BOVIDS_BOVIDAE,Muskox,,4,-20.5675974860787,74.4787664230924,North America,Greenland,GL,,Greenland,2019-07-23,11:48
Calidris alpina,Animalia,SANDPIPERS_AND_ALLIES_SCOLOPACIDAE,Dunlin,,1,-20.5707504227757,74.4852465949953,North America,Greenland,GL,,Greenland,2019-07-23,12:18
Calidris alpina,Animalia,SANDPIPERS_AND_ALLIES_SCOLOPACIDAE,Dunlin,,1,-20.5858748126775,74.4936075434089,North America,Greenland,GL,,Greenland,2019-07-23,13:56
Calidris alpina,Animalia,SANDPIPERS_AND_ALLIES_SCOLOPACIDAE,Dunlin,,1,-20.5827191937715,74.4926645793021,North America,Greenland,GL,,Greenland,2019-07-23,14:16
Calidris alpina,Animalia,SANDPIPERS_AND_ALLIES_SCOLOPACIDAE,Dunlin,,1,-20.5605691764504,74.480912941508,North America,Greenland,GL,,Greenland,2019-07-23,15:41
Calidris alpina,Animalia,SANDPIPERS_AND_ALLIES_SCOLOPACIDAE,Dunlin,,1,-20.5807036813349,74.4731963099912,North America,Greenland,GL,,Greenland,2019-07-24,10:18
Calidris alpina,Animalia,SANDPIPERS_AND_ALLIES_SCOLOPACIDAE,Dunlin,,1,-20.6049121264368,74.4735239166766,North America,Greenland,GL,,Greenland,2019-07-24,11:52
Ovibos moschatus,Animalia,BOVIDS_BOVIDAE,Muskox,,6,-20.6057214830071,74.4735067337751,North America,Greenland,GL,,Greenland,2019-07-24,11:52
Arenaria interpres,Animalia,SANDPIPERS_AND_ALLIES_SCOLOPACIDAE,Ruddy Turnstone,,2,-20.5853150691837,74.4931876519695,North America,Greenland,GL,,Greenland,2019-07-24,14:56
Calidris alpina,Animalia,SANDPIPERS_AND_ALLIES_SCOLOPACIDAE,Dunlin,,2,-20.4712678771466,74.4837570050731,North America,Greenland,GL,,Greenland,2019-07-24,17:29
Arenaria interpres,Animalia,SANDPIPERS_AND_ALLIES_SCOLOPACIDAE,Ruddy Turnstone,,2,-20.4708629474044,74.4835652271286,North America,Greenland,GL,,Greenland,2019-07-25,12:09
Calidris alpina,Animalia,SANDPIPERS_AND_ALLIES_SCOLOPACIDAE,Dunlin,,1,-20.471131503582,74.4858964020386,North America,Greenland,GL,,Greenland,2019-07-25,12:27
Calidris alpina,Animalia,SANDPIPERS_AND_ALLIES_SCOLOPACIDAE,Dunlin,,1,-20.4711445793509,74.4876135187224,North America,Greenland,GL,,Greenland,2019-07-25,13:24
Calidris alpina,Animalia,SANDPIPERS_AND_ALLIES_SCOLOPACIDAE,Dunlin,,1,-20.4711445793509,74.4876135187224,North America,Greenland,GL,,Greenland,2019-07-25,13:28
Calidris alpina,Animalia,SANDPIPERS_AND_ALLIES_SCOLOPACIDAE,Dunlin,,1,-20.5418684799224,74.4973902963102,North America,Greenland,GL,,Greenland,2019-07-25,21:30
Vulpes lagopus,Animalia,DOGS_CANIDAE,Arctic Fox,,1,-20.6210241559893,74.4663488818333,North America,Greenland,GL,,Greenland,2019-07-27,13:55
Arenaria interpres,Animalia,SANDPIPERS_AND_ALLIES_SCOLOPACIDAE,Ruddy Turnstone,,1,-20.5376212857664,74.4896472617984,North America,Greenland,GL,,Greenland,2019-07-27,16:06
Calidris alpina,Animalia,SANDPIPERS_AND_ALLIES_SCOLOPACIDAE,Dunlin,,1,-20.5382920894772,74.489286756143,North America,Greenland,GL,,Greenland,2019-07-27,16:16
Arenaria interpres,Animalia,SANDPIPERS_AND_ALLIES_SCOLOPACIDAE,Ruddy Turnstone,,1,-20.5752536840737,74.4695386989042,North America,Greenland,GL,,Greenland,2019-07-28,22:40
Vulpes lagopus,Animalia,DOGS_CANIDAE,Arctic Fox,,1,-20.5752536840737,74.4695386989042,North America,Greenland,GL,,Greenland,2019-07-28,22:40
Arenaria interpres,Animalia,SANDPIPERS_AND_ALLIES_SCOLOPACIDAE,Ruddy Turnstone,,5,-20.5733599606901,74.4695811951533,North America,Greenland,GL,,Greenland,2019-07-29,10:22
Calidris alpina,Animalia,SANDPIPERS_AND_ALLIES_SCOLOPACIDAE,Dunlin,,1,-20.5659946985543,74.4849187368527,North America,Greenland,GL,,Greenland,2019-07-29,15:29
Calidris alpina,Animalia,SANDPIPERS_AND_ALLIES_SCOLOPACIDAE,Dunlin,,1,-20.5576889868826,74.4795839488506,North America,Greenland,GL,,Greenland,2019-07-29,15:39
Arenaria interpres,Animalia,SANDPIPERS_AND_ALLIES_SCOLOPACIDAE,Ruddy Turnstone,,2,-20.5775414407253,74.4636606378481,North America,Greenland,GL,,Greenland,2019-07-30,09:13
Calidris alpina,Animalia,SANDPIPERS_AND_ALLIES_SCOLOPACIDAE,Dunlin,,1,-20.5740108154714,74.4617065647617,North America,Greenland,GL,,Greenland,2019-07-30,09:14
Calidris alpina,Animalia,SANDPIPERS_AND_ALLIES_SCOLOPACIDAE,Dunlin,,1,-20.5702247936279,74.4599590217695,North America,Greenland,GL,,Greenland,2019-07-30,09:22
Calidris alpina,Animalia,SANDPIPERS_AND_ALLIES_SCOLOPACIDAE,Dunlin,,7,-20.5823746137321,74.4609649758786,North America,Greenland,GL,,Greenland,2019-07-30,16:10
Balaena mysticetus,Animalia,RIGHT_WHALES_BALAENIDAE,Bowhead Whale,,1,-20.08442228,75.29152676,North America,Greenland,GL,,Greenland,2017-08-01,
Ovibos moschatus,Animalia,BOVIDS_BOVIDAE,Muskox,,2,-20.59010582,74.47183564,North America,Greenland,GL,,Greenland,2017-07-12,
Ursus maritimus,Animalia,BEARS_URSIDAE,Polar Bear,,1,-23.90488701,72.23263551,North America,Greenland,GL,,Greenland,2017-07-09,
Ovibos moschatus,Animalia,BOVIDS_BOVIDAE,Muskox,,4,-27.8415798582396,70.7990635699321,North America,Greenland,GL,,Greenland,2018-09-21,14:25
Calcarius lapponicus,Animalia,Calcariidae,Lapland Longspur,,1,-50.703525,67.0191533333333,North America,Greenland,GL,,Greenland,2018-08-06,09:34
Plectrophenax nivalis,Animalia,Calcariidae,Snow Bunting,,5,-51.14281,69.2056716666667,North America,Greenland,GL,,Greenland,2018-08-06,14:44
Calcarius lapponicus,Animalia,Calcariidae,Lapland Longspur,,1,-51.14021,69.2053766666667,North America,Greenland,GL,,Greenland,2018-08-06,14:48
Megaptera novaeangliae,Animalia,RORQUAL_WHALES_BALAENOPTERIDAE,Humpback Whale,,3,-51.12918,69.20527,North America,Greenland,GL,,Greenland,2018-08-06,15:02
Calcarius lapponicus,Animalia,Calcariidae,Lapland Longspur,,1,-51.103945,69.2141833333333,North America,Greenland,GL,,Greenland,2018-08-06,15:44
Megaptera novaeangliae,Animalia,RORQUAL_WHALES_BALAENOPTERIDAE,Humpback Whale,,4,-51.1443116666667,69.1999316666667,North America,Greenland,GL,,Greenland,2018-08-07,09:15
Megaptera novaeangliae,Animalia,RORQUAL_WHALES_BALAENOPTERIDAE,Humpback Whale,,1,-51.2367416666667,69.19962,North America,Greenland,GL,,Greenland,2018-08-07,09:56
Megaptera novaeangliae,Animalia,RORQUAL_WHALES_BALAENOPTERIDAE,Humpback Whale,,2,-51.227625,69.187435,North America,Greenland,GL,,Greenland,2018-08-07,10:11
Cepphus grylle,Animalia,AUKS_ALCIDAE,Black Guillemot,,1,-51.1159916666667,69.0807383333333,North America,Greenland,GL,,Greenland - Qasigiannguit,2018-08-07,11:59
Stercorarius parasiticus,Animalia,SKUAS_STERCORARIIDAE,Parasitic Jaeger,,10,-51.1159633333333,69.0807783333333,North America,Greenland,GL,,Greenland - Qasigiannguit,2018-08-07,12:01
Balaenoptera physalus,Animalia,RORQUAL_WHALES_BALAENOPTERIDAE,Fin Whale,,3,-51.15536667,69.051465,North America,Greenland,GL,,Greenland - Qasigiannguit,2018-08-07,13:55
Falco rusticolus ,Animalia,CARACAS_AND_FALCONS_FALCONIDAE,Gyrfalcon white morph,,1,-51.11976363,69.08835479,North America,Greenland,GL,,Greenland - Qasigiannguit,2018-08-07,14:33
Megaptera novaeangliae,Animalia,RORQUAL_WHALES_BALAENOPTERIDAE,Humpback Whale,,4,-51.162065,69.20481,North America,Greenland,GL,,Greenland,2018-08-07,16:38
Gavia immer,Animalia,DIVERS_GAVIIDAE,Common Loon,,1,-51.0122266666667,69.34771,North America,Greenland,GL,,Greenland,2018-08-08,09:55
Calcarius lapponicus,Animalia,Calcariidae,Lapland Longspur,,5,-51.0064983333333,69.342125,North America,Greenland,GL,,Greenland,2018-08-08,11:12
Plectrophenax nivalis,Animalia,Calcariidae,Snow Bunting,,10,-51.0065116666667,69.34207,North America,Greenland,GL,,Greenland,2018-08-08,11:12
Gavia immer,Animalia,DIVERS_GAVIIDAE,Common Loon,,1,-51.0015866666667,69.3385933333333,North America,Greenland,GL,,Greenland,2018-08-08,14:34
Larus hyperboreus,Animalia,GULLS_TERNS_AND_SKIMMERS_LARIDAE,Glaucous Gull,,50,-51.002065,69.3408766666667,North America,Greenland,GL,,Greenland,2018-08-08,15:22
Calcarius lapponicus,Animalia,Calcariidae,Lapland Longspur,,2,-50.9967416666667,69.32531,North America,Greenland,GL,,Greenland,2018-08-09,10:29
Plectrophenax nivalis,Animalia,Calcariidae,Snow Bunting,,10,-50.9748,69.3134783333333,North America,Greenland,GL,,Greenland,2018-08-09,11:08
Calcarius lapponicus,Animalia,Calcariidae,Lapland Longspur,,15,-50.9747983333333,69.3134783333333,North America,Greenland,GL,,Greenland,2018-08-09,11:08
Gavia immer,Animalia,DIVERS_GAVIIDAE,Common Loon,,1,-50.9079433333333,69.2890216666667,North America,Greenland,GL,,Greenland,2018-08-09,12:48
Larus hyperboreus,Animalia,GULLS_TERNS_AND_SKIMMERS_LARIDAE,Glaucous Gull,,20,-50.9315733333333,69.2686033333334,North America,Greenland,GL,,Greenland,2018-08-09,14:11
Calcarius lapponicus,Animalia,Calcariidae,Lapland Longspur,,4,-51.0206866666667,69.2579616666667,North America,Greenland,GL,,Greenland,2018-08-09,16:15
Megaptera novaeangliae,Animalia,RORQUAL_WHALES_BALAENOPTERIDAE,Humpback Whale,,3,-51.11752,69.2038266666667,North America,Greenland,GL,,Greenland,2018-08-10,10:01
Calcarius lapponicus,Animalia,Calcariidae,Lapland Longspur,,2,-51.1261816666667,69.20171,North America,Greenland,GL,,Greenland,2018-08-10,10:24
Phalaropus lobatus,Animalia,SANDPIPERS_AND_ALLIES_SCOLOPACIDAE,Red-necked Phalarope,,2,-51.10919941,69.20776624,North America,Greenland,GL,,Greenland,2018-08-10,12:06
Calcarius lapponicus,Animalia,Calcariidae,Lapland Longspur,,15,-51.1050433333333,69.21456,North America,Greenland,GL,,Greenland,2018-08-10,12:34
Plectrophenax nivalis,Animalia,Calcariidae,Snow Bunting,,4,-51.1081766666667,69.2200983333333,North America,Greenland,GL,,Greenland,2018-08-10,12:58
Megaptera novaeangliae,Animalia,RORQUAL_WHALES_BALAENOPTERIDAE,Humpback Whale,,5,-51.14893,69.2024016666667,North America,Greenland,GL,,Greenland,2018-08-10,20:51
Megaptera novaeangliae,Animalia,RORQUAL_WHALES_BALAENOPTERIDAE,Humpback Whale,,2,-51.2232383333333,69.2042166666667,North America,Greenland,GL,,Greenland,2018-08-10,21:11
Larus glaucoides,Animalia,GULLS_TERNS_AND_SKIMMERS_LARIDAE,Iceland Gull,,2,-37.1505059302199,65.5799832568183,North America,Greenland,GL,,Greenland,2018-08-14,10:23
Larus hyperboreus,Animalia,GULLS_TERNS_AND_SKIMMERS_LARIDAE,Glaucous Gull,,1,-37.1506190859127,65.5799804488808,North America,Greenland,GL,,Greenland,2018-08-14,10:23
Arenaria interpres,Animalia,SANDPIPERS_AND_ALLIES_SCOLOPACIDAE,Ruddy Turnstone,,1,-37.14405773211,65.5810055556387,North America,Greenland,GL,,Greenland,2018-08-14,09:59
Charadrius hiaticula,Animalia,PLOVERS_CHARADRIIDAE,Common Ringed Plover,,10,-37.14405773211,65.5810055556387,North America,Greenland,GL,,Greenland,2018-08-14,09:59
Larus hyperboreus,Animalia,GULLS_TERNS_AND_SKIMMERS_LARIDAE,Glaucous Gull,,1,-37.1497667301792,65.5792433862254,North America,Greenland,GL,,Greenland,2018-08-13,13:03
Epilobium latifolium,Plantae,ONAGRACEAE,,,2,-45.40715097,61.16485744,North America,Greenland,GL,,Greenland - Kujalleq,2018-06-29,17:45
Platanthera hyperborea,Plantae,ORCHIDACEAE,,,1,-45.37,61.18,North America,Greenland,GL,,Greenland - Kujalleq,2018-07-01,14:55
Ovibos moschatus,Animalia,BOVIDS_BOVIDAE,Muskox,,7,-27.91406386,70.69739971,North America,Greenland,GL,,Greenland,2017-09-07,07:56
Larus hyperboreus,Animalia,GULLS_TERNS_AND_SKIMMERS_LARIDAE,Glaucous Gull,,1,-36.99673651,65.56901708,North America,Greenland,GL,,Greenland,2017-08-06,15:54
Larus hyperboreus,Animalia,GULLS_TERNS_AND_SKIMMERS_LARIDAE,Glaucous Gull,,1,-37.15438598,65.54641459,North America,Greenland,GL,,Greenland,2017-07-31,19:00
Larus hyperboreus,Animalia,GULLS_TERNS_AND_SKIMMERS_LARIDAE,Glaucous Gull,,3,-37.2185236,65.53594876,North America,Greenland,GL,,Greenland,2017-08-04,15:44
Larus hyperboreus,Animalia,GULLS_TERNS_AND_SKIMMERS_LARIDAE,Glaucous Gull,,1,-37.14290724,65.58154613,North America,Greenland,GL,,Greenland,2017-08-05,10:37
Larus hyperboreus,Animalia,GULLS_TERNS_AND_SKIMMERS_LARIDAE,Glaucous Gull,,1,-37.17719874,65.57431473,North America,Greenland,GL,,Greenland,2017-07-27,11:15
Larus hyperboreus,Animalia,GULLS_TERNS_AND_SKIMMERS_LARIDAE,Glaucous Gull,,2,-37.19146906,65.57453922,North America,Greenland,GL,,Greenland,2017-07-29,19:39
Gavia immer,Animalia,DIVERS_GAVIIDAE,Common Loon,,5,-25.616,71.0704,North America,Greenland,GL,,Greenland,2016-09-18,11:26
Ovibos moschatus,Animalia,BOVIDS_BOVIDAE,Muskox,,12,-27.9077,70.7274,North America,Greenland,GL,,Greenland,2016-09-17,13:46
Ovibos moschatus,Animalia,BOVIDS_BOVIDAE,Muskox,,12,-27.969360358547,70.764278134681,North America,Greenland,GL,,Greenland,2016-09-17,14:03
Gavia immer,Animalia,DIVERS_GAVIIDAE,Common Loon,,5,-25.65325333,71.09080333,North America,Greenland,GL,,Greenland,2016-09-18,12:00
Ovibos moschatus,Animalia,BOVIDS_BOVIDAE,Muskox,,1,-48.08,61.25,North America,Greenland,GL,,Greenland,2007-07-08,
Ovibos moschatus,Animalia,BOVIDS_BOVIDAE,Muskox,,30,-48.01,61.24,North America,Greenland,GL,,Greenland,2007-07-08,
Ovibos moschatus,Animalia,BOVIDS_BOVIDAE,Muskox,,20,-47.98,61.24,North America,Greenland,GL,,Greenland,2007-07-07,
Ovibos moschatus,Animalia,BOVIDS_BOVIDAE,Muskox,,25,-48.02,61.1,North America,Greenland,GL,,Greenland,2007-07-03,
Ovibos moschatus,Animalia,BOVIDS_BOVIDAE,Muskox,,10,-47.99,61.09,North America,Greenland,GL,,Greenland,2007-07-03,
Ovibos moschatus,Animalia,BOVIDS_BOVIDAE,Muskox,,3,-47.91,61.11,North America,Greenland,GL,,Greenland,2007-07-01,
Megaptera novaeangliae,Animalia,RORQUAL_WHALES_BALAENOPTERIDAE,Humpback Whale,,20,-52.857735157,65.4011538242,North America,Greenland,GL,,Greenland,2009-07-04,
Megaptera novaeangliae,Animalia,RORQUAL_WHALES_BALAENOPTERIDAE,Humpback Whale,,30,-52.86,65.4,North America,Greenland,GL,,Greenland,2009-06-23,
Megaptera novaeangliae,Animalia,RORQUAL_WHALES_BALAENOPTERIDAE,Humpback Whale,,1,-53.61,66.91,North America,Greenland,GL,,Greenland,2009-06-20,
Oxyria digyna,Plantae,POLYGONACEAE,Mountain Sorrel,,1,-21.9754042239945,70.4837911032155,North America,Greenland,GL,,Greenland,2015-08-26,22:01
