scientificName,kingdom,family,vernacularName,previousIdentifications,individualCount,longitudeDecimal,latitudeDecimal,continent,country,countryCode,stateProvince,locality,eventDate,eventTime
Orthorhyncus cristatus,Animalia,HUMMINGBIRDS_TROCHILIDAE,Antillean Crested Hummingbird,,1,-61.5715768654,15.8736305762,North America,Guadeloupe,GP,,Guadeloupe,2005-03-25,
Actitis macularius,Animalia,SANDPIPERS_AND_ALLIES_SCOLOPACIDAE,Spotted Sandpiper,,1,-61.5715741832,15.8723096482,North America,Guadeloupe,GP,,Guadeloupe,2005-03-25,
Zenaida aurita,Animalia,PIGEONS_AND_DOVES_COLUMBIDAE,Zenaida Dove,,1,-61.572046252,15.872552163,North America,Guadeloupe,GP,,Guadeloupe,2005-03-25,
Zenaida aurita,Animalia,PIGEONS_AND_DOVES_COLUMBIDAE,Zenaida Dove,,1,-61.582658831,15.8678617318,North America,Guadeloupe,GP,,Guadeloupe,2005-03-24,
Anartia jatrophae,Animalia,BRUSHFOOTED_BUTTERFLIES_NYMPHALIDAE,White Peacock,,1,-61.6584454849,16.2069786333,North America,Guadeloupe,GP,,Guadeloupe,2005-03-24,
Eulampis jugularis,Animalia,HUMMINGBIRDS_TROCHILIDAE,Purple-throated Carib,,8,-61.6903,16.178,North America,Guadeloupe,GP,,Guadeloupe,2014-10-20,11:23
Eulampis jugularis,Animalia,HUMMINGBIRDS_TROCHILIDAE,Purple-throated Carib,,1,-61.7515,16.1806,North America,Guadeloupe,GP,,Guadeloupe,2014-10-20,11:03
Euphonia musica,Animalia,FINCHES_FRINGILLIDAE,Antillean Euphonia,,1,-61.7771,16.2901,North America,Guadeloupe,GP,,Guadeloupe,2014-10-20,10:15
Coereba flaveola,Animalia,TANAGERS_AND_ALLIES_THRAUPIDAE,Bananaquit,,2,-61.5053,16.2069,North America,Guadeloupe,GP,,Guadeloupe,2014-10-16,13:48
Zenaida aurita,Animalia,PIGEONS_AND_DOVES_COLUMBIDAE,Zenaida Dove,,3,-61.5045,16.2081,North America,Guadeloupe,GP,,Guadeloupe,2014-10-16,07:01
Loxigilla noctis,Animalia,TANAGERS_AND_ALLIES_THRAUPIDAE,Lesser Antillean Bullfinch,,3,-61.503,16.2093,North America,Guadeloupe,GP,,Guadeloupe,2014-10-14,06:36
Zenaida aurita,Animalia,PIGEONS_AND_DOVES_COLUMBIDAE,Zenaida Dove,,1,-61.5048,16.2058,North America,Guadeloupe,GP,,Guadeloupe,2014-10-13,14:23
Loxigilla noctis,Animalia,TANAGERS_AND_ALLIES_THRAUPIDAE,Lesser Antillean Bullfinch,,1,-61.5053,16.2062,North America,Guadeloupe,GP,,Guadeloupe,2014-10-13,14:12
Coereba flaveola,Animalia,TANAGERS_AND_ALLIES_THRAUPIDAE,Bananaquit,,1,-61.5059,16.2072,North America,Guadeloupe,GP,,Guadeloupe,2014-10-13,09:31
Haematopus palliatus palliatus,Animalia,OYSTERCATCHERS_HAEMATOPODIDAE,American Oystercatcher ssp palliatus,,2,-61.1082744598,16.1718339426,North America,Guadeloupe,GP,,Guadeloupe,2014-03-01,
Circus hudsonius,Animalia,HAWKS_AND_EAGLES_ACCIPITRIDAE,Northern Harrier,,1,-61.5256476402,16.4057260871,North America,Guadeloupe,GP,,Guadeloupe,2014-01-12,
Pseudosphinx tetrio,Animalia,Sphingidae,,,1,-61.6243046522,16.2179186822,North America,Guadeloupe,GP,,Guadeloupe,2010-05-03,
Gallinula galeata cerceris,Animalia,RAILS_RALLIDAE,Common Gallinule ssp cerceris,,4,-61.6291594505,16.0274386698,North America,Guadeloupe,GP,,Guadeloupe,2014-01-01,
Iguana iguana,Animalia,Iguanidae,Common Green Iguana,,3,-61.6354465485,15.8499599254,North America,Guadeloupe,GP,,Guadeloupe,2010-03-21,09:20
Pelecanus occidentalis,Animalia,PELICANS_PELECANIDAE,Brown Pelican,,1,-61.5851926804,15.8644995247,North America,Guadeloupe,GP,,Guadeloupe,2010-03-21,06:34
Coereba flaveola,Animalia,TANAGERS_AND_ALLIES_THRAUPIDAE,Bananaquit,,9,-61.7909570038,16.3065887446,North America,Guadeloupe,GP,,Guadeloupe,2010-03-08,13:02
Coereba flaveola,Animalia,TANAGERS_AND_ALLIES_THRAUPIDAE,Bananaquit,,3,-61.7940542847,16.3079479765,North America,Guadeloupe,GP,,Guadeloupe,2010-03-06,11:48
Thalasseus acuflavidus,Animalia,GULLS_TERNS_AND_SKIMMERS_LARIDAE,Cabot's Tern,,3,-61.584227085114,16.169814288746,North America,Guadeloupe,GP,,Guadeloupe,2013-08-19,
Herpestes auropunctatus,Animalia,MONGOOSES_HERPESTIDAE,Small Indian Mongoose,,2,-61.629366651177,16.027686152897,North America,Guadeloupe,GP,,Guadeloupe,2013-04-15,
Coereba flaveola,Animalia,TANAGERS_AND_ALLIES_THRAUPIDAE,Bananaquit,,5,-61.464841961861,16.23939799589,North America,Guadeloupe,GP,,Guadeloupe,2013-04-02,
Eulampis jugularis,Animalia,HUMMINGBIRDS_TROCHILIDAE,Purple-throated Carib,,5,-61.688460409641,16.170824118253,North America,Guadeloupe,GP,,Guadeloupe,2013-04-02,
Eulampis jugularis,Animalia,HUMMINGBIRDS_TROCHILIDAE,Purple-throated Carib,,4,-61.693438589573,16.174616085017,North America,Guadeloupe,GP,,Guadeloupe,2013-04-02,
Eulampis jugularis,Animalia,HUMMINGBIRDS_TROCHILIDAE,Purple-throated Carib,,2,-61.768167614937,16.146092115962,North America,Guadeloupe,GP,,Guadeloupe,2013-04-02,
Euphonia musica,Animalia,FINCHES_FRINGILLIDAE,Antillean Euphonia,,1,-61.784133464098,16.226830651673,North America,Guadeloupe,GP,,Guadeloupe,2013-04-01,
Eulampis jugularis,Animalia,HUMMINGBIRDS_TROCHILIDAE,Purple-throated Carib,,2,-61.768626272678,16.145844780322,North America,Guadeloupe,GP,,Guadeloupe,2013-04-01,
Eulampis jugularis,Animalia,HUMMINGBIRDS_TROCHILIDAE,Purple-throated Carib,,3,-61.768282949924,16.145597444373,North America,Guadeloupe,GP,,Guadeloupe,2013-03-31,
Herpestes auropunctatus,Animalia,MONGOOSES_HERPESTIDAE,Small Indian Mongoose,,1,-61.688375249505,16.170865335674,North America,Guadeloupe,GP,,Guadeloupe,2013-03-31,
Eulampis jugularis,Animalia,HUMMINGBIRDS_TROCHILIDAE,Purple-throated Carib,,5,-61.688375249505,16.170865335674,North America,Guadeloupe,GP,,Guadeloupe,2013-03-31,
Herpestes auropunctatus,Animalia,MONGOOSES_HERPESTIDAE,Small Indian Mongoose,,2,-61.62657648325,16.028490470813,North America,Guadeloupe,GP,,Guadeloupe,2013-03-30,
Eulampis jugularis,Animalia,HUMMINGBIRDS_TROCHILIDAE,Purple-throated Carib,,2,-61.773833781481,16.147534901033,North America,Guadeloupe,GP,,Guadeloupe,2013-03-30,
Eulampis jugularis,Animalia,HUMMINGBIRDS_TROCHILIDAE,Purple-throated Carib,,1,-61.768226623535,16.133560054708,North America,Guadeloupe,GP,,Guadeloupe,2013-03-24,
Actitis macularius,Animalia,SANDPIPERS_AND_ALLIES_SCOLOPACIDAE,Spotted Sandpiper,,1,-61.585181951523,16.169597896037,North America,Guadeloupe,GP,,Guadeloupe,2013-03-10,
Numenius hudsonicus hudsonicus,Animalia,SANDPIPERS_AND_ALLIES_SCOLOPACIDAE,Hudsonian Whimbrel ssp hudsonicus,,1,-61.525626182556,16.407105212878,North America,Guadeloupe,GP,,Guadeloupe,2013-03-03,
Rallus crepitans caribaeus,Animalia,RAILS_RALLIDAE,Clapper Rail ssp caribaeus,,1,-61.527460813522,16.405458494448,North America,Guadeloupe,GP,,Guadeloupe,2013-02-25,
Dendroica tigrina,Animalia,NEW_WORLD_WARBLERS_PARULIDAE,,,2,-61.527460813522,16.405458494448,North America,Guadeloupe,GP,,Guadeloupe,2013-02-25,
Haematopus palliatus palliatus,Animalia,OYSTERCATCHERS_HAEMATOPODIDAE,American Oystercatcher ssp palliatus,,7,-61.122608184814,16.171153857382,North America,Guadeloupe,GP,,Guadeloupe,2013-01-13,
Coereba flaveola bartholemica,Animalia,TANAGERS_AND_ALLIES_THRAUPIDAE,Bananaquit ssp bartholemica,,100,-61.112480163574,16.174121484784,North America,Guadeloupe,GP,,Guadeloupe,2013-01-13,
Eulampis holosericeus holosericeus,Animalia,HUMMINGBIRDS_TROCHILIDAE,Green-throated Carib ssp holosericeus,,1,-61.112480163574,16.174121484784,North America,Guadeloupe,GP,,Guadeloupe,2013-01-13,
Arenaria interpres morinella,Animalia,SANDPIPERS_AND_ALLIES_SCOLOPACIDAE,Ruddy Turnstone ssp morinella,,56,-61.112480163574,16.174121484784,North America,Guadeloupe,GP,,Guadeloupe,2013-01-13,
Limnodromus griseus,Animalia,SANDPIPERS_AND_ALLIES_SCOLOPACIDAE,Short-billed Dowitcher,,1,-61.112480163574,16.174121484784,North America,Guadeloupe,GP,,Guadeloupe,2013-01-13,
Gallinula galeata cerceris,Animalia,RAILS_RALLIDAE,Common Gallinule ssp cerceris,,10,-61.56343460083,16.128612970108,North America,Guadeloupe,GP,,Guadeloupe,2013-01-20,
Actitis macularius,Animalia,SANDPIPERS_AND_ALLIES_SCOLOPACIDAE,Spotted Sandpiper,,4,-61.56343460083,16.128612970108,North America,Guadeloupe,GP,,Guadeloupe,2013-01-20,
Pelecanus occidentalis occidentalis,Animalia,PELICANS_PELECANIDAE,Brown Pelican ssp occidentalis,,10,-61.56343460083,16.128612970108,North America,Guadeloupe,GP,,Guadeloupe,2013-01-20,
Gallinula galeata cerceris,Animalia,RAILS_RALLIDAE,Common Gallinule ssp cerceris,,4,-61.628665924072,16.02821205344,North America,Guadeloupe,GP,,Guadeloupe,2012-12-31,
Euphonia musica,Animalia,FINCHES_FRINGILLIDAE,Antillean Euphonia,,2,-61.789501905441,16.288536838553,North America,Guadeloupe,GP,,Guadeloupe,2012-12-17,
Dendroica magnolia,Animalia,NEW_WORLD_WARBLERS_PARULIDAE,,,1,-61.789501905441,16.288536838553,North America,Guadeloupe,GP,,Guadeloupe,2012-12-17,
Gallinula galeata cerceris,Animalia,RAILS_RALLIDAE,Common Gallinule ssp cerceris,,1,-61.628086566925,16.028057376954,North America,Guadeloupe,GP,,Guadeloupe,2012-12-09,
Coccoloba uvifera,Plantae,POLYGONACEAE,Seagrape,,10,-61.506424248219,16.206450792025,North America,Guadeloupe,GP,,Guadeloupe,2006-06-07,
Quiscalus lugubris,Animalia,ICTERIDS_ICTERIDAE,Carib Grackle,,1,-61.506206989288,16.20600005729,North America,Guadeloupe,GP,,Guadeloupe,2006-06-07,
Gallinula galeata cerceris,Animalia,RAILS_RALLIDAE,Common Gallinule ssp cerceris,,2,-61.5026268484,16.2640606239,North America,Guadeloupe,GP,,Guadeloupe,2012-10-14,
Bubulcus ibis,Animalia,HERONS_ARDEIDAE,Western Cattle Egret,,4,-61.4924049378,16.379290777,North America,Guadeloupe,GP,,Guadeloupe,2012-10-07,
Loxigilla noctis,Animalia,TANAGERS_AND_ALLIES_THRAUPIDAE,Lesser Antillean Bullfinch,,1,-61.48225482029208,16.203582730943722,North America,Guadeloupe,GP,,Guadeloupe - Le Gosier,2019-05-10,07:00
Pelecanus occidentalis,Animalia,PELICANS_PELECANIDAE,Brown Pelican,,2,-62.84957008442175,17.895241230742908,North America,Guadeloupe,GP,,Guadeloupe - Saint Barthélemy ,2019-03-18,12:01
Sula leucogaster,Animalia,GANNETS_AND_BOOBIES_SULIDAE,Brown Booby,,2,-62.84950806059688,17.895227255888415,North America,Guadeloupe,GP,,Guadeloupe - Saint Barthélemy ,2019-03-18,12:01
Sula leucogaster,Animalia,GANNETS_AND_BOOBIES_SULIDAE,Brown Booby,,1,-62.810253861395765,17.910088326982343,North America,Guadeloupe,GP,,Guadeloupe - Saint Barthélemy ,2019-03-17,12:59
Falco sparverius,Animalia,CARACAS_AND_FALCONS_FALCONIDAE,American Kestrel,,1,-62.81035635626205,17.91019827594786,North America,Guadeloupe,GP,,Guadeloupe - Saint Barthélemy ,2019-03-15,13:11
Tringa solitaria,Animalia,SANDPIPERS_AND_ALLIES_SCOLOPACIDAE,Solitary Sandpiper,,1,-61.26893623,16.25804422,North America,Guadeloupe,GP,,Guadeloupe - Saint-FranĂ§ois,2017-12-06,12:27
Nyctanassa violacea,Animalia,HERONS_ARDEIDAE,Yellow-crowned Night Heron,,1,-61.76789222,16.07473971,North America,Guadeloupe,GP,,Guadeloupe - Vieux-Habitants,2017-12-14,10:29
Megaceryle torquata,Animalia,KINGFISHERS_ALCEDINIDAE,Ringed Kingfisher,,1,-61.66133046,16.21977152,North America,Guadeloupe,GP,,Guadeloupe - Lamentin,2017-12-11,16:51
Iguana delicatissima,Animalia,Iguanidae,West Indian Iguana,,1,-61.11071452,16.17371613,North America,Guadeloupe,GP,,Guadeloupe - La Désirade,2017-12-08,13:40
Charadrius wilsonia,Animalia,PLOVERS_CHARADRIIDAE,Wilson's Plover,,1,-61.18781046,16.25417628,North America,Guadeloupe,GP,,Guadeloupe - Saint-FranĂ§ois,2017-12-06,10:01
Charadrius semipalmatus,Animalia,PLOVERS_CHARADRIIDAE,Semipalmated Plover,,1,-61.18781046,16.25417628,North America,Guadeloupe,GP,,Guadeloupe - Saint-FranĂ§ois,2017-12-06,10:01
Tringa solitaria,Animalia,SANDPIPERS_AND_ALLIES_SCOLOPACIDAE,Solitary Sandpiper,,1,-61.26893623,16.25804422,North America,Guadeloupe,GP,,Guadeloupe - Saint-FranĂ§ois,2017-12-06,12:27
Actitis macularius,Animalia,SANDPIPERS_AND_ALLIES_SCOLOPACIDAE,Spotted Sandpiper,,1,-61.53673364,16.43116118,North America,Guadeloupe,GP,,Guadeloupe - Port-Louis,2017-12-05,09:45
Egretta thula,Animalia,HERONS_ARDEIDAE,Snowy Egret,,1,-61.34226334,16.32964025,North America,Guadeloupe,GP,,Guadeloupe - Le Moule,2017-12-03,15:47
Agraulis vanillae,Animalia,BRUSHFOOTED_BUTTERFLIES_NYMPHALIDAE,Gulf Fritillary,,1,-61.17616385,16.24514618,North America,Guadeloupe,GP,,Guadeloupe - Saint-FranĂ§ois,2017-12-03,10:08
Tiaris bicolor,Animalia,TANAGERS_AND_ALLIES_THRAUPIDAE,Black-faced Grassquit,,1,-61.17450621,16.24480712,North America,Guadeloupe,GP,,Guadeloupe - Saint-FranĂ§ois,2017-12-03,09:38
Bubulcus ibis,Animalia,HERONS_ARDEIDAE,Western Cattle Egret,,1,-61.36994089,16.2368757,North America,Guadeloupe,GP,,Guadeloupe - Sainte-Anne,2017-12-03,07:35
Bubulcus ibis,Animalia,HERONS_ARDEIDAE,Western Cattle Egret,,1,-61.36994089,16.2368757,North America,Guadeloupe,GP,,Guadeloupe - Sainte-Anne,2017-12-03,07:35
Pelecanus occidentalis,Animalia,PELICANS_PELECANIDAE,Brown Pelican,,3,-61.38336905,16.22395601,North America,Guadeloupe,GP,,Guadeloupe - Sainte-Anne,2017-12-03,07:31
Loxigilla noctis,Animalia,TANAGERS_AND_ALLIES_THRAUPIDAE,Lesser Antillean Bullfinch,,1,-61.44325086,16.21596861,North America,Guadeloupe,GP,,Guadeloupe - Le Gosier,2017-12-03,06:30
Coereba flaveola,Animalia,TANAGERS_AND_ALLIES_THRAUPIDAE,Bananaquit,,1,-61.4433379,16.2159994,North America,Guadeloupe,GP,,Guadeloupe - Le Gosier,2017-12-03,06:21
Pelecanus occidentalis,Animalia,PELICANS_PELECANIDAE,Brown Pelican,,4,-61.531045695036,16.214580367433,North America,Guadeloupe,GP,,Guadeloupe - Caribbean Sea,2018-01-07,07:13
Fregata magnificens,Animalia,FRIGATEBIRDS_FREGATTIDAE,Magnificent Frigatebird,,1,-61.5335532207631,16.2199997261946,North America,Guadeloupe,GP,,Guadeloupe - Caribbean Sea,2018-01-07,07:16
Quiscalus lugubris,Animalia,ICTERIDS_ICTERIDAE,Carib Grackle,,1,-61.5343820492908,16.2224544300026,North America,Guadeloupe,GP,,Guadeloupe - Caribbean Sea,2018-01-07,07:18
Ardea herodias,Animalia,HERONS_ARDEIDAE,Great Blue Heron,,1,-61.5387724518976,16.230886152114,North America,Guadeloupe,GP,,Guadeloupe,2018-01-07,07:32
Loxigilla noctis,Animalia,TANAGERS_AND_ALLIES_THRAUPIDAE,Lesser Antillean Bullfinch,,1,-61.4859752709801,16.2177446980655,North America,Guadeloupe,GP,,Guadeloupe - Le Gosier,2018-01-07,09:46
Bubulcus ibis,Animalia,HERONS_ARDEIDAE,Western Cattle Egret,,1,-61.4859752709801,16.2177446980655,North America,Guadeloupe,GP,,Guadeloupe - Le Gosier,2018-01-07,09:46
Pelecanus occidentalis,Animalia,PELICANS_PELECANIDAE,Brown Pelican,,3,-61.384771614576,16.2234187428358,North America,Guadeloupe,GP,,Guadeloupe - Sainte-Anne,2018-01-07,11:10
Fregata magnificens,Animalia,FRIGATEBIRDS_FREGATTIDAE,Magnificent Frigatebird,,2,-61.3847768568389,16.223464174596,North America,Guadeloupe,GP,,Guadeloupe - Sainte-Anne,2018-01-07,11:11
Bubulcus ibis,Animalia,HERONS_ARDEIDAE,Western Cattle Egret,,1,-61.381935922271,16.2226933652638,North America,Guadeloupe,GP,,Guadeloupe - Sainte-Anne,2018-01-07,11:44
Coereba flaveola,Animalia,TANAGERS_AND_ALLIES_THRAUPIDAE,Bananaquit,,1,-61.3820046403118,16.2226290495788,North America,Guadeloupe,GP,,Guadeloupe - Sainte-Anne,2018-01-07,11:44
Puffinus lherminieri,Animalia,PETRELS_AND_SHEARWATERS_PROCELLARIIDAE,Audubon's Shearwater,,3,-61.531045695036,16.214580367433,North America,Guadeloupe,GP,,Guadeloupe - Caribbean Sea,2018-01-07,18:24
Nyctanassa violacea,Animalia,HERONS_ARDEIDAE,Yellow-crowned Night Heron,,1,-61.76789222,16.07473971,North America,Guadeloupe,GP,,Guadeloupe - Vieux-Habitants,2017-12-14,10:29
Coereba flaveola,Animalia,TANAGERS_AND_ALLIES_THRAUPIDAE,Bananaquit,,1,-61.4433379,16.2159994,North America,Guadeloupe,GP,,Guadeloupe - Le Gosier,2017-12-03,06:21
Loxigilla noctis,Animalia,TANAGERS_AND_ALLIES_THRAUPIDAE,Lesser Antillean Bullfinch,,1,-61.44325086,16.21596861,North America,Guadeloupe,GP,,Guadeloupe - Le Gosier,2017-12-03,06:30
Pelecanus occidentalis,Animalia,PELICANS_PELECANIDAE,Brown Pelican,,3,-61.38336905,16.22395601,North America,Guadeloupe,GP,,Guadeloupe - Sainte-Anne,2017-12-03,07:31
Bubulcus ibis,Animalia,HERONS_ARDEIDAE,Western Cattle Egret,,1,-61.36994089,16.2368757,North America,Guadeloupe,GP,,Guadeloupe - Sainte-Anne,2017-12-03,07:35
Tiaris bicolor,Animalia,TANAGERS_AND_ALLIES_THRAUPIDAE,Black-faced Grassquit,,1,-61.17450621,16.24480712,North America,Guadeloupe,GP,,Guadeloupe - Saint-FranĂ§ois,2017-12-03,09:38
Agraulis vanillae,Animalia,BRUSHFOOTED_BUTTERFLIES_NYMPHALIDAE,Gulf Fritillary,,1,-61.17616385,16.24514618,North America,Guadeloupe,GP,,Guadeloupe - Saint-FranĂ§ois,2017-12-03,10:08
Egretta thula,Animalia,HERONS_ARDEIDAE,Snowy Egret,,1,-61.34226334,16.32964025,North America,Guadeloupe,GP,,Guadeloupe - Le Moule,2017-12-03,15:47
Actitis macularius,Animalia,SANDPIPERS_AND_ALLIES_SCOLOPACIDAE,Spotted Sandpiper,,1,-61.53673364,16.43116118,North America,Guadeloupe,GP,,Guadeloupe - Port-Louis,2017-12-05,09:45
Charadrius semipalmatus,Animalia,PLOVERS_CHARADRIIDAE,Semipalmated Plover,,1,-61.18781046,16.25417628,North America,Guadeloupe,GP,,Guadeloupe - Saint-FranĂ§ois,2017-12-06,10:01
Charadrius wilsonia,Animalia,PLOVERS_CHARADRIIDAE,Wilson's Plover,,1,-61.18781046,16.25417628,North America,Guadeloupe,GP,,Guadeloupe - Saint-FranĂ§ois,2017-12-06,10:01
Actitis macularius,Animalia,SANDPIPERS_AND_ALLIES_SCOLOPACIDAE,Spotted Sandpiper,,1,-61.26893623,16.25804422,North America,Guadeloupe,GP,,Guadeloupe - Saint-FranĂ§ois,2017-12-06,12:27
Iguana delicatissima,Animalia,Iguanidae,West Indian Iguana,,1,-61.11071452,16.17371613,North America,Guadeloupe,GP,,Guadeloupe - La Désirade,2017-12-08,13:40
Megaceryle torquata,Animalia,KINGFISHERS_ALCEDINIDAE,Ringed Kingfisher,,1,-61.66133046,16.21977152,North America,Guadeloupe,GP,,Guadeloupe - Lamentin,2017-12-11,16:51
Quiscalus niger,Animalia,ICTERIDS_ICTERIDAE,Greater Antillean Grackle,,1,-61.54724007,16.2316154,North America,Guadeloupe,GP,,Guadeloupe,2014-07-22,
Coereba flaveola,Animalia,TANAGERS_AND_ALLIES_THRAUPIDAE,Bananaquit,,1,-61.54724007,16.2316154,North America,Guadeloupe,GP,,Guadeloupe,2014-07-22,
Herpestes auropunctatus,Animalia,MONGOOSES_HERPESTIDAE,Small Indian Mongoose,,1,-61.19994596,15.9281218,North America,Guadeloupe,GP,,Guadeloupe,2017-03-08,15:19
Loxigilla noctis,Animalia,TANAGERS_AND_ALLIES_THRAUPIDAE,Lesser Antillean Bullfinch,,1,-61.53247719,16.23112094,North America,Guadeloupe,GP,,Guadeloupe,2014-07-22,
Zenaida aurita,Animalia,PIGEONS_AND_DOVES_COLUMBIDAE,Zenaida Dove,,1,-61.53316383,16.2388673,North America,Guadeloupe,GP,,Guadeloupe,2014-07-22,
Falco sparverius,Animalia,CARACAS_AND_FALCONS_FALCONIDAE,American Kestrel,,1,-62.86555756,17.91930968,North America,Guadeloupe,GP,,Guadeloupe,2016-11-27,10:52
Pelecanus occidentalis,Animalia,PELICANS_PELECANIDAE,Brown Pelican,,2,-62.86724567,17.92486311,North America,Guadeloupe,GP,,Guadeloupe,2016-11-27,10:16
Danaus plexippus,Animalia,BRUSHFOOTED_BUTTERFLIES_NYMPHALIDAE,American Monarch,,4,-62.8602612,17.9196263,North America,Guadeloupe,GP,,Guadeloupe,2016-11-27,09:46
Margarops fuscatus,Animalia,THRASHERS_MIMIDAE,Pearly-eyed Thrasher,,1,-62.85514355,17.91238841,North America,Guadeloupe,GP,,Guadeloupe,2016-11-27,08:31
Phaethon aethereus,Animalia,TROPICBIRDS_PHAETHONTIDAE,Red-billed Tropicbird,,30,-62.86602259,17.92425063,North America,Guadeloupe,GP,,Guadeloupe - Saint Barthélemy ,2016-11-26,15:30
Sula leucogaster,Animalia,GANNETS_AND_BOOBIES_SULIDAE,Brown Booby,,2,-62.86713839,17.92469978,North America,Guadeloupe,GP,,Guadeloupe,2016-11-26,15:00
Pseudosphinx tetrio,Animalia,Sphingidae,,,10,-62.86738515,17.92191296,North America,Guadeloupe,GP,,Guadeloupe,2016-11-26,14:50
Agraulis vanillae,Animalia,BRUSHFOOTED_BUTTERFLIES_NYMPHALIDAE,Gulf Fritillary,,4,-62.86783911,17.9208816,North America,Guadeloupe,GP,,Guadeloupe,2016-11-26,14:40
Tyrannus dominicensis,Animalia,TYRANT_FLYCATCHERS_TYRANNIDAE,Grey Kingbird,,2,-62.80902565,17.8919084,North America,Guadeloupe,GP,,Guadeloupe,2016-11-26,10:15
Actitis macularius,Animalia,SANDPIPERS_AND_ALLIES_SCOLOPACIDAE,Spotted Sandpiper,,2,-61.289733946323,16.245906689041,North America,Guadeloupe,GP,,Guadeloupe,2016-03-21,
Ardea alba,Animalia,HERONS_ARDEIDAE,Great Egret,,4,-61.289733946323,16.245906689041,North America,Guadeloupe,GP,,Guadeloupe,2016-03-21,
Egretta thula,Animalia,HERONS_ARDEIDAE,Snowy Egret,,4,-61.289733946323,16.245906689041,North America,Guadeloupe,GP,,Guadeloupe,2016-03-21,
Actitis macularius,Animalia,SANDPIPERS_AND_ALLIES_SCOLOPACIDAE,Spotted Sandpiper,,3,-61.180565357208,16.243672770171,North America,Guadeloupe,GP,,Guadeloupe,2016-03-18,
Charadrius semipalmatus,Animalia,PLOVERS_CHARADRIIDAE,Semipalmated Plover,,20,-61.180683374405,16.248622121664,North America,Guadeloupe,GP,,Guadeloupe,2016-03-18,
Gallinula galeata,Animalia,RAILS_RALLIDAE,Common Gallinule,,3,-61.374317407608,16.223899872824,North America,Guadeloupe,GP,,Guadeloupe,2016-03-12,
Pelecanus occidentalis,Animalia,PELICANS_PELECANIDAE,Brown Pelican,,4,-61.383761465549,16.221925821886,North America,Guadeloupe,GP,,Guadeloupe,2016-03-09,
Herpestes auropunctatus,Animalia,MONGOOSES_HERPESTIDAE,Small Indian Mongoose,,1,-61.283597052097,16.281501757312,North America,Guadeloupe,GP,,Guadeloupe,2016-03-08,
Tringa solitaria,Animalia,SANDPIPERS_AND_ALLIES_SCOLOPACIDAE,Solitary Sandpiper,,1,-61.263255178928,16.252581255644,North America,Guadeloupe,GP,,Guadeloupe,2016-03-08,
Ardea alba,Animalia,HERONS_ARDEIDAE,Great Egret,,2,-61.282435655594,16.283804760454,North America,Guadeloupe,GP,,Guadeloupe,2016-03-08,
Egretta thula,Animalia,HERONS_ARDEIDAE,Snowy Egret,,2,-61.282435655594,16.283804760454,North America,Guadeloupe,GP,,Guadeloupe,2016-03-08,
Tringa solitaria,Animalia,SANDPIPERS_AND_ALLIES_SCOLOPACIDAE,Solitary Sandpiper,,1,-61.282435655594,16.283804760454,North America,Guadeloupe,GP,,Guadeloupe,2016-03-08,
