scientificName,kingdom,family,vernacularName,previousIdentifications,individualCount,longitudeDecimal,latitudeDecimal,continent,country,countryCode,stateProvince,locality,eventDate,eventTime
Aeria eurimedia,Animalia,BRUSHFOOTED_BUTTERFLIES_NYMPHALIDAE,,,1,-88.9892718941,15.6778531587,North America,Guatemala,GT,,Guatemala - Río Dulce NP,2015-02-09,
Pareuptychia ocirrhoe,Animalia,BRUSHFOOTED_BUTTERFLIES_NYMPHALIDAE,,,1,-88.9893292263,15.6777706826,North America,Guatemala,GT,,Guatemala,2015-02-09,
Eumaeus toxea,Animalia,GOSSAMERWINGED_BUTTERFLIES_LYCAENIDAE,Mexican Cycadian,,1,-88.9891468361,15.6781632103,North America,Guatemala,GT,,Guatemala - Río Dulce NP,2015-02-08,
Nasua narica,Animalia,COATIS_RACCOONS_AND_RINGTAILS_PROCYONIDAE,White-nosed Coati,,25,-89.6266076714,17.2206382839,North America,Guatemala,GT,,Guatamala - Tikal NP,2003-12-06,
Cathartes aura,Animalia,NEW_WORLD_VULTURES_CATHARTIDAE,Turkey Vulture,,1,-89.0403556826,15.2707387953,North America,Guatemala,GT,,Guatemala,2014-10-31,12:24
Mniotilta varia,Animalia,NEW_WORLD_WARBLERS_PARULIDAE,Black-and-white Warbler,,1,-89.6127033238,17.2252459943,North America,Guatemala,GT,,Guatamala - Tikal NP,2014-11-05,16:56
Ardea herodias,Animalia,HERONS_ARDEIDAE,Great Blue Heron,,1,-88.7511777882,15.82113358,North America,Guatemala,GT,,Guatemala,2014-11-01,11:52
Nasua narica,Animalia,COATIS_RACCOONS_AND_RINGTAILS_PROCYONIDAE,White-nosed Coati,,1,-89.6234503930398,17.2230019669714,North America,Guatemala,GT,,Guatamala - Tikal NP,2014-11-05,17:25
Meleagris ocellata,Animalia,FRANCOLINS_QUAILS_PARTRIDGES_AND_PHEASANTS_PHASIANIDAE,Ocellated Turkey,,5,-89.6233454953134,17.2230968383214,North America,Guatemala,GT,,Guatamala - Tikal NP,2014-11-05,17:26
Psarocolius montezuma,Animalia,ICTERIDS_ICTERIDAE,Montezuma Oropendola,,1,-89.6233454953134,17.2230968383214,North America,Guatemala,GT,,Guatamala - Tikal NP,2014-11-05,17:26
Trogon massena,Animalia,TROGONS_TROGONIDAE,Slaty-tailed Trogon,,1,-89.6300150736267,17.2229304323121,North America,Guatemala,GT,,Guatamala - Tikal NP,2014-11-06,08:01
Pteroglossus torquatus,Animalia,TOUCANS_BARBETS_RAMPHASTIDAE,Collared Aracari,,3,-89.6253352968739,17.2206812156004,North America,Guatemala,GT,,Guatamala - Tikal NP,2014-11-06,08:57
Myiozetetes similis,Animalia,TYRANT_FLYCATCHERS_TYRANNIDAE,Social Flycatcher,,2,-89.6116861125,17.2263847549,North America,Guatemala,GT,,Guatamala - Tikal NP,2014-11-06,11:01
Phalacrocorax brasilianus,Animalia,CORMORANTS_PHALACROCORACIDAE,Neotropic Cormorant,,100,-88.8287035535,15.7707494578,North America,Guatemala,GT,,Guatemala - Río Dulce NP,2014-11-01,11:51
Pelecanus occidentalis,Animalia,PELICANS_PELECANIDAE,Brown Pelican,,40,-88.7497393201293,15.8255882722546,North America,Guatemala,GT,,Guatemala,2014-11-01,11:52
Jacana spinosa,Animalia,JACANAS_JACANIDAE,Northern Jacana,,3,-88.8225671508,15.775454518,North America,Guatemala,GT,,Guatemala - Río Dulce NP,2014-11-01,11:52
Thalasseus maximus,Animalia,GULLS_TERNS_AND_SKIMMERS_LARIDAE,Royal Tern,,30,-88.7538596846,15.819350513,North America,Guatemala,GT,,Guatemala,2014-11-01,11:53
Leucophaeus atricilla,Animalia,GULLS_TERNS_AND_SKIMMERS_LARIDAE,Laughing Gull,,20,-88.7510490435,15.8213895758,North America,Guatemala,GT,,Guatemala,2014-11-01,11:53
Thalasseus acuflavidus,Animalia,GULLS_TERNS_AND_SKIMMERS_LARIDAE,Cabot's Tern,,2,-88.7548008646,15.8159134369,North America,Guatemala,GT,,Guatemala,2014-11-01,14:54
Melanerpes santacruzi,Animalia,WOODPECKERS_PICIDAE,Velasquez's Woodpecker,,1,-89.041786522936,15.2737515184329,North America,Guatemala,GT,,Guatemala,2014-10-31,13:15
Fulica americana,Animalia,RAILS_RALLIDAE,American Coot,,2,-91.16292354,14.73997746,North America,Guatemala,GT,,Guatemala - Sololá,2014-07-16,07:34
Sporophila morelleti,Animalia,TANAGERS_AND_ALLIES_THRAUPIDAE,Morelet's Seedeater,,1,-88.99111545,15.65611948,North America,Guatemala,GT,,Guatemala - Río Dulce NP,2014-07-19,07:22
Jacana spinosa,Animalia,JACANAS_JACANIDAE,Northern Jacana,,1,-88.82657976,15.76969508,North America,Guatemala,GT,,Guatemala,2014-07-19,10:17
Sporophila morelleti,Animalia,TANAGERS_AND_ALLIES_THRAUPIDAE,Morelet's Seedeater,,1,-89.61258638,17.22463434,North America,Guatemala,GT,,Guatamala - Tikal NP,2014-07-20,15:44
Psarocolius montezuma,Animalia,ICTERIDS_ICTERIDAE,Montezuma Oropendola,,5,-89.61264047,17.22454458,North America,Guatemala,GT,,Guatamala - Tikal NP,2014-07-20,15:48
Melanerpes santacruzi,Animalia,WOODPECKERS_PICIDAE,Velasquez's Woodpecker,,1,-90.5155903101,14.6134693734,North America,Guatemala,GT,,Guatemala - Guatemala,2014-02-26,
Sporophila morelleti,Animalia,TANAGERS_AND_ALLIES_THRAUPIDAE,Morelet's Seedeater,,1,-89.6201133728,17.2225447003,North America,Guatemala,GT,,Guatamala - Tikal NP,2002-10-30,
Momotus lessonii,Animalia,MOTMOTS_MOMOTIDAE,Lesson's Motmot,,1,-89.6201133728,17.2225447003,North America,Guatemala,GT,,Guatamala - Tikal NP,2002-10-30,
Urocyon cinereoargenteus,Animalia,DOGS_CANIDAE,Grey Fox,,1,-89.635219574,17.2345956917,North America,Guatemala,GT,,Guatamala - Tikal NP,2002-10-30,
Nasua narica,Animalia,COATIS_RACCOONS_AND_RINGTAILS_PROCYONIDAE,White-nosed Coati,,1,-89.6252632141,17.221970824,North America,Guatemala,GT,,Guatamala - Tikal NP,2002-10-30,
Coragyps atratus,Animalia,NEW_WORLD_VULTURES_CATHARTIDAE,Black Vulture,,1,-89.6214866638,17.2226266825,North America,Guatemala,GT,,Guatamala - Tikal NP,2002-10-29,
Aramides albiventris albiventris,Animalia,RAILS_RALLIDAE,Rufous-naped Wood Rail ssp albiventris,,1,-89.6214866638,17.2226266825,North America,Guatemala,GT,,Guatamala - Tikal NP,2002-10-29,
Nasua narica,Animalia,COATIS_RACCOONS_AND_RINGTAILS_PROCYONIDAE,White-nosed Coati,,1,-89.6214866638,17.2226266825,North America,Guatemala,GT,,Guatamala - Tikal NP,2002-10-29,
Urocyon cinereoargenteus,Animalia,DOGS_CANIDAE,Grey Fox,,2,-89.6124529839,17.2252091028,North America,Guatemala,GT,,Guatamala - Tikal NP,2002-10-29,
Melanerpes santacruzi,Animalia,WOODPECKERS_PICIDAE,Velasquez's Woodpecker,,1,-89.60325578302886,17.21496257825,North America,Guatemala,GT,,Guatamala - Tikal NP,2005-08-10,
Campylopterus pampa,Animalia,HUMMINGBIRDS_TROCHILIDAE,Wedge-tailed Sabrewing,,1,-89.60325578302886,17.21496257825,North America,Guatemala,GT,,Guatamala - Tikal NP,2005-08-10,
Momotus lessonii,Animalia,MOTMOTS_MOMOTIDAE,Lesson's Motmot,,1,-89.604862740752,17.21822567947,North America,Guatemala,GT,,Guatamala - Tikal NP,2005-07-15,
Meleagris ocellata,Animalia,FRANCOLINS_QUAILS_PARTRIDGES_AND_PHEASANTS_PHASIANIDAE,Ocellated Turkey,,18,-89.604862740752,17.21822567947,North America,Guatemala,GT,,Guatamala - Tikal NP,2005-07-15,
Momotus lessonii,Animalia,MOTMOTS_MOMOTIDAE,Lesson's Motmot,,1,-89.6048627408,17.2182256795,North America,Guatemala,GT,,Guatamala - Tikal NP,2008-02-18,
Nasua narica,Animalia,COATIS_RACCOONS_AND_RINGTAILS_PROCYONIDAE,White-nosed Coati,,15,-89.6048627408,17.2182256795,North America,Guatemala,GT,,Guatamala - Tikal NP,2005-08-22,
Urocyon cinereoargenteus,Animalia,DOGS_CANIDAE,Grey Fox,,3,-89.6048627408,17.2182256795,North America,Guatemala,GT,,Guatamala - Tikal NP,2005-08-22,
Coragyps atratus,Animalia,NEW_WORLD_VULTURES_CATHARTIDAE,Black Vulture,,1,-91.1310188419,14.7296875529,North America,Guatemala,GT,,Guatemala - Sololá,2011-12-28,
Pteroglossus torquatus,Animalia,TOUCANS_BARBETS_RAMPHASTIDAE,Collared Aracari,,1,-89.6480941773,17.2246161055,North America,Guatemala,GT,,Guatamala - Tikal NP,2012-01-05,
Psarocolius montezuma,Animalia,ICTERIDS_ICTERIDAE,Montezuma Oropendola,,2,-89.6480941773,17.2246161055,North America,Guatemala,GT,,Guatamala - Tikal NP,2012-01-05,
Sporophila morelleti,Animalia,TANAGERS_AND_ALLIES_THRAUPIDAE,Morelet's Seedeater,,1,-89.6480941773,17.2246161055,North America,Guatemala,GT,,Guatamala - Tikal NP,2012-01-05,
Meleagris ocellata,Animalia,FRANCOLINS_QUAILS_PARTRIDGES_AND_PHEASANTS_PHASIANIDAE,Ocellated Turkey,,2,-89.6357345581,17.2016599199,North America,Guatemala,GT,,Guatamala - Tikal NP,2012-01-05,
Pharomachrus mocinno,Animalia,TROGONS_TROGONIDAE,Resplendent Quetzal,,2,-90.2196192741,15.2169449107,North America,Guatemala,GT,,Guatemala - Baja Verapaz,2011-12-29,
Falco rufigularis,Animalia,CARACAS_AND_FALCONS_FALCONIDAE,Bat Falcon,,1,-89.8935699463,16.9285483147,North America,Guatemala,GT,,Guatamala - Flores,2011-12-29,
Butorides virescens,Animalia,HERONS_ARDEIDAE,Green Heron,,1,-89.8891925812,16.9300263164,North America,Guatemala,GT,,Guatamala - Flores,2011-12-29,
Setophaga ruticilla,Animalia,NEW_WORLD_WARBLERS_PARULIDAE,American Redstart,,1,-89.9095584621,15.5823143542,North America,Guatemala,GT,,Guatemala - Grutas de Lanquín NP,2011-12-29,
Sayornis nigricans,Animalia,TYRANT_FLYCATCHERS_TYRANNIDAE,Black Phoebe,,1,-89.9095584621,15.5823143542,North America,Guatemala,GT,,Guatemala - Grutas de Lanquín NP,2011-12-29,
Megaceryle alcyon,Animalia,KINGFISHERS_ALCEDINIDAE,Belted Kingfisher,,1,-89.9095584621,15.5823143542,North America,Guatemala,GT,,Guatemala - Grutas de Lanquín NP,2011-12-29,
Saltator coerulescens,Animalia,TANAGERS_AND_ALLIES_THRAUPIDAE,Greyish Saltator,,1,-91.1996833927,14.7748402888,North America,Guatemala,GT,,Guatemala - Sololá,2011-12-29,
Mniotilta varia,Animalia,NEW_WORLD_WARBLERS_PARULIDAE,Black-and-white Warbler,,1,-91.1996833927,14.7748402888,North America,Guatemala,GT,,Guatemala - Sololá,2011-12-29,
Zonotrichia capensis,Animalia,PASSERELLIDAE,Rufous-collared Sparrow,,1,-91.1584846622,14.7522650921,North America,Guatemala,GT,,Guatemala - Sololá,2011-12-29,
Cardellina pusilla,Animalia,NEW_WORLD_WARBLERS_PARULIDAE,Wilson's Warbler,,1,-91.1584846622,14.7522650921,North America,Guatemala,GT,,Guatemala - Sololá,2011-12-29,
Melanerpes santacruzi,Animalia,WOODPECKERS_PICIDAE,Velasquez's Woodpecker,,1,-91.1584846622,14.7522650921,North America,Guatemala,GT,,Guatemala - Sololá,2011-12-29,
Melanerpes formicivorus,Animalia,WOODPECKERS_PICIDAE,Acorn Woodpecker,,2,-91.1626045353,14.7509370663,North America,Guatemala,GT,,Guatemala - Sololá,2011-12-29,
Myiozetetes similis,Animalia,TYRANT_FLYCATCHERS_TYRANNIDAE,Social Flycatcher,,1,-91.1626045353,14.7509370663,North America,Guatemala,GT,,Guatemala - Sololá,2011-12-29,
Fulica americana,Animalia,RAILS_RALLIDAE,American Coot,,1,-91.1804573185,14.7243748507,North America,Guatemala,GT,,Guatemala - Sololá,2011-12-29,
Zenaida asiatica,Animalia,PIGEONS_AND_DOVES_COLUMBIDAE,White-winged Dove,,1,-90.7352256775,14.5605316175,North America,Guatemala,GT,,Guatemala - Sacatepéquez,2011-12-27,
Amazona guatemalae,Animalia,PARROTS_PSITTACIDAE,Northern Mealy Amazon,,1,-89.60325578302886,17.21496257825,North America,Guatemala,GT,,Guatamala - Tikal NP,2003-07-03,
Meleagris ocellata,Animalia,FRANCOLINS_QUAILS_PARTRIDGES_AND_PHEASANTS_PHASIANIDAE,Ocellated Turkey,,1,-89.6048627408,17.2182256795,North America,Guatemala,GT,,Guatamala - Tikal NP,2003-07-03,
Momotus lessonii,Animalia,MOTMOTS_MOMOTIDAE,Lesson's Motmot,,1,-89.60325578302886,17.21496257825,North America,Guatemala,GT,,Guatamala - Tikal NP,2003-07-03,
Aramides albiventris albiventris,Animalia,RAILS_RALLIDAE,Rufous-naped Wood Rail ssp albiventris,,1,-89.6235601902,17.2219696004,North America,Guatemala,GT,,Guatamala - Tikal NP,2009-12-19,
Meleagris ocellata,Animalia,FRANCOLINS_QUAILS_PARTRIDGES_AND_PHEASANTS_PHASIANIDAE,Ocellated Turkey,,10,-89.6235601902,17.2219696004,North America,Guatemala,GT,,Guatamala - Tikal NP,2009-12-19,
Tityra semifasciata,Animalia,Tityridae,Masked Tityra,,1,-89.60325578302886,17.21496257825,North America,Guatemala,GT,,Guatamala - Tikal NP,1997-10-16,
Melanerpes santacruzi,Animalia,WOODPECKERS_PICIDAE,Velasquez's Woodpecker,,1,-91.1427497864,14.6322543593,North America,Guatemala,GT,,Guatemala - Sololá,2007-04-10,
Bufo marinus,Animalia,Bufonidae,Cane Toad,,1,-89.7208786011,16.9999936594,North America,Guatemala,GT,,Guatemala - Biotopo Cerro Cahui,2008-09-23,
Caligo telamonius,Animalia,BRUSHFOOTED_BUTTERFLIES_NYMPHALIDAE,,,1,-89.7208786011,16.9999936594,North America,Guatemala,GT,,Guatemala - Biotopo Cerro Cahui,2008-09-23,
Antirrhea philoctetes,Animalia,BRUSHFOOTED_BUTTERFLIES_NYMPHALIDAE,Northern Antirrhea,,1,-90.6763265873,15.9096148721,North America,Guatemala,GT,,Guatemala - Laguna Lachua NP,2008-09-22,
Heliconius sapho,Animalia,BRUSHFOOTED_BUTTERFLIES_NYMPHALIDAE,,,1,-90.6763265873,15.9096148721,North America,Guatemala,GT,,Guatemala - Laguna Lachua NP,2008-09-22,
Caligo uranus,Animalia,BRUSHFOOTED_BUTTERFLIES_NYMPHALIDAE,Uranus Giant Owl,,1,-90.6763265873,15.9096148721,North America,Guatemala,GT,,Guatemala - Laguna Lachua NP,2008-09-20,
Dryas iulia,Animalia,BRUSHFOOTED_BUTTERFLIES_NYMPHALIDAE,Julia Heliconian,,20,-90.6763265873,15.9096148721,North America,Guatemala,GT,,Guatemala - Laguna Lachua NP,2008-09-20,
Heliconius cydno,Animalia,BRUSHFOOTED_BUTTERFLIES_NYMPHALIDAE,Cydno Longwing,,1,-90.6763265873,15.9096148721,North America,Guatemala,GT,,Guatemala - Laguna Lachua NP,2008-09-20,
Mielkella singularis,Animalia,BRUSHFOOTED_BUTTERFLIES_NYMPHALIDAE,Mielkella,,1,-90.2174949646,15.2137976752,North America,Guatemala,GT,,Guatemala - Biotopo del Quetzal,2008-09-18,
Hetaerina spec.,Animalia,BROADWINGED_DAMSELS_CALOPTERYGIDAE,,,1,-90.2211259571,15.210514677,North America,Guatemala,GT,,Guatemala - Biotopo del Quetzal,2008-09-18,
Greta morgane oto,Animalia,BRUSHFOOTED_BUTTERFLIES_NYMPHALIDAE,'Darkened' Rusty Clearwing,,1,-91.1365699768,14.5235605797,North America,Guatemala,GT,,Guatemala,2008-10-06,
Heliconius ismenius,Animalia,BRUSHFOOTED_BUTTERFLIES_NYMPHALIDAE,,,1,-91.1365699768,14.5235605797,North America,Guatemala,GT,,Guatemala,2008-10-06,
Poanes niveolimbus,Animalia,SKIPPERS_HESPERIIDAE,Snow-fringed Skipper,,1,-90.9988117218,14.7828496616,North America,Guatemala,GT,,Guatemala - Cerro Tecpan,2008-10-02,
Adelpha donysa,Animalia,BRUSHFOOTED_BUTTERFLIES_NYMPHALIDAE,,,1,-90.9988117218,14.7828496616,North America,Guatemala,GT,,Guatemala - Cerro Tecpan,2008-10-02,
Ardea alba,Animalia,HERONS_ARDEIDAE,Great Egret,,5,-88.7607765198,15.8371780833,North America,Guatemala,GT,,Guatemala,2008-09-28,
Pelecanus occidentalis,Animalia,PELICANS_PELECANIDAE,Brown Pelican,,100,-88.7607765198,15.8371780833,North America,Guatemala,GT,,Guatemala,2008-09-28,
Ardea alba,Animalia,HERONS_ARDEIDAE,Great Egret,,5,-88.7805175781,15.8018338988,North America,Guatemala,GT,,Guatemala,2008-09-27,
Anartia fatima,Animalia,BRUSHFOOTED_BUTTERFLIES_NYMPHALIDAE,Banded Peacock,,1,-89.6093630791,17.2265412897,North America,Guatemala,GT,,Guatamala - Tikal NP,2008-09-26,
Anartia jatrophae,Animalia,BRUSHFOOTED_BUTTERFLIES_NYMPHALIDAE,White Peacock,,1,-89.6093630791,17.2265412897,North America,Guatemala,GT,,Guatamala - Tikal NP,2008-09-26,
Anartia fatima,Animalia,BRUSHFOOTED_BUTTERFLIES_NYMPHALIDAE,Banded Peacock,,1,-89.6093630791,17.2265412897,North America,Guatemala,GT,,Guatamala - Tikal NP,2008-09-26,
Heliconius charithonia,Animalia,BRUSHFOOTED_BUTTERFLIES_NYMPHALIDAE,Zebra Heliconian,,1,-89.6093630791,17.2265412897,North America,Guatemala,GT,,Guatamala - Tikal NP,2008-09-26,
Meleagris ocellata,Animalia,FRANCOLINS_QUAILS_PARTRIDGES_AND_PHEASANTS_PHASIANIDAE,Ocellated Turkey,,5,-89.6220338345,17.221576283,North America,Guatemala,GT,,Guatamala - Tikal NP,2008-09-25,
Siproeta stelenes,Animalia,BRUSHFOOTED_BUTTERFLIES_NYMPHALIDAE,Malachite,,1,-89.6220338345,17.221576283,North America,Guatemala,GT,,Guatamala - Tikal NP,2008-09-24,
Nasua narica,Animalia,COATIS_RACCOONS_AND_RINGTAILS_PROCYONIDAE,White-nosed Coati,,3,-89.6220338345,17.221576283,North America,Guatemala,GT,,Guatamala - Tikal NP,2008-09-24,
Tangara cabanisi,Animalia,TANAGERS_AND_ALLIES_THRAUPIDAE,Cabanis's Tanager,,4,-91.1659240723,14.5510194363,North America,Guatemala,GT,,Guatemala,2008-10-07,
Oreophasis derbianus,Animalia,CURASSOWS_GUANS_AND_CHACHALACAS_CRACIDAE,Horned Guan,,1,-91.1781978607,14.5682158313,North America,Guatemala,GT,,Guatemala - Sololá,2008-10-07,09:30
Momotus lessonii,Animalia,MOTMOTS_MOMOTIDAE,Lesson's Motmot,,2,-91.137213707,14.5227712429,North America,Guatemala,GT,,Guatemala,2008-10-06,
Trogon caligatus,Animalia,TROGONS_TROGONIDAE,Gartered Trogon,,1,-91.137213707,14.5227712429,North America,Guatemala,GT,,Guatemala,2008-10-06,
Melanerpes santacruzi,Animalia,WOODPECKERS_PICIDAE,Velasquez's Woodpecker,,1,-91.1368703842,14.5233528597,North America,Guatemala,GT,,Guatemala,2008-10-05,
Sporophila morelleti,Animalia,TANAGERS_AND_ALLIES_THRAUPIDAE,Morelet's Seedeater,,2,-91.2687921524,14.6955270006,North America,Guatemala,GT,,Guatemala - Sololá,2008-10-03,
Melanerpes santacruzi,Animalia,WOODPECKERS_PICIDAE,Velasquez's Woodpecker,,2,-91.2687921524,14.6955270006,North America,Guatemala,GT,,Guatemala - Sololá,2008-10-03,
Icteria virens,Animalia,ICTERIIDAE,Yellow-breasted Chat,,2,-91.2687921524,14.6955270006,North America,Guatemala,GT,,Guatemala - Sololá,2008-10-03,
Calidris alba,Animalia,SANDPIPERS_AND_ALLIES_SCOLOPACIDAE,Sanderling,,14,-88.7662696838,15.8403983911,North America,Guatemala,GT,,Guatemala,2008-09-28,
Pelecanus occidentalis,Animalia,PELICANS_PELECANIDAE,Brown Pelican,,30,-88.7511634827,15.8280948875,North America,Guatemala,GT,,Guatemala,2008-09-27,
Schiffornis veraepacis veraepacis,Animalia,Tityridae,Northern Schiffornis ssp veraepacis,,5,-90.6797790527,15.9058668302,North America,Guatemala,GT,,Guatemala - Alta Verapaz,2008-09-21,
Pteroglossus torquatus,Animalia,TOUCANS_BARBETS_RAMPHASTIDAE,Collared Aracari,,20,-89.62225914,17.2214994242,North America,Guatemala,GT,,Guatamala - Tikal NP,2008-09-25,
Momotus lessonii,Animalia,MOTMOTS_MOMOTIDAE,Lesson's Motmot,,1,-89.6273446083,17.2199827386,North America,Guatemala,GT,,Guatamala - Tikal NP,2008-09-25,
Schiffornis veraepacis veraepacis,Animalia,Tityridae,Northern Schiffornis ssp veraepacis,,3,-89.6223449707,17.2217248764,North America,Guatemala,GT,,Guatamala - Tikal NP,2008-09-24,
Myiobius sulphureipygius sulphureipygius,Animalia,Tityridae,Sulphur-rumped Myiobius ssp sulphureipygius,,1,-89.6223449707,17.2217248764,North America,Guatemala,GT,,Guatamala - Tikal NP,2008-09-24,
Pteroglossus torquatus,Animalia,TOUCANS_BARBETS_RAMPHASTIDAE,Collared Aracari,,5,-89.6223449707,17.2217248764,North America,Guatemala,GT,,Guatamala - Tikal NP,2008-09-24,
Trogon caligatus,Animalia,TROGONS_TROGONIDAE,Gartered Trogon,,5,-89.6223449707,17.2217248764,North America,Guatemala,GT,,Guatamala - Tikal NP,2008-09-24,
Phaethornis striigularis saturatus,Animalia,HUMMINGBIRDS_TROCHILIDAE,Stripe-throated Hermit ssp saturatus,,1,-89.6223449707,17.2217248764,North America,Guatemala,GT,,Guatamala - Tikal NP,2008-09-24,
Meleagris ocellata,Animalia,FRANCOLINS_QUAILS_PARTRIDGES_AND_PHEASANTS_PHASIANIDAE,Ocellated Turkey,,10,-89.6223449707,17.2217248764,North America,Guatemala,GT,,Guatamala - Tikal NP,2008-09-24,
Campylopterus pampa,Animalia,HUMMINGBIRDS_TROCHILIDAE,Wedge-tailed Sabrewing,,1,-89.6223449707,17.2217248764,North America,Guatemala,GT,,Guatamala - Tikal NP,2008-09-24,
Crax rubra,Animalia,CURASSOWS_GUANS_AND_CHACHALACAS_CRACIDAE,Great Curassow,,3,-89.6223449707,17.2217248764,North America,Guatemala,GT,,Guatamala - Tikal NP,2008-09-24,
Meleagris ocellata,Animalia,FRANCOLINS_QUAILS_PARTRIDGES_AND_PHEASANTS_PHASIANIDAE,Ocellated Turkey,,10,-89.6226453781,17.2223807358,North America,Guatemala,GT,,Guatamala - Tikal NP,2008-09-23,
Pteroglossus torquatus,Animalia,TOUCANS_BARBETS_RAMPHASTIDAE,Collared Aracari,,1,-89.6226453781,17.2223807358,North America,Guatemala,GT,,Guatamala - Tikal NP,2008-09-23,
Nasua narica,Animalia,COATIS_RACCOONS_AND_RINGTAILS_PROCYONIDAE,White-nosed Coati,,1,-89.6125602722,17.2252091028,North America,Guatemala,GT,,Guatamala - Tikal NP,2008-09-23,
Melanerpes santacruzi,Animalia,WOODPECKERS_PICIDAE,Velasquez's Woodpecker,,1,-89.7203636169,16.9933450373,North America,Guatemala,GT,,Guatemala - Petén,2008-09-23,
Aramides albiventris albiventris,Animalia,RAILS_RALLIDAE,Rufous-naped Wood Rail ssp albiventris,,2,-89.7157287598,17.0019635762,North America,Guatemala,GT,,Guatemala - Petén,2008-09-23,10:00
Myiobius sulphureipygius sulphureipygius,Animalia,Tityridae,Sulphur-rumped Myiobius ssp sulphureipygius,,2,-90.6791782379,15.9088384106,North America,Guatemala,GT,,Guatemala - Alta Verapaz,2008-09-21,
Sporophila morelleti,Animalia,TANAGERS_AND_ALLIES_THRAUPIDAE,Morelet's Seedeater,,3,-90.7266426086,15.8710300312,North America,Guatemala,GT,,Guatemala - Alta Verapaz,2008-09-20,
Trogon caligatus,Animalia,TROGONS_TROGONIDAE,Gartered Trogon,,3,-90.7265138626,15.8710919503,North America,Guatemala,GT,,Guatemala - Alta Verapaz,2008-09-20,
Phaethornis striigularis saturatus,Animalia,HUMMINGBIRDS_TROCHILIDAE,Stripe-throated Hermit ssp saturatus,,2,-90.6972885132,15.8913384716,North America,Guatemala,GT,,Guatemala - Alta Verapaz,2008-09-20,
Melanerpes santacruzi,Animalia,WOODPECKERS_PICIDAE,Velasquez's Woodpecker,,2,-90.2059936523,15.1984335213,North America,Guatemala,GT,,Guatemala - Baja Verapaz,2008-09-18,
Pharomachrus mocinno,Animalia,TROGONS_TROGONIDAE,Resplendent Quetzal,,2,-90.2171516418,15.2135906185,North America,Guatemala,GT,,Guatemala - Baja Verapaz,2008-09-18,12:00
Urocyon cinereoargenteus,Animalia,DOGS_CANIDAE,Grey Fox,,1,-89.6048627408,17.2182256795,North America,Guatemala,GT,,Guatamala - Tikal NP,1997-10-16,
Phaethornis striigularis saturatus,Animalia,HUMMINGBIRDS_TROCHILIDAE,Stripe-throated Hermit ssp saturatus,,1,-89.6226882935,17.2216401605,North America,Guatemala,GT,,Guatamala - Tikal NP,1996-12-31,
Trogon caligatus,Animalia,TROGONS_TROGONIDAE,Gartered Trogon,,1,-89.6226882935,17.2216401605,North America,Guatemala,GT,,Guatamala - Tikal NP,1996-12-31,
Trogon massena,Animalia,TROGONS_TROGONIDAE,Slaty-tailed Trogon,,1,-89.6226882935,17.2216401605,North America,Guatemala,GT,,Guatamala - Tikal NP,1996-12-31,
Meleagris ocellata,Animalia,FRANCOLINS_QUAILS_PARTRIDGES_AND_PHEASANTS_PHASIANIDAE,Ocellated Turkey,,1,-89.6226882935,17.2216401605,North America,Guatemala,GT,,Guatamala - Tikal NP,1996-12-31,
Onychorhynchus mexicanus mexicanus,Animalia,Tityridae,Northern Royal Flycatcher ssp mexicanus,,1,-89.6329879761,17.2196425079,North America,Guatemala,GT,,Guatamala - Tikal NP,2004-11-28,
Phaethornis striigularis saturatus,Animalia,HUMMINGBIRDS_TROCHILIDAE,Stripe-throated Hermit ssp saturatus,,1,-89.6329879761,17.2196425079,North America,Guatemala,GT,,Guatamala - Tikal NP,2004-11-28,
Nasua narica,Animalia,COATIS_RACCOONS_AND_RINGTAILS_PROCYONIDAE,White-nosed Coati,,1,-89.6329879761,17.2196425079,North America,Guatemala,GT,,Guatamala - Tikal NP,2004-11-28,
Coragyps atratus,Animalia,NEW_WORLD_VULTURES_CATHARTIDAE,Black Vulture,,1,-89.6329879761,17.2196425079,North America,Guatemala,GT,,Guatamala - Tikal NP,2004-11-28,
Meleagris ocellata,Animalia,FRANCOLINS_QUAILS_PARTRIDGES_AND_PHEASANTS_PHASIANIDAE,Ocellated Turkey,,11,-89.6329879761,17.2196425079,North America,Guatemala,GT,,Guatamala - Tikal NP,2004-11-28,
Urocyon cinereoargenteus,Animalia,DOGS_CANIDAE,Grey Fox,,1,-89.6357345581,17.2042289688,North America,Guatemala,GT,,Guatamala - Tikal NP,2004-11-28,
Melanerpes santacruzi,Animalia,WOODPECKERS_PICIDAE,Velasquez's Woodpecker,,1,-91.2744140625,14.685896125376,North America,Guatemala,GT,,Guatemala - Sololá,1997-10-08,
Basilinna leucotis,Animalia,HUMMINGBIRDS_TROCHILIDAE,White-eared Hummingbird,,1,-91.2744140625,14.685896125376,North America,Guatemala,GT,,Guatemala - Sololá,1997-10-07,
Pelecanus occidentalis,Animalia,PELICANS_PELECANIDAE,Brown Pelican,,30,-88.786010742188,15.792253570362,North America,Guatemala,GT,,Guatemala,2007-04-20,
Sporophila morelleti,Animalia,TANAGERS_AND_ALLIES_THRAUPIDAE,Morelet's Seedeater,,1,-89.653930664062,17.240497931237,North America,Guatemala,GT,,Guatemala,1999-11-25,
Meleagris ocellata,Animalia,FRANCOLINS_QUAILS_PARTRIDGES_AND_PHEASANTS_PHASIANIDAE,Ocellated Turkey,,2,-89.653930664062,17.240497931237,North America,Guatemala,GT,,Guatemala,1999-11-25,
Coragyps atratus,Animalia,NEW_WORLD_VULTURES_CATHARTIDAE,Black Vulture,,2,-89.62694255,17.22012595,North America,Guatemala,GT,,Guatamala - Tikal NP,2002-11-28,
Urocyon cinereoargenteus,Animalia,DOGS_CANIDAE,Grey Fox,,1,-89.62422393,17.22172481,North America,Guatemala,GT,,Guatamala - Tikal NP,2002-11-28,
Nasua narica,Animalia,COATIS_RACCOONS_AND_RINGTAILS_PROCYONIDAE,White-nosed Coati,,10,-89.62241498,17.22477845,North America,Guatemala,GT,,Guatamala - Tikal NP,2002-11-28,
Meleagris ocellata,Animalia,FRANCOLINS_QUAILS_PARTRIDGES_AND_PHEASANTS_PHASIANIDAE,Ocellated Turkey,,1,-89.62271652,17.22216752,North America,Guatemala,GT,,Guatamala - Tikal NP,2002-11-28,07:00
Coragyps atratus,Animalia,NEW_WORLD_VULTURES_CATHARTIDAE,Black Vulture,,4,-90.71389496,14.54273644,North America,Guatemala,GT,,Guatemala - Sacatepéquez,2019-11-25,
Pharomachrus mocinno,Animalia,TROGONS_TROGONIDAE,Resplendent Quetzal,,1,-91.2292098999023,14.5916652679443,North America,Guatemala,GT,,Guatemala - Volcan Atitlan,2019-11-27,09:27
Pharomachrus mocinno,Animalia,TROGONS_TROGONIDAE,Resplendent Quetzal,,2,-90.2192230224609,15.2160205841064,North America,Guatemala,GT,,Guatemala - Baja Verapaz,2019-12-02,15:06
Pelecanus occidentalis,Animalia,PELICANS_PELECANIDAE,Brown Pelican,,50,-88.7483520507813,15.8253030776978,North America,Guatemala,GT,,Guatemala - Izabal,2019-12-10,19:33
Pteronymia artena,Animalia,BRUSHFOOTED_BUTTERFLIES_NYMPHALIDAE,Artena Clearwing,,1,-91.223,14.592,North America,Guatemala,GT,,Guatemala - Volcan Atitlan,2018-07-07,12:33
Campylorhynchus capistratus,Animalia,WRENS_TROGLODYTIDAE,Rufous-backed Wren,,1,-92.10236649243767,14.501722143798446,North America,Guatemala,GT,,Guatemala - Retalhuleu,2019-10-27,08:17
Melanerpes santacruzi,Animalia,WOODPECKERS_PICIDAE,Velasquez's Woodpecker,,1,-91.86929254380614,15.737399474394449,North America,Guatemala,GT,,Guatemala - Huehuetenango,2019-10-24,12:18
Sporophila morelleti,Animalia,TANAGERS_AND_ALLIES_THRAUPIDAE,Morelet's Seedeater,,1,-90.38106770302016,15.610176218025115,North America,Guatemala,GT,,Guatemala - Alta Verapaz,2019-10-19,08:45
Pteroglossus torquatus,Animalia,TOUCANS_BARBETS_RAMPHASTIDAE,Collared Aracari,,1,-89.62225067514468,17.22231600058517,North America,Guatemala,GT,,Guatamala - Tikal NP,2019-10-15,11:50
Tityra semifasciata,Animalia,Tityridae,Masked Tityra,,1,-89.61169607223724,17.225606860970128,North America,Guatemala,GT,,Guatamala - Tikal NP,2019-10-15,07:21
Sporophila morelleti,Animalia,TANAGERS_AND_ALLIES_THRAUPIDAE,Morelet's Seedeater,,1,-90.3988302369414,15.781480815737336,North America,Guatemala,GT,,Guatemala - Alta Verapaz,2019-10-13,07:53
Aulacorhynchus prasinus,Animalia,TOUCANS_BARBETS_RAMPHASTIDAE,Emerald Toucanet,,1,-90.21909944298835,15.215795623572106,North America,Guatemala,GT,,Guatemala - Baja Verapaz,2019-10-10,06:13
Pharomachrus mocinno,Animalia,TROGONS_TROGONIDAE,Resplendent Quetzal,,2,-90.21881228107071,15.21511915707807,North America,Guatemala,GT,,Guatemala - Biotopo del Quetzal,2019-10-10,06:12
Campylorhynchus capistratus,Animalia,WRENS_TROGLODYTIDAE,Rufous-backed Wren,,4,-89.78645920846326,14.860015055294832,North America,Guatemala,GT,,Guatemala - Zacapa,2019-10-09,06:33
Campylorhynchus capistratus,Animalia,WRENS_TROGLODYTIDAE,Rufous-backed Wren,,3,-91.07616549071145,13.916776048612055,North America,Guatemala,GT,,Guatemala - Sipacate - Naranjo NP,2019-10-06,17:19
Empidonax traillii,Animalia,TYRANT_FLYCATCHERS_TYRANNIDAE,Willow Flycatcher,,1,-91.15253564692536,14.65753055119352,North America,Guatemala,GT,,Guatemala - Sololá,2019-10-06,09:55
Zonotrichia capensis,Animalia,PASSERELLIDAE,Rufous-collared Sparrow,,1,-90.98410409758522,14.8016865214618,North America,Guatemala,GT,,Guatemala - Chimaltenango,2019-10-02,10:33
Sciurus yucatanensis,Animalia,SQUIRRELS_CHIPMUNKS_AND_PRAIRIEDOGS_SCIURIDAE,Yucatan Squirrel,,2,-89.61416331,17.22613459,North America,Guatemala,GT,,Guatamala - Tikal NP,2019-09-19,
Tityra semifasciata,Animalia,Tityridae,Masked Tityra,,1,-89.61229909,17.22551909,North America,Guatemala,GT,,Guatamala - Tikal NP,2019-09-19,
Pteroglossus torquatus,Animalia,TOUCANS_BARBETS_RAMPHASTIDAE,Collared Aracari,,4,-89.6141204833984,17.2260589599609,North America,Guatemala,GT,,Guatamala - Tikal NP,2019-09-19,10:40
Pteroglossus torquatus,Animalia,TOUCANS_BARBETS_RAMPHASTIDAE,Collared Aracari,,6,-89.6142807006836,17.2259140014648,North America,Guatemala,GT,,Guatamala - Tikal NP,2019-09-17,16:55
Aramides albiventris,Animalia,RAILS_RALLIDAE,Rufous-naped Wood Rail,,2,-89.6142654418945,17.2259292602539,North America,Guatemala,GT,,Guatamala - Tikal NP,2019-09-17,17:13
Alouatta palliata,Animalia,SPIDER_MONKEYS_ATELIDAE,Mantled Howler Monkey,,6,-89.6142654418945,17.2259292602539,North America,Guatemala,GT,,Guatamala - Tikal NP,2019-09-17,17:15
Nasua narica,Animalia,COATIS_RACCOONS_AND_RINGTAILS_PROCYONIDAE,White-nosed Coati,,10,-89.6142578125,17.2259292602539,North America,Guatemala,GT,,Guatamala - Tikal NP,2019-09-17,17:16
Nasua narica,Animalia,COATIS_RACCOONS_AND_RINGTAILS_PROCYONIDAE,White-nosed Coati,,20,-89.6143188476563,17.2253837585449,North America,Guatemala,GT,,Guatamala - Tikal NP,2019-09-18,20:51
Tityra semifasciata,Animalia,Tityridae,Masked Tityra,,12,-89.6143188476563,17.2253837585449,North America,Guatemala,GT,,Guatamala - Tikal NP,2019-09-18,21:25
Cathartes aura,Animalia,NEW_WORLD_VULTURES_CATHARTIDAE,Turkey Vulture,,20,-89.6143188476563,17.2253837585449,North America,Guatemala,GT,,Guatamala - Tikal NP,2019-09-18,21:30
Cathartes aura,Animalia,NEW_WORLD_VULTURES_CATHARTIDAE,Turkey Vulture,,8,-88.99472147,15.63603464,North America,Guatemala,GT,,Guatemala - Izabal,2019-09-16,
Iguana iguana,Animalia,Iguanidae,Common Green Iguana,,1,-88.77387643,15.78440727,North America,Guatemala,GT,,Guatemala - Río Dulce NP,2019-09-16,
Bubulcus ibis,Animalia,HERONS_ARDEIDAE,Western Cattle Egret,,50,-88.83464456,15.76920937,North America,Guatemala,GT,,Guatemala - Izabal,2019-09-16,
Butorides virescens,Animalia,HERONS_ARDEIDAE,Green Heron,,1,-88.99147466,15.64106617,North America,Guatemala,GT,,Guatemala - Río Dulce NP,2019-09-16,
Megaceryle torquata,Animalia,KINGFISHERS_ALCEDINIDAE,Ringed Kingfisher,,1,-88.99147466,15.64106617,North America,Guatemala,GT,,Guatemala - Río Dulce NP,2019-09-16,
Butorides virescens,Animalia,HERONS_ARDEIDAE,Green Heron,,1,-88.99143174,15.64098352,North America,Guatemala,GT,,Guatemala - Río Dulce NP,2019-09-15,
Phalacrocorax brasilianus,Animalia,CORMORANTS_PHALACROCORACIDAE,Neotropic Cormorant,,1,-88.9912796020508,15.6406955718994,North America,Guatemala,GT,,Guatemala - Río Dulce NP,2019-09-14,12:42
Butorides virescens,Animalia,HERONS_ARDEIDAE,Green Heron,,1,-88.9912796020508,15.6406965255737,North America,Guatemala,GT,,Guatemala - Río Dulce NP,2019-09-14,12:42
Riparia riparia,Animalia,SWALLOWS_HIRUNDINIDAE,Sand Martin,,1,-88.9913024902344,15.6406898498535,North America,Guatemala,GT,,Guatemala - Río Dulce NP,2019-09-14,16:08
Cathartes aura,Animalia,NEW_WORLD_VULTURES_CATHARTIDAE,Turkey Vulture,,15,-88.9913177490234,15.6406621932983,North America,Guatemala,GT,,Guatemala - Río Dulce NP,2019-09-13,16:41
Psarocolius montezuma,Animalia,ICTERIDS_ICTERIDAE,Montezuma Oropendola,,1,-88.9913101196289,15.6406536102295,North America,Guatemala,GT,,Guatemala - Río Dulce NP,2019-09-13,16:42
Dione moneta,Animalia,BRUSHFOOTED_BUTTERFLIES_NYMPHALIDAE,Mexican Silverspot,,1,-90.21660715,15.21274168,North America,Guatemala,GT,,Guatemala - Biotopo del Quetzal,2019-09-12,
Heliconius hortense,Animalia,BRUSHFOOTED_BUTTERFLIES_NYMPHALIDAE,Mexican Longwing,,1,-90.21660715,15.21274168,North America,Guatemala,GT,,Guatemala - Biotopo del Quetzal,2019-09-12,
Caligo uranus,Animalia,BRUSHFOOTED_BUTTERFLIES_NYMPHALIDAE,Uranus Giant Owl,,1,-90.21660715,15.21274168,North America,Guatemala,GT,,Guatemala - Biotopo del Quetzal,2019-09-12,
Sciurus deppei,Animalia,SQUIRRELS_CHIPMUNKS_AND_PRAIRIEDOGS_SCIURIDAE,Deppe's Squirrel,,1,-90.21660715,15.21274168,North America,Guatemala,GT,,Guatemala - Biotopo del Quetzal,2019-09-12,
Cathartes aura,Animalia,NEW_WORLD_VULTURES_CATHARTIDAE,Turkey Vulture,,1,-89.93574098,15.53875838,North America,Guatemala,GT,,Guatemala - Alta Verapaz,2019-09-12,
Sayornis nigricans,Animalia,TYRANT_FLYCATCHERS_TYRANNIDAE,Black Phoebe,,1,-89.93574098,15.53875838,North America,Guatemala,GT,,Guatemala - Alta Verapaz,2019-09-12,
Chloroceryle americana,Animalia,KINGFISHERS_ALCEDINIDAE,Green Kingfisher,,10,-89.93574098,15.53875838,North America,Guatemala,GT,,Guatemala - Alta Verapaz,2019-09-12,
Thraupis episcopus,Animalia,TANAGERS_AND_ALLIES_THRAUPIDAE,Blue-grey Tanager,,15,-89.93574098,15.53875838,North America,Guatemala,GT,,Guatemala - Alta Verapaz,2019-09-12,
Pharomachrus mocinno,Animalia,TROGONS_TROGONIDAE,Resplendent Quetzal,,3,-90.2190704345703,15.2158813476563,North America,Guatemala,GT,,Guatemala - Baja Verapaz,2019-09-09,17:17
Pharomachrus mocinno,Animalia,TROGONS_TROGONIDAE,Resplendent Quetzal,,2,-90.21923828125,15.2154626846313,North America,Guatemala,GT,,Guatemala - Baja Verapaz,2019-09-10,11:04
Aulacorhynchus prasinus,Animalia,TOUCANS_BARBETS_RAMPHASTIDAE,Emerald Toucanet,,2,-90.21923828125,15.21546459198,North America,Guatemala,GT,,Guatemala - Baja Verapaz,2019-09-10,11:05
Pharomachrus mocinno,Animalia,TROGONS_TROGONIDAE,Resplendent Quetzal,,1,-90.2170791625977,15.2135190963745,North America,Guatemala,GT,,Guatemala - Biotopo del Quetzal,2019-09-10,12:37
Lepidochelys olivacea,Animalia,Cheloniidae,Olive Ridley Sea Turtle,,2,-90.47873475,13.88791682,North America,Guatemala,GT,,Guatemala - Santa Rosa,2019-09-06,
Adelpha lycorias,Animalia,BRUSHFOOTED_BUTTERFLIES_NYMPHALIDAE,,,1,-90.71663596,14.54240516,North America,Guatemala,GT,,Guatemala - Sacatepéquez,2019-09-06,
Coragyps atratus,Animalia,NEW_WORLD_VULTURES_CATHARTIDAE,Black Vulture,,30,-90.47724679,13.90137808,North America,Guatemala,GT,,Guatemala - Biotopo Monterrico-Hawaii,2019-09-08,
Ardea alba,Animalia,HERONS_ARDEIDAE,Great Egret,,45,-90.47724679,13.90137808,North America,Guatemala,GT,,Guatemala - Biotopo Monterrico-Hawaii,2019-09-08,
Jacana spinosa,Animalia,JACANAS_JACANIDAE,Northern Jacana,,5,-90.47724679,13.90137808,North America,Guatemala,GT,,Guatemala - Biotopo Monterrico-Hawaii,2019-09-08,
Dione juno,Animalia,BRUSHFOOTED_BUTTERFLIES_NYMPHALIDAE,Juno Silverspot,,1,-90.71602777,14.54010485,North America,Guatemala,GT,,Guatemala - Sacatepéquez,2019-09-06,
Parides photinus,Animalia,SWALLOWTAILS_PAPILIONIDAE,Pink-spotted Cattleheart,,1,-90.71602777,14.54010485,North America,Guatemala,GT,,Guatemala - Sacatepéquez,2019-09-06,
Heliconius charithonia,Animalia,BRUSHFOOTED_BUTTERFLIES_NYMPHALIDAE,Zebra Heliconian,,1,-90.71602777,14.54010485,North America,Guatemala,GT,,Guatemala - Sacatepéquez,2019-09-06,
Chlosyne erodyle,Animalia,BRUSHFOOTED_BUTTERFLIES_NYMPHALIDAE,Erodyle Checkerspot,,15,-90.71602777,14.54010485,North America,Guatemala,GT,,Guatemala - Sacatepéquez,2019-09-06,
Aulacorhynchus prasinus,Animalia,TOUCANS_BARBETS_RAMPHASTIDAE,Emerald Toucanet,,2,-90.71323827,14.54297115,North America,Guatemala,GT,,Guatemala - Sacatepéquez,2019-09-06,
Columbina inca,Animalia,PIGEONS_AND_DOVES_COLUMBIDAE,Inca Dove,,14,-90.71735814,14.54018793,North America,Guatemala,GT,,Guatemala - Sacatepéquez,2019-09-06,
Coragyps atratus,Animalia,NEW_WORLD_VULTURES_CATHARTIDAE,Black Vulture,,10,-90.71522344,14.5426518,North America,Guatemala,GT,,Guatemala - Sacatepéquez,2019-09-06,
Coragyps atratus,Animalia,NEW_WORLD_VULTURES_CATHARTIDAE,Black Vulture,,2,-90.7318725585938,14.5520305633545,North America,Guatemala,GT,,Guatemala - Sacatepéquez,2019-09-03,16:55
Coragyps atratus,Animalia,NEW_WORLD_VULTURES_CATHARTIDAE,Black Vulture,,130,-90.7319183349609,14.552020072937,North America,Guatemala,GT,,Guatemala - Sacatepéquez,2019-09-01,15:01
Cathartes aura,Animalia,NEW_WORLD_VULTURES_CATHARTIDAE,Turkey Vulture,,2,-90.7319183349609,14.552020072937,North America,Guatemala,GT,,Guatemala - Sacatepéquez,2019-09-01,15:02
Nasua nasua,Animalia,COATIS_RACCOONS_AND_RINGTAILS_PROCYONIDAE,South American Coati,,1,-89.60494538,17.21259179,North America,Guatemala,GT,,Guatamala - Tikal NP,2002-12-01,
Melanerpes santacruzi,Animalia,WOODPECKERS_PICIDAE,Velasquez's Woodpecker,,1,-90.54859732191419,14.620517593971945,North America,Guatemala,GT,,Guatemala - Guatemala,2019-05-11,17:49
Coragyps atratus,Animalia,NEW_WORLD_VULTURES_CATHARTIDAE,Black Vulture,,4,-90.54837268785624,14.620340969427135,North America,Guatemala,GT,,Guatemala - Guatemala,2019-05-11,17:27
Melanerpes santacruzi,Animalia,WOODPECKERS_PICIDAE,Velasquez's Woodpecker,,2,-90.54860260346024,14.620360205894913,North America,Guatemala,GT,,Guatemala - Guatemala,2019-05-09,06:47
Trogon massena,Animalia,TROGONS_TROGONIDAE,Slaty-tailed Trogon,,1,-89.6236164,17.2220733,North America,Guatemala,GT,,Guatamala - Tikal NP,2017-05-17,06:45
Trogon massena,Animalia,TROGONS_TROGONIDAE,Slaty-tailed Trogon,,1,-89.6236164,17.2220733,North America,Guatemala,GT,,Guatamala - Tikal NP,2017-05-15,06:30
Tityra semifasciata,Animalia,Tityridae,Masked Tityra,,5,-89.6236164,17.2220733,North America,Guatemala,GT,,Guatamala - Tikal NP,2017-05-15,06:30
Thalasseus acuflavidus,Animalia,GULLS_TERNS_AND_SKIMMERS_LARIDAE,Cabot's Tern,,4,-88.7472765,15.825187,North America,Guatemala,GT,,Guatemala - Izabal,2017-05-27,10:30
Pteroglossus torquatus,Animalia,TOUCANS_BARBETS_RAMPHASTIDAE,Collared Aracari,,8,-89.6236164,17.2220733,North America,Guatemala,GT,,Guatamala - Tikal NP,2017-05-15,06:30
Pharomachrus mocinno,Animalia,TROGONS_TROGONIDAE,Resplendent Quetzal,,3,-90.2195889,15.2158651,North America,Guatemala,GT,,Guatemala - Baja Verapaz,2017-06-02,05:20
Pharomachrus mocinno,Animalia,TROGONS_TROGONIDAE,Resplendent Quetzal,,2,-90.2195889,15.2158651,North America,Guatemala,GT,,Guatemala - Baja Verapaz,2017-06-01,05:20
Pharomachrus mocinno,Animalia,TROGONS_TROGONIDAE,Resplendent Quetzal,,1,-90.2195889,15.2158651,North America,Guatemala,GT,,Guatemala - Baja Verapaz,2017-05-31,05:30
Pelecanus occidentalis,Animalia,PELICANS_PELECANIDAE,Brown Pelican,,15,-88.7472765,15.825187,North America,Guatemala,GT,,Guatemala - Izabal,2017-05-27,10:30
Onychorhynchus mexicanus mexicanus,Animalia,Tityridae,Northern Royal Flycatcher ssp mexicanus,,1,-89.6236164,17.2220733,North America,Guatemala,GT,,Guatamala - Tikal NP,2017-05-17,06:45
Onychorhynchus mexicanus mexicanus,Animalia,Tityridae,Northern Royal Flycatcher ssp mexicanus,,3,-89.6236164,17.2220733,North America,Guatemala,GT,,Guatamala - Tikal NP,2017-05-15,06:30
Melanerpes santacruzi,Animalia,WOODPECKERS_PICIDAE,Velasquez's Woodpecker,,1,-89.6236164,17.2220733,North America,Guatemala,GT,,Guatamala - Tikal NP,2017-05-17,06:45
Melanerpes santacruzi,Animalia,WOODPECKERS_PICIDAE,Velasquez's Woodpecker,,5,-89.6236164,17.2220733,North America,Guatemala,GT,,Guatamala - Tikal NP,2017-05-15,06:30
Melanerpes santacruzi,Animalia,WOODPECKERS_PICIDAE,Velasquez's Woodpecker,,2,-89.9809831,15.5775521,North America,Guatemala,GT,,Guatemala - Alta Verapaz,2017-05-30,07:00
Leucophaeus atricilla,Animalia,GULLS_TERNS_AND_SKIMMERS_LARIDAE,Laughing Gull,,3,-88.7472765,15.825187,North America,Guatemala,GT,,Guatemala - Izabal,2017-05-27,10:30
Cathartes aura,Animalia,NEW_WORLD_VULTURES_CATHARTIDAE,Turkey Vulture,,1,-89.6236164,17.2220733,North America,Guatemala,GT,,Guatamala - Tikal NP,2017-05-17,06:45
Cathartes aura,Animalia,NEW_WORLD_VULTURES_CATHARTIDAE,Turkey Vulture,,2,-89.6236164,17.2220733,North America,Guatemala,GT,,Guatamala - Tikal NP,2017-05-15,06:30
Aulacorhynchus prasinus,Animalia,TOUCANS_BARBETS_RAMPHASTIDAE,Emerald Toucanet,,2,-90.2195889,15.2158651,North America,Guatemala,GT,,Guatemala - Baja Verapaz,2017-06-01,05:20
Aulacorhynchus prasinus,Animalia,TOUCANS_BARBETS_RAMPHASTIDAE,Emerald Toucanet,,2,-90.2195889,15.2158651,North America,Guatemala,GT,,Guatemala - Baja Verapaz,2017-05-31,05:30
Aulacorhynchus prasinus,Animalia,TOUCANS_BARBETS_RAMPHASTIDAE,Emerald Toucanet,,2,-90.2195889,15.2158651,North America,Guatemala,GT,,Guatemala - Baja Verapaz,2017-05-30,16:04
Aramides albiventris,Animalia,RAILS_RALLIDAE,Rufous-naped Wood Rail,,5,-89.6236164,17.2220733,North America,Guatemala,GT,,Guatamala - Tikal NP,2017-05-17,06:45
Cathartes aura,Animalia,NEW_WORLD_VULTURES_CATHARTIDAE,Turkey Vulture,,1,-89.61592913,17.21508417,North America,Guatemala,GT,,Guatamala - Tikal NP,1995-09-07,
Jacana spinosa,Animalia,JACANAS_JACANIDAE,Northern Jacana,,1,-89.92263565,16.96675804,North America,Guatemala,GT,,Guatemala - Petén,1995-09-07,
Meleagris ocellata,Animalia,FRANCOLINS_QUAILS_PARTRIDGES_AND_PHEASANTS_PHASIANIDAE,Ocellated Turkey,,1,-89.92263565,16.96675804,North America,Guatemala,GT,,Guatemala - Petén,1995-09-07,
Ramphastos sulfuratus,Animalia,TOUCANS_BARBETS_RAMPHASTIDAE,Keel-billed Toucan,,1,-89.91637173,16.96648385,North America,Guatemala,GT,,Guatemala - Petén,1995-09-07,
Coragyps atratus,Animalia,NEW_WORLD_VULTURES_CATHARTIDAE,Black Vulture,,3,-89.91637173,16.96648385,North America,Guatemala,GT,,Guatemala - Petén,1995-09-07,
Tangara cabanisi,Animalia,TANAGERS_AND_ALLIES_THRAUPIDAE,Cabanis's Tanager,,8,-91.21661782,14.58657033,North America,Guatemala,GT,,Guatemala - Volcan Atitlan,2018-07-08,
Coragyps atratus,Animalia,NEW_WORLD_VULTURES_CATHARTIDAE,Black Vulture,,12,-90.492386,14.618527,North America,Guatemala,GT,,Guatemala - Guatemala,2018-07-03,
Pharomachrus mocinno,Animalia,TROGONS_TROGONIDAE,Resplendent Quetzal,,4,-90.21925181,15.21543083,North America,Guatemala,GT,,Guatemala - Biotopo del Quetzal,2010-07-03,
Tangara cabanisi,Animalia,TANAGERS_AND_ALLIES_THRAUPIDAE,Cabanis's Tanager,,1,-91.15994627,14.54621119,North America,Guatemala,GT,,Guatemala - Finca Los Tarrales,2010-07-10,
Pteroglossus torquatus,Animalia,TOUCANS_BARBETS_RAMPHASTIDAE,Collared Aracari,,1,-89.6257782,17.22213479,North America,Guatemala,GT,,Guatamala - Tikal NP,2009-07-31,
Coragyps atratus,Animalia,NEW_WORLD_VULTURES_CATHARTIDAE,Black Vulture,,1,-88.84963532,15.76567735,North America,Guatemala,GT,,Guatemala - Izabal,2009-08-01,
Pelecanus occidentalis,Animalia,PELICANS_PELECANIDAE,Brown Pelican,,1,-88.84963532,15.76567735,North America,Guatemala,GT,,Guatemala - Izabal,2009-08-01,
Jacana spinosa,Animalia,JACANAS_JACANIDAE,Northern Jacana,,1,-88.84963532,15.76567735,North America,Guatemala,GT,,Guatemala - Izabal,2009-08-01,
Bubulcus ibis,Animalia,HERONS_ARDEIDAE,Western Cattle Egret,,20,-88.84963532,15.76567735,North America,Guatemala,GT,,Guatemala - Izabal,2009-08-01,
Pelecanus occidentalis,Animalia,PELICANS_PELECANIDAE,Brown Pelican,,1,-88.76861393,15.80227264,North America,Guatemala,GT,,Guatemala - Río Dulce NP,2017-07-22,
Pelecanus occidentalis,Animalia,PELICANS_PELECANIDAE,Brown Pelican,,6,-88.76861393,15.80227264,North America,Guatemala,GT,,Guatemala - Río Dulce NP,2017-07-22,
Penelope purpurascens,Animalia,CURASSOWS_GUANS_AND_CHACHALACAS_CRACIDAE,Crested Guan,,2,-89.6247194,17.21879376,North America,Guatemala,GT,,Guatamala - Tikal NP,2017-07-21,
Nasua narica,Animalia,COATIS_RACCOONS_AND_RINGTAILS_PROCYONIDAE,White-nosed Coati,,1,-89.62582815,17.22176235,North America,Guatemala,GT,,Guatamala - Tikal NP,2017-07-21,
Tigrisoma mexicanum,Animalia,HERONS_ARDEIDAE,Bare-throated Tiger Heron,,2,-89.6225448,17.22262626,North America,Guatemala,GT,,Guatamala - Tikal NP,2017-07-21,
Myiozetetes similis,Animalia,TYRANT_FLYCATCHERS_TYRANNIDAE,Social Flycatcher,,3,-89.6225448,17.22262626,North America,Guatemala,GT,,Guatamala - Tikal NP,2017-07-21,
Aramides albiventris,Animalia,RAILS_RALLIDAE,Rufous-naped Wood Rail,,1,-89.6225448,17.22262626,North America,Guatemala,GT,,Guatamala - Tikal NP,2017-07-21,
Doxocopa laure,Animalia,BRUSHFOOTED_BUTTERFLIES_NYMPHALIDAE,Silver Emperor,,1,-89.42933857,17.0553059,North America,Guatemala,GT,,Guatemala - Yaxhá - Nakúm - Naranjo NP,2017-07-21,
Siproeta stelenes,Animalia,BRUSHFOOTED_BUTTERFLIES_NYMPHALIDAE,Malachite,,1,-89.42933857,17.0553059,North America,Guatemala,GT,,Guatemala - Yaxhá - Nakúm - Naranjo NP,2017-07-21,
Marpesia chiron,Animalia,BRUSHFOOTED_BUTTERFLIES_NYMPHALIDAE,Many-banded Daggerwing,,1,-89.42676365,17.05727523,North America,Guatemala,GT,,Guatemala - Yaxhá - Nakúm - Naranjo NP,2017-07-20,
Zonotrichia capensis,Animalia,PASSERELLIDAE,Rufous-collared Sparrow,,1,-90.7365346,14.5616462,North America,Guatemala,GT,,Guatemala - Sacatepéquez,2017-07-18,
Greta morgane oto,Animalia,BRUSHFOOTED_BUTTERFLIES_NYMPHALIDAE,'Darkened' Rusty Clearwing,,1,-90.70357561,14.5656337,North America,Guatemala,GT,,Guatemala - Sacatepéquez,2017-07-18,
Itaballia demophile centralis,Animalia,WHITES_PIERIDAE,,,2,-90.70357561,14.5656337,North America,Guatemala,GT,,Guatemala - Sacatepéquez,2017-07-18,
Dione juno,Animalia,BRUSHFOOTED_BUTTERFLIES_NYMPHALIDAE,Juno Silverspot,,1,-91.26432896,14.71244919,North America,Guatemala,GT,,Guatemala - Sololá,2017-07-17,
Coragyps atratus,Animalia,NEW_WORLD_VULTURES_CATHARTIDAE,Black Vulture,,2,-91.10810235,14.94278035,North America,Guatemala,GT,,Guatemala - Quiché,2017-07-16,
Polistes spec.,Animalia,Vespidae,,,1,-91.14657998,14.73703108,North America,Guatemala,GT,,Guatemala - Sololá,2017-07-16,
Sciurus aureogaster,Animalia,SQUIRRELS_CHIPMUNKS_AND_PRAIRIEDOGS_SCIURIDAE,Mexican Gray Squirrel,,1,-91.17885232,14.7707847,North America,Guatemala,GT,,Guatemala - Sololá,2017-07-15,
Melanerpes formicivorus,Animalia,WOODPECKERS_PICIDAE,Acorn Woodpecker,,1,-90.99676587,14.73632875,North America,Guatemala,GT,,Guatemala - Tecpan - Iximche ruins ,2017-07-15,
Zonotrichia capensis,Animalia,PASSERELLIDAE,Rufous-collared Sparrow,,1,-90.99676587,14.73632875,North America,Guatemala,GT,,Guatemala - Tecpan - Iximche ruins ,2017-07-15,
Hypoestes phyllostachya,Plantae,ACANTHACEAE,Polkadot-plant,,1,-91.228,14.594,North America,Guatemala,GT,,Guatemala - Volcan Atitlan,2018-07-08,07:25
Heliconius erato,Animalia,BRUSHFOOTED_BUTTERFLIES_NYMPHALIDAE,Red Postman,,1,-91.137,14.523,North America,Guatemala,GT,,Guatemala - Finca Los Tarrales,2018-07-09,06:51
Anartia fatima,Animalia,BRUSHFOOTED_BUTTERFLIES_NYMPHALIDAE,Banded Peacock,,20,-91.137,14.523,North America,Guatemala,GT,,Guatemala - Finca Los Tarrales,2018-07-09,06:51
Manataria hercyna,Animalia,BRUSHFOOTED_BUTTERFLIES_NYMPHALIDAE,White-spotted Satyr,,1,-91.229,14.586,North America,Guatemala,GT,,Guatemala - Volcan Atitlan,2018-07-08,11:08
Pteronymia simplex,Animalia,BRUSHFOOTED_BUTTERFLIES_NYMPHALIDAE,,,1,-91.223,14.592,North America,Guatemala,GT,,Guatemala - Volcan Atitlan,2018-07-07,12:30
Heliconius hortense,Animalia,BRUSHFOOTED_BUTTERFLIES_NYMPHALIDAE,Mexican Longwing,,1,-91.222,14.594,North America,Guatemala,GT,,Guatemala - Volcan Atitlan,2018-07-07,08:25
Oxeoschistus hilara,Animalia,BRUSHFOOTED_BUTTERFLIES_NYMPHALIDAE,,,1,-91.198,14.627,North America,Guatemala,GT,,Guatemala - Sololá,2018-07-06,11:25
Danaus plexippus,Animalia,BRUSHFOOTED_BUTTERFLIES_NYMPHALIDAE,American Monarch,,1,-91.153,14.657,North America,Guatemala,GT,,Guatemala - Sololá,2018-07-05,15:17
Diaethria astala,Animalia,BRUSHFOOTED_BUTTERFLIES_NYMPHALIDAE,Astala Eighty-eight,,1,-90.492,14.618,North America,Guatemala,GT,,Guatemala - Guatemala,2018-07-03,16:49
Siproeta epaphus,Animalia,BRUSHFOOTED_BUTTERFLIES_NYMPHALIDAE,Rusty-tipped Page,,1,-90.492,14.618,North America,Guatemala,GT,,Guatemala - Guatemala,2018-07-03,15:10
Asclepias curassavica,Plantae,APOCYNACEAE,Tropical Milkweed,,1,-91.153,14.657,North America,Guatemala,GT,,Guatemala - Sololá,2018-07-05,16:05
Prunella vulgaris,Plantae,Lamiaceae,Selfheal,,1,-91.604,15.554,North America,Guatemala,GT,,Guatemala - Huehuetenango,2018-07-04,15:59
Bombus ephippiatus,Animalia,Apidae,,,1,-91.55,15.51,North America,Guatemala,GT,,Guatemala - Huehuetenango,2018-07-04,13:07
Aconophora spec. ,Animalia,MEMBRACIDAE,,,1,-91.22,14.588,North America,Guatemala,GT,,Guatemala - Volcan Atitlan,2018-07-07,12:00
Pelecinus polyturator,Animalia,PELECINIDAE,American Pelecinid Wasp,,1,-91.198,14.627,North America,Guatemala,GT,,Guatemala - Sololá,2018-07-06,11:44
Aculeata indet.,Animalia,OTHER_WASP_FAMILIES_HYMENOPTERA,,,1,-91.533,15.503,North America,Guatemala,GT,,Guatemala - Huehuetenango,2018-07-04,11:05
Consul fabius,Animalia,BRUSHFOOTED_BUTTERFLIES_NYMPHALIDAE,Tiger leafwing,,1,-91.139,14.516,North America,Guatemala,GT,,Guatemala - Finca Los Tarrales,2018-07-09,10:32
Nica flavilla,Animalia,BRUSHFOOTED_BUTTERFLIES_NYMPHALIDAE,,,1,-91.139,14.516,North America,Guatemala,GT,,Guatemala - Finca Los Tarrales,2018-07-09,10:32
Siproeta stelenes,Animalia,BRUSHFOOTED_BUTTERFLIES_NYMPHALIDAE,Malachite,,1,-91.139,14.516,North America,Guatemala,GT,,Guatemala - Finca Los Tarrales,2018-07-09,10:32
Chlosyne gaudialis,Animalia,BRUSHFOOTED_BUTTERFLIES_NYMPHALIDAE,Gaudy Checkerspot,,1,-91.139,14.517,North America,Guatemala,GT,,Guatemala - Finca Los Tarrales,2018-07-09,09:28
Heliconius erato,Animalia,BRUSHFOOTED_BUTTERFLIES_NYMPHALIDAE,Red Postman,,1,-91.142,14.527,North America,Guatemala,GT,,Guatemala - Finca Los Tarrales,2018-07-09,15:07
Doxocopa laure,Animalia,BRUSHFOOTED_BUTTERFLIES_NYMPHALIDAE,Silver Emperor,,1,-91.139,14.517,North America,Guatemala,GT,,Guatemala - Finca Los Tarrales,2018-07-09,09:28
Dryas iulia,Animalia,BRUSHFOOTED_BUTTERFLIES_NYMPHALIDAE,Julia Heliconian,,1,-91.139,14.517,North America,Guatemala,GT,,Guatemala - Finca Los Tarrales,2018-07-09,09:28
Dynamine postverta,Animalia,BRUSHFOOTED_BUTTERFLIES_NYMPHALIDAE,Four-spotted sailor,,1,-91.139,14.517,North America,Guatemala,GT,,Guatemala - Finca Los Tarrales,2018-07-09,09:28
Dione juno,Animalia,BRUSHFOOTED_BUTTERFLIES_NYMPHALIDAE,Juno Silverspot,,1,-91.139,14.517,North America,Guatemala,GT,,Guatemala - Finca Los Tarrales,2018-07-09,09:28
Hamadryas februa,Animalia,BRUSHFOOTED_BUTTERFLIES_NYMPHALIDAE,Gray Cracker,,1,-91.139,14.517,North America,Guatemala,GT,,Guatemala - Finca Los Tarrales,2018-07-09,09:39
Hamadryas feronia,Animalia,BRUSHFOOTED_BUTTERFLIES_NYMPHALIDAE,,,1,-91.139,14.517,North America,Guatemala,GT,,Guatemala - Finca Los Tarrales,2018-07-09,09:15
Anartia fatima,Animalia,BRUSHFOOTED_BUTTERFLIES_NYMPHALIDAE,Banded Peacock,,1,-91.139,14.517,North America,Guatemala,GT,,Guatemala - Finca Los Tarrales,2018-07-09,09:01
Marpesia corita,Animalia,BRUSHFOOTED_BUTTERFLIES_NYMPHALIDAE,Orange-banded Daggerwing,,3,-91.139,14.517,North America,Guatemala,GT,,Guatemala - Finca Los Tarrales,2018-07-09,09:28
Marpesia coresia,Animalia,BRUSHFOOTED_BUTTERFLIES_NYMPHALIDAE,Waiter Daggerwing,,5,-91.139,14.517,North America,Guatemala,GT,,Guatemala - Finca Los Tarrales,2018-07-09,09:28
Siproeta stelenes,Animalia,BRUSHFOOTED_BUTTERFLIES_NYMPHALIDAE,Malachite,,1,-91.139,14.517,North America,Guatemala,GT,,Guatemala - Finca Los Tarrales,2018-07-09,09:03
Morpho helenor,Animalia,BRUSHFOOTED_BUTTERFLIES_NYMPHALIDAE,Helenor Morpho,,1,-91.139,14.517,North America,Guatemala,GT,,Guatemala - Finca Los Tarrales,2018-07-09,09:28
Sporophila morelleti,Animalia,TANAGERS_AND_ALLIES_THRAUPIDAE,Morelet's Seedeater,,1,-91.1363289971753,14.5227704616399,North America,Guatemala,GT,,Guatemala - Finca Los Tarrales,2018-07-09,06:10
Tangara cabanisi,Animalia,TANAGERS_AND_ALLIES_THRAUPIDAE,Cabanis's Tanager,,7,-91.2296550349251,14.5859537925707,North America,Guatemala,GT,,Guatemala - Volcan Atitlan,2018-07-08,11:23
Tangara cabanisi,Animalia,TANAGERS_AND_ALLIES_THRAUPIDAE,Cabanis's Tanager,,2,-91.2289641146466,14.5900892559575,North America,Guatemala,GT,,Guatemala - Volcan Atitlan,2018-07-08,10:00
Aulacorhynchus prasinus,Animalia,TOUCANS_BARBETS_RAMPHASTIDAE,Emerald Toucanet,,1,-91.2306347955868,14.5906997099655,North America,Guatemala,GT,,Guatemala - Volcan Atitlan,2018-07-08,09:31
Pharomachrus mocinno,Animalia,TROGONS_TROGONIDAE,Resplendent Quetzal,,3,-91.2298644148663,14.5908774901317,North America,Guatemala,GT,,Guatemala - Volcan Atitlan,2018-07-08,09:00
Tangara cabanisi,Animalia,TANAGERS_AND_ALLIES_THRAUPIDAE,Cabanis's Tanager,,2,-91.2281400897458,14.5941747212918,North America,Guatemala,GT,,Guatemala - Volcan Atitlan,2018-07-08,07:16
Aulacorhynchus prasinus,Animalia,TOUCANS_BARBETS_RAMPHASTIDAE,Emerald Toucanet,,1,-91.2281586975709,14.5941942092167,North America,Guatemala,GT,,Guatemala - Volcan Atitlan,2018-07-08,07:11
Sporophila morelleti,Animalia,TANAGERS_AND_ALLIES_THRAUPIDAE,Morelet's Seedeater,,1,-91.2280297000811,14.5981178200008,North America,Guatemala,GT,,Guatemala - Sololá,2018-07-08,06:40
Sporophila morelleti,Animalia,TANAGERS_AND_ALLIES_THRAUPIDAE,Morelet's Seedeater,,1,-91.2494345662103,14.6092093829202,North America,Guatemala,GT,,Guatemala - Sololá,2018-07-07,16:05
Pharomachrus mocinno,Animalia,TROGONS_TROGONIDAE,Resplendent Quetzal,,3,-91.2200458534911,14.5845848182352,North America,Guatemala,GT,,Guatemala - Volcan Atitlan,2018-07-07,10:45
Aulacorhynchus prasinus,Animalia,TOUCANS_BARBETS_RAMPHASTIDAE,Emerald Toucanet,,1,-91.2201473583386,14.5845454651998,North America,Guatemala,GT,,Guatemala - Volcan Atitlan,2018-07-07,10:30
Aulacorhynchus prasinus,Animalia,TOUCANS_BARBETS_RAMPHASTIDAE,Emerald Toucanet,,1,-91.2191514206037,14.5850975811617,North America,Guatemala,GT,,Guatemala - Volcan Atitlan,2018-07-07,10:18
Pharomachrus mocinno,Animalia,TROGONS_TROGONIDAE,Resplendent Quetzal,,1,-91.2196669076488,14.5863480353864,North America,Guatemala,GT,,Guatemala - Volcan Atitlan,2018-07-07,09:27
Aulacorhynchus prasinus,Animalia,TOUCANS_BARBETS_RAMPHASTIDAE,Emerald Toucanet,,2,-91.2198359706357,14.5865776576238,North America,Guatemala,GT,,Guatemala - Volcan Atitlan,2018-07-07,09:13
Pharomachrus mocinno,Animalia,TROGONS_TROGONIDAE,Resplendent Quetzal,,1,-91.2200441771105,14.5865736343102,North America,Guatemala,GT,,Guatemala - Volcan Atitlan,2018-07-07,09:07
Greta annette,Animalia,BRUSHFOOTED_BUTTERFLIES_NYMPHALIDAE,White-spotted Clearwing,,1,-91.2226279,14.59562969,North America,Guatemala,GT,,Guatemala - Volcan Atitlan,2018-07-07,07:40
Aulacorhynchus prasinus,Animalia,TOUCANS_BARBETS_RAMPHASTIDAE,Emerald Toucanet,,2,-91.2247416471049,14.5974213257568,North America,Guatemala,GT,,Guatemala - Sololá,2018-07-07,07:09
Pachyramphus major,Animalia,Tityridae,Grey-collared Becard,,1,-91.2250336726114,14.5978700090336,North America,Guatemala,GT,,Guatemala - Sololá,2018-07-07,07:02
Mutillidae indet.,Animalia,Mutillidae,Velvet Ant unknown,,2,-91.20574943,14.63147096,North America,Guatemala,GT,,Guatemala - Sololá,2018-07-06,14:03
Aulacorhynchus prasinus,Animalia,TOUCANS_BARBETS_RAMPHASTIDAE,Emerald Toucanet,,1,-91.1965303403243,14.62624614594,North America,Guatemala,GT,,Guatemala - Sololá,2018-07-06,10:24
Sciurus deppei,Animalia,SQUIRRELS_CHIPMUNKS_AND_PRAIRIEDOGS_SCIURIDAE,Deppe's Squirrel,,1,-91.1928822,14.62692739,North America,Guatemala,GT,,Guatemala - Sololá,2018-07-06,08:01
Sporophila morelleti,Animalia,TANAGERS_AND_ALLIES_THRAUPIDAE,Morelet's Seedeater,,1,-91.1534122378483,14.6562947239863,North America,Guatemala,GT,,Guatemala - Sololá,2018-07-05,15:05
Sporophila morelleti,Animalia,TANAGERS_AND_ALLIES_THRAUPIDAE,Morelet's Seedeater,,2,-91.1332060676917,14.7696206951651,North America,Guatemala,GT,,Guatemala - Sololá,2018-07-05,10:38
Corallorhiza spec.,Plantae,ORCHIDACEAE,,,3,-91.65,15.55,North America,Guatemala,GT,,Guatemala - Huehuetenango,2018-07-04,17:33
Nasua narica,Animalia,COATIS_RACCOONS_AND_RINGTAILS_PROCYONIDAE,White-nosed Coati,,2,-89.62085184,17.22520798,North America,Guatemala,GT,,Guatamala - Tikal NP,2002-03-27,
Nasua narica,Animalia,COATIS_RACCOONS_AND_RINGTAILS_PROCYONIDAE,White-nosed Coati,,1,-89.62085184,17.22520798,North America,Guatemala,GT,,Guatamala - Tikal NP,2002-03-27,
Meleagris ocellata,Animalia,FRANCOLINS_QUAILS_PARTRIDGES_AND_PHEASANTS_PHASIANIDAE,Ocellated Turkey,,1,-89.60325578302886,17.21496257825,North America,Guatemala,GT,,Guatamala - Tikal NP,2002-03-27,
Pelecanus occidentalis,Animalia,PELICANS_PELECANIDAE,Brown Pelican,,60,-88.74778519,15.82312373,North America,Guatemala,GT,,Guatemala - Izabal,2002-03-25,
Thalasseus maximus,Animalia,GULLS_TERNS_AND_SKIMMERS_LARIDAE,Royal Tern,,7,-88.74778519,15.82312373,North America,Guatemala,GT,,Guatemala - Izabal,2002-03-25,
Phalacrocorax brasilianus,Animalia,CORMORANTS_PHALACROCORACIDAE,Neotropic Cormorant,,11,-88.99108772,15.62994375,North America,Guatemala,GT,,Guatemala - Izabal,2002-03-25,
Phalacrocorax brasilianus,Animalia,CORMORANTS_PHALACROCORACIDAE,Neotropic Cormorant,,500,-88.7907214344097,15.774765420500074,North America,Guatemala,GT,,Guatemala - Río Dulce NP,2006-03-02,
Momotus lessonii,Animalia,MOTMOTS_MOMOTIDAE,Lesson's Motmot,,1,-89.61658402,17.22379246,North America,Guatemala,GT,,Guatamala - Tikal NP,2006-03-12,
Porphyrio martinica,Animalia,RAILS_RALLIDAE,Purple Gallinule,,1,-89.40299607,15.46761108,North America,Guatemala,GT,,Guatemala - Izabal,2006-03-14,
Momotus lessonii,Animalia,MOTMOTS_MOMOTIDAE,Lesson's Motmot,,1,-89.69009371,16.9956335,North America,Guatemala,GT,,Guatemala - Petén,2006-03-10,
Trogon caligatus,Animalia,TROGONS_TROGONIDAE,Gartered Trogon,,1,-89.61670847,17.22371048,North America,Guatemala,GT,,Guatamala - Tikal NP,2006-03-11,
Amazona guatemalae guatemalae,Animalia,PARROTS_PSITTACIDAE,Northern Mealy Amazon ssp guatemalae,,1,-89.6179101,17.22296281,North America,Guatemala,GT,,Guatamala - Tikal NP,2006-03-11,
Jacana spinosa,Animalia,JACANAS_JACANIDAE,Northern Jacana,,1,-88.96074143,15.67407609,North America,Guatemala,GT,,Guatemala - Río Dulce NP,2006-03-02,
Aramides albiventris albiventris,Animalia,RAILS_RALLIDAE,Rufous-naped Wood Rail ssp albiventris,,1,-89.61310025,17.22418259,North America,Guatemala,GT,,Guatamala - Tikal NP,2006-03-12,
Meleagris ocellata,Animalia,FRANCOLINS_QUAILS_PARTRIDGES_AND_PHEASANTS_PHASIANIDAE,Ocellated Turkey,,1,-89.61765261,17.22299519,North America,Guatemala,GT,,Guatamala - Tikal NP,2006-03-11,
Pelecanus occidentalis,Animalia,PELICANS_PELECANIDAE,Brown Pelican,,1,-88.76145973,15.8066338,North America,Guatemala,GT,,Guatemala - Izabal,2006-03-02,
Pelecanus occidentalis,Animalia,PELICANS_PELECANIDAE,Brown Pelican,,1,-88.75289791,15.81292896,North America,Guatemala,GT,,Guatemala - Río Dulce NP,2004-10-20,
Nasua narica,Animalia,COATIS_RACCOONS_AND_RINGTAILS_PROCYONIDAE,White-nosed Coati,,1,-89.61701982,17.22418208,North America,Guatemala,GT,,Guatamala - Tikal NP,2004-10-19,
Attini indet.,Animalia,Formicidae,Fungus-growing ant (Attini) unknown,,1,-89.62034211,17.22230798,North America,Guatemala,GT,,Guatamala - Tikal NP,2004-10-19,
Coragyps atratus,Animalia,NEW_WORLD_VULTURES_CATHARTIDAE,Black Vulture,,2,-89.62234315,17.22121991,North America,Guatemala,GT,,Guatamala - Tikal NP,2004-10-19,
Meleagris ocellata,Animalia,FRANCOLINS_QUAILS_PARTRIDGES_AND_PHEASANTS_PHASIANIDAE,Ocellated Turkey,,1,-89.82922193,16.91712788,North America,Guatemala,GT,,Guatemala - Petén,2004-10-18,
Coragyps atratus,Animalia,NEW_WORLD_VULTURES_CATHARTIDAE,Black Vulture,,100,-90.53099719,14.63271501,North America,Guatemala,GT,,Guatemala - Guatemala,2017-09-21,
Coragyps atratus,Animalia,NEW_WORLD_VULTURES_CATHARTIDAE,Black Vulture,,10,-89.61802483,17.22336042,North America,Guatemala,GT,,Guatamala - Tikal NP,2005-04-17,
Meleagris ocellata,Animalia,FRANCOLINS_QUAILS_PARTRIDGES_AND_PHEASANTS_PHASIANIDAE,Ocellated Turkey,,2,-89.61802483,17.22336042,North America,Guatemala,GT,,Guatamala - Tikal NP,2005-04-17,
Buteo plagiatus,Animalia,HAWKS_AND_EAGLES_ACCIPITRIDAE,Grey Hawk,,1,-89.6878052,17.00708525,North America,Guatemala,GT,,Guatemala - Petén,2005-04-16,
Nasua narica,Animalia,COATIS_RACCOONS_AND_RINGTAILS_PROCYONIDAE,White-nosed Coati,,1,-89.61919785,17.22024372,North America,Guatemala,GT,,Guatamala - Tikal NP,2010-08-01,
Marpesia petreus,Animalia,BRUSHFOOTED_BUTTERFLIES_NYMPHALIDAE,Ruddy Daggerwing,,1,-90.2617836,15.32119115,North America,Guatemala,GT,,Guatemala - Alta Verapaz,2016-03-26,14:00
Leptotes cassius,Animalia,GOSSAMERWINGED_BUTTERFLIES_LYCAENIDAE,,,3,-88.9956522,15.65211029,North America,Guatemala,GT,,Guatemala - Río Dulce NP,2016-03-26,14:00
Heliconius erato,Animalia,BRUSHFOOTED_BUTTERFLIES_NYMPHALIDAE,Red Postman,,1,-89.61112261,17.21818934,North America,Guatemala,GT,,Guatamala - Tikal NP,2016-03-29,
Pareuptychia ocirrhoe,Animalia,BRUSHFOOTED_BUTTERFLIES_NYMPHALIDAE,,,1,-89.00114536,15.65607735,North America,Guatemala,GT,,Guatemala - Río Dulce NP,2016-03-26,14:00
Greta annette,Animalia,BRUSHFOOTED_BUTTERFLIES_NYMPHALIDAE,White-spotted Clearwing,,1,-90.83174229,14.47322434,North America,Guatemala,GT,,Guatemala - Sacatepéquez,2016-03-24,14:00
Nathalis iole,Animalia,WHITES_PIERIDAE,Dainty Sulphur,,6,-90.84822178,14.48652103,North America,Guatemala,GT,,Guatemala - Sacatepéquez,2016-03-24,14:00
Appias drusilla,Animalia,WHITES_PIERIDAE,Tropical white,,1,-91.15436375,14.73786201,North America,Guatemala,GT,,Guatemala - Sololá,2016-03-22,14:00
Psarocolius montezuma,Animalia,ICTERIDS_ICTERIDAE,Montezuma Oropendola,,1,-89.62002754,17.20897615,North America,Guatemala,GT,,Guatamala - Tikal NP,2016-03-30,
Amazona guatemalae guatemalae,Animalia,PARROTS_PSITTACIDAE,Northern Mealy Amazon ssp guatemalae,,1,-89.41829324,17.07417441,North America,Guatemala,GT,,Guatemala - Yaxhá - Nakúm - Naranjo NP,2016-03-30,
Amazona autumnalis autumnalis,Animalia,PARROTS_PSITTACIDAE,Red-lored Amazon ssp autumnalis,,1,-89.61318254,17.2227804,North America,Guatemala,GT,,Guatamala - Tikal NP,2016-03-30,
Ramphastos sulfuratus,Animalia,TOUCANS_BARBETS_RAMPHASTIDAE,Keel-billed Toucan,,1,-89.61318254,17.2227804,North America,Guatemala,GT,,Guatamala - Tikal NP,2016-03-30,
Aulacorhynchus prasinus,Animalia,TOUCANS_BARBETS_RAMPHASTIDAE,Emerald Toucanet,,2,-91.4802,14.7505,North America,Guatemala,GT,,Guatemala - Quezaltenango,2016-11-19,05:53
Regulus calendula,Animalia,KINGLETS_REGULIDAE,Ruby-crowned Kinglet,,1,-91.0055,14.7936,North America,Guatemala,GT,,Guatemala - Cerro Tecpan,2016-11-17,08:34
Meleagris ocellata,Animalia,FRANCOLINS_QUAILS_PARTRIDGES_AND_PHEASANTS_PHASIANIDAE,Ocellated Turkey,,1,-89.60325578302886,17.21496257825,North America,Guatemala,GT,,Guatamala - Tikal NP,1997-07-24,
Gallinula galeata,Animalia,RAILS_RALLIDAE,Common Gallinule,,5,-88.99349167943,15.662378383895,North America,Guatemala,GT,,Guatemala,1991-04-27,
Campylorhynchus capistratus castaneus,Animalia,WRENS_TROGLODYTIDAE,Rufous-backed Wren ssp castaneus,,5,-90.729846507311,13.936107494907,North America,Guatemala,GT,,Guatemala - Escuintla,1991-05-04,
Melanerpes santacruzi,Animalia,WOODPECKERS_PICIDAE,Velasquez's Woodpecker,,2,-90.72961717844,13.937314752611,North America,Guatemala,GT,,Guatemala - Escuintla,1991-05-04,
Campylorhynchus capistratus castaneus,Animalia,WRENS_TROGLODYTIDAE,Rufous-backed Wren ssp castaneus,,1,-90.48740029335,13.891405885224,North America,Guatemala,GT,,Guatemala - Santa Rosa,1991-05-03,
Thalasseus acuflavidus,Animalia,GULLS_TERNS_AND_SKIMMERS_LARIDAE,Cabot's Tern,,10,-90.47647297,13.88740908,North America,Guatemala,GT,,Guatemala - Santa Rosa,1991-05-02,
Campylorhynchus capistratus castaneus,Animalia,WRENS_TROGLODYTIDAE,Rufous-backed Wren ssp castaneus,,1,-90.47706104815,13.889702693723,North America,Guatemala,GT,,Guatemala - Santa Rosa,1991-05-01,
Sporophila morelleti,Animalia,TANAGERS_AND_ALLIES_THRAUPIDAE,Morelet's Seedeater,,2,-88.75338787213,15.832001663311,North America,Guatemala,GT,,Guatemala,1991-04-28,
Thalasseus acuflavidus,Animalia,GULLS_TERNS_AND_SKIMMERS_LARIDAE,Cabot's Tern,,50,-88.75381166,15.8331061,North America,Guatemala,GT,,Guatemala,1991-04-28,
Thalasseus acuflavidus,Animalia,GULLS_TERNS_AND_SKIMMERS_LARIDAE,Cabot's Tern,,50,-88.7545377,15.81520998,North America,Guatemala,GT,,Guatemala,1991-04-27,
Melanerpes santacruzi,Animalia,WOODPECKERS_PICIDAE,Velasquez's Woodpecker,,5,-88.99632409215,15.636219970759,North America,Guatemala,GT,,Guatemala,1991-04-27,
Melanerpes santacruzi,Animalia,WOODPECKERS_PICIDAE,Velasquez's Woodpecker,,5,-90.180558264256,16.537150544742,North America,Guatemala,GT,,Guatemala - Petén,1991-04-25,
Sporophila morelleti,Animalia,TANAGERS_AND_ALLIES_THRAUPIDAE,Morelet's Seedeater,,2,-90.180558264256,16.537150544742,North America,Guatemala,GT,,Guatemala - Petén,1991-04-25,
Melanerpes santacruzi,Animalia,WOODPECKERS_PICIDAE,Velasquez's Woodpecker,,2,-89.878706485033,16.930334959278,North America,Guatemala,GT,,Guatemala - Petén,1991-04-23,
Sporophila morelleti,Animalia,TANAGERS_AND_ALLIES_THRAUPIDAE,Morelet's Seedeater,,5,-89.613082297146,17.224604331645,North America,Guatemala,GT,,Guatamala - Tikal NP,1991-04-22,
Aramides albiventris albiventris,Animalia,RAILS_RALLIDAE,Rufous-naped Wood Rail ssp albiventris,,1,-89.613082297146,17.224604331645,North America,Guatemala,GT,,Guatamala - Tikal NP,1991-04-22,
Melanerpes santacruzi,Animalia,WOODPECKERS_PICIDAE,Velasquez's Woodpecker,,2,-89.613876231015,17.226069741443,North America,Guatemala,GT,,Guatamala - Tikal NP,1991-04-20,
Aramides albiventris albiventris,Animalia,RAILS_RALLIDAE,Rufous-naped Wood Rail ssp albiventris,,2,-89.61296427995,17.22455309333,North America,Guatemala,GT,,Guatamala - Tikal NP,1991-04-20,
Melanerpes santacruzi,Animalia,WOODPECKERS_PICIDAE,Velasquez's Woodpecker,,5,-89.614140763879,17.224429961196,North America,Guatemala,GT,,Guatamala - Tikal NP,1991-04-19,
Psittacara rubritorquis,Animalia,PARROTS_PSITTACIDAE,Red-throated Parakeet,,10,-91.14543735981,14.731553396471,North America,Guatemala,GT,,Guatemala - Sololá,1991-04-13,
Psittacara rubritorquis,Animalia,PARROTS_PSITTACIDAE,Red-throated Parakeet,,10,-91.353907361627,14.925254249063,North America,Guatemala,GT,,Guatemala - Totonicapán,1991-04-06,
Melanerpes santacruzi,Animalia,WOODPECKERS_PICIDAE,Velasquez's Woodpecker,,5,-91.155638471246,14.735394810204,North America,Guatemala,GT,,Guatemala - Sololá,1991-04-12,
Psittacara rubritorquis,Animalia,PARROTS_PSITTACIDAE,Red-throated Parakeet,,10,-91.154544129968,14.737449243231,North America,Guatemala,GT,,Guatemala - Sololá,1991-04-14,
Psittacara rubritorquis,Animalia,PARROTS_PSITTACIDAE,Red-throated Parakeet,,10,-91.154837161303,14.735290726197,North America,Guatemala,GT,,Guatemala - Sololá,1991-04-12,
Psittacara rubritorquis,Animalia,PARROTS_PSITTACIDAE,Red-throated Parakeet,,5,-91.10383965075,14.918100987308,North America,Guatemala,GT,,Guatemala - Quiché,1991-04-08,
Pipilo maculatus,Animalia,PASSERELLIDAE,Spotted Towhee,,5,-91.353993192315,14.925254249063,North America,Guatemala,GT,,Guatemala - Totonicapán,1991-04-09,
Pipilo maculatus,Animalia,PASSERELLIDAE,Spotted Towhee,,10,-91.353993192315,14.925254249063,North America,Guatemala,GT,,Guatemala - Totonicapán,1991-05-07,
Quiscalus mexicanus,Animalia,ICTERIDS_ICTERIDAE,Great-tailed Grackle,,2,-90.7352,14.5521,North America,Guatemala,GT,,Guatemala - Sacatepéquez,2016-01-05,06:51
Psittacara rubritorquis,Animalia,PARROTS_PSITTACIDAE,Red-throated Parakeet,,1,-91.2084960938,14.7430109657,North America,Guatemala,GT,,Guatemala - Sololá,1996-07-31,
Momotus lessonii,Animalia,MOTMOTS_MOMOTIDAE,Lesson's Motmot,,1,-89.5385742188,15.3053795304,North America,Guatemala,GT,,Guatemala,1996-07-30,
Sporophila morelleti,Animalia,TANAGERS_AND_ALLIES_THRAUPIDAE,Morelet's Seedeater,,1,-89.5385742188,15.3053795304,North America,Guatemala,GT,,Guatemala,1996-07-29,
Cathartes aura,Animalia,NEW_WORLD_VULTURES_CATHARTIDAE,Turkey Vulture,,1,-90.9322967529,16.8564624786,North America,Guatemala,GT,,Guatemala - Sierra del Lacandón NP,2003-05-11,11:54
Aramus guarauna,Animalia,LIMPKIN_ARAMIDAE,Limpkin,,1,-89.6136627197,17.2242450714,North America,Guatemala,GT,,Guatamala - Tikal NP,2003-05-10,13:28
Nasua narica,Animalia,COATIS_RACCOONS_AND_RINGTAILS_PROCYONIDAE,White-nosed Coati,,1,-89.6169586182,17.2228107452,North America,Guatemala,GT,,Guatamala - Tikal NP,2003-05-10,13:25
Myiozetetes similis,Animalia,TYRANT_FLYCATCHERS_TYRANNIDAE,Social Flycatcher,,1,-89.6237564087,17.2214221954,North America,Guatemala,GT,,Guatamala - Tikal NP,2003-05-10,12:19
Nasua narica,Animalia,COATIS_RACCOONS_AND_RINGTAILS_PROCYONIDAE,White-nosed Coati,,1,-89.6235275269,17.221113205,North America,Guatemala,GT,,Guatamala - Tikal NP,2003-05-10,11:09
Pteroglossus torquatus,Animalia,TOUCANS_BARBETS_RAMPHASTIDAE,Collared Aracari,,1,-89.6154556274,17.2239131927,North America,Guatemala,GT,,Guatamala - Tikal NP,2003-05-10,09:52
Jacana spinosa,Animalia,JACANAS_JACANIDAE,Northern Jacana,,1,-89.6128463745,17.2243270874,North America,Guatemala,GT,,Guatamala - Tikal NP,2003-05-10,09:38
Coragyps atratus,Animalia,NEW_WORLD_VULTURES_CATHARTIDAE,Black Vulture,,1,-89.6196060181,17.2224369049,North America,Guatemala,GT,,Guatamala - Tikal NP,2003-05-10,09:28
Nasua narica,Animalia,COATIS_RACCOONS_AND_RINGTAILS_PROCYONIDAE,White-nosed Coati,,1,-89.622194767,17.2225242048,North America,Guatemala,GT,,Guatamala - Tikal NP,2003-11-29,
Campylorhynchus capistratus castaneus,Animalia,WRENS_TROGLODYTIDAE,Rufous-backed Wren ssp castaneus,,2,-91.491394043,14.5157917214,North America,Guatemala,GT,,Guatemala,2012-02-28,
Melanerpes santacruzi,Animalia,WOODPECKERS_PICIDAE,Velasquez's Woodpecker,,1,-91.4433288574,14.5982024696,North America,Guatemala,GT,,Guatemala,2012-02-28,
Meleagris ocellata,Animalia,FRANCOLINS_QUAILS_PARTRIDGES_AND_PHEASANTS_PHASIANIDAE,Ocellated Turkey,,1,-89.6220874786,17.2218888415,North America,Guatemala,GT,,Guatamala - Tikal NP,2003-12-02,
Sporophila morelleti,Animalia,TANAGERS_AND_ALLIES_THRAUPIDAE,Morelet's Seedeater,,1,-89.6083116531,17.226602775,North America,Guatemala,GT,,Guatamala - Tikal NP,2003-12-02,
Melanerpes santacruzi,Animalia,WOODPECKERS_PICIDAE,Velasquez's Woodpecker,,1,-89.6043205261,17.2388994267,North America,Guatemala,GT,,Guatamala - Tikal NP,2003-12-02,
Coragyps atratus,Animalia,NEW_WORLD_VULTURES_CATHARTIDAE,Black Vulture,,1,-89.6043205261,17.2388994267,North America,Guatemala,GT,,Guatamala - Tikal NP,2003-12-02,
Meleagris ocellata,Animalia,FRANCOLINS_QUAILS_PARTRIDGES_AND_PHEASANTS_PHASIANIDAE,Ocellated Turkey,,1,-89.6280097961,17.2207000915,North America,Guatemala,GT,,Guatamala - Tikal NP,2003-12-01,
Melanerpes santacruzi,Animalia,WOODPECKERS_PICIDAE,Velasquez's Woodpecker,,1,-89.619383812,17.2251066265,North America,Guatemala,GT,,Guatamala - Tikal NP,2003-12-01,
Myiobius sulphureipygius sulphureipygius,Animalia,Tityridae,Sulphur-rumped Myiobius ssp sulphureipygius,,1,-89.6244049072,17.2190450517,North America,Guatemala,GT,,Guatamala - Tikal NP,2003-12-01,
Coragyps atratus,Animalia,NEW_WORLD_VULTURES_CATHARTIDAE,Black Vulture,,50,-89.6237182617,17.22217578,North America,Guatemala,GT,,Guatamala - Tikal NP,2003-12-01,
Coragyps atratus,Animalia,NEW_WORLD_VULTURES_CATHARTIDAE,Black Vulture,,1,-89.6164226532,17.2236924476,North America,Guatemala,GT,,Guatamala - Tikal NP,2003-11-30,
Melanerpes santacruzi,Animalia,WOODPECKERS_PICIDAE,Velasquez's Woodpecker,,1,-89.6235251427,17.2222372668,North America,Guatemala,GT,,Guatamala - Tikal NP,2003-11-30,
Meleagris ocellata,Animalia,FRANCOLINS_QUAILS_PARTRIDGES_AND_PHEASANTS_PHASIANIDAE,Ocellated Turkey,,10,-89.6235251427,17.2222372668,North America,Guatemala,GT,,Guatamala - Tikal NP,2003-11-30,
Aramides albiventris albiventris,Animalia,RAILS_RALLIDAE,Rufous-naped Wood Rail ssp albiventris,,1,-89.6126890182,17.2242663186,North America,Guatemala,GT,,Guatamala - Tikal NP,2003-11-30,
Pelecanus occidentalis,Animalia,PELICANS_PELECANIDAE,Brown Pelican,,3,-88.7479731574,15.8248653014,North America,Guatemala,GT,,Guatemala,2006-06-20,
Gallinula galeata,Animalia,RAILS_RALLIDAE,Common Gallinule,,1,-88.8456338912,15.7547356215,North America,Guatemala,GT,,Guatemala - Río Dulce NP,2006-06-20,
Trogon melanocephalus,Animalia,TROGONS_TROGONIDAE,Black-headed Trogon,,1,-89.6236036772,17.2220005426,North America,Guatemala,GT,,Guatamala - Tikal NP,2006-06-19,
Coragyps atratus,Animalia,NEW_WORLD_VULTURES_CATHARTIDAE,Black Vulture,,1,-89.6235178465,17.2230458158,North America,Guatemala,GT,,Guatamala - Tikal NP,2006-06-19,
Aramides albiventris albiventris,Animalia,RAILS_RALLIDAE,Rufous-naped Wood Rail ssp albiventris,,1,-89.6129748346,17.2243802727,North America,Guatemala,GT,,Guatamala - Tikal NP,2006-06-19,
