scientificName,kingdom,family,vernacularName,previousIdentifications,individualCount,longitudeDecimal,latitudeDecimal,continent,country,countryCode,stateProvince,locality,eventDate,eventTime
Ara macao,Animalia,PARROTS_PSITTACIDAE,Scarlet Macaw,,8,-89.1437405935052,14.8390698471623,North America,Honduras,HN,,Honduras - Copán Ruinas - sitio archeológico,2014-10-30,09:10
Icterus gularis,Animalia,ICTERIDS_ICTERIDAE,Altamira Oriole,,1,-89.1434582729665,14.8390180262812,North America,Honduras,HN,,Honduras - Copán Ruinas - sitio archeológico,2014-10-30,09:11
Parides photinus,Animalia,SWALLOWTAILS_PAPILIONIDAE,Pink-spotted Cattleheart,,1,-88.228454589844,14.985249651946,North America,Honduras,HN,,Honduras - Santa Bárbara,1993-07-16,
Dione juno,Animalia,BRUSHFOOTED_BUTTERFLIES_NYMPHALIDAE,Juno Silverspot,,1,-88.228454589844,14.985249651946,North America,Honduras,HN,,Honduras - Santa Bárbara,1993-07-16,
Biblis hyperia,Animalia,BRUSHFOOTED_BUTTERFLIES_NYMPHALIDAE,Red Rim,,1,-88.228454589844,14.985249651946,North America,Honduras,HN,,Honduras - Santa Bárbara,1993-07-16,
Bubulcus ibis,Animalia,HERONS_ARDEIDAE,Western Cattle Egret,,2,-87.705077827,14.445890908,North America,Honduras,HN,,Honduras - Estación Experimental La Soledad,1993-01-15,
Psittacara rubritorquis,Animalia,PARROTS_PSITTACIDAE,Red-throated Parakeet,,1,-89.0469360352,14.8704690411,North America,Honduras,HN,,Honduras - Copán,1997-10-12,
Cochlearius cochlearius ridgwayi,Animalia,HERONS_ARDEIDAE,Boat-billed Heron ssp ridgwayi,,1,-86.9991874695,15.7486408371,North America,Honduras,HN,,Honduras - Atlántida,1994-03-16,
Dendrocygna autumnalis fulgens,Animalia,DUCKS_GEESE_AND_SWANS_ANATIDAE,Black-bellied Whistling Duck ssp fulgens,,1,-87.8462719917,14.5961882596,North America,Honduras,HN,,Honduras - Siguatepeque,1993-05-31,
Bubulcus ibis,Animalia,HERONS_ARDEIDAE,Western Cattle Egret,,12,-87.6720571518,14.4655576069,North America,Honduras,HN,,Honduras - Comayagua,1992-12-06,
Melozone biarcuata,Animalia,PASSERELLIDAE,Prevost's Ground Sparrow,,1,-87.8499627113,14.603518234,North America,Honduras,HN,,Honduras - Siguatepeque,1992-11-25,
Tursiops truncatus,Animalia,DOLPHINS_DELPHINIDAE,Common Bottlenose Dolphin,,1,-86.47796636,16.35124076,North America,Honduras,HN,,Honduras - Isla de Roatán,2003-08-23,
Tursiops truncatus,Animalia,DOLPHINS_DELPHINIDAE,Common Bottlenose Dolphin,,4,-86.47796636,16.35124076,North America,Honduras,HN,,Honduras - Isla de Roatán,2003-08-23,
Melanerpes santacruzi,Animalia,WOODPECKERS_PICIDAE,Velasquez's Woodpecker,,8,-89.1484,14.83255,North America,Honduras,HN,,Honduras - Copán,2018-01-14,08:30
Melanerpes santacruzi,Animalia,WOODPECKERS_PICIDAE,Velasquez's Woodpecker,,3,-89.1428947,14.837533,North America,Honduras,HN,,Honduras - Copán Ruinas - sitio archeológico,2018-01-15,09:30
Melanerpes santacruzi,Animalia,WOODPECKERS_PICIDAE,Velasquez's Woodpecker,,4,-89.1428947,14.837533,North America,Honduras,HN,,Honduras - Copán Ruinas - sitio archeológico,2018-01-11,08:30
Melanerpes santacruzi,Animalia,WOODPECKERS_PICIDAE,Velasquez's Woodpecker,,5,-89.1428947,14.837533,North America,Honduras,HN,,Honduras - Copán Ruinas - sitio archeológico,2018-01-10,08:30
Melanerpes santacruzi,Animalia,WOODPECKERS_PICIDAE,Velasquez's Woodpecker,,5,-89.1495466,14.8070813,North America,Honduras,HN,,Honduras - Copán,2018-01-13,08:00
Campylorhynchus capistratus castaneus,Animalia,WRENS_TROGLODYTIDAE,Rufous-backed Wren ssp castaneus,,2,-89.1428947,14.837533,North America,Honduras,HN,,Honduras - Copán Ruinas - sitio archeológico,2018-01-10,08:30
Campylorhynchus capistratus castaneus,Animalia,WRENS_TROGLODYTIDAE,Rufous-backed Wren ssp castaneus,,1,-89.1495466,14.8070813,North America,Honduras,HN,,Honduras - Copán,2018-01-13,08:00
Amazilia candida,Animalia,HUMMINGBIRDS_TROCHILIDAE,White-bellied Emerald,,1,-87.90426135,14.87248072,North America,Honduras,HN,,Honduras - Cerro Azul Meámbar NP,2015-04-22,07:00
Pteroglossus torquatus,Animalia,TOUCANS_BARBETS_RAMPHASTIDAE,Collared Aracari,,2,-87.90426135,14.87248072,North America,Honduras,HN,,Honduras - Cerro Azul Meámbar NP,2015-04-21,17:00
Trogon collaris,Animalia,TROGONS_TROGONIDAE,Collared Trogon,,1,-87.90426135,14.87248072,North America,Honduras,HN,,Honduras - Cerro Azul Meámbar NP,2015-04-21,17:00
Ramphastos sulfuratus,Animalia,TOUCANS_BARBETS_RAMPHASTIDAE,Keel-billed Toucan,,1,-87.90426135,14.87248072,North America,Honduras,HN,,Honduras - Cerro Azul Meámbar NP,2015-04-21,17:00
Cupido comyntas,Animalia,GOSSAMERWINGED_BUTTERFLIES_LYCAENIDAE,Eastern Tailed Blue,,1,-89.1441527,14.83844475,North America,Honduras,HN,,Honduras - Copán Ruinas - sitio archeológico,2017-07-23,
Emesis spec.,Animalia,METALMARKS_RIODINIDAE,,,1,-89.1441527,14.83844475,North America,Honduras,HN,,Honduras - Copán Ruinas - sitio archeológico,2017-07-22,
Ara macao,Animalia,PARROTS_PSITTACIDAE,Scarlet Macaw,,2,-89.14105693674057,14.83931678185,North America,Honduras,HN,,Honduras - Copán Ruinas - sitio archeológico,2002-03-24,
Theobroma cacao,Plantae,MALVACEAE,Cacao,,1,-89.14726846,14.83907255,North America,Honduras,HN,,Honduras - Copán Ruinas - sitio archeológico,2004-10-21,
Ara macao,Animalia,PARROTS_PSITTACIDAE,Scarlet Macaw,,1,-89.1451978,14.83985379,North America,Honduras,HN,,Honduras - Copán Ruinas - sitio archeológico,2004-10-21,
Campylorhynchus capistratus castaneus,Animalia,WRENS_TROGLODYTIDAE,Rufous-backed Wren ssp castaneus,,2,-88.0424,14.948,North America,Honduras,HN,,Honduras - Cortes,2017-02-17,07:13
Numenius hudsonicus hudsonicus,Animalia,SANDPIPERS_AND_ALLIES_SCOLOPACIDAE,Hudsonian Whimbrel ssp hudsonicus,,9,-86.8901,16.087,North America,Honduras,HN,,Honduras - Isla de Utila,2016-12-07,06:03
Numenius hudsonicus hudsonicus,Animalia,SANDPIPERS_AND_ALLIES_SCOLOPACIDAE,Hudsonian Whimbrel ssp hudsonicus,,1,-86.5901,16.3067,North America,Honduras,HN,,Honduras - Isla de Roatán,2016-11-30,07:05
Ara macao,Animalia,PARROTS_PSITTACIDAE,Scarlet Macaw,,16,-89.1425,14.8378,North America,Honduras,HN,,Honduras - Copán Ruinas - sitio archeológico,2016-01-07,09:18
Rostrhamus sociabilis,Animalia,HAWKS_AND_EAGLES_ACCIPITRIDAE,Snail Kite,,1,-88.0081629757,14.9352438599,North America,Honduras,HN,,Honduras - Lago de Yojoa,2004-12-25,
Buteogallus anthracinus anthracinus,Animalia,HAWKS_AND_EAGLES_ACCIPITRIDAE,Common Black Hawk ssp anthracinus,,1,-88.0081629757,14.9352438599,North America,Honduras,HN,,Honduras - Lago de Yojoa,2004-12-25,
Piranga hepatica albifacies,Animalia,GROSBEAKS_SALTATORS_ALLIES_CARDINALIDAE,Hepatic Tanager ssp albifacies,,1,-88.0081629757,14.9352438599,North America,Honduras,HN,,Honduras - Lago de Yojoa,2004-12-25,
Amazona guatemalae guatemalae,Animalia,PARROTS_PSITTACIDAE,Northern Mealy Amazon ssp guatemalae,,1,-88.0081629757,14.9352438599,North America,Honduras,HN,,Honduras - Lago de Yojoa,2004-12-25,
Sciurus variegatoides boothiae,Animalia,SQUIRRELS_CHIPMUNKS_AND_PRAIRIEDOGS_SCIURIDAE,Variegated Squirrel ssp boothiae,,1,-88.00816298,14.93524386,North America,Honduras,HN,,Honduras - Lago de Yojoa,2004-12-25,
Gallinula galeata cachinnans,Animalia,RAILS_RALLIDAE,Common Gallinule ssp cachinnans,,1,-88.0081629757,14.9352438599,North America,Honduras,HN,,Honduras - Lago de Yojoa,2004-12-25,
Ardea herodias herodias,Animalia,HERONS_ARDEIDAE,Great Blue Heron ssp herodias,,1,-88.0081629757,14.9352438599,North America,Honduras,HN,,Honduras - Lago de Yojoa,2004-12-25,
Dendrocygna autumnalis fulgens,Animalia,DUCKS_GEESE_AND_SWANS_ANATIDAE,Black-bellied Whistling Duck ssp fulgens,,1,-88.0081629757,14.9352438599,North America,Honduras,HN,,Honduras - Lago de Yojoa,2004-12-25,
Jacana spinosa,Animalia,JACANAS_JACANIDAE,Northern Jacana,,1,-88.0081629757,14.9352438599,North America,Honduras,HN,,Honduras - Lago de Yojoa,2004-12-25,
Aythya affinis,Animalia,DUCKS_GEESE_AND_SWANS_ANATIDAE,Lesser Scaup,,1,-88.0081629757,14.9352438599,North America,Honduras,HN,,Honduras - Lago de Yojoa,2004-12-25,
Cathartes aura aura,Animalia,NEW_WORLD_VULTURES_CATHARTIDAE,Turkey Vulture ssp aura,,1,-89.1421079618,14.8380224776,North America,Honduras,HN,,Honduras - Copán Ruinas - sitio archeológico,2004-12-22,
Ara macao cyanopterus,Animalia,PARROTS_PSITTACIDAE,Scarlet Macaw ssp cyanopterus,,1,-89.1421079618,14.8380224776,North America,Honduras,HN,,Honduras - Copán Ruinas - sitio archeológico,2004-12-22,
Phaethornis striigularis saturatus,Animalia,HUMMINGBIRDS_TROCHILIDAE,Stripe-throated Hermit ssp saturatus,,1,-87.4540042877,15.7344316357,North America,Honduras,HN,,Honduras - Atlántida,2003-12-14,
Melanerpes santacruzi,Animalia,WOODPECKERS_PICIDAE,Velasquez's Woodpecker,,1,-87.455034256,15.7402971822,North America,Honduras,HN,,Honduras - Atlántida,2003-12-14,
