scientificName,kingdom,family,vernacularName,previousIdentifications,individualCount,longitudeDecimal,latitudeDecimal,continent,country,countryCode,stateProvince,locality,eventDate,eventTime
Uvarovistia spec.,Animalia,KATYDIDS_TETTIGONIIDAE,,,1,44.0467643738,36.9094114133,Asia,Iraq,IQ,,Iraq - Arbil,2014-05-01,
Euchloe ausonia,Animalia,WHITES_PIERIDAE,Eastern Dappled White,,1,44.32801,36.69505,Asia,Iraq,IQ,,Iraq - Arbil,2014-05-01,
Lycaena tityrus,Animalia,GOSSAMERWINGED_BUTTERFLIES_LYCAENIDAE,Sooty Copper,,1,44.7,36.75,Asia,Iraq,IQ,,Iraq - Arbil,2014-04-30,
Vespa orientalis,Animalia,Vespidae,Oriental Hornet,,1,44.4132828712,36.6184899522,Asia,Iraq,IQ,,Iraq - Arbil,2014-04-26,
Hyles livornica,Animalia,Sphingidae,Striped Hawk-moth,,1,44.4135832787,36.6185760644,Asia,Iraq,IQ,,Iraq - Arbil,2014-04-26,
Platycnemis kervillei,Animalia,WHITELEGGED_DAMSELFLIES_PLATYCNEMIDIDAE,Powdered Featherleg,,1,44.2590665817,36.4041349997,Asia,Iraq,IQ,,Iraq - Arbil,2014-05-04,
Pontia edusa,Animalia,WHITES_PIERIDAE,Eastern Bath White,,1,44.9657535553,36.1776178791,Asia,Iraq,IQ,,Iraq - As-Sulaymaniyah,2014-05-02,
Zerynthia deyrollei,Animalia,SWALLOWTAILS_PAPILIONIDAE,Eastern Steppe Festoon,,3,44.2590773106,36.4041781752,Asia,Iraq,IQ,,Iraq - Arbil,2014-05-04,
Platycnemis dealbata,Animalia,WHITELEGGED_DAMSELFLIES_PLATYCNEMIDIDAE,Ivory Featherleg,,6,44.2590773106,36.4041781752,Asia,Iraq,IQ,,Iraq - Arbil,2014-05-04,
Passer domesticus,Animalia,OLD_WORLD_SPARROWS_PASSERIDAE,House Sparrow,,1,43.9900410175,36.1922349658,Asia,Iraq,IQ,,Iraq - Arbil,2014-05-03,
Passer domesticus,Animalia,OLD_WORLD_SPARROWS_PASSERIDAE,House Sparrow,,1,44.0090954303,36.1911612917,Asia,Iraq,IQ,,Iraq - Arbil,2014-05-03,
Crocothemis servilia,Animalia,SKIMMERS_LIBELLULIDAE,Oriental Scarlet,,15,44.96571064,36.1777044812,Asia,Iraq,IQ,,Iraq - As-Sulaymaniyah,2014-05-02,
Anax parthenope,Animalia,DARNERS_AESHNIDAE,Lesser Emperor,,15,44.96571064,36.1777044812,Asia,Iraq,IQ,,Iraq - As-Sulaymaniyah,2014-05-02,
Coracias garrulus,Animalia,ROLLERS_CORACIIDAE,European Roller,,1,44.0386,36.9011,Asia,Iraq,IQ,,Iraq - Arbil,2014-05-01,
Merops apiaster,Animalia,BEEEATERS_MEROPIDAE,European Bee-eater,,1,44.10531,36.86411,Asia,Iraq,IQ,,Iraq - Arbil,2014-05-01,
Sympetrum fonscolombii,Animalia,SKIMMERS_LIBELLULIDAE,Red-veined Darter,,1,44.3281172884,36.6952564639,Asia,Iraq,IQ,,Iraq - Arbil,2014-05-01,
Orthetrum brunneum,Animalia,SKIMMERS_LIBELLULIDAE,Southern Skimmer,,1,44.32801,36.69505,Asia,Iraq,IQ,,Iraq - Arbil,2014-05-01,
Orthetrum brunneum,Animalia,SKIMMERS_LIBELLULIDAE,Southern Skimmer,,1,44.75021,36.80015,Asia,Iraq,IQ,,Iraq - Arbil,2014-04-30,
Iphiclides podalirius,Animalia,SWALLOWTAILS_PAPILIONIDAE,Scarce Swallowtail,,1,44.75,36.8,Asia,Iraq,IQ,,Iraq - Arbil,2014-04-30,
Irania gutturalis,Animalia,OLD_WORLD_FLYCATCHERS_MUSCICAPIDAE,White-throated Robin,,1,44.77248,36.77874,Asia,Iraq,IQ,,Iraq - Arbil,2014-04-29,
Emberiza hortulana,Animalia,BUNTINGS_EMBERIZIDAE,Ortolan Bunting,,5,44.79363,36.78985,Asia,Iraq,IQ,,Iraq - Arbil,2014-04-29,
Irania gutturalis,Animalia,OLD_WORLD_FLYCATCHERS_MUSCICAPIDAE,White-throated Robin,,1,44.79363,36.78985,Asia,Iraq,IQ,,Iraq - Arbil,2014-04-29,
Irania gutturalis,Animalia,OLD_WORLD_FLYCATCHERS_MUSCICAPIDAE,White-throated Robin,,1,44.79363,36.78985,Asia,Iraq,IQ,,Iraq - Arbil,2014-04-29,
Emberiza hortulana,Animalia,BUNTINGS_EMBERIZIDAE,Ortolan Bunting,,6,44.79019,36.79059,Asia,Iraq,IQ,,Iraq - Arbil,2014-04-29,
Irania gutturalis,Animalia,OLD_WORLD_FLYCATCHERS_MUSCICAPIDAE,White-throated Robin,,1,44.77994,36.8032,Asia,Iraq,IQ,,Iraq - Arbil,2014-04-29,
Emberiza melanocephala,Animalia,BUNTINGS_EMBERIZIDAE,Black-headed Bunting,,1,44.50435,36.6224,Asia,Iraq,IQ,,Iraq - Arbil,2014-04-28,
Zerynthia deyrollei,Animalia,SWALLOWTAILS_PAPILIONIDAE,Eastern Steppe Festoon,,1,44.50861,36.63015,Asia,Iraq,IQ,,Iraq - Arbil,2014-04-28,
Emberiza melanocephala,Animalia,BUNTINGS_EMBERIZIDAE,Black-headed Bunting,,1,44.50861,36.63015,Asia,Iraq,IQ,,Iraq - Arbil,2014-04-28,
Zerynthia deyrollei,Animalia,SWALLOWTAILS_PAPILIONIDAE,Eastern Steppe Festoon,,1,44.4884061813,36.6301658989,Asia,Iraq,IQ,,Iraq - Arbil,2014-04-28,
Hirundo rustica,Animalia,SWALLOWS_HIRUNDINIDAE,Barn Swallow,,1,44.4884061813,36.6301658989,Asia,Iraq,IQ,,Iraq - Arbil,2014-04-28,
Epallage fatime,Animalia,GOSSAMERWINGS_EUPHAEIDAE,Odalisque,,1,44.4884061813,36.6301658989,Asia,Iraq,IQ,,Iraq - Arbil,2014-04-28,
Epallage fatime,Animalia,GOSSAMERWINGS_EUPHAEIDAE,Odalisque,,1,44.4884061813,36.6301658989,Asia,Iraq,IQ,,Iraq - Arbil,2014-04-28,
Lanius senator niloticus,Animalia,SHRIKES_LANIIDAE,Eastern Woodchat Shrike,,1,44.2935919762,36.3849108583,Asia,Iraq,IQ,,Iraq - Arbil,2014-04-27,
Passer domesticus,Animalia,OLD_WORLD_SPARROWS_PASSERIDAE,House Sparrow,,1,44.0194809437,36.1524645656,Asia,Iraq,IQ,,Iraq - Arbil,2014-04-27,
Orthetrum brunneum,Animalia,SKIMMERS_LIBELLULIDAE,Southern Skimmer,,1,44.413561821,36.6185760644,Asia,Iraq,IQ,,Iraq - Arbil,2014-04-26,
Danaus chrysippus,Animalia,BRUSHFOOTED_BUTTERFLIES_NYMPHALIDAE,African Monarch,,1,44.5012378693,36.6202121794,Asia,Iraq,IQ,,Iraq - Arbil,2014-04-26,
Emberiza melanocephala,Animalia,BUNTINGS_EMBERIZIDAE,Black-headed Bunting,,1,44.5012378693,36.6202121794,Asia,Iraq,IQ,,Iraq - Arbil,2014-04-26,
Polygonia egea,Animalia,BRUSHFOOTED_BUTTERFLIES_NYMPHALIDAE,Southern Comma,,1,44.5012378693,36.6202121794,Asia,Iraq,IQ,,Iraq - Arbil,2014-04-26,
Hyles livornica,Animalia,Sphingidae,Striped Hawk-moth,,1,44.4459629059,36.6316295727,Asia,Iraq,IQ,,Iraq - Arbil,2014-04-26,
Epallage fatime,Animalia,GOSSAMERWINGS_EUPHAEIDAE,Odalisque,,1,44.4134116173,36.6186105093,Asia,Iraq,IQ,,Iraq - Arbil,2014-04-26,
Calopteryx splendens intermedia,Animalia,BROADWINGED_DAMSELS_CALOPTERYGIDAE,Banded Demoiselle (ssp. intermedia),,10,44.4137120247,36.6186449542,Asia,Iraq,IQ,,Iraq - Arbil,2014-04-26,
Zerynthia deyrollei,Animalia,SWALLOWTAILS_PAPILIONIDAE,Eastern Steppe Festoon,,1,44.3918466568,36.5016332516,Asia,Iraq,IQ,,Iraq - Arbil,2014-04-26,
Zerynthia deyrollei,Animalia,SWALLOWTAILS_PAPILIONIDAE,Eastern Steppe Festoon,,1,44.3918466568,36.5016332516,Asia,Iraq,IQ,,Iraq - Arbil,2014-04-26,
Anacridium aegyptium,Animalia,SHORTHORNED_GRASSHOPPERS_ACRIDIDAE,Egyptian Grasshopper,,1,45.974870748774,35.185491879478,Asia,Iraq,IQ,,Iraq - As-Sulaymaniyah,2012-09-12,
Motacilla flava flava,Animalia,PIPITS_EN_WAGTAILS_MOTACILLIDAE,Blue-headed Wagtail,,1,45.974870748774,35.185491879478,Asia,Iraq,IQ,,Iraq - As-Sulaymaniyah,2012-09-12,
Eogenes alcides,Animalia,SKIPPERS_HESPERIIDAE,Alcides Skipper,,1,45.974870748774,35.185491879478,Asia,Iraq,IQ,,Iraq - As-Sulaymaniyah,2012-09-12,
Papilio demoleus,Animalia,SWALLOWTAILS_PAPILIONIDAE,Lemon Butterfly,,1,45.974870748774,35.185491879478,Asia,Iraq,IQ,,Iraq - As-Sulaymaniyah,2012-09-12,
Hipparchia parisatis,Animalia,BRUSHFOOTED_BUTTERFLIES_NYMPHALIDAE,White-bordered Grayling,,1,46.06585127856,35.300454171043,Asia,Iraq,IQ,,Iraq - As-Sulaymaniyah,2012-09-12,
Macroglossum stellatarum,Animalia,Sphingidae,Humming-bird Hawk Moth,,1,44.470430441157,35.889087795462,Asia,Iraq,IQ,,Iraq - Arbil,2012-09-13,
Gallinula chloropus,Animalia,RAILS_RALLIDAE,Common Moorhen,,1,44.95932204272,35.929130409103,Asia,Iraq,IQ,,Iraq - As-Sulaymaniyah,2012-09-13,
Chroicocephalus ridibundus,Animalia,GULLS_TERNS_AND_SKIMMERS_LARIDAE,Black-headed Gull,,10,44.966531820552,35.95192339624,Asia,Iraq,IQ,,Iraq - As-Sulaymaniyah,2012-09-13,
Chroicocephalus genei,Animalia,GULLS_TERNS_AND_SKIMMERS_LARIDAE,Slender-billed Gull,,5,44.966531820552,35.95192339624,Asia,Iraq,IQ,,Iraq - As-Sulaymaniyah,2012-09-13,
Junonia orithya,Animalia,BRUSHFOOTED_BUTTERFLIES_NYMPHALIDAE,Blue Pansy,,1,44.966531820552,35.95192339624,Asia,Iraq,IQ,,Iraq - As-Sulaymaniyah,2012-09-13,
Larus armenicus,Animalia,GULLS_TERNS_AND_SKIMMERS_LARIDAE,Armenian Gull,,1,44.95932204272,35.929130409103,Asia,Iraq,IQ,,Iraq - As-Sulaymaniyah,2012-09-10,
Streptopelia decaocto,Animalia,PIGEONS_AND_DOVES_COLUMBIDAE,Eurasian Collared Dove,,1,44.95932204272,35.929130409103,Asia,Iraq,IQ,,Iraq - As-Sulaymaniyah,2012-09-10,
Muscicapa striata neumanni,Animalia,OLD_WORLD_FLYCATCHERS_MUSCICAPIDAE,Spotted Flycatcher ssp neumanni,,1,44.95932204272,35.929130409103,Asia,Iraq,IQ,,Iraq - As-Sulaymaniyah,2012-09-10,
Pycnonotus leucotis mesopotamia,Animalia,BULBULS_PYCNONOTIDAE,White-eared Bulbul ssp mesopotamia,,1,44.95932204272,35.929130409103,Asia,Iraq,IQ,,Iraq - As-Sulaymaniyah,2012-09-10,
Merops persicus persicus,Animalia,BEEEATERS_MEROPIDAE,Blue-cheeked Bee-eater ssp persicus,,1,44.95932204272,35.929130409103,Asia,Iraq,IQ,,Iraq - As-Sulaymaniyah,2012-09-10,
Hirundo rustica,Animalia,SWALLOWS_HIRUNDINIDAE,Barn Swallow,,10,44.525962896602,36.614944963653,Asia,Iraq,IQ,,Iraq - Arbil,2012-09-10,
Passer domesticus biblicus,Animalia,OLD_WORLD_SPARROWS_PASSERIDAE,House Sparrow ssp biblicus,,25,44.525962896602,36.614944963653,Asia,Iraq,IQ,,Iraq - Arbil,2012-09-10,
Galerida cristata subtaurica,Animalia,LARKS_ALAUDIDAE,Crested Lark ssp subtaurica,,4,44.525962896602,36.614944963653,Asia,Iraq,IQ,,Iraq - Arbil,2012-09-10,
Ammoperdix griseogularis,Animalia,FRANCOLINS_QUAILS_PARTRIDGES_AND_PHEASANTS_PHASIANIDAE,See-see Partridge,,5,44.525962896602,36.614944963653,Asia,Iraq,IQ,,Iraq - Arbil,2012-09-10,
Merops apiaster,Animalia,BEEEATERS_MEROPIDAE,European Bee-eater,,5,44.027629919307,36.928799556171,Asia,Iraq,IQ,,Iraq - Arbil,2012-09-09,
Cecropis daurica rufula,Animalia,SWALLOWS_HIRUNDINIDAE,Red-rumped Swallow ssp rufula,,10,43.364866800563,37.098723456169,Asia,Iraq,IQ,,Iraq - Dihok,2012-09-09,
Colotis fausta,Animalia,WHITES_PIERIDAE,Large Salmon Arab,,1,44.009626932399,36.189700890745,Asia,Iraq,IQ,,Iraq - Arbil,2012-09-13,
Trithemis annulata,Animalia,SKIMMERS_LIBELLULIDAE,Violet Dropwing,,25,44.000786371486,36.185405966635,Asia,Iraq,IQ,,Iraq - Arbil,2012-09-07,
Colotis fausta,Animalia,WHITES_PIERIDAE,Large Salmon Arab,,1,44.009417295456,36.190568166913,Asia,Iraq,IQ,,Iraq - Arbil,2012-09-07,
Passer domesticus biblicus,Animalia,OLD_WORLD_SPARROWS_PASSERIDAE,House Sparrow ssp biblicus,,10,44.012206792831,36.178375644639,Asia,Iraq,IQ,,Iraq - Arbil,2012-09-07,
Spilopelia senegalensis cambayensis,Animalia,PIGEONS_AND_DOVES_COLUMBIDAE,Laughing Dove ssp cambayensis,,2,44.012206792831,36.178375644639,Asia,Iraq,IQ,,Iraq - Arbil,2012-09-07,
Platycnemis dealbata,Animalia,WHITELEGGED_DAMSELFLIES_PLATYCNEMIDIDAE,Ivory Featherleg,,1,45.67359924,35.31148752,Asia,Iraq,IQ,,Iraq - As-Sulaymaniyah,2018-06-26,
Orthetrum chrysostigma,Animalia,SKIMMERS_LIBELLULIDAE,Epaulet Skimmer,,1,45.80012843,34.95008063,Asia,Iraq,IQ,,Iraq - As-Sulaymaniyah,2018-06-23,
Rhodospiza obsoleta,Animalia,FINCHES_FRINGILLIDAE,Desert Finch,,1,43.988063558936,36.189394621774,Asia,Iraq,IQ,,Iraq - Arbil,2016-04-09,
Vulpes vulpes,Animalia,DOGS_CANIDAE,Red Fox,,1,42.95,36.8,Asia,Iraq,IQ,,Iraq - Dihok,2015-11-28,
