scientificName,kingdom,family,vernacularName,previousIdentifications,individualCount,longitudeDecimal,latitudeDecimal,continent,country,countryCode,stateProvince,locality,eventDate,eventTime
Fregata magnificens,Animalia,FRIGATEBIRDS_FREGATTIDAE,Magnificent Frigatebird,,1,-77.7655049879,17.8834517578,North America,Jamaica,JM,,Jamaica - Saint Elizabeth,2014-08-23,10:36
Cathartes aura,Animalia,NEW_WORLD_VULTURES_CATHARTIDAE,Turkey Vulture,,1,-77.923706118,18.4810895226,North America,Jamaica,JM,,Jamaica - Saint James,2014-08-22,08:29
Egretta caerulea,Animalia,HERONS_ARDEIDAE,Little Blue Heron,,1,-77.6438355446,18.4558371604,North America,Jamaica,JM,,Jamaica - Trelawny,2013-02-25,11:53
Egretta thula,Animalia,HERONS_ARDEIDAE,Snowy Egret,,1,-77.9233270884,18.4750426856,North America,Jamaica,JM,,Jamaica - Saint James,2014-02-25,17:31
Fregata magnificens,Animalia,FRIGATEBIRDS_FREGATTIDAE,Magnificent Frigatebird,,2,-77.8700315952,18.5207339749,North America,Jamaica,JM,,Jamaica,2014-02-25,15:22
Nyctanassa violacea,Animalia,HERONS_ARDEIDAE,Yellow-crowned Night Heron,,1,-77.1675261855,18.4340798365,North America,Jamaica,JM,,Jamaica - Saint Ann,2014-02-23,19:30
Trochilus polytmus,Animalia,HUMMINGBIRDS_TROCHILIDAE,Red-billed Streamertail,,2,-76.9534000754,18.3503275282,North America,Jamaica,JM,,Jamaica - Saint Mary,2014-02-23,09:45
Anthracothorax mango,Animalia,HUMMINGBIRDS_TROCHILIDAE,Jamaican Mango,,1,-76.9534000754,18.3503275282,North America,Jamaica,JM,,Jamaica - Saint Mary,2014-02-23,08:45
Columbina passerina jamaicensis,Animalia,PIGEONS_AND_DOVES_COLUMBIDAE,Common Ground Dove ssp jamaicensis,,2,-76.9536548853,18.3502791577,North America,Jamaica,JM,,Jamaica - Saint Mary,2014-02-23,07:08
Setophaga ruticilla,Animalia,NEW_WORLD_WARBLERS_PARULIDAE,American Redstart,,1,-76.9536548853,18.3502791577,North America,Jamaica,JM,,Jamaica - Saint Mary,2014-02-23,06:56
Tyrannus caudifasciatus,Animalia,TYRANT_FLYCATCHERS_TYRANNIDAE,Loggerhead Kingbird,,1,-76.9538506866,18.3501849624,North America,Jamaica,JM,,Jamaica - Saint Mary,2014-02-22,17:30
Pardirallus maculatus,Animalia,RAILS_RALLIDAE,Spotted Rail,,1,-77.71881457,18.09755144,North America,Jamaica,JM,,Jamaica - Saint Elizabeth,2014-03-15,18:23
Tyto furcata,Animalia,BARN_OWLS_TYTONIDAE,American Barn Owl,,1,-77.71876109,18.09796559,North America,Jamaica,JM,,Jamaica - Saint Elizabeth,2014-03-15,18:26
Geotrygon versicolor,Animalia,PIGEONS_AND_DOVES_COLUMBIDAE,Crested Quail-Dove,,1,-77.44799121,18.37643341,North America,Jamaica,JM,,Jamaica - Trelawny,2014-03-15,08:31
Geotrygon versicolor,Animalia,PIGEONS_AND_DOVES_COLUMBIDAE,Crested Quail-Dove,,1,-77.4479174427688,18.3763941982761,North America,Jamaica,JM,,Jamaica - Trelawny,2014-03-15,08:31
Porphyrio martinica,Animalia,RAILS_RALLIDAE,Purple Gallinule,,1,-77.7200293075293,18.0894638411701,North America,Jamaica,JM,,Jamaica - Saint Elizabeth,2014-03-15,16:14
Pardirallus maculatus,Animalia,RAILS_RALLIDAE,Spotted Rail,,2,-77.7171954698861,18.0957926390693,North America,Jamaica,JM,,Jamaica - Saint Elizabeth,2014-03-15,17:52
Tyto furcata,Animalia,BARN_OWLS_TYTONIDAE,American Barn Owl,,2,-77.7188442740589,18.0974135315046,North America,Jamaica,JM,,Jamaica - Saint Elizabeth,2014-03-15,18:12
Patagioenas leucocephala,Animalia,PIGEONS_AND_DOVES_COLUMBIDAE,White-crowned Pigeon,,2,-76.9536924362,18.3501773249,North America,Jamaica,JM,,Jamaica - Saint Mary,2014-02-23,17:00
Quiscalus niger,Animalia,ICTERIDS_ICTERIDAE,Greater Antillean Grackle,,2,-76.9536924362,18.3501773249,North America,Jamaica,JM,,Jamaica - Saint Mary,2014-02-23,17:00
Trochilus polytmus,Animalia,HUMMINGBIRDS_TROCHILIDAE,Red-billed Streamertail,,4,-77.8243589401,18.1545175251,North America,Jamaica,JM,,Jamaica - Saint Elizabeth,2014-02-20,11:00
Bubulcus ibis,Animalia,HERONS_ARDEIDAE,Western Cattle Egret,,25,-77.8292512894,18.1481558845,North America,Jamaica,JM,,Jamaica - Saint Elizabeth,2014-02-20,11:00
Anthracothorax mango,Animalia,HUMMINGBIRDS_TROCHILIDAE,Jamaican Mango,,2,-77.8280925751,18.1403513442,North America,Jamaica,JM,,Jamaica - Saint Elizabeth,2014-02-20,11:00
Butorides virescens,Animalia,HERONS_ARDEIDAE,Green Heron,,1,-77.923925221,18.4680262653,North America,Jamaica,JM,,Jamaica - Saint James,2014-02-25,18:00
Eupsittula nana nana,Animalia,PARROTS_PSITTACIDAE,Olive-throated Parakeet ssp nana,,3,-77.60892781,18.48140925,North America,Jamaica,JM,,Jamaica - Trelawny,2014-03-14,06:41
Eupsittula nana nana,Animalia,PARROTS_PSITTACIDAE,Olive-throated Parakeet ssp nana,,12,-77.61000446,18.47953249,North America,Jamaica,JM,,Jamaica - Trelawny,2014-03-14,06:51
Trochilus polytmus,Animalia,HUMMINGBIRDS_TROCHILIDAE,Red-billed Streamertail,,1,-77.6108124,18.47810539,North America,Jamaica,JM,,Jamaica - Trelawny,2014-03-14,07:06
Myiarchus barbirostris,Animalia,TYRANT_FLYCATCHERS_TYRANNIDAE,Sad Flycatcher,,1,-77.61171253,18.47435956,North America,Jamaica,JM,,Jamaica - Trelawny,2014-03-14,07:27
Egretta thula,Animalia,HERONS_ARDEIDAE,Snowy Egret,,2,-77.9419871822,18.4580806396,North America,Jamaica,JM,,Jamaica - Saint James,2014-03-13,18:20
Fregata magnificens,Animalia,FRIGATEBIRDS_FREGATTIDAE,Magnificent Frigatebird,,1,-77.92657153,18.4709509,North America,Jamaica,JM,,Jamaica,2014-03-13,17:11
Fregata magnificens,Animalia,FRIGATEBIRDS_FREGATTIDAE,Magnificent Frigatebird,,2,-77.92875867,18.46974762,North America,Jamaica,JM,,Jamaica,2014-03-13,17:21
Tyto furcata,Animalia,BARN_OWLS_TYTONIDAE,American Barn Owl,,1,-77.5231491805,18.4210007946,North America,Jamaica,JM,,Jamaica - Trelawny,2014-03-10,18:48
Egretta caerulea,Animalia,HERONS_ARDEIDAE,Little Blue Heron,,1,-77.71197122,18.50267981,North America,Jamaica,JM,,Jamaica - Trelawny,2014-03-09,15:24
Egretta caerulea,Animalia,HERONS_ARDEIDAE,Little Blue Heron,,3,-77.71605606,18.50598093,North America,Jamaica,JM,,Jamaica - Trelawny,2014-03-09,15:43
Thalasseus acuflavidus,Animalia,GULLS_TERNS_AND_SKIMMERS_LARIDAE,Cabot's Tern,,1,-77.7147326,18.50611777,North America,Jamaica,JM,,Jamaica - Trelawny,2014-03-09,15:59
Egretta caerulea,Animalia,HERONS_ARDEIDAE,Little Blue Heron,,1,-77.67302128,18.48971204,North America,Jamaica,JM,,Jamaica - Trelawny,2014-03-09,16:20
Egretta caerulea,Animalia,HERONS_ARDEIDAE,Little Blue Heron,,1,-77.66307549,18.49633844,North America,Jamaica,JM,,Jamaica - Trelawny,2014-03-09,16:25
Egretta caerulea,Animalia,HERONS_ARDEIDAE,Little Blue Heron,,1,-77.60166787,18.48462,North America,Jamaica,JM,,Jamaica - Trelawny,2014-03-09,16:51
Egretta caerulea,Animalia,HERONS_ARDEIDAE,Little Blue Heron,,1,-77.71197122,18.50267981,North America,Jamaica,JM,,Jamaica - Trelawny,2014-03-09,15:24
Egretta caerulea,Animalia,HERONS_ARDEIDAE,Little Blue Heron,,3,-77.71605606,18.50598093,North America,Jamaica,JM,,Jamaica - Trelawny,2014-03-09,15:43
Thalasseus acuflavidus,Animalia,GULLS_TERNS_AND_SKIMMERS_LARIDAE,Cabot's Tern,,1,-77.7147326,18.50611777,North America,Jamaica,JM,,Jamaica - Trelawny,2014-03-09,15:59
Egretta caerulea,Animalia,HERONS_ARDEIDAE,Little Blue Heron,,1,-77.67302128,18.48971204,North America,Jamaica,JM,,Jamaica - Trelawny,2014-03-09,16:20
Egretta caerulea,Animalia,HERONS_ARDEIDAE,Little Blue Heron,,1,-77.66307549,18.49633844,North America,Jamaica,JM,,Jamaica - Trelawny,2014-03-09,16:25
Egretta caerulea,Animalia,HERONS_ARDEIDAE,Little Blue Heron,,1,-77.60166787,18.48462,North America,Jamaica,JM,,Jamaica - Trelawny,2014-03-09,16:51
Egretta tricolor,Animalia,HERONS_ARDEIDAE,Tricolored Heron,,1,-76.443772315979,18.174559256237,North America,Jamaica,JM,,Jamaica - Blue Mountain/John Crow Mountain NP,2003-03-05,
Coereba flaveola,Animalia,TANAGERS_AND_ALLIES_THRAUPIDAE,Bananaquit,,1,-77.914566993713,18.465281184428,North America,Jamaica,JM,,Jamaica - Saint James,2003-03-03,
Patagioenas leucocephala,Animalia,PIGEONS_AND_DOVES_COLUMBIDAE,White-crowned Pigeon,,1,-77.914566993713,18.465281184428,North America,Jamaica,JM,,Jamaica - Saint James,2003-03-03,
Cathartes aura,Animalia,NEW_WORLD_VULTURES_CATHARTIDAE,Turkey Vulture,,1,-77.914566993713,18.465281184428,North America,Jamaica,JM,,Jamaica - Saint James,2003-03-03,
Bubulcus ibis,Animalia,HERONS_ARDEIDAE,Western Cattle Egret,,1,-77.914566993713,18.465281184428,North America,Jamaica,JM,,Jamaica - Saint James,2003-03-03,
Butorides virescens,Animalia,HERONS_ARDEIDAE,Green Heron,,1,-77.096871435642,18.40559599672,North America,Jamaica,JM,,Jamaica - Ocho Rios,2003-03-01,
Egretta caerulea,Animalia,HERONS_ARDEIDAE,Little Blue Heron,,1,-77.096871435642,18.40559599672,North America,Jamaica,JM,,Jamaica - Ocho Rios,2003-03-01,
Trochilus polytmus,Animalia,HUMMINGBIRDS_TROCHILIDAE,Red-billed Streamertail,,4,-76.626205444336,18.014650896221,North America,Jamaica,JM,,Jamaica - Blue Mountain/John Crow Mountain NP,2013-03-14,
Trochilus scitulus,Animalia,HUMMINGBIRDS_TROCHILIDAE,Black-billed Streamertail,,3,-76.397552490234,18.152376614237,North America,Jamaica,JM,,Jamaica - Blue Mountain/John Crow Mountain NP,2013-03-14,
Tyto furcata,Animalia,BARN_OWLS_TYTONIDAE,American Barn Owl,,1,-76.330261230469,18.074062447156,North America,Jamaica,JM,,Jamaica - Portland,2013-03-13,
Trochilus polytmus,Animalia,HUMMINGBIRDS_TROCHILIDAE,Red-billed Streamertail,,4,-76.624145507812,18.021833578255,North America,Jamaica,JM,,Jamaica - Blue Mountain/John Crow Mountain NP,2013-03-12,
Fregata magnificens,Animalia,FRIGATEBIRDS_FREGATTIDAE,Magnificent Frigatebird,,1,-77.85443086351779,18.36933800000014,North America,Jamaica,JM,,Jamaica - Saint James,2013-01-26,
Eupsittula nana nana,Animalia,PARROTS_PSITTACIDAE,Olive-throated Parakeet ssp nana,,1,-77.82001104639971,18.00999379822265,North America,Jamaica,JM,,Jamaica - Black River Lower Morass NP,2013-01-26,
Nycticorax nycticorax hoactli,Animalia,HERONS_ARDEIDAE,Black-crowned Night Heron ssp hoactli,,1,-77.82001104639971,18.00999379822265,North America,Jamaica,JM,,Jamaica - Black River Lower Morass NP,2013-01-25,
Egretta thula brewsteri,Animalia,HERONS_ARDEIDAE,Snowy Egret ssp brewsteri,,1,-77.82001104639971,18.00999379822265,North America,Jamaica,JM,,Jamaica - Black River Lower Morass NP,2013-01-25,
Ardea alba egretta,Animalia,HERONS_ARDEIDAE,American Great Egret,,1,-77.82001104639971,18.00999379822265,North America,Jamaica,JM,,Jamaica - Black River Lower Morass NP,2013-01-25,
Falco sparverius,Animalia,CARACAS_AND_FALCONS_FALCONIDAE,American Kestrel,,1,-78.1574785174717,18.192373561609532,North America,Jamaica,JM,,Jamaica - Westmoreland,2013-01-25,
Zenaida aurita zenaida,Animalia,PIGEONS_AND_DOVES_COLUMBIDAE,Zenaida Dove ssp zenaida,,1,-78.15528175717921,18.197961886992793,North America,Jamaica,JM,,Jamaica - Westmoreland,2013-01-25,
Myiarchus validus,Animalia,TYRANT_FLYCATCHERS_TYRANNIDAE,Rufous-tailed Flycatcher,,1,-78.1574785174717,18.192373561609532,North America,Jamaica,JM,,Jamaica - Westmoreland,2013-01-25,
Turdus aurantius,Animalia,THRUSHES_TURDIDAE,White-chinned Thrush,,1,-78.1574785174717,18.192373561609532,North America,Jamaica,JM,,Jamaica - Westmoreland,2013-01-25,
Quiscalus niger,Animalia,ICTERIDS_ICTERIDAE,Greater Antillean Grackle,,1,-78.33646774292,18.355421632544,North America,Jamaica,JM,,Jamaica - Hanover,2013-01-25,
Tyrannus caudifasciatus,Animalia,TYRANT_FLYCATCHERS_TYRANNIDAE,Loggerhead Kingbird,,1,-78.33646774292,18.355421632544,North America,Jamaica,JM,,Jamaica - Hanover,2013-01-25,
Melanerpes radiolatus,Animalia,WOODPECKERS_PICIDAE,Jamaican Woodpecker,,1,-78.33646774292,18.355421632544,North America,Jamaica,JM,,Jamaica - Hanover,2013-01-25,
Trochilus polytmus,Animalia,HUMMINGBIRDS_TROCHILIDAE,Red-billed Streamertail,,1,-78.33646774292,18.355421632544,North America,Jamaica,JM,,Jamaica - Hanover,2013-01-25,
Anthracothorax mango,Animalia,HUMMINGBIRDS_TROCHILIDAE,Jamaican Mango,,1,-78.33646774292,18.355421632544,North America,Jamaica,JM,,Jamaica - Hanover,2013-01-25,
Pelecanus occidentalis,Animalia,PELICANS_PELECANIDAE,Brown Pelican,,1,-78.33646774292,18.355421632544,North America,Jamaica,JM,,Jamaica - Hanover,2013-01-25,
Quiscalus niger,Animalia,ICTERIDS_ICTERIDAE,Greater Antillean Grackle,,1,-78.33646774292,18.355421632544,North America,Jamaica,JM,,Jamaica - Hanover,2013-01-23,
Tyrannus caudifasciatus,Animalia,TYRANT_FLYCATCHERS_TYRANNIDAE,Loggerhead Kingbird,,1,-78.33646774292,18.355421632544,North America,Jamaica,JM,,Jamaica - Hanover,2013-01-23,
Trochilus polytmus,Animalia,HUMMINGBIRDS_TROCHILIDAE,Red-billed Streamertail,,1,-78.33646774292,18.355421632544,North America,Jamaica,JM,,Jamaica - Hanover,2013-01-23,
Anthracothorax mango,Animalia,HUMMINGBIRDS_TROCHILIDAE,Jamaican Mango,,1,-78.33646774292,18.355421632544,North America,Jamaica,JM,,Jamaica - Hanover,2013-01-23,
Pelecanus occidentalis,Animalia,PELICANS_PELECANIDAE,Brown Pelican,,1,-78.33646774292,18.355421632544,North America,Jamaica,JM,,Jamaica - Hanover,2013-01-23,
Quiscalus niger,Animalia,ICTERIDS_ICTERIDAE,Greater Antillean Grackle,,1,-78.336639404297,18.353222097674,North America,Jamaica,JM,,Jamaica - Hanover,2013-01-23,
Tyrannus caudifasciatus,Animalia,TYRANT_FLYCATCHERS_TYRANNIDAE,Loggerhead Kingbird,,1,-78.336639404297,18.353222097674,North America,Jamaica,JM,,Jamaica - Hanover,2013-01-23,
Trochilus polytmus,Animalia,HUMMINGBIRDS_TROCHILIDAE,Red-billed Streamertail,,1,-78.336639404297,18.353222097674,North America,Jamaica,JM,,Jamaica - Hanover,2013-01-23,
Anthracothorax mango,Animalia,HUMMINGBIRDS_TROCHILIDAE,Jamaican Mango,,1,-78.336639404297,18.353222097674,North America,Jamaica,JM,,Jamaica - Hanover,2013-01-23,
Pelecanus occidentalis,Animalia,PELICANS_PELECANIDAE,Brown Pelican,,1,-78.336639404297,18.353222097674,North America,Jamaica,JM,,Jamaica - Hanover,2013-01-23,
Quiscalus niger,Animalia,ICTERIDS_ICTERIDAE,Greater Antillean Grackle,,1,-78.336639404297,18.353222097674,North America,Jamaica,JM,,Jamaica - Hanover,2013-01-22,
Tyrannus caudifasciatus,Animalia,TYRANT_FLYCATCHERS_TYRANNIDAE,Loggerhead Kingbird,,1,-78.336639404297,18.353222097674,North America,Jamaica,JM,,Jamaica - Hanover,2013-01-22,
Trochilus polytmus,Animalia,HUMMINGBIRDS_TROCHILIDAE,Red-billed Streamertail,,1,-78.336639404297,18.353222097674,North America,Jamaica,JM,,Jamaica - Hanover,2013-01-22,
Anthracothorax mango,Animalia,HUMMINGBIRDS_TROCHILIDAE,Jamaican Mango,,1,-78.336639404297,18.353222097674,North America,Jamaica,JM,,Jamaica - Hanover,2013-01-22,
Pelecanus occidentalis,Animalia,PELICANS_PELECANIDAE,Brown Pelican,,1,-78.336639404297,18.353222097674,North America,Jamaica,JM,,Jamaica - Hanover,2013-01-22,
Quiscalus niger,Animalia,ICTERIDS_ICTERIDAE,Greater Antillean Grackle,,1,-78.337669372559,18.354851385453,North America,Jamaica,JM,,Jamaica - Hanover,2013-01-21,
Trochilus polytmus,Animalia,HUMMINGBIRDS_TROCHILIDAE,Red-billed Streamertail,,1,-78.337669372559,18.354851385453,North America,Jamaica,JM,,Jamaica - Hanover,2013-01-21,
Anthracothorax mango,Animalia,HUMMINGBIRDS_TROCHILIDAE,Jamaican Mango,,1,-78.337669372559,18.354851385453,North America,Jamaica,JM,,Jamaica - Hanover,2013-01-21,
Tyrannus caudifasciatus,Animalia,TYRANT_FLYCATCHERS_TYRANNIDAE,Loggerhead Kingbird,,1,-78.337326049805,18.355177241164,North America,Jamaica,JM,,Jamaica - Hanover,2013-01-21,
Pelecanus occidentalis,Animalia,PELICANS_PELECANIDAE,Brown Pelican,,1,-78.337326049805,18.355177241164,North America,Jamaica,JM,,Jamaica - Hanover,2013-01-21,
Quiscalus niger,Animalia,ICTERIDS_ICTERIDAE,Greater Antillean Grackle,,1,-78.337326049805,18.355177241164,North America,Jamaica,JM,,Jamaica - Hanover,2013-01-20,
Tyrannus caudifasciatus,Animalia,TYRANT_FLYCATCHERS_TYRANNIDAE,Loggerhead Kingbird,,1,-78.337326049805,18.355177241164,North America,Jamaica,JM,,Jamaica - Hanover,2013-01-20,
Trochilus polytmus,Animalia,HUMMINGBIRDS_TROCHILIDAE,Red-billed Streamertail,,1,-78.337326049805,18.355177241164,North America,Jamaica,JM,,Jamaica - Hanover,2013-01-20,
Anthracothorax mango,Animalia,HUMMINGBIRDS_TROCHILIDAE,Jamaican Mango,,1,-78.337326049805,18.355177241164,North America,Jamaica,JM,,Jamaica - Hanover,2013-01-20,
Pelecanus occidentalis,Animalia,PELICANS_PELECANIDAE,Brown Pelican,,1,-78.337326049805,18.355177241164,North America,Jamaica,JM,,Jamaica - Hanover,2013-01-20,
Quiscalus niger,Animalia,ICTERIDS_ICTERIDAE,Greater Antillean Grackle,,1,-78.337326049805,18.355177241164,North America,Jamaica,JM,,Jamaica - Hanover,2013-01-19,
Tyrannus caudifasciatus,Animalia,TYRANT_FLYCATCHERS_TYRANNIDAE,Loggerhead Kingbird,,1,-78.337326049805,18.355177241164,North America,Jamaica,JM,,Jamaica - Hanover,2013-01-19,
Trochilus polytmus,Animalia,HUMMINGBIRDS_TROCHILIDAE,Red-billed Streamertail,,1,-78.337326049805,18.355177241164,North America,Jamaica,JM,,Jamaica - Hanover,2013-01-19,
Anthracothorax mango,Animalia,HUMMINGBIRDS_TROCHILIDAE,Jamaican Mango,,1,-78.337326049805,18.355177241164,North America,Jamaica,JM,,Jamaica - Hanover,2013-01-19,
Pelecanus occidentalis,Animalia,PELICANS_PELECANIDAE,Brown Pelican,,1,-78.337326049805,18.355177241164,North America,Jamaica,JM,,Jamaica - Hanover,2013-01-17,
Quiscalus niger,Animalia,ICTERIDS_ICTERIDAE,Greater Antillean Grackle,,1,-78.337326049805,18.355177241164,North America,Jamaica,JM,,Jamaica - Hanover,2013-01-18,
Tyrannus caudifasciatus,Animalia,TYRANT_FLYCATCHERS_TYRANNIDAE,Loggerhead Kingbird,,1,-78.337326049805,18.355177241164,North America,Jamaica,JM,,Jamaica - Hanover,2013-01-17,
Melanerpes radiolatus,Animalia,WOODPECKERS_PICIDAE,Jamaican Woodpecker,,1,-78.337326049805,18.355177241164,North America,Jamaica,JM,,Jamaica - Hanover,2013-01-18,
Trochilus polytmus,Animalia,HUMMINGBIRDS_TROCHILIDAE,Red-billed Streamertail,,1,-78.337326049805,18.355177241164,North America,Jamaica,JM,,Jamaica - Hanover,2013-01-17,
Anthracothorax mango,Animalia,HUMMINGBIRDS_TROCHILIDAE,Jamaican Mango,,1,-78.337326049805,18.355177241164,North America,Jamaica,JM,,Jamaica - Hanover,2013-01-18,
Pelecanus occidentalis,Animalia,PELICANS_PELECANIDAE,Brown Pelican,,1,-78.337326049805,18.355177241164,North America,Jamaica,JM,,Jamaica - Hanover,2013-01-18,
Quiscalus niger,Animalia,ICTERIDS_ICTERIDAE,Greater Antillean Grackle,,1,-78.337368965149,18.354932849438,North America,Jamaica,JM,,Jamaica - Hanover,2013-01-17,
Tyrannus caudifasciatus,Animalia,TYRANT_FLYCATCHERS_TYRANNIDAE,Loggerhead Kingbird,,1,-78.337368965149,18.354932849438,North America,Jamaica,JM,,Jamaica - Hanover,2013-01-17,
Trochilus polytmus,Animalia,HUMMINGBIRDS_TROCHILIDAE,Red-billed Streamertail,,1,-78.337368965149,18.354932849438,North America,Jamaica,JM,,Jamaica - Hanover,2013-01-17,
Anthracothorax mango,Animalia,HUMMINGBIRDS_TROCHILIDAE,Jamaican Mango,,1,-78.337368965149,18.354932849438,North America,Jamaica,JM,,Jamaica - Hanover,2013-01-17,
Pelecanus occidentalis,Animalia,PELICANS_PELECANIDAE,Brown Pelican,,1,-78.337669372559,18.354688457367,North America,Jamaica,JM,,Jamaica - Hanover,2013-01-17,
Megaceryle alcyon,Animalia,KINGFISHERS_ALCEDINIDAE,Belted Kingfisher,,1,-78.336639404297,18.356236267978,North America,Jamaica,JM,,Jamaica - Hanover,2013-01-23,
Pelecanus occidentalis,Animalia,PELICANS_PELECANIDAE,Brown Pelican,,1,-78.336639404297,18.356236267978,North America,Jamaica,JM,,Jamaica - Hanover,2013-01-23,
Loxipasser anoxanthus,Animalia,TANAGERS_AND_ALLIES_THRAUPIDAE,Yellow-shouldered Grassquit,,4,-76.7229490951,18.0776319179,North America,Jamaica,JM,,Jamaica - Saint Andrew,2012-08-26,
Myadestes genibarbis,Animalia,THRUSHES_TURDIDAE,Rufous-throated Solitaire,,20,-76.7157393172,18.1135703153,North America,Jamaica,JM,,Jamaica - Portland,2012-08-26,
Todus todus,Animalia,TODIES_TODIDAE,Jamaican Tody,,5,-76.7157393172,18.1135703153,North America,Jamaica,JM,,Jamaica - Portland,2012-08-26,
Trochilus polytmus,Animalia,HUMMINGBIRDS_TROCHILIDAE,Red-billed Streamertail,,1,-76.7496638949,18.0228535224,North America,Jamaica,JM,,Jamaica - Saint Andrew,2012-08-25,
Siproeta stelenes,Animalia,BRUSHFOOTED_BUTTERFLIES_NYMPHALIDAE,Malachite,,30,-76.338470526,18.0999871963,North America,Jamaica,JM,,Jamaica - Portland,2012-08-24,
Siproeta stelenes,Animalia,BRUSHFOOTED_BUTTERFLIES_NYMPHALIDAE,Malachite,,20,-76.3459377986,18.0925629462,North America,Jamaica,JM,,Jamaica - Portland,2012-08-24,
Trochilus scitulus,Animalia,HUMMINGBIRDS_TROCHILIDAE,Black-billed Streamertail,,15,-76.3485891625,18.0981162099,North America,Jamaica,JM,,Jamaica - Portland,2012-08-19,
Turdus aurantius,Animalia,THRUSHES_TURDIDAE,White-chinned Thrush,,1,-78.2203598023,18.2457619094,North America,Jamaica,JM,,Jamaica- Westmoreland,2011-08-02,
Myiarchus validus,Animalia,TYRANT_FLYCATCHERS_TYRANNIDAE,Rufous-tailed Flycatcher,,1,-77.3853988648,17.9324625992,North America,Jamaica,JM,,Jamaica,2011-08-02,
Trochilus scitulus,Animalia,HUMMINGBIRDS_TROCHILIDAE,Black-billed Streamertail,,1,-76.4006937302,18.1729722983,North America,Jamaica,JM,,Jamaica - Blue Mountain/John Crow Mountain NP,2011-08-02,
Trochilus polytmus,Animalia,HUMMINGBIRDS_TROCHILIDAE,Red-billed Streamertail,,1,-76.6603012085,18.0265110902,North America,Jamaica,JM,,Jamaica,2011-08-02,
Anthracothorax mango,Animalia,HUMMINGBIRDS_TROCHILIDAE,Jamaican Mango,,1,-77.3914928437,17.8553578131,North America,Jamaica,JM,,Jamaica - Manchester,2011-08-02,
Thalasseus maximus,Animalia,GULLS_TERNS_AND_SKIMMERS_LARIDAE,Royal Tern,,1,-77.3414535523,17.8592792034,North America,Jamaica,JM,,Jamaica,2011-08-02,
Charadrius wilsonia,Animalia,PLOVERS_CHARADRIIDAE,Wilson's Plover,,1,-77.3414535523,17.8906472117,North America,Jamaica,JM,,Jamaica,2011-08-02,
Jacana spinosa,Animalia,JACANAS_JACANIDAE,Northern Jacana,,1,-76.2483139039,17.9494472811,North America,Jamaica,JM,,Jamaica - Saint Thomas,2011-08-02,
Falco sparverius,Animalia,CARACAS_AND_FALCONS_FALCONIDAE,American Kestrel,,1,-77.3963851929,18.0056157569,North America,Jamaica,JM,,Jamaica - Manchester,2011-08-02,
Dendrocygna arborea,Animalia,DUCKS_GEESE_AND_SWANS_ANATIDAE,West Indian Whistling Duck,,10,-78.3097305298,18.2507594895,North America,Jamaica,JM,,Jamaica- Westmoreland,2011-08-02,
Nesopsar nigerrimus,Animalia,ICTERIDS_ICTERIDAE,Jamaican Blackbird,,1,-77.3197508121,18.1513306389,North America,Jamaica,JM,,Jamaica,2004-06-06,
Patagioenas inornata,Animalia,PIGEONS_AND_DOVES_COLUMBIDAE,Plain Pigeon,,1,-78.1315648863,18.2303153963,North America,Jamaica,JM,,Jamaica- Westmoreland,2004-06-15,
Bubulcus ibis,Animalia,HERONS_ARDEIDAE,Western Cattle Egret,,3,-77.487913370132,18.477685852877,North America,Jamaica,JM,,Jamaica,1980-01-29,
Cathartes aura,Animalia,NEW_WORLD_VULTURES_CATHARTIDAE,Turkey Vulture,,20,-77.10711479187032,18.406817588274333,North America,Jamaica,JM,,Jamaica- Ocho Rios- Sandcastles Hotel,2007-02-19,
Agraulis vanillae,Animalia,BRUSHFOOTED_BUTTERFLIES_NYMPHALIDAE,Gulf Fritillary,,1,-76.44299984,18.18666881,North America,Jamaica,JM,,Jamaica - Portland,2019-11-11,
Egretta thula,Animalia,HERONS_ARDEIDAE,Snowy Egret,,1,-77.83452988,17.98428451,North America,Jamaica,JM,,Jamaica - Black River Lower Morass NP,2019-11-14,
Eichhornia crassipes,Plantae,PONTEDERIACEAE,Water Hyacinth,,1,-77.83830643,18.03350481,North America,Jamaica,JM,,Jamaica - Black River Lower Morass NP,2019-11-14,
Crotophaga ani,Animalia,CUCKOOS_AND_COUCALS_CUCULIDAE,Smooth-billed Ani,,10,-77.75359154,17.87595972,North America,Jamaica,JM,,Jamaica - Saint Elizabeth,2019-11-14,
Thalasseus acuflavidus,Animalia,GULLS_TERNS_AND_SKIMMERS_LARIDAE,Cabot's Tern,,2,-77.83495903,17.98101899,North America,Jamaica,JM,,Jamaica - Black River Lower Morass NP,2019-11-14,
Aythya collaris,Animalia,DUCKS_GEESE_AND_SWANS_ANATIDAE,Ring-necked Duck,,50,-77.75299072,17.87728713,North America,Jamaica,JM,,Jamaica - Saint Elizabeth,2019-11-14,
Antigonon leptopus,Plantae,POLYGONACEAE,Queen's wreath,,1,-77.75714636,17.88420584,North America,Jamaica,JM,,Jamaica - Saint Elizabeth,2019-11-14,
Sturnus vulgaris,Animalia,STARLINGS_STURNIDAE,Common Starling,,1,-77.75290489,17.87551044,North America,Jamaica,JM,,Jamaica - Saint Elizabeth,2019-11-14,
Tringa melanoleuca,Animalia,SANDPIPERS_AND_ALLIES_SCOLOPACIDAE,Greater Yellowlegs,,2,-77.82440186,18.11648697,North America,Jamaica,JM,,Jamaica - Saint Elizabeth,2019-11-14,
Tringa flavipes,Animalia,SANDPIPERS_AND_ALLIES_SCOLOPACIDAE,Lesser Yellowlegs,,1,-77.82440186,18.11648697,North America,Jamaica,JM,,Jamaica - Saint Elizabeth,2019-11-14,
Hemidactylus mabouia,Animalia,Gekkonidae,Tropical House Gecko,,1,-78.36699486,18.27245536,North America,Jamaica,JM,,Jamaica - Westmoreland,2017-12-31,
Bubulcus ibis,Animalia,HERONS_ARDEIDAE,Western Cattle Egret,,100,-76.80868149,18.27793226,North America,Jamaica,JM,,Jamaica - Saint Mary,2019-11-12,
Pachyramphus niger,Animalia,Tityridae,Jamaican Becard,,1,-76.82224274,18.18075684,North America,Jamaica,JM,,Jamaica - Saint Mary,2019-11-12,
Herpestes auropunctatus,Animalia,MONGOOSES_HERPESTIDAE,Small Indian Mongoose,,1,-76.81177139,18.21011084,North America,Jamaica,JM,,Jamaica - Saint Mary,2019-11-12,
Bubulcus ibis,Animalia,HERONS_ARDEIDAE,Western Cattle Egret,,1,-77.75556564,17.88317867,North America,Jamaica,JM,,Jamaica - Saint Elizabeth,2019-11-15,
Cathartes aura,Animalia,NEW_WORLD_VULTURES_CATHARTIDAE,Turkey Vulture,,1,-77.75663853,17.88376066,North America,Jamaica,JM,,Jamaica - Saint Elizabeth,2019-11-15,
Crotophaga ani,Animalia,CUCKOOS_AND_COUCALS_CUCULIDAE,Smooth-billed Ani,,1,-77.76126802,17.87985513,North America,Jamaica,JM,,Jamaica - Saint Elizabeth,2019-11-15,
Fulica americana,Animalia,RAILS_RALLIDAE,American Coot,,1,-77.76126802,17.87985513,North America,Jamaica,JM,,Jamaica - Saint Elizabeth,2019-11-15,
Spatula discors,Animalia,DUCKS_GEESE_AND_SWANS_ANATIDAE,Blue-winged Teal,,4,-77.76201189,17.88002769,North America,Jamaica,JM,,Jamaica - Saint Elizabeth,2019-11-15,
Himantopus mexicanus,Animalia,STILTS_AND_AVOCETS_RECURVIROSTRIDAE,Black-necked Stilt,,2,-77.76201189,17.88002769,North America,Jamaica,JM,,Jamaica - Saint Elizabeth,2019-11-15,
Plegadis falcinellus,Animalia,IBISSES_AND_SPOONBILLS_THRESKIORNITHIDAE,Glossy Ibis,,1,-77.76201189,17.88002769,North America,Jamaica,JM,,Jamaica - Saint Elizabeth,2019-11-15,
Bubulcus ibis,Animalia,HERONS_ARDEIDAE,Western Cattle Egret,,1,-77.76201189,17.88002769,North America,Jamaica,JM,,Jamaica - Saint Elizabeth,2019-11-15,
Pelecanus occidentalis,Animalia,PELICANS_PELECANIDAE,Brown Pelican,,5,-77.83440113,17.9823252,North America,Jamaica,JM,,Jamaica - Black River Lower Morass NP,2019-11-14,
Bubulcus ibis,Animalia,HERONS_ARDEIDAE,Western Cattle Egret,,100,-77.84474373,18.02436377,North America,Jamaica,JM,,Jamaica - Black River Lower Morass NP,2019-11-14,
Ardea alba,Animalia,HERONS_ARDEIDAE,Great Egret,,5,-77.83504486,18.03301513,North America,Jamaica,JM,,Jamaica - Black River Lower Morass NP,2019-11-14,
Pandion haliaetus,Animalia,OSPREY_PANDIONIDAE,Western Osprey,,2,-77.83504486,18.03301513,North America,Jamaica,JM,,Jamaica - Black River Lower Morass NP,2019-11-14,
Ardea alba,Animalia,HERONS_ARDEIDAE,Great Egret,,1,-77.80863762,18.02164857,North America,Jamaica,JM,,Jamaica - Black River Lower Morass NP,2019-11-14,
Jacana spinosa,Animalia,JACANAS_JACANIDAE,Northern Jacana,,2,-77.80890942,18.02256815,North America,Jamaica,JM,,Jamaica - Black River Lower Morass NP,2019-11-14,
Cathartes aura,Animalia,NEW_WORLD_VULTURES_CATHARTIDAE,Turkey Vulture,,1,-77.75751472,17.88505194,North America,Jamaica,JM,,Jamaica - Saint Elizabeth,2019-11-14,
Porphyrio martinica,Animalia,RAILS_RALLIDAE,Purple Gallinule,,2,-76.89831734,17.92943491,North America,Jamaica,JM,,Jamaica - Saint Catherine,2019-11-13,
Actitis macularius,Animalia,SANDPIPERS_AND_ALLIES_SCOLOPACIDAE,Spotted Sandpiper,,1,-76.89831734,17.92943491,North America,Jamaica,JM,,Jamaica - Saint Catherine,2019-11-13,
Himantopus mexicanus,Animalia,STILTS_AND_AVOCETS_RECURVIROSTRIDAE,Black-necked Stilt,,25,-76.89831734,17.92943491,North America,Jamaica,JM,,Jamaica - Saint Catherine,2019-11-13,
Falco sparverius,Animalia,CARACAS_AND_FALCONS_FALCONIDAE,American Kestrel,,1,-76.81557655,18.2998327,North America,Jamaica,JM,,Jamaica - Saint Mary,2019-11-12,
Spatula clypeata,Animalia,DUCKS_GEESE_AND_SWANS_ANATIDAE,Northern Shoveler,,4,-76.57017231,18.20390343,North America,Jamaica,JM,,Jamaica - Portland,2019-11-11,
Arenaria interpres,Animalia,SANDPIPERS_AND_ALLIES_SCOLOPACIDAE,Ruddy Turnstone,,1,-76.79386139,18.29294667,North America,Jamaica,JM,,Jamaica - Saint Mary,2019-11-12,
Pluvialis squatarola,Animalia,PLOVERS_CHARADRIIDAE,Grey Plover,,1,-76.79386139,18.29294667,North America,Jamaica,JM,,Jamaica - Saint Mary,2019-11-12,
Egretta thula,Animalia,HERONS_ARDEIDAE,Snowy Egret,,10,-76.57084465,18.20369008,North America,Jamaica,JM,,Jamaica - Portland,2019-11-11,
Nycticorax nycticorax,Animalia,HERONS_ARDEIDAE,Black-crowned Night Heron,,1,-76.57084465,18.20369008,North America,Jamaica,JM,,Jamaica - Portland,2019-11-11,
Nyctanassa violacea,Animalia,HERONS_ARDEIDAE,Yellow-crowned Night Heron,,2,-76.57099485,18.20332317,North America,Jamaica,JM,,Jamaica - Portland,2019-11-11,
Ardea alba,Animalia,HERONS_ARDEIDAE,Great Egret,,1,-76.44053221,18.1852418,North America,Jamaica,JM,,Jamaica - Portland,2019-11-11,
Patagioenas leucocephala,Animalia,PIGEONS_AND_DOVES_COLUMBIDAE,White-crowned Pigeon,,1,-76.41396761,18.17164387,North America,Jamaica,JM,,Jamaica - Blue Mountain/John Crow Mountain NP,2019-11-11,
Turdus aurantius,Animalia,THRUSHES_TURDIDAE,White-chinned Thrush,,1,-76.41396761,18.17164387,North America,Jamaica,JM,,Jamaica - Blue Mountain/John Crow Mountain NP,2019-11-11,
Columbina passerina,Animalia,PIGEONS_AND_DOVES_COLUMBIDAE,Common Ground Dove,,2,-76.41396761,18.17164387,North America,Jamaica,JM,,Jamaica - Blue Mountain/John Crow Mountain NP,2019-11-11,
Falco sparverius,Animalia,CARACAS_AND_FALCONS_FALCONIDAE,American Kestrel,,1,-76.32929564,18.04680744,North America,Jamaica,JM,,Jamaica - Portland,2019-11-10,
Herpestes auropunctatus,Animalia,MONGOOSES_HERPESTIDAE,Small Indian Mongoose,,1,-76.32929564,18.04680744,North America,Jamaica,JM,,Jamaica - Portland,2019-11-10,
Cathartes aura,Animalia,NEW_WORLD_VULTURES_CATHARTIDAE,Turkey Vulture,,1,-76.34757042,18.07578546,North America,Jamaica,JM,,Jamaica - Portland,2019-11-10,
Cathartes aura,Animalia,NEW_WORLD_VULTURES_CATHARTIDAE,Turkey Vulture,,1,-76.40274525,18.17241859,North America,Jamaica,JM,,Jamaica - Blue Mountain/John Crow Mountain NP,2019-11-10,
Seiurus aurocapilla,Animalia,NEW_WORLD_WARBLERS_PARULIDAE,Ovenbird,,1,-76.41390324,18.17180697,North America,Jamaica,JM,,Jamaica - Blue Mountain/John Crow Mountain NP,2019-11-10,
Setophaga americana,Animalia,NEW_WORLD_WARBLERS_PARULIDAE,Northern Parula,,1,-76.41390324,18.17180697,North America,Jamaica,JM,,Jamaica - Blue Mountain/John Crow Mountain NP,2019-11-10,
Setophaga discolor,Animalia,NEW_WORLD_WARBLERS_PARULIDAE,Prairie Warbler,,1,-76.41390324,18.17180697,North America,Jamaica,JM,,Jamaica - Blue Mountain/John Crow Mountain NP,2019-11-10,
Setophaga ruticilla,Animalia,NEW_WORLD_WARBLERS_PARULIDAE,American Redstart,,1,-76.41390324,18.17166426,North America,Jamaica,JM,,Jamaica - Blue Mountain/John Crow Mountain NP,2019-11-10,
Turdus aurantius,Animalia,THRUSHES_TURDIDAE,White-chinned Thrush,,2,-76.41390324,18.17166426,North America,Jamaica,JM,,Jamaica - Blue Mountain/John Crow Mountain NP,2019-11-10,
Patagioenas leucocephala,Animalia,PIGEONS_AND_DOVES_COLUMBIDAE,White-crowned Pigeon,,3,-76.41390324,18.17166426,North America,Jamaica,JM,,Jamaica - Blue Mountain/John Crow Mountain NP,2019-11-10,
Patagioenas leucocephala,Animalia,PIGEONS_AND_DOVES_COLUMBIDAE,White-crowned Pigeon,,1,-76.41390324,18.17166426,North America,Jamaica,JM,,Jamaica - Blue Mountain/John Crow Mountain NP,2019-11-09,
Mareca americana,Animalia,DUCKS_GEESE_AND_SWANS_ANATIDAE,American Wigeon,,2,-76.57006502,18.20378113,North America,Jamaica,JM,,Jamaica - Portland,2019-11-09,
Egretta caerulea,Animalia,HERONS_ARDEIDAE,Little Blue Heron,,1,-76.57090902,18.2025282,North America,Jamaica,JM,,Jamaica - Portland,2019-11-09,
Spatula clypeata,Animalia,DUCKS_GEESE_AND_SWANS_ANATIDAE,Northern Shoveler,,2,-76.57005072,18.20371046,North America,Jamaica,JM,,Jamaica - Portland,2019-11-09,
Himantopus mexicanus,Animalia,STILTS_AND_AVOCETS_RECURVIROSTRIDAE,Black-necked Stilt,,3,-76.57005072,18.20371046,North America,Jamaica,JM,,Jamaica - Portland,2019-11-09,
Ardea herodias,Animalia,HERONS_ARDEIDAE,Great Blue Heron,,1,-76.57084465,18.20413852,North America,Jamaica,JM,,Jamaica - Portland,2019-11-09,
Nyctanassa violacea,Animalia,HERONS_ARDEIDAE,Yellow-crowned Night Heron,,1,-76.57101631,18.2032824,North America,Jamaica,JM,,Jamaica - Portland,2019-11-09,
Podilymbus podiceps antillarum,Animalia,GREBES_PODICIPEDIDAE,Pied-billed Grebe ssp antillarum,,1,-76.79614306,18.27229779,North America,Jamaica,JM,,Jamaica - Saint Mary,2019-11-09,
Papilio demoleus,Animalia,SWALLOWTAILS_PAPILIONIDAE,Lemon Butterfly,,1,-76.89339638,18.37466637,North America,Jamaica,JM,,Jamaica - Saint Mary,2019-11-09,
Gallinula galeata,Animalia,RAILS_RALLIDAE,Common Gallinule,,2,-77.05012321,18.37774125,North America,Jamaica,JM,,Jamaica - Saint Mary,2019-11-09,
Egretta caerulea,Animalia,HERONS_ARDEIDAE,Little Blue Heron,,1,-77.05012321,18.37774125,North America,Jamaica,JM,,Jamaica - Saint Mary,2019-11-09,
Spatula discors,Animalia,DUCKS_GEESE_AND_SWANS_ANATIDAE,Blue-winged Teal,,5,-77.04954386,18.37806707,North America,Jamaica,JM,,Jamaica - Saint Mary,2019-11-09,
Egretta thula,Animalia,HERONS_ARDEIDAE,Snowy Egret,,1,-77.04954386,18.37806707,North America,Jamaica,JM,,Jamaica - Saint Mary,2019-11-09,
Charadrius vociferus,Animalia,PLOVERS_CHARADRIIDAE,Killdeer,,1,-77.04954386,18.37806707,North America,Jamaica,JM,,Jamaica - Saint Mary,2019-11-09,
Anartia jatrophae,Animalia,BRUSHFOOTED_BUTTERFLIES_NYMPHALIDAE,White Peacock,,1,-77.05252647,18.3948863,North America,Jamaica,JM,,Jamaica - Saint Mary,2019-11-09,
Butorides virescens,Animalia,HERONS_ARDEIDAE,Green Heron,,1,-77.05252647,18.3948863,North America,Jamaica,JM,,Jamaica - Saint Mary,2019-11-09,
Fregata magnificens,Animalia,FRIGATEBIRDS_FREGATTIDAE,Magnificent Frigatebird,,1,-77.29828119,18.46924996,North America,Jamaica,JM,,Jamaica - Saint Ann,2019-11-09,
Bubulcus ibis,Animalia,HERONS_ARDEIDAE,Western Cattle Egret,,1,-77.29879618,18.46847657,North America,Jamaica,JM,,Jamaica - Saint Ann,2019-11-09,
Thalasseus maximus,Animalia,GULLS_TERNS_AND_SKIMMERS_LARIDAE,Royal Tern,,5,-77.29879618,18.46847657,North America,Jamaica,JM,,Jamaica - Saint Ann,2019-11-09,
Ardea alba egretta,Animalia,HERONS_ARDEIDAE,American Great Egret,,1,-77.29879618,18.46847657,North America,Jamaica,JM,,Jamaica - Saint Ann,2019-11-09,
Ardea herodias,Animalia,HERONS_ARDEIDAE,Great Blue Heron,,1,-77.29879618,18.46847657,North America,Jamaica,JM,,Jamaica - Saint Ann,2019-11-09,
Todus todus,Animalia,TODIES_TODIDAE,Jamaican Tody,,1,-77.60484695,18.47610861,North America,Jamaica,JM,,Jamaica - Trelawny,2019-11-09,
Mimus polyglottos,Animalia,THRASHERS_MIMIDAE,Northern Mockingbird,,1,-77.60484695,18.47610861,North America,Jamaica,JM,,Jamaica - Trelawny,2019-11-09,
Myadestes genibarbis,Animalia,THRUSHES_TURDIDAE,Rufous-throated Solitaire,,1,-76.724671,18.084535,North America,Jamaica,JM,,Jamaica - Portland,2015-03-07,
Loxipasser anoxanthus,Animalia,TANAGERS_AND_ALLIES_THRAUPIDAE,Yellow-shouldered Grassquit,,1,-76.724671,18.084535,North America,Jamaica,JM,,Jamaica - Portland,2015-03-06,
Fregata magnificens,Animalia,FRIGATEBIRDS_FREGATTIDAE,Magnificent Frigatebird,,1,-77.92564,18.476221,North America,Jamaica,JM,,Jamaica - Saint James,2015-02-14,
Egretta thula,Animalia,HERONS_ARDEIDAE,Snowy Egret,,1,-77.92564,18.476221,North America,Jamaica,JM,,Jamaica - Saint James,2015-02-14,
Thalasseus maximus,Animalia,GULLS_TERNS_AND_SKIMMERS_LARIDAE,Royal Tern,,1,-78.35629463,18.26322085,North America,Jamaica,JM,,Jamaica - Westmoreland,2003-03-03,
Erythemis vesiculosa,Animalia,SKIMMERS_LIBELLULIDAE,Great Pondhawk,,1,-78.36663365,18.27266319,North America,Jamaica,JM,,Jamaica - Westmoreland,2017-12-26,
Setophaga ruticilla,Animalia,NEW_WORLD_WARBLERS_PARULIDAE,American Redstart,,1,-78.3665916,18.2723962,North America,Jamaica,JM,,Jamaica - Westmoreland,2018-01-01,10:57
Sicalis flaveola,Animalia,TANAGERS_AND_ALLIES_THRAUPIDAE,Saffron Finch,,1,-78.3671355019839,18.272183420273,North America,Jamaica,JM,,Jamaica - Westmoreland,2017-12-31,08:02
Butorides virescens,Animalia,HERONS_ARDEIDAE,Green Heron,,1,-78.3162988112699,18.2939267131017,North America,Jamaica,JM,,Jamaica - Westmoreland,2017-12-31,10:06
Butorides virescens,Animalia,HERONS_ARDEIDAE,Green Heron,,1,-78.3073324757283,18.3731148601234,North America,Jamaica,JM,,Jamaica - Hanover,2017-12-28,14:33
Todus todus,Animalia,TODIES_TODIDAE,Jamaican Tody,,1,-78.0444014972366,18.2457632353815,North America,Jamaica,JM,,Jamaica - Westmoreland,2017-12-27,07:56
Todus todus,Animalia,TODIES_TODIDAE,Jamaican Tody,,1,-78.0256510446503,18.1794072348075,North America,Jamaica,JM,,Jamaica - Westmoreland,2017-12-27,15:05
Phaethon lepturus,Animalia,TROPICBIRDS_PHAETHONTIDAE,White-tailed Tropicbird,,6,-78.3670749210404,18.2734457331712,North America,Jamaica,JM,,Jamaica - Westmoreland,2017-12-26,07:32
Phaethon lepturus,Animalia,TROPICBIRDS_PHAETHONTIDAE,White-tailed Tropicbird,,5,-78.3671765981291,18.2732173448319,North America,Jamaica,JM,,Jamaica - Westmoreland,2017-12-25,07:48
Butorides virescens,Animalia,HERONS_ARDEIDAE,Green Heron,,1,-78.3143634222752,18.292650955791,North America,Jamaica,JM,,Jamaica - Westmoreland,2017-12-24,11:04
Dendrocygna arborea,Animalia,DUCKS_GEESE_AND_SWANS_ANATIDAE,West Indian Whistling Duck,,30,-77.6735883672,18.0775429434,North America,Jamaica,JM,,Jamaica - Saint Elizabeth,2007-01-15,
