scientificName,kingdom,family,vernacularName,previousIdentifications,individualCount,longitudeDecimal,latitudeDecimal,continent,country,countryCode,stateProvince,locality,eventDate,eventTime
Poecilimon gracilis,Animalia,PHANEROPTERIDAE,Slender Bright Bush-cricket,,1,21.0372161848,42.1817107782,Europe,Kosovo,KO,,Kosovo - Štimlje,1979-07-01,
Coenonympha pamphilus,Animalia,BRUSHFOOTED_BUTTERFLIES_NYMPHALIDAE,Small Heath,,1,20.059003833449,42.730462372335,Europe,Kosovo,KO,,Kosovo - Pec,2013-05-28,
Araschnia levana,Animalia,BRUSHFOOTED_BUTTERFLIES_NYMPHALIDAE,Map Butterfly,,1,20.059175494825,42.730474982558,Europe,Kosovo,KO,,Kosovo - Pec,2013-05-29,
Spilostethus saxatilis,Animalia,Lygaeidae,,,1,20.059089664137,42.730336277667,Europe,Kosovo,KO,,Kosovo - Pec,2013-05-28,
Coenonympha pamphilus,Animalia,BRUSHFOOTED_BUTTERFLIES_NYMPHALIDAE,Small Heath,,1,20.059089658898,42.730462371373,Europe,Kosovo,KO,,Kosovo - Pec,2013-05-28,
Pyrgus malvae,Animalia,SKIPPERS_HESPERIIDAE,Grizzled Skipper,,1,20.05,42.7,Europe,Kosovo,KO,,Kosovo - Pec,2013-05-28,
Satyrium ilicis,Animalia,GOSSAMERWINGED_BUTTERFLIES_LYCAENIDAE,Ilex Hairstreak,,1,20.430164344143,42.470509938155,Europe,Kosovo,KO,,Kosovo - Gjacova,2013-05-31,
Lacerta viridis,Animalia,Lacertidae,Eastern Green Lizard,,1,20.575733181322,42.523921491316,Europe,Kosovo,KO,,Kosovo - Klina,2013-05-31,
Glaucopsyche alexis,Animalia,GOSSAMERWINGED_BUTTERFLIES_LYCAENIDAE,Green-underside Blue,,1,20.05,42.7,Europe,Kosovo,KO,,Kosovo - Pec,2013-05-29,
Aricia anteros,Animalia,GOSSAMERWINGED_BUTTERFLIES_LYCAENIDAE,Blue Argus,,1,20.058467387717,42.730881634638,Europe,Kosovo,KO,,Kosovo - Pec,2013-05-29,
Pontia edusa,Animalia,WHITES_PIERIDAE,Eastern Bath White,,1,20.058875082177,42.730508606277,Europe,Kosovo,KO,,Kosovo - Pec,2013-05-28,
Neotinea ustulata,Plantae,ORCHIDACEAE,Burnt Orchid,,10,20.05,42.7,Europe,Kosovo,KO,,Kosovo - Pec,2013-05-29,
Limenitis reducta,Animalia,BRUSHFOOTED_BUTTERFLIES_NYMPHALIDAE,Southern White Admiral,,1,20.55,42.5,Europe,Kosovo,KO,,Kosovo - Klina,2013-05-31,
Aglais urticae,Animalia,BRUSHFOOTED_BUTTERFLIES_NYMPHALIDAE,Small Tortoiseshell,,1,20.9675924615,42.1339994648,Europe,Kosovo,KO,,Kosovo - Šar Planina NP,2012-07-18,
Ixobrychus minutus,Animalia,HERONS_ARDEIDAE,Little Bittern,,1,21.0489294841,42.5804897397,Europe,Kosovo,KO,,Kosovo - Kosovo Polje,2012-07-18,
Rupicapra rupicapra,Animalia,BOVIDS_BOVIDAE,Northern Chamois,,2,20.65,41.9,Europe,Kosovo,KO,,Kosovo - Dragaš,2011-05-30,
Lanius collurio,Animalia,SHRIKES_LANIIDAE,Red-backed Shrike,,1,20.6697678566,41.9428973706,Europe,Kosovo,KO,,Kosovo - Dragaš,2011-05-30,13:20
Ciconia ciconia,Animalia,STORKS_CICONIIDAE,White Stork,,2,20.2925853729248,42.5216026306152,Europe,Kosovo,KO,,Kosovo - Decani,2019-07-07,17:19
Aphrophora alni,Animalia,APHROPHORIDAE,European alder spittlebug,,1,20.2759742736816,42.4366989135742,Europe,Kosovo,KO,,Kosovo - Gjacova,2019-07-07,17:51
Erebia medusa,Animalia,BRUSHFOOTED_BUTTERFLIES_NYMPHALIDAE,Woodland Ringlet,,1,20.66604592,42.01739313,Europe,Kosovo,KO,,Kosovo - Dragaš,2019-06-27,
Medicago lupulina,Plantae,Fabaceae,Black Medick,,1,20.08140452208005,42.685813573228835,Europe,Kosovo,KO,,Kosovo - Pec,2019-06-04,16:20
Taraxacum officinale s.l. (incl. all sec.),Plantae,Asteraceae,Common Dandelion,,1,20.079240482319218,42.68704529389989,Europe,Kosovo,KO,,Kosovo - Pec,2019-06-04,16:04
Sambucus ebulus,Plantae,ADOXACEAE,Dwarf Elder,,1,20.08145187983297,42.68906705085438,Europe,Kosovo,KO,,Kosovo - Pec,2019-06-04,15:51
Moehringia trinervia,Plantae,CARYOPHYLLACEAE,Three-nerved Sandwort,,1,20.081129344198928,42.68913234588009,Europe,Kosovo,KO,,Kosovo - Pec,2019-06-04,15:46
Cardamine impatiens,Plantae,Brassicaceae,Narrow-leaved Bitter-cress,,1,20.07720057854436,42.68881022934121,Europe,Kosovo,KO,,Kosovo - Pec,2019-06-04,15:31
Mycelis muralis,Plantae,Asteraceae,Wall Lettuce,,1,20.076308492589813,42.68858844418329,Europe,Kosovo,KO,,Kosovo - Pec,2019-06-04,15:28
Lonicera xylosteum,Plantae,CAPRIFOLIACEAE,Fly Honeysuckle,,1,20.074987420830944,42.68837269399565,Europe,Kosovo,KO,,Kosovo - Pec,2019-06-04,15:24
Valeriana officinalis,Plantae,CAPRIFOLIACEAE,Common Valerian,,1,20.07365084255121,42.68701868135732,Europe,Kosovo,KO,,Kosovo - Pec,2019-06-04,15:21
Geranium robertianum,Plantae,GERANIACEAE,Herb-Robert,,1,20.07239548491321,42.688061264383315,Europe,Kosovo,KO,,Kosovo - Pec,2019-06-04,15:19
Geranium pyrenaicum,Plantae,GERANIACEAE,Hedgerow Crane's-bill,,1,20.07524860093377,42.68965851985168,Europe,Kosovo,KO,,Kosovo - Pec,2019-06-04,15:05
Chamaecytisus hirsutus,Plantae,Fabaceae,,,1,20.076998490858895,42.69110117111605,Europe,Kosovo,KO,,Kosovo - Pec,2019-06-04,14:52
Blitum bonus-henricus,Plantae,AMARANTHACEAE,Good-King-Henry,,1,20.07767013276003,42.69205151129765,Europe,Kosovo,KO,,Kosovo - Pec,2019-06-04,14:42
Stellaria holostea,Plantae,CARYOPHYLLACEAE,Greater Stitchwort,,1,20.07677787916742,42.69306270409626,Europe,Kosovo,KO,,Kosovo - Pec,2019-06-04,14:38
Arabis turrita,Plantae,Brassicaceae,Tower Cress,,1,20.05,42.65,Europe,Kosovo,KO,,Kosovo - Pec,2019-06-04,14:37
Euphorbia cyparissias,Plantae,EUPHORBIACEAE,Cypress Spurge,,1,20.13839509340016,42.635577139484354,Europe,Kosovo,KO,,Kosovo - Pec,2019-06-03,16:11
Soldanella alpina,Plantae,PRIMULACEAE,Alpine snowbell,,1,20.103698540497668,42.66253732148806,Europe,Kosovo,KO,,Kosovo - Pec,2019-06-02,12:16
Asplenium viride,Plantae,ASPLENIACEAE,Green Spleenwort,,1,20.05,42.65,Europe,Kosovo,KO,,Kosovo - Pec,2019-06-02,09:36
Hepatica nobilis,Plantae,RANUNCULACEAE,Liverleaf,,1,20.086652515474785,42.67417052299033,Europe,Kosovo,KO,,Kosovo - Pec,2019-06-02,09:25
Hepatica nobilis,Plantae,RANUNCULACEAE,Liverleaf,,1,20.086220931280483,42.67488218847911,Europe,Kosovo,KO,,Kosovo - Pec,2019-06-02,09:17
Polystichum lonchitis,Plantae,DRYOPTERIDACEAE,Holly Fern,,1,20.08533387446784,42.67606550365935,Europe,Kosovo,KO,,Kosovo - Pec,2019-06-02,09:08
Asplenium trichomanes,Plantae,ASPLENIACEAE,Maidenhair Spleenwort,,1,20.08539154196166,42.67609316393982,Europe,Kosovo,KO,,Kosovo - Pec,2019-06-02,09:07
Euphorbia amygdaloides,Plantae,EUPHORBIACEAE,Wood Spurge,,1,20.0830043759384,42.680141748900226,Europe,Kosovo,KO,,Kosovo - Pec,2019-06-02,08:49
Geranium robertianum,Plantae,GERANIACEAE,Herb-Robert,,1,20.230180956442123,42.665195222983755,Europe,Kosovo,KO,,Kosovo - Pec,2019-06-01,16:46
Reseda luteola,Plantae,RESEDACEAE,Weld,,1,20.865781176854732,42.89185726553471,Europe,Kosovo,KO,,Kosovo - Kosovska Mitrovica,2019-05-31,18:59
Juncus compressus,Plantae,JUNCACEAE,Round-fruited Rush,,1,21.1576615087885,42.661630231926836,Europe,Kosovo,KO,,Kosovo - Pritina,2019-05-30,19:40
Limenitis reducta,Animalia,BRUSHFOOTED_BUTTERFLIES_NYMPHALIDAE,Southern White Admiral,,1,20.25,42.75,Europe,Kosovo,KO,,Kosovo - Pec,2018-06-05,
Fabriciana adippe,Animalia,BRUSHFOOTED_BUTTERFLIES_NYMPHALIDAE,High Brown Fritillary,,1,20.98836467,42.20938405,Europe,Kosovo,KO,,Kosovo - Štimlje,2018-06-05,
Ciconia ciconia,Animalia,STORKS_CICONIIDAE,White Stork,,1,20.2842499315928,42.5258562667691,Europe,Kosovo,KO,,Kosovo - Decani,2018-07-16,10:17
Ciconia ciconia,Animalia,STORKS_CICONIIDAE,White Stork,,1,20.2761811763237,42.5206492608809,Europe,Kosovo,KO,,Kosovo - Decani,2018-07-16,10:15
Ursus arctos,Animalia,BEARS_URSIDAE,Brown Bear,,1,20.1573554612696,42.7627653535455,Europe,Kosovo,KO,,Kosovo - Peja/Peć,2018-06-06,09:26
Brintesia circe,Animalia,BRUSHFOOTED_BUTTERFLIES_NYMPHALIDAE,Great Banded Grayling,,1,20.6,42.05,Europe,Kosovo,KO,,Kosovo - Prizren,2017-07-08,18:01
Prenanthes purpurea,Plantae,Asteraceae,Purple Lettuce,,1,20.1425,42.710833333333,Europe,Kosovo,KO,,Kosovo - Pec,2017-07-20,15:07
Lysandra coridon,Animalia,GOSSAMERWINGED_BUTTERFLIES_LYCAENIDAE,Chalk hill Blue,,1,20.08472222,42.73527778,Europe,Kosovo,KO,,Kosovo - Pec,2017-07-22,11:14
Speyeria aglaja,Animalia,BRUSHFOOTED_BUTTERFLIES_NYMPHALIDAE,Dark Green Fritillary,,1,20.08416667,42.73694444,Europe,Kosovo,KO,,Kosovo - Pec,2017-07-22,11:24
Parnassius apollo,Animalia,SWALLOWTAILS_PAPILIONIDAE,Apollo,,1,20.05,42.7,Europe,Kosovo,KO,,Kosovo - Pec,2017-07-22,12:09
Hesperia comma,Animalia,SKIPPERS_HESPERIIDAE,Silver-spotted Skipper,,1,20.08694444,42.72083333,Europe,Kosovo,KO,,Kosovo - Pec,2017-07-22,12:05
Erebia euryale,Animalia,BRUSHFOOTED_BUTTERFLIES_NYMPHALIDAE,Large Ringlet,,1,20.085555555556,42.730833333333,Europe,Kosovo,KO,,Kosovo - Pec,2017-07-22,11:50
Speyeria aglaja,Animalia,BRUSHFOOTED_BUTTERFLIES_NYMPHALIDAE,Dark Green Fritillary,,1,20.14277778,42.70972222,Europe,Kosovo,KO,,Kosovo - Pec,2017-07-20,14:27
Aporia crataegi,Animalia,WHITES_PIERIDAE,Black-veined White,,1,20.08555556,42.73083333,Europe,Kosovo,KO,,Kosovo - Pec,2017-07-22,11:55
Brintesia circe,Animalia,BRUSHFOOTED_BUTTERFLIES_NYMPHALIDAE,Great Banded Grayling,,1,20.05,42.7,Europe,Kosovo,KO,,Kosovo - Pec,2017-07-22,11:36
Lycaena virgaureae,Animalia,GOSSAMERWINGED_BUTTERFLIES_LYCAENIDAE,Scarce Copper,,1,20.05,42.7,Europe,Kosovo,KO,,Kosovo - Pec,2017-07-22,11:29
Aporia crataegi,Animalia,WHITES_PIERIDAE,Black-veined White,,1,20.1125,42.71444444,Europe,Kosovo,KO,,Kosovo - Pec,2017-07-22,12:49
Geranium robertianum,Plantae,GERANIACEAE,Herb-Robert,,1,20.0848971304942,42.7321921521193,Europe,Kosovo,KO,,Kosovo - Pec,2017-07-22,11:40
Sambucus ebulus,Plantae,ADOXACEAE,Dwarf Elder,,1,20.0850244419759,42.7313687326243,Europe,Kosovo,KO,,Kosovo - Pec,2017-07-22,11:43
Valeriana officinalis,Plantae,CAPRIFOLIACEAE,Common Valerian,,1,20.1528368116133,42.7155763778495,Europe,Kosovo,KO,,Kosovo - Pec,2017-07-20,18:17
Nucifraga caryocatactes,Animalia,CROWS_AND_JAYS_CORVIDAE,Spotted Nutcracker,,1,20.151512053459,42.7303639223811,Europe,Kosovo,KO,,Kosovo - Pec,2017-07-20,19:48
Mycelis muralis,Plantae,Asteraceae,Wall Lettuce,,1,20.1431140425529,42.7027187169684,Europe,Kosovo,KO,,Kosovo - Pec,2017-07-20,13:15
Sambucus ebulus,Plantae,ADOXACEAE,Dwarf Elder,,1,20.1434471781083,42.7035991748709,Europe,Kosovo,KO,,Kosovo - Pec,2017-07-20,13:22
Geranium robertianum,Plantae,GERANIACEAE,Herb-Robert,,1,20.1409486903216,42.702694035015,Europe,Kosovo,KO,,Kosovo - Pec,2017-07-20,13:49
Mikiola fagi,Animalia,Cecidomyiidae,,,1,20.1423396475287,42.7096487810282,Europe,Kosovo,KO,,Kosovo - Pec,2017-07-20,14:31
Hartigiola annulipes,Animalia,Cecidomyiidae,,,1,20.1431235034853,42.7113077303778,Europe,Kosovo,KO,,Kosovo - Pec,2017-07-20,15:12
Ochlodes sylvanus,Animalia,SKIPPERS_HESPERIIDAE,Large Skipper,,1,20.65,42.14,Europe,Kosovo,KO,,Kosovo - Prizren,2017-07-08,09:42
Araschnia levana,Animalia,BRUSHFOOTED_BUTTERFLIES_NYMPHALIDAE,Map Butterfly,,1,20.65,42.14,Europe,Kosovo,KO,,Kosovo - Prizren,2017-07-08,09:46
Aphantopus hyperantus,Animalia,BRUSHFOOTED_BUTTERFLIES_NYMPHALIDAE,Ringlet,,1,20.65,42.14,Europe,Kosovo,KO,,Kosovo - Prizren,2017-07-08,09:56
Limenitis reducta,Animalia,BRUSHFOOTED_BUTTERFLIES_NYMPHALIDAE,Southern White Admiral,,1,20.65,42.1,Europe,Kosovo,KO,,Kosovo - Prizren,2017-07-08,09:58
Lycaena virgaureae,Animalia,GOSSAMERWINGED_BUTTERFLIES_LYCAENIDAE,Scarce Copper,,1,20.65,42.1,Europe,Kosovo,KO,,Kosovo - Prizren,2017-07-08,10:01
Boloria euphrosyne,Animalia,BRUSHFOOTED_BUTTERFLIES_NYMPHALIDAE,Pearl-bordered Fritillary,,1,20.55,42.05,Europe,Kosovo,KO,,Kosovo - Dragaš,2017-07-08,11:19
Erebia ligea,Animalia,BRUSHFOOTED_BUTTERFLIES_NYMPHALIDAE,Arran Brown,,1,20.55,42.05,Europe,Kosovo,KO,,Kosovo - Dragaš,2017-07-08,11:20
Lasiommata maera,Animalia,BRUSHFOOTED_BUTTERFLIES_NYMPHALIDAE,Large Wall Brown,,1,20.55,42.05,Europe,Kosovo,KO,,Kosovo - Dragaš,2017-07-08,11:25
Pieris ergane,Animalia,WHITES_PIERIDAE,Mountain Small White,,1,20.59,42.08,Europe,Kosovo,KO,,Kosovo - Dragaš,2017-07-08,11:30
Cyaniris semiargus,Animalia,GOSSAMERWINGED_BUTTERFLIES_LYCAENIDAE,Mazarine Blue,,1,20.55,42.05,Europe,Kosovo,KO,,Kosovo - Dragaš,2017-07-08,11:33
Issoria lathonia,Animalia,BRUSHFOOTED_BUTTERFLIES_NYMPHALIDAE,Queen of Spain Fritillary,,2,20.58,42.08,Europe,Kosovo,KO,,Kosovo - Dragaš,2017-07-08,11:40
Pontia edusa,Animalia,WHITES_PIERIDAE,Eastern Bath White,,1,20.58,42.08,Europe,Kosovo,KO,,Kosovo - Dragaš,2017-07-08,11:50
Colias crocea f. helice,Animalia,WHITES_PIERIDAE,Clouded Yellow f. helice,,1,20.58,42.08,Europe,Kosovo,KO,,Kosovo - Dragaš,2017-07-08,11:57
Erebia medusa,Animalia,BRUSHFOOTED_BUTTERFLIES_NYMPHALIDAE,Woodland Ringlet,,1,20.58,42.08,Europe,Kosovo,KO,,Kosovo - Dragaš,2017-07-08,12:01
Lycaena phlaeas,Animalia,GOSSAMERWINGED_BUTTERFLIES_LYCAENIDAE,Small Copper,,1,20.58,42.08,Europe,Kosovo,KO,,Kosovo - Dragaš,2017-07-08,12:12
Thymelicus sylvestris,Animalia,SKIPPERS_HESPERIIDAE,Small Skipper,,2,20.58,42.08,Europe,Kosovo,KO,,Kosovo - Dragaš,2017-07-08,12:14
Erebia medusa,Animalia,BRUSHFOOTED_BUTTERFLIES_NYMPHALIDAE,Woodland Ringlet,,1,20.58,42.08,Europe,Kosovo,KO,,Kosovo - Dragaš,2017-07-08,12:34
Aglais io,Animalia,BRUSHFOOTED_BUTTERFLIES_NYMPHALIDAE,Peacock,,1,20.58,42.08,Europe,Kosovo,KO,,Kosovo - Dragaš,2017-07-08,12:39
Erebia medusa,Animalia,BRUSHFOOTED_BUTTERFLIES_NYMPHALIDAE,Woodland Ringlet,,1,20.58,42.08,Europe,Kosovo,KO,,Kosovo - Dragaš,2017-07-08,12:40
Cyaniris semiargus,Animalia,GOSSAMERWINGED_BUTTERFLIES_LYCAENIDAE,Mazarine Blue,,1,20.55,42.05,Europe,Kosovo,KO,,Kosovo - Dragaš,2017-07-08,12:46
Anthocharis cardamines,Animalia,WHITES_PIERIDAE,Orange-tip,,1,20.58,42.08,Europe,Kosovo,KO,,Kosovo - Dragaš,2017-07-08,12:52
Polygonia c-album,Animalia,BRUSHFOOTED_BUTTERFLIES_NYMPHALIDAE,Comma Butterfly,,1,20.58,42.08,Europe,Kosovo,KO,,Kosovo - Dragaš,2017-07-08,12:55
Aglais io,Animalia,BRUSHFOOTED_BUTTERFLIES_NYMPHALIDAE,Peacock,,1,20.58,42.09,Europe,Kosovo,KO,,Kosovo - Dragaš,2017-07-08,13:04
Coenonympha arcania,Animalia,BRUSHFOOTED_BUTTERFLIES_NYMPHALIDAE,Pearly Heath,,1,20.55,42.05,Europe,Kosovo,KO,,Kosovo - Dragaš,2017-07-08,13:14
Polyommatus dorylas,Animalia,GOSSAMERWINGED_BUTTERFLIES_LYCAENIDAE,Turqouise Blue,,2,20.58,42.08,Europe,Kosovo,KO,,Kosovo - Dragaš,2017-07-08,13:16
Coenonympha rhodopensis,Animalia,BRUSHFOOTED_BUTTERFLIES_NYMPHALIDAE,Eastern Large Heath,,1,20.58,42.08,Europe,Kosovo,KO,,Kosovo - Dragaš,2017-07-08,13:17
Vanessa cardui,Animalia,BRUSHFOOTED_BUTTERFLIES_NYMPHALIDAE,Painted Lady,,1,20.58,42.08,Europe,Kosovo,KO,,Kosovo - Dragaš,2017-07-08,13:24
Boloria graeca,Animalia,BRUSHFOOTED_BUTTERFLIES_NYMPHALIDAE,Balkan Fritillary,,1,20.58,42.09,Europe,Kosovo,KO,,Kosovo - Dragaš,2017-07-08,13:37
Lycaena candens,Animalia,GOSSAMERWINGED_BUTTERFLIES_LYCAENIDAE,Balkan Copper,,1,20.58,42.09,Europe,Kosovo,KO,,Kosovo - Dragaš,2017-07-08,13:41
Aglais io,Animalia,BRUSHFOOTED_BUTTERFLIES_NYMPHALIDAE,Peacock,,1,20.57,42.08,Europe,Kosovo,KO,,Kosovo - Dragaš,2017-07-08,14:02
Pyrgus andromedae,Animalia,SKIPPERS_HESPERIIDAE,Alpine Grizzled Skipper,,1,20.57,42.08,Europe,Kosovo,KO,,Kosovo - Dragaš,2017-07-08,14:23
Papilio machaon,Animalia,SWALLOWTAILS_PAPILIONIDAE,Swallowtail,,2,20.56,42.08,Europe,Kosovo,KO,,Kosovo - Dragaš,2017-07-08,14:49
Boloria pales,Animalia,BRUSHFOOTED_BUTTERFLIES_NYMPHALIDAE,Shepherd's Fritillary,,1,20.56,42.08,Europe,Kosovo,KO,,Kosovo - Dragaš,2017-07-08,14:57
Vanessa atalanta,Animalia,BRUSHFOOTED_BUTTERFLIES_NYMPHALIDAE,Red Admiral,,1,20.57,42.08,Europe,Kosovo,KO,,Kosovo - Dragaš,2017-07-08,16:35
Papilio machaon,Animalia,SWALLOWTAILS_PAPILIONIDAE,Swallowtail,,1,20.58,42.09,Europe,Kosovo,KO,,Kosovo - Dragaš,2017-07-08,16:56
Lycaena candens,Animalia,GOSSAMERWINGED_BUTTERFLIES_LYCAENIDAE,Balkan Copper,,1,20.58,42.09,Europe,Kosovo,KO,,Kosovo - Dragaš,2017-07-08,17:00
