scientificName,kingdom,family,vernacularName,previousIdentifications,individualCount,longitudeDecimal,latitudeDecimal,continent,country,countryCode,stateProvince,locality,eventDate,eventTime
Passer flaveolus,Animalia,OLD_WORLD_SPARROWS_PASSERIDAE,Plain-backed Sparrow,,1,105.930211656,13.9716032771,Asia,Laos,LA,,Laos - Champasak,2015-01-24,16:00
Glareola lactea,Animalia,COURSERS_AND_PRATINCOLES_GLAREOLIDAE,Small Pratincole,,100,100.410368666,20.2722412651,Asia,Laos,LA,,Laos,2014-12-28,
Charadrius alexandrinus,Animalia,PLOVERS_CHARADRIIDAE,Kentish Plover,,2,105.900709033,14.9067981544,Asia,Laos,LA,,Laos - Champasak,2015-01-15,11:00
Lanius cristatus,Animalia,SHRIKES_LANIIDAE,Brown Shrike,,1,105.922594517,13.9535174272,Asia,Laos,LA,,Laos - Champasak,2015-01-22,09:00
Corvus macrorhynchos,Animalia,CROWS_AND_JAYS_CORVIDAE,Large-billed Crow,,1,105.919905603,13.9498932863,Asia,Laos,LA,,Laos - Champasak,2015-01-21,09:00
Anhinga melanogaster,Animalia,ANHINGAS_ANHINGIDAE,Oriental Darter,,1,105.924883783,13.9388142165,Asia,Laos,LA,,Laos - Champasak,2015-01-21,08:00
Ardea alba,Animalia,HERONS_ARDEIDAE,Great Egret,,1,105.924883783,13.9388142165,Asia,Laos,LA,,Laos - Champasak,2015-01-21,08:00
Anhinga melanogaster,Animalia,ANHINGAS_ANHINGIDAE,Oriental Darter,,2,105.985637158,13.9599312816,Asia,Laos,LA,,Laos - Champasak,2015-01-20,11:00
Lanius cristatus,Animalia,SHRIKES_LANIIDAE,Brown Shrike,,1,105.918817967,13.9643459088,Asia,Laos,LA,,Laos - Champasak,2015-01-19,16:00
Spilornis cheela,Animalia,HAWKS_AND_EAGLES_ACCIPITRIDAE,Crested Serpent Eagle,,1,105.917809121,13.9643672203,Asia,Laos,LA,,Laos - Champasak,2015-01-19,16:00
Lanius cristatus,Animalia,SHRIKES_LANIIDAE,Brown Shrike,,1,105.922047012,13.9621599175,Asia,Laos,LA,,Laos - Champasak,2015-01-19,10:00
Trithemis pallidinervis,Animalia,SKIMMERS_LIBELLULIDAE,,,1,102.441752069,18.944019828,Asia,Laos,LA,,Laos - Vientiane,2014-12-14,10:00
Trithemis pallidinervis,Animalia,SKIMMERS_LIBELLULIDAE,,,1,105.907445401,14.8665279428,Asia,Laos,LA,,Laos - Champasak,2015-01-15,13:00
Anas poecilorhyncha haringtoni,Animalia,DUCKS_GEESE_AND_SWANS_ANATIDAE,Indian Spot-billed Duck ssp haringtoni,,2,105.900081396,14.9039755124,Asia,Laos,LA,,Laos - Champasak,2015-01-15,15:00
Glareola lactea,Animalia,COURSERS_AND_PRATINCOLES_GLAREOLIDAE,Small Pratincole,,8,105.900081396,14.9039755124,Asia,Laos,LA,,Laos - Champasak,2015-01-15,10:00
Trithemis pallidinervis,Animalia,SKIMMERS_LIBELLULIDAE,,,1,102.445028052,18.9272344941,Asia,Laos,LA,,Laos - Vientiane,2014-12-13,10:00
Eutropis multifasciata,Animalia,Scincidae,East Indian Brown Mabuya,,1,105.81456922,14.84877461,Asia,Laos,LA,,Laos - Champasak,2015-01-13,14:00
Monticola solitarius,Animalia,OLD_WORLD_FLYCATCHERS_MUSCICAPIDAE,Blue Rock Thrush,,1,106.272054166,15.5322972049,Asia,Laos,LA,,Laos - Saravan,2015-01-08,17:00
Libellago lineata,Animalia,JEWELS_CHLOROCYPHIDAE,,,1,106.272697896,15.5263843473,Asia,Laos,LA,,Laos - Saravan,2015-01-07,14:00
Monticola solitarius,Animalia,OLD_WORLD_FLYCATCHERS_MUSCICAPIDAE,Blue Rock Thrush,,1,106.274728999,15.5236349271,Asia,Laos,LA,,Laos - Saravan,2015-01-08,09:00
Orthetrum pruinosum,Animalia,SKIMMERS_LIBELLULIDAE,,,1,102.445196025,18.9244437254,Asia,Laos,LA,,Laos - Vientiane,2014-12-13,10:00
Trithemis aurora,Animalia,SKIMMERS_LIBELLULIDAE,Crimson Dropwing,,1,102.44429849,18.92209915,Asia,Laos,LA,,Laos - Vientiane,2014-12-13,10:00
Orthetrum sabina,Animalia,SKIMMERS_LIBELLULIDAE,Slender Skimmer,,1,102.444305867,18.9215101886,Asia,Laos,LA,,Laos - Vientiane,2014-12-13,10:00
Pycnonotus aurigaster,Animalia,BULBULS_PYCNONOTIDAE,Sooty-headed Bulbul,,1,102.44753927,18.9218749211,Asia,Laos,LA,,Laos - Vientiane,2014-12-12,16:00
Lanius tephronotus,Animalia,SHRIKES_LANIIDAE,Grey-backed Shrike,,1,102.139857039,19.8963117988,Asia,Laos,LA,,Laos - Louangphrabang,2014-12-10,11:00
Orthetrum sabina,Animalia,SKIMMERS_LIBELLULIDAE,Slender Skimmer,,1,102.13470703,19.8816427754,Asia,Laos,LA,,Laos - Louangphrabang,2014-12-07,10:00
Monticola solitarius,Animalia,OLD_WORLD_FLYCATCHERS_MUSCICAPIDAE,Blue Rock Thrush,,1,102.137332074,19.892377419,Asia,Laos,LA,,Laos - Louangphrabang,2014-12-04,16:00
Neosuthora davidiana,Animalia,OLD_WORLD_WARBLERS_SYLVIIDAE,Short-tailed Parrotbill,,1,103.367185593,20.1016394143,Asia,Laos,LA,,Laos - Houaphan,2014-03-17,
Tholymis tillarga,Animalia,SKIMMERS_LIBELLULIDAE,Twister,,1,103.36718559,20.10163941,Asia,Laos,LA,,Laos - Houaphan,2014-03-17,
Diplacodes trivialis,Animalia,SKIMMERS_LIBELLULIDAE,Chalky Percher,,1,103.367185593,20.1016394143,Asia,Laos,LA,,Laos - Houaphan,2014-03-17,
Trithemis aurora,Animalia,SKIMMERS_LIBELLULIDAE,Crimson Dropwing,,1,102.686048001,20.7028513296,Asia,Laos,LA,,Laos - Louangphrabang,2014-11-29,14:00
Orthetrum sabina,Animalia,SKIMMERS_LIBELLULIDAE,Slender Skimmer,,1,105.134932995,18.3546273593,Asia,Laos,LA,,Laos - Bolikhamxai,2014-03-12,
Palpopleura sexmaculata,Animalia,SKIMMERS_LIBELLULIDAE,Asian Widow,,1,105.134932995,18.3546273593,Asia,Laos,LA,,Laos - Bolikhamxai,2014-03-12,
Palpopleura sexmaculata,Animalia,SKIMMERS_LIBELLULIDAE,Asian Widow,,1,105.134932995,18.3546273593,Asia,Laos,LA,,Laos - Bolikhamxai,2014-03-12,
Treron curvirostra,Animalia,PIGEONS_AND_DOVES_COLUMBIDAE,Thick-billed Green Pigeon,,2,101.830172539,22.0931455989,Asia,Laos,LA,,Laos - Phôngsali,2011-04-05,
Turdus dissimilis,Animalia,THRUSHES_TURDIDAE,Black-breasted Thrush,,1,101.830172539,22.0931455989,Asia,Laos,LA,,Laos - Phôngsali,2011-04-05,
Orthetrum pruinosum,Animalia,SKIMMERS_LIBELLULIDAE,,,1,102.502112836,21.0845795422,Asia,Laos,LA,,Laos - Phôngsali,2014-11-21,12:00
Centropus sinensis,Animalia,CUCKOOS_AND_COUCALS_CUCULIDAE,Greater Coucal,,1,102.745401263,20.8721227921,Asia,Laos,LA,,Laos - Louangphrabang,2014-11-21,10:00
Pycnonotus jocosus,Animalia,BULBULS_PYCNONOTIDAE,Red-whiskered Bulbul,,2,102.506010756,21.0791940845,Asia,Laos,LA,,Laos - Phôngsali,2014-11-20,09:00
Coracias affinis,Animalia,ROLLERS_CORACIIDAE,Indochinese Roller,,1,104.537258146,18.2026749652,Asia,Laos,LA,,Laos - Khammouan,1996-01-05,
Pandion haliaetus,Animalia,OSPREY_PANDIONIDAE,Western Osprey,,1,105.918524265,13.9443967701,Asia,Laos,LA,,Laos - Champasak,2014-03-03,
Spilornis cheela,Animalia,HAWKS_AND_EAGLES_ACCIPITRIDAE,Crested Serpent Eagle,,1,101.34475708,21.1472729789,Asia,Laos,LA,,Laos - Louang Namtha,2014-02-06,
Accipiter trivirgatus,Animalia,HAWKS_AND_EAGLES_ACCIPITRIDAE,Crested Goshawk,,1,101.830193996,22.0925391932,Asia,Laos,LA,,Laos - Phôngsali,2014-02-02,
Psilopogon duvaucelii,Animalia,Megalaimidae,Blue-eared Barbet,,1,103.366241455,20.1004303757,Asia,Laos,LA,,Laos - Houaphan,2014-01-28,
Pernis ptilorhynchus,Animalia,HAWKS_AND_EAGLES_ACCIPITRIDAE,Crested Honey Buzzard,,1,103.593521118,19.7204945189,Asia,Laos,LA,,Laos - Xiangkhoang,2014-01-23,
Spizixos canifrons,Animalia,BULBULS_PYCNONOTIDAE,Crested Finchbill,,2,103.591911793,19.7250392693,Asia,Laos,LA,,Laos - Xiangkhoang,2014-01-22,
Hirundapus giganteus,Animalia,SWIFTS_APODIDAE,Brown-backed Needletail,,20,102.442724705,18.942924029,Asia,Laos,LA,,Laos - Vientiane,2014-01-20,
Delichon nipalense,Animalia,SWALLOWS_HIRUNDINIDAE,Nepal House Martin,,10,102.435042858,18.9259560649,Asia,Laos,LA,,Laos - Vientiane,2014-01-20,
Falco severus,Animalia,CARACAS_AND_FALCONS_FALCONIDAE,Oriental Hobby,,1,102.321424484,18.9731008223,Asia,Laos,LA,,Laos - Vientiane,2014-01-16,
Ptyonoprogne concolor,Animalia,SWALLOWS_HIRUNDINIDAE,Dusky Crag Martin,,5,102.327690125,18.9554865182,Asia,Laos,LA,,Laos - Vientiane,2014-01-16,
Orthetrum pruinosum,Animalia,SKIMMERS_LIBELLULIDAE,,,1,102.40794182,18.91140202,Asia,Laos,LA,,Laos - Vientiane,2014-01-13,
Trithemis aurora,Animalia,SKIMMERS_LIBELLULIDAE,Crimson Dropwing,,1,102.40794182,18.91140202,Asia,Laos,LA,,Laos - Vientiane,2014-01-13,
Trithemis pallidinervis,Animalia,SKIMMERS_LIBELLULIDAE,,,1,102.407941818,18.9114020244,Asia,Laos,LA,,Laos - Vientiane,2014-01-12,
Phylloscopus proregulus,Animalia,LEAF_WARBLERS_AND_ALLIES_PHYLLOSCOPIDAE,Pallas's Leaf Warbler,,1,103.459582329,20.0708060145,Asia,Laos,LA,,Laos - Houaphan,2014-01-26,
Cecropis striolata,Animalia,SWALLOWS_HIRUNDINIDAE,Striated Swallow,,101,102.435557842,18.9273971911,Asia,Laos,LA,,Laos - Vientiane,2014-01-20,
Stachyris herberti,Animalia,BABBLERS_TIMALIIDAE,Sooty Babbler,,5,104.492146969,18.1809810943,Asia,Laos,LA,,Laos - Khammouan,2014-03-10,
Stachyris herberti,Animalia,BABBLERS_TIMALIIDAE,Sooty Babbler,,5,104.492776617,18.1807364572,Asia,Laos,LA,,Laos - Khammouan,2014-03-08,
Orcaella brevirostris,Animalia,DOLPHINS_DELPHINIDAE,Irrawaddy Dolphin,,3,105.953364819,13.9321928126,Asia,Laos,LA,,Laos - Champasak,2014-03-03,
Ardea alba,Animalia,HERONS_ARDEIDAE,Great Egret,,2,105.970001221,13.9314014074,Asia,Laos,LA,,Laos - Champasak,2014-02-27,07:58
Orcaella brevirostris,Animalia,DOLPHINS_DELPHINIDAE,Irrawaddy Dolphin,,3,105.961761475,13.9322344654,Asia,Laos,LA,,Laos - Champasak,2014-02-27,07:45
Ardea cinerea,Animalia,HERONS_ARDEIDAE,Grey Heron,,1,105.9473,13.9377,Asia,Laos,LA,,Laos - Champasak,2014-02-26,13:40
Buteo japonicus,Animalia,HAWKS_AND_EAGLES_ACCIPITRIDAE,Eastern Buzzard,,3,105.9238,13.9647,Asia,Laos,LA,,Laos - Champasak,2014-02-26,07:03
Corvus macrorhynchos,Animalia,CROWS_AND_JAYS_CORVIDAE,Large-billed Crow,,1,105.92,13.9439,Asia,Laos,LA,,Laos - Champasak,2014-02-25,11:38
Passer flaveolus,Animalia,OLD_WORLD_SPARROWS_PASSERIDAE,Plain-backed Sparrow,,2,105.9239,13.9647,Asia,Laos,LA,,Laos - Champasak,2014-02-24,15:11
Acridotheres tristis,Animalia,STARLINGS_STURNIDAE,Common Myna,,3,102.1288,19.878,Asia,Laos,LA,,Laos - Louangphrabang,2014-02-19,17:13
Saxicola maurus,Animalia,OLD_WORLD_FLYCATCHERS_MUSCICAPIDAE,Siberian Stonechat,,1,100.094576776,20.3403616339,Asia,Laos,LA,,Laos - Bokeo,2013-03-31,
Prinia inornata,Animalia,CISTICOLAS_AND_ALLIES_CISTICOLIDAE,Plain Prinia,,1,100.097323358,20.3343256168,Asia,Laos,LA,,Laos - Bokeo,2013-03-30,
Chrysocolaptes guttacristatus,Animalia,WOODPECKERS_PICIDAE,Greater Flameback,,1,105.927831531,13.9468957944,Asia,Laos,LA,,Laos - Champasak,2004-02-23,
Pericrocotus speciosus,Animalia,CUCKOOSHRIKES_CAMPEPHAGIDAE,Scarlet Minivet,,5,101.411769,20.856182,Asia,Laos,LA,,Laos - Louang Namtha,2013-12-11,15:08
Lanius tephronotus,Animalia,SHRIKES_LANIIDAE,Grey-backed Shrike,,1,100.095062256,20.3341646532,Asia,Laos,LA,,Laos - Bokeo,2013-03-30,
Motacilla tschutschensis,Animalia,PIPITS_EN_WAGTAILS_MOTACILLIDAE,Eastern Yellow Wagtail,,1,100.09523392,20.33335983,Asia,Laos,LA,,Laos - Bokeo,2013-03-30,
Motacilla citreola,Animalia,PIPITS_EN_WAGTAILS_MOTACILLIDAE,Citrine Wagtail,,1,100.094547272,20.3353718767,Asia,Laos,LA,,Laos - Bokeo,2013-03-30,
Glareola lactea,Animalia,COURSERS_AND_PRATINCOLES_GLAREOLIDAE,Small Pratincole,,1,100.093774796,20.3357340419,Asia,Laos,LA,,Laos - Bokeo,2013-03-30,
Monticola solitarius,Animalia,OLD_WORLD_FLYCATCHERS_MUSCICAPIDAE,Blue Rock Thrush,,1,102.16186523438,19.932041306116,Asia,Laos,LA,,Laos - Louangphrabang,2013-03-27,
Orthetrum sabina,Animalia,SKIMMERS_LIBELLULIDAE,Slender Skimmer,,1,102.22778320312,19.870059837974,Asia,Laos,LA,,Laos - Louangphrabang,2013-04-02,
Hemidactylus platyurus,Animalia,Gekkonidae,Flat-tailed House Gecko,,1,102.14538574219,19.890723023997,Asia,Laos,LA,,Laos - Louangphrabang,2013-03-28,
Copsychus saularis,Animalia,OLD_WORLD_FLYCATCHERS_MUSCICAPIDAE,Oriental Magpie-Robin,,1,102.09869384766,19.893305732745,Asia,Laos,LA,,Laos - Louangphrabang,2013-03-27,
Cyornis whitei whitei,Animalia,OLD_WORLD_FLYCATCHERS_MUSCICAPIDAE,Hill Blue Flycatcher ssp whitei,,1,102.046508789,19.8493939584,Asia,Laos,LA,,Laos - Louangphrabang,2013-03-27,
Acridotheres tristis,Animalia,STARLINGS_STURNIDAE,Common Myna,,10,102.14813232422,19.870059837974,Asia,Laos,LA,,Laos - Louangphrabang,2013-03-27,
Kurochkinegramma hypogrammicum,Animalia,SUNBIRDS_NECTARINIIDAE,Purple-naped Sunbird,,2,104.81349036098,17.996570463115,Asia,Laos,LA,,Laos - Khammouan,2012-05-17,
Pitta moluccensis,Animalia,PITTAS_PITTIDAE,Blue-winged Pitta,,2,104.83447596431,17.9777942368,Asia,Laos,LA,,Laos - Khammouan,2012-05-14,
Coracias affinis,Animalia,ROLLERS_CORACIIDAE,Indochinese Roller,,1,104.82430502772,17.98787650233,Asia,Laos,LA,,Laos - Khammouan,2012-05-14,
Macronus gularis,Animalia,BABBLERS_TIMALIIDAE,Pin-striped Tit-Babbler,,1,104.82512008399,17.991825572835,Asia,Laos,LA,,Laos - Khammouan,2012-05-12,
Coracias affinis,Animalia,ROLLERS_CORACIIDAE,Indochinese Roller,,2,104.8271086067,17.981468003477,Asia,Laos,LA,,Laos - Khammouan,2012-05-12,
Pitta moluccensis,Animalia,PITTAS_PITTIDAE,Blue-winged Pitta,,1,104.82527062297,17.990999030508,Asia,Laos,LA,,Laos - Khammouan,2012-05-12,
Pellorneum ruficeps,Animalia,Pellorneidae,Puff-throated Babbler,,2,104.82527062297,17.990999030508,Asia,Laos,LA,,Laos - Khammouan,2012-05-12,
Malacopteron cinereum,Animalia,Pellorneidae,Scaly-crowned Babbler,,2,104.82527062297,17.990999030508,Asia,Laos,LA,,Laos - Khammouan,2012-05-12,
Cyornis sumatrensis indochina,Animalia,OLD_WORLD_FLYCATCHERS_MUSCICAPIDAE,Indochinese Blue Flycatcher ssp indochina,,3,104.82527062297,17.990999030508,Asia,Laos,LA,,Laos - Khammouan,2012-05-12,
Stachyris nigriceps,Animalia,BABBLERS_TIMALIIDAE,Grey-throated Babbler,,1,104.82451960444,17.994121503424,Asia,Laos,LA,,Laos - Khammouan,2012-05-11,
Chloropsis cochinchinensis,Animalia,LEAFBIRDS_CHLOROPSEIDAE,Blue-winged Leafbird,,4,104.81447741389,17.991590876024,Asia,Laos,LA,,Laos - Khammouan,2012-05-11,
Macronus gularis,Animalia,BABBLERS_TIMALIIDAE,Pin-striped Tit-Babbler,,4,104.81250330806,17.99534598752,Asia,Laos,LA,,Laos - Khammouan,2012-05-10,
Cyornis whitei whitei,Animalia,OLD_WORLD_FLYCATCHERS_MUSCICAPIDAE,Hill Blue Flycatcher ssp whitei,,1,104.81250330806,17.99534598752,Asia,Laos,LA,,Laos - Khammouan,2012-05-10,
Chloropsis cochinchinensis,Animalia,LEAFBIRDS_CHLOROPSEIDAE,Blue-winged Leafbird,,2,104.81250330806,17.99534598752,Asia,Laos,LA,,Laos - Khammouan,2012-05-10,
Chrysocolaptes guttacristatus,Animalia,WOODPECKERS_PICIDAE,Greater Flameback,,2,104.81250330806,17.99534598752,Asia,Laos,LA,,Laos - Khammouan,2012-05-10,
Chrysocolaptes guttacristatus,Animalia,WOODPECKERS_PICIDAE,Greater Flameback,,1,104.82004903257,17.994284768461,Asia,Laos,LA,,Laos - Khammouan,2012-05-09,
Malacopteron cinereum,Animalia,Pellorneidae,Scaly-crowned Babbler,,2,104.81054395437,18.010488071458,Asia,Laos,LA,,Laos - Khammouan,2012-05-08,
Pellorneum ruficeps,Animalia,Pellorneidae,Puff-throated Babbler,,2,104.81114476919,18.011549192991,Asia,Laos,LA,,Laos - Khammouan,2012-05-08,
Macronus gularis,Animalia,BABBLERS_TIMALIIDAE,Pin-striped Tit-Babbler,,10,104.81114476919,18.011549192991,Asia,Laos,LA,,Laos - Khammouan,2012-05-08,
Cyornis sumatrensis indochina,Animalia,OLD_WORLD_FLYCATCHERS_MUSCICAPIDAE,Indochinese Blue Flycatcher ssp indochina,,1,104.81114476919,18.011549192991,Asia,Laos,LA,,Laos - Khammouan,2012-05-08,
Cyornis whitei whitei,Animalia,OLD_WORLD_FLYCATCHERS_MUSCICAPIDAE,Hill Blue Flycatcher ssp whitei,,1,104.83981221914,17.996203121329,Asia,Laos,LA,,Laos - Khammouan,2012-05-08,
Chloropsis cochinchinensis,Animalia,LEAFBIRDS_CHLOROPSEIDAE,Blue-winged Leafbird,,2,104.83697980642,17.998407160569,Asia,Laos,LA,,Laos - Khammouan,2012-05-08,
Pitta moluccensis,Animalia,PITTAS_PITTIDAE,Blue-winged Pitta,,3,104.83440488577,17.989182664631,Asia,Laos,LA,,Laos - Khammouan,2012-05-08,
Chrysocolaptes guttacristatus,Animalia,WOODPECKERS_PICIDAE,Greater Flameback,,1,104.81310412288,17.963465816516,Asia,Laos,LA,,Laos - Khammouan,2012-05-07,
Pitta moluccensis,Animalia,PITTAS_PITTIDAE,Blue-winged Pitta,,4,104.75681394339,17.957505504636,Asia,Laos,LA,,Laos - Khammouan,2012-05-07,
Haliaeetus leucogaster,Animalia,HAWKS_AND_EAGLES_ACCIPITRIDAE,White-bellied Sea Eagle,,1,104.322463989,10.4366321664,Asia,Laos,LA,,Laos - Champasak,2012-04-05,
Actitis hypoleucos,Animalia,SANDPIPERS_AND_ALLIES_SCOLOPACIDAE,Common Sandpiper,,2,104.322463989,10.4366321664,Asia,Laos,LA,,Laos - Champasak,2012-04-05,
Pachycephala cinerea,Animalia,WHISTLERS_PACHYCEPHALIDAE,Mangrove Whistler,,1,104.322463989,10.4366321664,Asia,Laos,LA,,Laos - Champasak,2012-04-05,
Treron bicinctus,Animalia,PIGEONS_AND_DOVES_COLUMBIDAE,Orange-breasted Green Pigeon,,1,104.322463989,10.4366321664,Asia,Laos,LA,,Laos - Champasak,2012-04-04,
Ficedula narcissina,Animalia,OLD_WORLD_FLYCATCHERS_MUSCICAPIDAE,Narcissus Flycatcher,,1,104.322463989,10.4366321664,Asia,Laos,LA,,Laos - Champasak,2012-04-04,
Pachycephala cinerea,Animalia,WHISTLERS_PACHYCEPHALIDAE,Mangrove Whistler,,1,104.322463989,10.4366321664,Asia,Laos,LA,,Laos - Champasak,2012-04-04,
Pycnonotus goiavier,Animalia,BULBULS_PYCNONOTIDAE,Yellow-vented Bulbul,,1,104.322463989,10.4366321664,Asia,Laos,LA,,Laos - Champasak,2012-04-04,
Zosterops japonicus,Animalia,WHITEEYES_ZOSTEROPIDAE,Warbling White-eye,,1,104.322463989,10.4366321664,Asia,Laos,LA,,Laos - Champasak,2012-04-04,
Haliaeetus leucogaster,Animalia,HAWKS_AND_EAGLES_ACCIPITRIDAE,White-bellied Sea Eagle,,1,104.322463989,10.4366321664,Asia,Laos,LA,,Laos - Champasak,2012-04-04,
Gracupica nigricollis,Animalia,STARLINGS_STURNIDAE,Black-collared Starling,,1,105.892822266,14.0388103932,Asia,Laos,LA,,Laos - Champasak,2012-04-02,
Corvus levaillantii,Animalia,CROWS_AND_JAYS_CORVIDAE,Eastern Jungle Crow,,1,105.892822266,14.0388103932,Asia,Laos,LA,,Laos - Champasak,2012-04-02,
Bubulcus coromandus,Animalia,HERONS_ARDEIDAE,Eastern Cattle Egret,,1,105.892822266,14.0388103932,Asia,Laos,LA,,Laos - Champasak,2012-04-02,
Elanus caeruleus vociferus,Animalia,HAWKS_AND_EAGLES_ACCIPITRIDAE,Black-winged Kite ssp vociferus,,1,105.892822266,14.0388103932,Asia,Laos,LA,,Laos - Champasak,2012-04-02,
Phoenicurus fuliginosus,Animalia,OLD_WORLD_FLYCATCHERS_MUSCICAPIDAE,Plumbeous Water Redstart,,1,106.116088984,15.1878957269,Asia,Laos,LA,,Laos - Champasak,2012-03-31,
Anthus hodgsoni,Animalia,PIPITS_EN_WAGTAILS_MOTACILLIDAE,Olive-backed Pipit,,1,106.245178339,15.1766301679,Asia,Laos,LA,,Laos - Champasak,2012-03-30,
Lanius cristatus,Animalia,SHRIKES_LANIIDAE,Brown Shrike,,1,106.242088434,15.1786182514,Asia,Laos,LA,,Laos - Champasak,2012-03-30,
Pycnonotus aurigaster,Animalia,BULBULS_PYCNONOTIDAE,Sooty-headed Bulbul,,1,102.455238459,18.9330218599,Asia,Laos,LA,,Laos - Vientiane,2012-03-27,
Pycnonotus flaviventris,Animalia,BULBULS_PYCNONOTIDAE,Black-crested Bulbul,,2,102.455238459,18.9330218599,Asia,Laos,LA,,Laos - Vientiane,2012-03-27,
Aegithina tiphia,Animalia,IORAS_AEGITHINIDAE,Common Iora,,1,102.441227007,18.9229793875,Asia,Laos,LA,,Laos - Vientiane,2012-03-27,
Neurothemis fulvia,Animalia,SKIMMERS_LIBELLULIDAE,Russet Percher,,1,102.444509623,18.9177173867,Asia,Laos,LA,,Laos - Vientiane,2012-01-11,
Dendrelaphis pictus,Animalia,Colubridae,Common Bronze-back,,1,101.816954613,22.1698584181,Asia,Laos,LA,,Laos - Phôngsali,2011-04-03,
Brachythemis contaminata,Animalia,SKIMMERS_LIBELLULIDAE,Asian Amberwing,,10,102.615394592,17.950320204,Asia,Laos,LA,,Laos - Vientiane [prefecture],2008-12-31,
Coracias affinis,Animalia,ROLLERS_CORACIIDAE,Indochinese Roller,,2,101.557617188,17.9160227039,Asia,Laos,LA,,Laos - Vientiane,1996-01-01,
Gracupica nigricollis,Animalia,STARLINGS_STURNIDAE,Black-collared Starling,,1,105.86769104,14.0107838616,Asia,Laos,LA,,Laos - Champasak,2010-02-21,
Bubulcus coromandus,Animalia,HERONS_ARDEIDAE,Eastern Cattle Egret,,1,105.763320923,14.3629405994,Asia,Laos,LA,,Laos - Champasak,2010-02-21,
Motacilla tschutschensis,Animalia,PIPITS_EN_WAGTAILS_MOTACILLIDAE,Eastern Yellow Wagtail,,1,105.76332092,14.3629406,Asia,Laos,LA,,Laos - Champasak,2010-02-20,
Bubulcus coromandus,Animalia,HERONS_ARDEIDAE,Eastern Cattle Egret,,1,105.763320923,14.3629405994,Asia,Laos,LA,,Laos - Champasak,2010-02-20,
Bubulcus coromandus,Animalia,HERONS_ARDEIDAE,Eastern Cattle Egret,,1,105.914382935,14.356953867,Asia,Laos,LA,,Laos - Champasak,2010-02-20,
Pycnonotus aurigaster,Animalia,BULBULS_PYCNONOTIDAE,Sooty-headed Bulbul,,1,102.448883057,18.9532243902,Asia,Laos,LA,,Laos - Vientiane,2010-02-14,
Pycnonotus flaviventris,Animalia,BULBULS_PYCNONOTIDAE,Black-crested Bulbul,,1,102.448883057,18.9532243902,Asia,Laos,LA,,Laos - Vientiane,2010-02-13,
Saxicola maurus / stejnegeri,Animalia,OLD_WORLD_FLYCATCHERS_MUSCICAPIDAE,Siberian or Stejneger's Stonechat,,50,100.25,15.71,Asia,Laos,LA,,Laos,2002-01-21,
Spilornis cheela,Animalia,HAWKS_AND_EAGLES_ACCIPITRIDAE,Crested Serpent Eagle,,1,105.682411195,14.1087940831,Asia,Laos,LA,,Laos - Champasak,2008-12-21,09:00
Haliaeetus ichthyaetus,Animalia,HAWKS_AND_EAGLES_ACCIPITRIDAE,Grey-headed Fish Eagle,,1,105.676259996,14.110644813,Asia,Laos,LA,,Laos - Champasak,2008-12-21,09:00
Gyps bengalensis,Animalia,HAWKS_AND_EAGLES_ACCIPITRIDAE,White-rumped Vulture,,1,105.674228668,14.111521616,Asia,Laos,LA,,Laos - Champasak,2008-12-21,09:00
Leptoptilos javanicus,Animalia,STORKS_CICONIIDAE,Lesser Adjutant,,1,105.700635912,14.0920813374,Asia,Laos,LA,,Laos - Champasak,2008-12-21,09:00
Haliastur indus,Animalia,HAWKS_AND_EAGLES_ACCIPITRIDAE,Brahminy Kite,,1,105.70544243,14.0875026695,Asia,Laos,LA,,Laos - Champasak,2008-12-21,09:00
Ciconia episcopus,Animalia,STORKS_CICONIIDAE,Woolly-necked Stork,,1,105.710849764,14.0965766674,Asia,Laos,LA,,Laos - Champasak,2008-12-21,09:00
Motacilla tschutschensis,Animalia,PIPITS_EN_WAGTAILS_MOTACILLIDAE,Eastern Yellow Wagtail,,1,106.04085159372,14.758471459261,Asia,Laos,LA,,Laos,2008-12-20,09:00
Anthus rubescens japonicus,Animalia,PIPITS_EN_WAGTAILS_MOTACILLIDAE,Siberian Buff-bellied Pipit,,1,106.04085159372,14.758471459261,Asia,Laos,LA,,Laos,2008-12-20,09:00
Motacilla tschutschensis,Animalia,PIPITS_EN_WAGTAILS_MOTACILLIDAE,Eastern Yellow Wagtail,,1,106.03523254395,14.76650008004,Asia,Laos,LA,,Laos,2008-12-19,
Leptocoma brasiliana,Animalia,SUNBIRDS_NECTARINIIDAE,Van Hasselt's Sunbird,,1,106.02782822,14.76811573,Asia,Laos,LA,,Laos,2008-12-19,
Delichon dasypus,Animalia,SWALLOWS_HIRUNDINIDAE,Asian House Martin,,1,104.49898910592,18.178712750249,Asia,Laos,LA,,Laos,2008-12-14,16:00
Anhinga melanogaster,Animalia,ANHINGAS_ANHINGIDAE,Oriental Darter,,1,105.92062041,13.93434715,Asia,Laos,LA,,Laos - Champasak,2020-02-17,09:45
Haliastur indus indus,Animalia,HAWKS_AND_EAGLES_ACCIPITRIDAE,Brahminy Kite ssp indus,,1,105.92808768,13.93503252,Asia,Laos,LA,,Laos - Champasak,2020-02-17,09:40
Aviceda jerdoni,Animalia,HAWKS_AND_EAGLES_ACCIPITRIDAE,Jerdon's Baza,,1,107.21744597,15.54584062,Asia,Laos,LA,,Laos - Xékong,2020-01-25,
Saxicola maurus / stejnegeri,Animalia,OLD_WORLD_FLYCATCHERS_MUSCICAPIDAE,Siberian or Stejneger's Stonechat,,1,105.49882594,15.31909221,Asia,Laos,LA,,Laos - Champasak,2019-12-10,15:08
Bubulcus coromandus,Animalia,HERONS_ARDEIDAE,Eastern Cattle Egret,,1,105.921489,13.96168946,Asia,Laos,LA,,Laos - Champasak,2007-12-21,
Orcaella brevirostris,Animalia,DOLPHINS_DELPHINIDAE,Irrawaddy Dolphin,,1,105.94961643,13.93002686,Asia,Laos,LA,,Laos - Champasak,2007-12-21,
Orcaella brevirostris,Animalia,DOLPHINS_DELPHINIDAE,Irrawaddy Dolphin,,1,105.94961643,13.93002686,Asia,Laos,LA,,Laos - Champasak,2007-12-21,
Orcaella brevirostris,Animalia,DOLPHINS_DELPHINIDAE,Irrawaddy Dolphin,,1,105.94961643,13.93002686,Asia,Laos,LA,,Laos - Champasak,2007-12-21,
Passer montanus malaccensis,Animalia,OLD_WORLD_SPARROWS_PASSERIDAE,Eurasian Tree Sparrow ssp malaccensis,,1,105.92170715,14.00110684,Asia,Laos,LA,,Laos - Champasak,2007-12-20,
Bubulcus coromandus,Animalia,HERONS_ARDEIDAE,Eastern Cattle Egret,,1,105.92170715,14.00110684,Asia,Laos,LA,,Laos - Champasak,2007-12-20,
Acridotheres tristis tristis,Animalia,STARLINGS_STURNIDAE,Common Myna ssp tristis,,1,105.89759588,14.90005261,Asia,Laos,LA,,Laos - Champasak,2007-12-18,
Trithemis aurora,Animalia,SKIMMERS_LIBELLULIDAE,Crimson Dropwing,,1,104.75915909,17.9553064,Asia,Laos,LA,,Laos - Khammouan,2007-12-16,
Acridotheres tristis tristis,Animalia,STARLINGS_STURNIDAE,Common Myna ssp tristis,,1,104.75915909,17.9553064,Asia,Laos,LA,,Laos - Khammouan,2007-12-16,
Acridotheres tristis tristis,Animalia,STARLINGS_STURNIDAE,Common Myna ssp tristis,,1,102.61106104,17.96585516,Asia,Laos,LA,,Laos - Vientiane [prefecture],2007-12-14,
Acridotheres tristis tristis,Animalia,STARLINGS_STURNIDAE,Common Myna ssp tristis,,1,102.44542122,18.94641348,Asia,Laos,LA,,Laos - Vientiane,2007-12-12,
Apis dorsata,Animalia,Apidae,Giant Honeybee,,1,103.1535995,19.43022416,Asia,Laos,LA,,Laos - Xiangkhoang,2007-12-11,
Apis dorsata,Animalia,Apidae,Giant Honeybee,,1,103.1535995,19.43022416,Asia,Laos,LA,,Laos - Xiangkhoang,2007-12-11,
Apis dorsata,Animalia,Apidae,Giant Honeybee,,1,103.1535995,19.43022416,Asia,Laos,LA,,Laos - Xiangkhoang,2007-12-11,
Leptoptilos javanicus,Animalia,STORKS_CICONIIDAE,Lesser Adjutant,,1,102.604389,17.967939,Asia,Laos,LA,,Laos - Vientiane [prefecture],2009-02-19,
Coracias affinis,Animalia,ROLLERS_CORACIIDAE,Indochinese Roller,,1,104.537215,18.21377,Asia,Laos,LA,,Laos - Khammouan,2009-02-17,
Bubulcus coromandus,Animalia,HERONS_ARDEIDAE,Eastern Cattle Egret,,1,105.816601,14.138426,Asia,Laos,LA,,Laos - Champasak,2009-02-11,
Trithemis aurora,Animalia,SKIMMERS_LIBELLULIDAE,Crimson Dropwing,,1,102.110845176598,19.8587524658254,Asia,Laos,LA,,Laos - Louangphrabang,2018-09-27,12:53
Crocothemis servilia,Animalia,SKIMMERS_LIBELLULIDAE,Oriental Scarlet,,8,102.111590663066,19.8581961170024,Asia,Laos,LA,,Laos - Louangphrabang,2018-09-27,12:48
Neurothemis fulvia,Animalia,SKIMMERS_LIBELLULIDAE,Russet Percher,,12,102.111590663066,19.8581961170024,Asia,Laos,LA,,Laos - Louangphrabang,2018-09-27,12:47
Ictinogomphus decoratus,Animalia,CLUBTAILS_GOMPHIDAE,,,5,102.111627761766,19.8581877967045,Asia,Laos,LA,,Laos - Louangphrabang,2018-09-27,12:47
Orthetrum pruinosum,Animalia,SKIMMERS_LIBELLULIDAE,,,4,102.112501692122,19.8577853618375,Asia,Laos,LA,,Laos - Louangphrabang,2018-09-27,07:54
Copera marginipes,Animalia,WHITELEGGED_DAMSELFLIES_PLATYCNEMIDIDAE,Yellow Featherlegs,,3,102.112501692122,19.8577853618375,Asia,Laos,LA,,Laos - Louangphrabang,2018-09-27,07:54
Agriocnemis femina,Animalia,POND_DAMSELS_COENAGRIONIDAE,Pinhead Wisp,,1,102.117939954719,19.8541916627622,Asia,Laos,LA,,Laos - Louangphrabang,2018-09-27,07:33
Copera marginipes,Animalia,WHITELEGGED_DAMSELFLIES_PLATYCNEMIDIDAE,Yellow Featherlegs,,2,102.117939954719,19.8541916627622,Asia,Laos,LA,,Laos - Louangphrabang,2018-09-27,07:33
Diplacodes trivialis,Animalia,SKIMMERS_LIBELLULIDAE,Chalky Percher,,1,102.116779731682,19.855540269073,Asia,Laos,LA,,Laos - Louangphrabang,2018-09-27,06:43
Gekko gecko,Animalia,Gekkonidae,Tokay Gecko,,1,102.111393688342,19.8590008216164,Asia,Laos,LA,,Laos - Louangphrabang,2018-09-26,22:21
Orthetrum pruinosum,Animalia,SKIMMERS_LIBELLULIDAE,,,1,102.112,19.859,Asia,Laos,LA,,Laos - Louangphrabang,2018-09-26,12:53
Agriocnemis femina,Animalia,POND_DAMSELS_COENAGRIONIDAE,Pinhead Wisp,,1,102.11224386,19.85844179,Asia,Laos,LA,,Laos - Louangphrabang,2018-09-26,13:01
Prodasineura autumnalis,Animalia,WHITELEGGED_DAMSELFLIES_PLATYCNEMIDIDAE,Black Threadtail,,1,102.111586224744,19.8588584705965,Asia,Laos,LA,,Laos - Louangphrabang,2018-09-26,12:53
Papilio demoleus,Animalia,SWALLOWTAILS_PAPILIONIDAE,Lemon Butterfly,,1,102.23311946,20.00356618,Asia,Laos,LA,,Laos - Louangphrabang,2018-09-25,10:24
Hemidactylus platyurus,Animalia,Gekkonidae,Flat-tailed House Gecko,,1,102.111,19.859,Asia,Laos,LA,,Laos - Louangphrabang,2018-09-23,15:46
Ischnura rufostigma,Animalia,POND_DAMSELS_COENAGRIONIDAE,,,1,102.11107916,19.85873933,Asia,Laos,LA,,Laos - Louangphrabang,2018-09-24,17:33
Neurothemis fulvia,Animalia,SKIMMERS_LIBELLULIDAE,Russet Percher,,1,102.116,19.85,Asia,Laos,LA,,Laos - Louangphrabang,2018-09-24,14:55
Pseudothemis zonata,Animalia,SKIMMERS_LIBELLULIDAE,Pied Skimmer,,3,102.116,19.85,Asia,Laos,LA,,Laos - Louangphrabang,2018-09-24,14:55
Diplacodes trivialis,Animalia,SKIMMERS_LIBELLULIDAE,Chalky Percher,,1,102.116,19.85,Asia,Laos,LA,,Laos - Louangphrabang,2018-09-24,14:55
Gekko gecko,Animalia,Gekkonidae,Tokay Gecko,,1,102.11127281,19.85911195,Asia,Laos,LA,,Laos - Louangphrabang,2018-09-23,21:28
Neurothemis fulvia,Animalia,SKIMMERS_LIBELLULIDAE,Russet Percher,,4,102.110946843846,19.8589888543808,Asia,Laos,LA,,Laos - Louangphrabang,2018-09-23,17:29
Orthetrum pruinosum,Animalia,SKIMMERS_LIBELLULIDAE,,,2,102.110901233911,19.8587981089388,Asia,Laos,LA,,Laos - Louangphrabang,2018-09-23,17:28
Diplacodes trivialis,Animalia,SKIMMERS_LIBELLULIDAE,Chalky Percher,,3,102.110901233911,19.8587981089388,Asia,Laos,LA,,Laos - Louangphrabang,2018-09-23,17:27
Orthetrum sabina sabina,Animalia,SKIMMERS_LIBELLULIDAE,,,3,102.110951448114,19.8589852285589,Asia,Laos,LA,,Laos - Louangphrabang,2018-09-23,17:24
Crocothemis servilia,Animalia,SKIMMERS_LIBELLULIDAE,Oriental Scarlet,,1,102.110521053345,19.8592783478199,Asia,Laos,LA,,Laos - Louangphrabang,2018-09-23,17:22
Copera marginipes,Animalia,WHITELEGGED_DAMSELFLIES_PLATYCNEMIDIDAE,Yellow Featherlegs,,1,102.110858285737,19.8589728136227,Asia,Laos,LA,,Laos - Louangphrabang,2018-09-23,17:21
Tholymis tillarga,Animalia,SKIMMERS_LIBELLULIDAE,Twister,,3,102.11112624,19.85883489,Asia,Laos,LA,,Laos - Louangphrabang,2018-09-23,17:18
Orthetrum luzonicum,Animalia,SKIMMERS_LIBELLULIDAE,Marsh Skimmer,,1,102.11083351,19.85911863,Asia,Laos,LA,,Laos - Louangphrabang,2018-09-23,17:03
Prodasineura autumnalis,Animalia,WHITELEGGED_DAMSELFLIES_PLATYCNEMIDIDAE,Black Threadtail,,2,102.11095443,19.8590396,Asia,Laos,LA,,Laos - Louangphrabang,2018-09-23,16:58
Hemidactylus platyurus,Animalia,Gekkonidae,Flat-tailed House Gecko,,18,102.111967935938,19.8584731432972,Asia,Laos,LA,,Laos - Louangphrabang,2018-09-22,18:57
Xylocopa spec.,Animalia,Apidae,Carpenter Bee unknown,,3,102.11130396,19.8590021,Asia,Laos,LA,,Laos - Louangphrabang,2018-09-22,16:10
Vespa affinis,Animalia,Vespidae,Lesser Banded Hornet,,1,102.11130396,19.8590021,Asia,Laos,LA,,Laos - Louangphrabang,2018-09-22,16:10
Trithemis aurora,Animalia,SKIMMERS_LIBELLULIDAE,Crimson Dropwing,,1,102.1112458,19.85893855,Asia,Laos,LA,,Laos - Louangphrabang,2018-09-22,16:04
Orthetrum sabina sabina,Animalia,SKIMMERS_LIBELLULIDAE,,,1,102.11192303353,19.8585903909304,Asia,Laos,LA,,Laos - Louangphrabang,2018-09-22,12:50
Neurothemis fulvia,Animalia,SKIMMERS_LIBELLULIDAE,Russet Percher,,2,102.112205496958,19.8585982562344,Asia,Laos,LA,,Laos - Louangphrabang,2018-09-22,10:12
Copera marginipes,Animalia,WHITELEGGED_DAMSELFLIES_PLATYCNEMIDIDAE,Yellow Featherlegs,,1,102.11216344,19.85817454,Asia,Laos,LA,,Laos - Louangphrabang,2018-09-22,06:48
Ardeola bacchus,Animalia,HERONS_ARDEIDAE,Chinese Pond Heron,,4,102.110856223448,19.8591230052687,Asia,Laos,LA,,Laos - Louangphrabang,2018-09-22,06:07
Gekko gecko,Animalia,Gekkonidae,Tokay Gecko,,1,102.11140311,19.85897297,Asia,Laos,LA,,Laos - Louangphrabang,2018-09-21,18:37
Hemidactylus platyurus,Animalia,Gekkonidae,Flat-tailed House Gecko,,25,102.1113241,19.85903581,Asia,Laos,LA,,Laos - Louangphrabang,2018-09-21,18:37
Orcaella brevirostris,Animalia,DOLPHINS_DELPHINIDAE,Irrawaddy Dolphin,,1,105.97114921,13.92681953,Asia,Laos,LA,,Laos - Champasak,2015-11-20,
Pantala flavescens,Animalia,SKIMMERS_LIBELLULIDAE,Wandering Glider,,1,105.92409622,13.98145228,Asia,Laos,LA,,Laos - Champasak,2012-06-17,15:00
Accipiter badius,Animalia,HAWKS_AND_EAGLES_ACCIPITRIDAE,Shikra,,2,104.49002266,18.18605692,Asia,Laos,LA,,Laos - Khammouan,2018-02-26,08:35
Pycnonotus finlaysoni,Animalia,BULBULS_PYCNONOTIDAE,Stripe-throated Bulbul,,1,104.4853878,18.18002261,Asia,Laos,LA,,Laos - Khammouan,2018-02-26,08:35
Macronus gularis,Animalia,BABBLERS_TIMALIIDAE,Pin-striped Tit-Babbler,,1,104.47929382,18.18022616,Asia,Laos,LA,,Laos - Khammouan,2018-02-26,08:35
Macronus gularis,Animalia,BABBLERS_TIMALIIDAE,Pin-striped Tit-Babbler,,1,104.4853878,18.18002261,Asia,Laos,LA,,Laos - Khammouan,2018-02-26,08:35
Yungipicus canicapillus,Animalia,WOODPECKERS_PICIDAE,Grey-capped Pygmy Woodpecker,,2,104.4853878,18.18002261,Asia,Laos,LA,,Laos - Khammouan,2018-02-26,08:35
Aethopyga siparaja,Animalia,SUNBIRDS_NECTARINIIDAE,Crimson Sunbird,,1,104.48137522,18.17806549,Asia,Laos,LA,,Laos - Khammouan,2018-02-26,08:35
Lanius cristatus,Animalia,SHRIKES_LANIIDAE,Brown Shrike,,1,104.48072927,18.17985682,Asia,Laos,LA,,Laos - Khammouan,2018-02-26,08:35
Chloropsis cochinchinensis,Animalia,LEAFBIRDS_CHLOROPSEIDAE,Blue-winged Leafbird,,1,104.48072927,18.17985682,Asia,Laos,LA,,Laos - Khammouan,2018-02-26,08:35
Monticola solitarius,Animalia,OLD_WORLD_FLYCATCHERS_MUSCICAPIDAE,Blue Rock Thrush,,1,104.48072927,18.17985682,Asia,Laos,LA,,Laos - Khammouan,2018-02-26,08:35
Phylloscopus maculipennis,Animalia,LEAF_WARBLERS_AND_ALLIES_PHYLLOSCOPIDAE,Ashy-throated Warbler,,1,104.48072927,18.17985682,Asia,Laos,LA,,Laos - Khammouan,2018-02-26,08:35
Hemipus picatus,Animalia,VANGAS_VANGIDAE,Bar-winged Flycatcher-shrike,,1,104.48072927,18.17985682,Asia,Laos,LA,,Laos - Khammouan,2018-02-26,08:35
Pycnonotus finlaysoni,Animalia,BULBULS_PYCNONOTIDAE,Stripe-throated Bulbul,,3,104.480729265148,18.1798568165824,Asia,Laos,LA,,Laos - Khammouan,2018-02-26,07:35
Pycnonotus flaviventris,Animalia,BULBULS_PYCNONOTIDAE,Black-crested Bulbul,,3,104.48072927,18.17985682,Asia,Laos,LA,,Laos - Khammouan,2018-02-26,07:35
Yungipicus canicapillus,Animalia,WOODPECKERS_PICIDAE,Grey-capped Pygmy Woodpecker,,2,104.481084803907,18.179673371407,Asia,Laos,LA,,Laos - Khammouan,2018-02-26,07:53
Nok hualon,Animalia,BULBULS_PYCNONOTIDAE,Bare-faced Bulbul,,5,104.495076648022,18.1804833704928,Asia,Laos,LA,,Laos - Khammouan,2018-02-27,07:44
Pyrops candelaria,Animalia,FULGORIDAE,,,1,105.93017578,14.6257766,Asia,Laos,LA,,Laos - Champasak,2017-03-01,
Anthreptes malacensis,Animalia,SUNBIRDS_NECTARINIIDAE,Brown-throated Sunbird,,1,104.52867595,18.20761315,Asia,Laos,LA,,Laos - Khammouan,2018-02-25,12:52
Leptoptilos javanicus,Animalia,STORKS_CICONIIDAE,Lesser Adjutant,,1,102.62958755,17.9727831,Asia,Laos,LA,,Laos - Vientiane [prefecture],2006-12-27,
Orcaella brevirostris,Animalia,DOLPHINS_DELPHINIDAE,Irrawaddy Dolphin,,2,105.96,13.93,Asia,Laos,LA,,Laos - Champasak,2013-01-11,
Cecropis daurica japonica,Animalia,SWALLOWS_HIRUNDINIDAE,Red-rumped Swallow ssp japonica,,10,101.90668347,21.63694783,Asia,Laos,LA,,Laos - Phôngsali,2017-03-26,
Hydrornis nipalensis,Animalia,PITTAS_PITTIDAE,Blue-naped Pitta,,2,102.25371664,21.1011316,Asia,Laos,LA,,Laos - Phôngsali,2014-01-31,
Agropsar sturninus,Animalia,STARLINGS_STURNIDAE,Daurian Starling,,1,101.79360515,22.12095786,Asia,Laos,LA,,Laos - Phôngsali,2017-03-26,
Hirundo smithii,Animalia,SWALLOWS_HIRUNDINIDAE,Wire-tailed Swallow,,1,102.03781307,20.0477047,Asia,Laos,LA,,Laos - Oudômxai,2017-03-30,
Phylloscopus schwarzi,Animalia,LEAF_WARBLERS_AND_ALLIES_PHYLLOSCOPIDAE,Radde's Warbler,,1,102.43828665,18.91245743,Asia,Laos,LA,,Laos - Vientiane,2017-03-15,
Anastomus oscitans,Animalia,STORKS_CICONIIDAE,Asian Openbill,,178,101.79827236,22.2965016,Asia,Laos,LA,,Laos - Phôngsali,2017-03-22,
Phoenicurus ochruros rufiventris,Animalia,OLD_WORLD_FLYCATCHERS_MUSCICAPIDAE,Black Redstart ssp rufiventris,,1,101.80055391,22.29538997,Asia,Laos,LA,,Laos - Phôngsali,2017-03-20,
Yuhina torqueola,Animalia,WHITEEYES_ZOSTEROPIDAE,Indochinese Yuhina,,10,103.09802424,18.90540328,Asia,Laos,LA,,Laos - Xaisômboun,2017-03-10,
Amandava amandava,Animalia,WAXBILLS_MUNIAS_ALLIES_ESTRILDIDAE,Red Avadavat,,5,102.60078929,17.96089361,Asia,Laos,LA,,Laos - Vientiane [prefecture],2017-03-11,
Crocothemis servilia,Animalia,SKIMMERS_LIBELLULIDAE,Oriental Scarlet,,1,102.13074088,19.85916215,Asia,Laos,LA,,Laos - Louangphrabang,2017-02-21,
Neurothemis fulvia,Animalia,SKIMMERS_LIBELLULIDAE,Russet Percher,,6,102.13074088,19.85916215,Asia,Laos,LA,,Laos - Louangphrabang,2017-02-21,
Orthetrum pruinosum,Animalia,SKIMMERS_LIBELLULIDAE,,,15,102.13074088,19.85916215,Asia,Laos,LA,,Laos - Louangphrabang,2017-02-21,
Trithemis aurora,Animalia,SKIMMERS_LIBELLULIDAE,Crimson Dropwing,,3,102.13074088,19.85916215,Asia,Laos,LA,,Laos - Louangphrabang,2017-02-21,
Copera marginipes,Animalia,WHITELEGGED_DAMSELFLIES_PLATYCNEMIDIDAE,Yellow Featherlegs,,4,102.13074088,19.85916215,Asia,Laos,LA,,Laos - Louangphrabang,2017-02-21,
Prodasineura autumnalis,Animalia,WHITELEGGED_DAMSELFLIES_PLATYCNEMIDIDAE,Black Threadtail,,1,102.13074088,19.85916215,Asia,Laos,LA,,Laos - Louangphrabang,2017-02-21,
Orcaella brevirostris,Animalia,DOLPHINS_DELPHINIDAE,Irrawaddy Dolphin,,1,105.95186412,13.93106558,Asia,Laos,LA,,Laos - Champasak,2017-01-26,17:00
Ardea alba,Animalia,HERONS_ARDEIDAE,Great Egret,,1,105.93611285,13.95410051,Asia,Laos,LA,,Laos - Champasak,2017-01-24,11:00
Toxotes spec.,Animalia,TOXOTIDAE,,,1,105.85593592,14.11910662,Asia,Laos,LA,,Laos - Champasak,2017-01-23,11:00
Tor ater,Animalia,CARPS_CYPRINIDAE,,,1,104.75894496,17.95599434,Asia,Laos,LA,,Laos - Khammouan,2017-01-17,12:00
Trithemis aurora,Animalia,SKIMMERS_LIBELLULIDAE,Crimson Dropwing,,1,105.05112737,17.84332147,Asia,Laos,LA,,Laos - Khammouan,2017-01-14,12:00
Tholymis tillarga,Animalia,SKIMMERS_LIBELLULIDAE,Twister,,1,105.05112737,17.84332147,Asia,Laos,LA,,Laos - Khammouan,2017-01-14,10:00
Trithemis aurora,Animalia,SKIMMERS_LIBELLULIDAE,Crimson Dropwing,,1,105.05231425,17.84520124,Asia,Laos,LA,,Laos - Khammouan,2017-01-13,16:00
Neurothemis fulvia,Animalia,SKIMMERS_LIBELLULIDAE,Russet Percher,,1,102.13050669,19.88521942,Asia,Laos,LA,,Laos - Louangphrabang,2017-01-08,16:00
Neurothemis fulvia,Animalia,SKIMMERS_LIBELLULIDAE,Russet Percher,,3,102.13050669,19.88521942,Asia,Laos,LA,,Laos - Louangphrabang,2017-01-08,16:00
Tholymis tillarga,Animalia,SKIMMERS_LIBELLULIDAE,Twister,,1,102.13050669,19.88521942,Asia,Laos,LA,,Laos - Louangphrabang,2017-01-08,16:00
Parus minor nubicolus,Animalia,TITS_PARIDAE,Japanese Tit ssp nubicolus,,1,103.144240379,19.4329040108,Asia,Laos,LA,,Laos - Xiangkhoang,2012-08-16,
Pernis ptilorhynchus,Animalia,HAWKS_AND_EAGLES_ACCIPITRIDAE,Crested Honey Buzzard,,1,103.362923563,20.1046204102,Asia,Laos,LA,,Laos - Houaphan,2014-03-22,
Chrysococcyx maculatus,Animalia,CUCKOOS_AND_COUCALS_CUCULIDAE,Asian Emerald Cuckoo,,1,103.47828269,20.0891405272,Asia,Laos,LA,,Laos - Houaphan,2014-03-21,
Pycnonotus striatus,Animalia,BULBULS_PYCNONOTIDAE,Striated Bulbul,,1,103.47828269,20.0891405272,Asia,Laos,LA,,Laos - Houaphan,2014-03-21,
Cyornis whitei whitei,Animalia,OLD_WORLD_FLYCATCHERS_MUSCICAPIDAE,Hill Blue Flycatcher ssp whitei,,1,103.364840001,20.1001879371,Asia,Laos,LA,,Laos - Houaphan,2014-03-19,
Butastur indicus,Animalia,HAWKS_AND_EAGLES_ACCIPITRIDAE,Grey-faced Buzzard,,1,103.475648761,20.082694218,Asia,Laos,LA,,Laos - Houaphan,2014-03-18,
Glareola lactea,Animalia,COURSERS_AND_PRATINCOLES_GLAREOLIDAE,Small Pratincole,,95,100.41,20.27,Asia,Laos,LA,,Laos - Bokeo,2015-01-08,17:48
Glareola lactea,Animalia,COURSERS_AND_PRATINCOLES_GLAREOLIDAE,Small Pratincole,,1,100.448970798,20.2376206984,Asia,Laos,LA,,Laos - Bokeo,2015-05-06,
Passer flaveolus,Animalia,OLD_WORLD_SPARROWS_PASSERIDAE,Plain-backed Sparrow,,1,105.930311903,13.9715718801,Asia,Laos,LA,,Laos - Champasak,2015-01-24,16:00
