scientificName,kingdom,family,vernacularName,previousIdentifications,individualCount,longitudeDecimal,latitudeDecimal,continent,country,countryCode,stateProvince,locality,eventDate,eventTime
Corvus cornix,Animalia,CROWS_AND_JAYS_CORVIDAE,Hooded Crow,,1,24.1083956882,56.9484617074,Europe,Latvia,LV,,Latvia - Riga,2015-02-15,
Corvus cornix,Animalia,CROWS_AND_JAYS_CORVIDAE,Hooded Crow,,10,24.1160704941,56.9491169709,Europe,Latvia,LV,,Latvia - Riga,2015-02-15,
Corvus cornix,Animalia,CROWS_AND_JAYS_CORVIDAE,Hooded Crow,,15,24.1165650263429,56.9491542730722,Europe,Latvia,LV,,Latvia - Riga,2015-02-14,14:53
Corvus cornix,Animalia,CROWS_AND_JAYS_CORVIDAE,Hooded Crow,,10,24.1129983589,56.9440670212,Europe,Latvia,LV,,Latvia - Riga,2015-02-02,
Corvus cornix,Animalia,CROWS_AND_JAYS_CORVIDAE,Hooded Crow,,1,24.1349938714286,56.9530939,Europe,Latvia,LV,,Latvia - Riga,2015-01-31,13:57
Corvus cornix,Animalia,CROWS_AND_JAYS_CORVIDAE,Hooded Crow,,1,24.1349938714286,56.9530939,Europe,Latvia,LV,,Latvia - Riga,2015-01-31,14:37
Corvus cornix,Animalia,CROWS_AND_JAYS_CORVIDAE,Hooded Crow,,1,23.7561106682,56.9239889238,Europe,Latvia,LV,,Latvia - Riga,2008-10-08,
Coenonympha glycerion,Animalia,BRUSHFOOTED_BUTTERFLIES_NYMPHALIDAE,Chestnut Heath,,1,25.2,57.3,Europe,Latvia,LV,,Latvia - Gauja NP,2014-07-08,
Polyommatus amandus,Animalia,GOSSAMERWINGED_BUTTERFLIES_LYCAENIDAE,Amanda's Blue,,1,25.2407314628,57.3122238624,Europe,Latvia,LV,,Latvia - Gauja NP,2014-07-08,
Nymphalis xanthomelas,Animalia,BRUSHFOOTED_BUTTERFLIES_NYMPHALIDAE,Yellow-legged Tortoiseshell,,1,25.2327492088,57.3181682551,Europe,Latvia,LV,,Latvia - Gauja NP,2014-07-08,
Coenonympha glycerion,Animalia,BRUSHFOOTED_BUTTERFLIES_NYMPHALIDAE,Chestnut Heath,,1,25.2,57.3,Europe,Latvia,LV,,Latvia - Gauja NP,2014-07-08,
Maniola jurtina,Animalia,BRUSHFOOTED_BUTTERFLIES_NYMPHALIDAE,Meadow Brown,,1,25.2327492088,57.3181682551,Europe,Latvia,LV,,Latvia - Gauja NP,2014-07-08,
Lycaena alciphron,Animalia,GOSSAMERWINGED_BUTTERFLIES_LYCAENIDAE,Purple-shot Copper,,1,25.2277924865,57.3171022749,Europe,Latvia,LV,,Latvia - Gauja NP,2014-07-08,
Coenonympha arcania,Animalia,BRUSHFOOTED_BUTTERFLIES_NYMPHALIDAE,Pearly Heath,,1,25.2,57.3,Europe,Latvia,LV,,Latvia - Gauja NP,2014-07-08,
Brenthis ino,Animalia,BRUSHFOOTED_BUTTERFLIES_NYMPHALIDAE,Lesser Marbled Fritillary,,5,25.2,57.3,Europe,Latvia,LV,,Latvia - Gauja NP,2014-07-08,
Apatura ilia,Animalia,BRUSHFOOTED_BUTTERFLIES_NYMPHALIDAE,Lesser Purple Emperor,,1,25.2,57.3,Europe,Latvia,LV,,Latvia - Gauja NP,2014-07-08,
Cyaniris semiargus,Animalia,GOSSAMERWINGED_BUTTERFLIES_LYCAENIDAE,Mazarine Blue,,1,25.2,57.3,Europe,Latvia,LV,,Latvia - Gauja NP,2014-07-08,
Boloria selene,Animalia,BRUSHFOOTED_BUTTERFLIES_NYMPHALIDAE,Small Pearl-bordered Fritillary,,1,25.2,57.3,Europe,Latvia,LV,,Latvia - Gauja NP,2014-07-08,
Cyaniris semiargus,Animalia,GOSSAMERWINGED_BUTTERFLIES_LYCAENIDAE,Mazarine Blue,,1,25.2,57.3,Europe,Latvia,LV,,Latvia - Gauja NP,2014-07-08,
Argynnis laodice,Animalia,BRUSHFOOTED_BUTTERFLIES_NYMPHALIDAE,Pallas's Fritillary,,1,25.2417399734,57.3133247484,Europe,Latvia,LV,,Latvia - Gauja NP,2014-07-08,
Aricia artaxerxes,Animalia,GOSSAMERWINGED_BUTTERFLIES_LYCAENIDAE,Northern Brown Argus,,1,25.2417399734,57.3133247484,Europe,Latvia,LV,,Latvia - Gauja NP,2014-07-08,
Polyommatus amandus,Animalia,GOSSAMERWINGED_BUTTERFLIES_LYCAENIDAE,Amanda's Blue,,1,25.2407921478,57.3120500353,Europe,Latvia,LV,,Latvia - Gauja NP,2014-07-08,
Phylloscopus sibilatrix,Animalia,LEAF_WARBLERS_AND_ALLIES_PHYLLOSCOPIDAE,Wood Warbler,,1,25.1919084816335,57.2810268846863,Europe,Latvia,LV,,Latvia - Gauja NP,2014-07-17,17:17
Polyommatus amandus,Animalia,GOSSAMERWINGED_BUTTERFLIES_LYCAENIDAE,Amanda's Blue,,1,24.3732695282,57.5981278828,Europe,Latvia,LV,,Latvia - Limbaži,2014-07-05,
Limenitis populi,Animalia,BRUSHFOOTED_BUTTERFLIES_NYMPHALIDAE,Poplar Admiral,,1,24.35,57.55,Europe,Latvia,LV,,Latvia - Limbaži,2014-07-05,
Limenitis populi,Animalia,BRUSHFOOTED_BUTTERFLIES_NYMPHALIDAE,Poplar Admiral,,1,24.35,57.6,Europe,Latvia,LV,,Latvia - Limbaži,2014-07-05,
Limenitis populi,Animalia,BRUSHFOOTED_BUTTERFLIES_NYMPHALIDAE,Poplar Admiral,,1,24.35,57.6,Europe,Latvia,LV,,Latvia - Limbaži,2014-07-05,
Polyommatus amandus,Animalia,GOSSAMERWINGED_BUTTERFLIES_LYCAENIDAE,Amanda's Blue,,1,24.3897916004,57.038904745,Europe,Latvia,LV,,Latvia - Riga,2014-06-28,
Brenthis ino,Animalia,BRUSHFOOTED_BUTTERFLIES_NYMPHALIDAE,Lesser Marbled Fritillary,,1,24.35,57.0,Europe,Latvia,LV,,Latvia - Riga,2014-06-28,
Agriades optilete,Animalia,GOSSAMERWINGED_BUTTERFLIES_LYCAENIDAE,Cranberry Blue,,1,24.3897916004,57.038904745,Europe,Latvia,LV,,Latvia - Riga,2014-06-28,
Speyeria aglaja,Animalia,BRUSHFOOTED_BUTTERFLIES_NYMPHALIDAE,Dark Green Fritillary,,1,24.3897916004,57.038904745,Europe,Latvia,LV,,Latvia - Riga,2014-06-28,
Coenonympha pamphilus,Animalia,BRUSHFOOTED_BUTTERFLIES_NYMPHALIDAE,Small Heath,,1,24.3897916004,57.038904745,Europe,Latvia,LV,,Latvia - Riga,2014-06-28,
Diacrisia sannio,Animalia,EREBIDAE,Clouded Buff,,1,24.5287659019,57.100619085,Europe,Latvia,LV,,Latvia - Riga,2014-06-28,
Deltote bankiana,Animalia,Noctuidae,Silver Barred,,1,24.5287659019,57.100619085,Europe,Latvia,LV,,Latvia - Riga,2014-06-28,
Cyaniris semiargus,Animalia,GOSSAMERWINGED_BUTTERFLIES_LYCAENIDAE,Mazarine Blue,,1,24.5,57.1,Europe,Latvia,LV,,Latvia - Riga,2014-06-28,
Boloria selene,Animalia,BRUSHFOOTED_BUTTERFLIES_NYMPHALIDAE,Small Pearl-bordered Fritillary,,1,24.5,57.05,Europe,Latvia,LV,,Latvia - Riga,2014-06-28,
Cyaniris semiargus,Animalia,GOSSAMERWINGED_BUTTERFLIES_LYCAENIDAE,Mazarine Blue,,1,24.5,57.05,Europe,Latvia,LV,,Latvia - Riga,2014-06-28,
Polypogon tentacularia,Animalia,EREBIDAE,,,1,24.5147754997,57.0975769883,Europe,Latvia,LV,,Latvia - Riga,2014-06-28,
Polyommatus icarus,Animalia,GOSSAMERWINGED_BUTTERFLIES_LYCAENIDAE,Common Blue,,1,24.5147754997,57.0975769883,Europe,Latvia,LV,,Latvia - Riga,2014-06-28,
Cyaniris semiargus,Animalia,GOSSAMERWINGED_BUTTERFLIES_LYCAENIDAE,Mazarine Blue,,1,24.5,57.05,Europe,Latvia,LV,,Latvia - Riga,2014-06-28,
Brenthis ino,Animalia,BRUSHFOOTED_BUTTERFLIES_NYMPHALIDAE,Lesser Marbled Fritillary,,1,24.5,57.1,Europe,Latvia,LV,,Latvia - Riga,2014-06-28,
Ochlodes sylvanus,Animalia,SKIPPERS_HESPERIIDAE,Large Skipper,,1,24.5286371559,57.10063074,Europe,Latvia,LV,,Latvia - Riga,2014-06-28,
Aphantopus hyperantus,Animalia,BRUSHFOOTED_BUTTERFLIES_NYMPHALIDAE,Ringlet,,1,24.5286371559,57.10063074,Europe,Latvia,LV,,Latvia - Riga,2014-06-28,
Aporia crataegi,Animalia,WHITES_PIERIDAE,Black-veined White,,1,24.5286371559,57.10063074,Europe,Latvia,LV,,Latvia - Riga,2014-06-28,
Thymelicus sylvestris,Animalia,SKIPPERS_HESPERIIDAE,Small Skipper,,1,24.5286371559,57.10063074,Europe,Latvia,LV,,Latvia - Riga,2014-06-28,
Coenonympha glycerion,Animalia,BRUSHFOOTED_BUTTERFLIES_NYMPHALIDAE,Chestnut Heath,,1,24.5,57.1,Europe,Latvia,LV,,Latvia - Riga,2014-06-28,
Lycaena virgaureae,Animalia,GOSSAMERWINGED_BUTTERFLIES_LYCAENIDAE,Scarce Copper,,1,24.5,57.05,Europe,Latvia,LV,,Latvia - Riga,2014-06-28,
Coenonympha arcania,Animalia,BRUSHFOOTED_BUTTERFLIES_NYMPHALIDAE,Pearly Heath,,1,24.5,57.05,Europe,Latvia,LV,,Latvia - Riga,2014-06-28,
Ceratomegilla notata,Animalia,LADYBIRDS_LADYBUGS_OR_LADY_BEETLES_COCCINELLIDAE,,,1,25.6980588287,57.082440559,Europe,Latvia,LV,,Latvia - Cesis,2014-05-10,
Phylloscopus sibilatrix,Animalia,LEAF_WARBLERS_AND_ALLIES_PHYLLOSCOPIDAE,Wood Warbler,,1,25.1848992705,57.2641931743,Europe,Latvia,LV,,Latvia - Gauja NP,2014-04-29,
Thecla betulae,Animalia,GOSSAMERWINGED_BUTTERFLIES_LYCAENIDAE,Brown Hairstreak,,3,25.6976799667,57.0825921488,Europe,Latvia,LV,,Latvia - Cesis,2014-04-25,
Grus grus,Animalia,CRANES_GRUIDAE,Common Crane,,1,23.3967664566294,56.8516406877232,Europe,Latvia,LV,,Latvia - Kemeru NP,2014-05-18,10:41
Sterna hirundo,Animalia,GULLS_TERNS_AND_SKIMMERS_LARIDAE,Common Tern,,10,21.5245342769192,57.4062608136849,Europe,Latvia,LV,,Latvia - Ventspils,2014-05-07,19:11
Grus grus,Animalia,CRANES_GRUIDAE,Common Crane,,1,22.4821165321391,57.6807224668837,Europe,Latvia,LV,,Latvia - Slitere NP,2014-05-08,20:21
Lyrurus tetrix,Animalia,FRANCOLINS_QUAILS_PARTRIDGES_AND_PHEASANTS_PHASIANIDAE,Black Grouse,,1,22.45,57.65,Europe,Latvia,LV,,Latvia - Slitere NP,2014-05-08,20:21
Lyrurus tetrix,Animalia,FRANCOLINS_QUAILS_PARTRIDGES_AND_PHEASANTS_PHASIANIDAE,Black Grouse,,10,22.45,57.65,Europe,Latvia,LV,,Latvia - Slitere NP,2014-05-09,05:30
Motacilla alba,Animalia,PIPITS_EN_WAGTAILS_MOTACILLIDAE,White Wagtail,,1,22.4877047478722,57.699897294302,Europe,Latvia,LV,,Latvia - Slitere NP,2014-05-09,06:00
Clangula hyemalis,Animalia,DUCKS_GEESE_AND_SWANS_ANATIDAE,Long-tailed Duck,,8,22.6012814093012,57.7531902598107,Europe,Latvia,LV,,Latvia - Slitere NP,2014-05-09,10:56
Clangula hyemalis,Animalia,DUCKS_GEESE_AND_SWANS_ANATIDAE,Long-tailed Duck,,12,22.5968373642353,57.7474180273273,Europe,Latvia,LV,,Latvia - Slitere NP,2014-05-10,07:16
Motacilla alba,Animalia,PIPITS_EN_WAGTAILS_MOTACILLIDAE,White Wagtail,,3,22.6028244392497,57.7552996291941,Europe,Latvia,LV,,Latvia - Slitere NP,2014-05-10,07:38
Corvus cornix,Animalia,CROWS_AND_JAYS_CORVIDAE,Hooded Crow,,1,22.604373824455,57.7584665695916,Europe,Latvia,LV,,Latvia - Slitere NP,2014-05-10,07:49
Clangula hyemalis,Animalia,DUCKS_GEESE_AND_SWANS_ANATIDAE,Long-tailed Duck,,1,22.6031110452442,57.7584283500952,Europe,Latvia,LV,,Latvia - Slitere NP,2014-05-10,08:29
Corvus corax,Animalia,CROWS_AND_JAYS_CORVIDAE,Northern Raven,,1,22.5944863271971,57.7551304740169,Europe,Latvia,LV,,Latvia - Slitere NP,2014-05-10,10:25
Corvus cornix,Animalia,CROWS_AND_JAYS_CORVIDAE,Hooded Crow,,3,22.5947662024066,57.7482510842054,Europe,Latvia,LV,,Latvia - Slitere NP,2014-05-10,11:26
Grus grus,Animalia,CRANES_GRUIDAE,Common Crane,,2,22.5305697591896,57.7376079223053,Europe,Latvia,LV,,Latvia - Slitere NP,2014-05-10,11:48
Motacilla alba,Animalia,PIPITS_EN_WAGTAILS_MOTACILLIDAE,White Wagtail,,6,22.5952733626892,57.7488198846203,Europe,Latvia,LV,,Latvia - Slitere NP,2014-05-10,16:52
Calidris alpina,Animalia,SANDPIPERS_AND_ALLIES_SCOLOPACIDAE,Dunlin,,1,22.6032187618734,57.7586349178535,Europe,Latvia,LV,,Latvia - Slitere NP,2014-05-11,07:40
Calidris alpina,Animalia,SANDPIPERS_AND_ALLIES_SCOLOPACIDAE,Dunlin,,6,22.6047065352333,57.7588958635585,Europe,Latvia,LV,,Latvia - Slitere NP,2014-05-11,07:53
Grus grus,Animalia,CRANES_GRUIDAE,Common Crane,,2,22.5722187471708,57.6256291424891,Europe,Latvia,LV,,Latvia - Talsi,2014-05-11,15:57
Ciconia ciconia,Animalia,STORKS_CICONIIDAE,White Stork,,8,22.4641154124226,57.6068591933925,Europe,Latvia,LV,,Latvia - Talsi,2014-05-11,17:04
Ciconia ciconia,Animalia,STORKS_CICONIIDAE,White Stork,,1,22.4602191867403,57.6080498643549,Europe,Latvia,LV,,Latvia - Talsi,2014-05-11,17:12
Grus grus,Animalia,CRANES_GRUIDAE,Common Crane,,2,22.4271748687153,57.6157140874311,Europe,Latvia,LV,,Latvia - Talsi,2014-05-11,17:18
Ardea alba,Animalia,HERONS_ARDEIDAE,Great Egret,,1,26.9064310276308,56.8166607763199,Europe,Latvia,LV,,Latvia - Madona,2014-05-14,10:38
Pandion haliaetus,Animalia,OSPREY_PANDIONIDAE,Western Osprey,,1,26.9634239144479,56.7669319123367,Europe,Latvia,LV,,Latvia - Rezekne,2014-05-14,11:41
Podiceps grisegena,Animalia,GREBES_PODICIPEDIDAE,Red-necked Grebe,,1,26.9135769191372,56.6904325144525,Europe,Latvia,LV,,Latvia - Rezekne,2014-05-14,12:45
Cygnus cygnus,Animalia,DUCKS_GEESE_AND_SWANS_ANATIDAE,Whooper Swan,,1,26.9128260618518,56.6907104656665,Europe,Latvia,LV,,Latvia - Rezekne,2014-05-14,12:47
Clanga pomarina,Animalia,HAWKS_AND_EAGLES_ACCIPITRIDAE,Lesser Spotted Eagle,,1,26.7337740822818,56.8263286662441,Europe,Latvia,LV,,Latvia - Madona,2014-05-14,18:40
Cygnus cygnus,Animalia,DUCKS_GEESE_AND_SWANS_ANATIDAE,Whooper Swan,,2,26.9122922980852,56.6909426589982,Europe,Latvia,LV,,Latvia - Rezekne,2014-05-15,09:33
Carpodacus erythrinus,Animalia,FINCHES_FRINGILLIDAE,Common Rosefinch,,1,26.9057446427647,56.6937777612757,Europe,Latvia,LV,,Latvia - Rezekne,2014-05-15,09:57
Carpodacus erythrinus,Animalia,FINCHES_FRINGILLIDAE,Common Rosefinch,,1,26.8939659610452,56.6980730580049,Europe,Latvia,LV,,Latvia - Rezekne,2014-05-15,11:11
Remiz pendulinus,Animalia,PENDULINE_TITS_REMIZIDAE,Eurasian Penduline Tit,,1,26.85,56.7,Europe,Latvia,LV,,Latvia - Rezekne,2014-05-15,12:02
Motacilla citreola,Animalia,PIPITS_EN_WAGTAILS_MOTACILLIDAE,Citrine Wagtail,,1,26.8896613965779,56.705916080059,Europe,Latvia,LV,,Latvia - Rezekne,2014-05-15,12:26
Podiceps grisegena,Animalia,GREBES_PODICIPEDIDAE,Red-necked Grebe,,1,26.9091303992533,56.6923033942729,Europe,Latvia,LV,,Latvia - Rezekne,2014-05-15,13:26
Motacilla citreola,Animalia,PIPITS_EN_WAGTAILS_MOTACILLIDAE,Citrine Wagtail,,1,26.8925906636646,56.6932689359924,Europe,Latvia,LV,,Latvia - Rezekne,2014-05-15,17:34
Motacilla citreola,Animalia,PIPITS_EN_WAGTAILS_MOTACILLIDAE,Citrine Wagtail,,1,26.8972778794355,56.6923486600068,Europe,Latvia,LV,,Latvia - Rezekne,2014-05-15,18:04
Motacilla citreola,Animalia,PIPITS_EN_WAGTAILS_MOTACILLIDAE,Citrine Wagtail,,1,26.8972871108519,56.6923570705967,Europe,Latvia,LV,,Latvia - Rezekne,2014-05-15,18:04
Chlidonias leucopterus,Animalia,GULLS_TERNS_AND_SKIMMERS_LARIDAE,White-winged Tern,,2,26.9000049739344,56.6941335280849,Europe,Latvia,LV,,Latvia - Rezekne,2014-05-15,18:12
Clanga pomarina,Animalia,HAWKS_AND_EAGLES_ACCIPITRIDAE,Lesser Spotted Eagle,,2,26.6678847739428,56.8693634380954,Europe,Latvia,LV,,Latvia - Madona,2014-05-16,08:45
Coracias garrulus,Animalia,ROLLERS_CORACIIDAE,European Roller,,1,24.4533079286566,57.0637420667116,Europe,Latvia,LV,,Latvia - Riga,2014-05-16,15:24
Nymphalis antiopa,Animalia,BRUSHFOOTED_BUTTERFLIES_NYMPHALIDAE,Camberwell Beauty,,1,25.2413181961,57.3106709777,Europe,Latvia,LV,,Latvia - Gauja NP,2014-04-20,
Ciconia ciconia,Animalia,STORKS_CICONIIDAE,White Stork,,1,26.3938453048,57.5234510887,Europe,Latvia,LV,,Latvia - Aluksne,2014-03-30,
Nymphalis antiopa,Animalia,BRUSHFOOTED_BUTTERFLIES_NYMPHALIDAE,Camberwell Beauty,,1,25.2448727936,57.3155148341,Europe,Latvia,LV,,Latvia - Gauja NP,2014-03-27,16:30
Nymphalis xanthomelas,Animalia,BRUSHFOOTED_BUTTERFLIES_NYMPHALIDAE,Yellow-legged Tortoiseshell,,1,25.2448727936,57.3155148341,Europe,Latvia,LV,,Latvia - Gauja NP,2014-03-27,16:30
Nymphalis antiopa,Animalia,BRUSHFOOTED_BUTTERFLIES_NYMPHALIDAE,Camberwell Beauty,,1,25.2320484817,57.321725161,Europe,Latvia,LV,,Latvia - Gauja NP,2014-03-27,16:30
Nymphalis xanthomelas,Animalia,BRUSHFOOTED_BUTTERFLIES_NYMPHALIDAE,Yellow-legged Tortoiseshell,,5,25.2320484817,57.321725161,Europe,Latvia,LV,,Latvia - Gauja NP,2014-03-27,16:30
Larus argentatus,Animalia,GULLS_TERNS_AND_SKIMMERS_LARIDAE,European Herring Gull,,2,23.12,57.35,Europe,Latvia,LV,,Latvia - Talsi,2013-11-26,14:35
Larus argentatus,Animalia,GULLS_TERNS_AND_SKIMMERS_LARIDAE,European Herring Gull,,20,23.23,57.15,Europe,Latvia,LV,,Latvia - Tukums,2013-11-27,09:26
Nyctereutes procyonoides,Animalia,DOGS_CANIDAE,Raccoon Dog,,1,27.5102376938,59.3765889516,Europe,Latvia,LV,,Latvia - Ogre,2013-08-12,17:57
Corvus cornix,Animalia,CROWS_AND_JAYS_CORVIDAE,Hooded Crow,,1,23.967876434326,56.924088463336,Europe,Latvia,LV,,Latvia - Riga,2013-05-03,
Clanga pomarina,Animalia,HAWKS_AND_EAGLES_ACCIPITRIDAE,Lesser Spotted Eagle,,1,26.6811,56.798888,Europe,Latvia,LV,,Latvia - Madona,2013-05-08,20:43
Vulpes vulpes,Animalia,DOGS_CANIDAE,Red Fox,,1,26.8,56.8,Europe,Latvia,LV,,Latvia - Madona,2013-05-08,21:05
Vulpes vulpes,Animalia,DOGS_CANIDAE,Red Fox,,1,26.9,56.75,Europe,Latvia,LV,,Latvia - Rezekne,2013-05-08,21:22
Cygnus cygnus,Animalia,DUCKS_GEESE_AND_SWANS_ANATIDAE,Whooper Swan,,1,26.906216,56.693862,Europe,Latvia,LV,,Latvia - Rezekne,2013-05-09,08:25
Chlidonias leucopterus,Animalia,GULLS_TERNS_AND_SKIMMERS_LARIDAE,White-winged Tern,,1,26.906173,56.693694,Europe,Latvia,LV,,Latvia - Rezekne,2013-05-09,08:27
Haliaeetus albicilla,Animalia,HAWKS_AND_EAGLES_ACCIPITRIDAE,White-tailed Eagle,,2,26.906135,56.693692,Europe,Latvia,LV,,Latvia - Rezekne,2013-05-09,08:28
Chlidonias niger,Animalia,GULLS_TERNS_AND_SKIMMERS_LARIDAE,Black Tern,,1,26.906198,56.693695,Europe,Latvia,LV,,Latvia - Rezekne,2013-05-09,08:29
Carpodacus erythrinus,Animalia,FINCHES_FRINGILLIDAE,Common Rosefinch,,1,26.899275,56.702659,Europe,Latvia,LV,,Latvia - Rezekne,2013-05-09,09:57
Podiceps grisegena,Animalia,GREBES_PODICIPEDIDAE,Red-necked Grebe,,2,26.893346,56.697374,Europe,Latvia,LV,,Latvia - Rezekne,2013-05-09,11:21
Motacilla flava,Animalia,PIPITS_EN_WAGTAILS_MOTACILLIDAE,Western Yellow Wagtail,,1,26.890528,56.696921,Europe,Latvia,LV,,Latvia - Rezekne,2013-05-09,11:44
Haliaeetus albicilla,Animalia,HAWKS_AND_EAGLES_ACCIPITRIDAE,White-tailed Eagle,,1,26.888404,56.69541,Europe,Latvia,LV,,Latvia - Rezekne,2013-05-09,12:08
Chlidonias leucopterus,Animalia,GULLS_TERNS_AND_SKIMMERS_LARIDAE,White-winged Tern,,100,26.968795,56.765277,Europe,Latvia,LV,,Latvia - Rezekne,2013-05-09,14:59
Chlidonias niger,Animalia,GULLS_TERNS_AND_SKIMMERS_LARIDAE,Black Tern,,10,26.968795,56.765277,Europe,Latvia,LV,,Latvia - Rezekne,2013-05-09,15:00
Vulpes vulpes,Animalia,DOGS_CANIDAE,Red Fox,,1,26.35,56.65,Europe,Latvia,LV,,Latvia - Madona,2013-05-10,04:43
Emberiza citrinella,Animalia,BUNTINGS_EMBERIZIDAE,Yellowhammer,,1,26.396752,56.692765,Europe,Latvia,LV,,Latvia - Madona,2013-05-10,04:48
Castor fiber,Animalia,BEAVERS_CASTORIDAE,Eurasian Beaver,,1,26.35,56.65,Europe,Latvia,LV,,Latvia - Madona,2013-05-10,06:00
Lanius collurio,Animalia,SHRIKES_LANIIDAE,Red-backed Shrike,,1,26.396789,56.692498,Europe,Latvia,LV,,Latvia - Madona,2013-05-10,06:05
Hydrocoloeus minutus,Animalia,GULLS_TERNS_AND_SKIMMERS_LARIDAE,Little Gull,,1,26.965254,56.766331,Europe,Latvia,LV,,Latvia - Rezekne,2013-05-10,12:21
Locustella fluviatilis,Animalia,Locustellidae,River Warbler,,1,26.400511,56.691143,Europe,Latvia,LV,,Latvia - Madona,2013-05-10,16:50
Emberiza citrinella,Animalia,BUNTINGS_EMBERIZIDAE,Yellowhammer,,1,26.397775,56.692924,Europe,Latvia,LV,,Latvia - Madona,2013-05-11,07:35
Lanius collurio,Animalia,SHRIKES_LANIIDAE,Red-backed Shrike,,1,26.397837,56.692948,Europe,Latvia,LV,,Latvia - Madona,2013-05-11,07:59
Canis lupus,Animalia,DOGS_CANIDAE,Wolf,,1,26.4,56.65,Europe,Latvia,LV,,Latvia - Madona,2013-05-11,10:21
Martes foina,Animalia,WEASELS_AND_RELATIVES_MUSTELIDAE,Beech Marten,,1,27.066581,56.902279,Europe,Latvia,LV,,Latvia - Balvi,2013-05-12,09:47
Coracias garrulus,Animalia,ROLLERS_CORACIIDAE,European Roller,,2,24.45185,57.060228,Europe,Latvia,LV,,Latvia - Riga,2013-05-15,11:12
Melolontha melolontha,Animalia,Scarabaeidae,Cockchafer maybeetle,,100,24.456604,57.062104,Europe,Latvia,LV,,Latvia - Riga,2013-05-15,11:35
Lacerta agilis,Animalia,Lacertidae,Sand Lizard,,1,24.45,57.05,Europe,Latvia,LV,,Latvia - Riga,2013-05-15,11:50
Lacerta agilis,Animalia,Lacertidae,Sand Lizard,,1,24.45,57.05,Europe,Latvia,LV,,Latvia - Riga,2013-05-15,11:55
Corvus cornix,Animalia,CROWS_AND_JAYS_CORVIDAE,Hooded Crow,,1,24.201507568359,56.957705918761,Europe,Latvia,LV,,Latvia - Riga,2013-05-13,
Leucorrhinia albifrons,Animalia,SKIMMERS_LIBELLULIDAE,Dark Whiteface,,1,23.45,56.9,Europe,Latvia,LV,,Latvia - Kemeru NP,2012-08-21,18:30
Mustela vison,Animalia,WEASELS_AND_RELATIVES_MUSTELIDAE,Mink,,1,23.5225326186,56.9563757823,Europe,Latvia,LV,,Latvia - Kemeru NP,2012-08-18,13:30
Corvus cornix,Animalia,CROWS_AND_JAYS_CORVIDAE,Hooded Crow,,3,23.6463447626,56.9623825553,Europe,Latvia,LV,,Latvia - Riga,2008-08-06,
Exochomus quadripustulatus,Animalia,LADYBIRDS_LADYBUGS_OR_LADY_BEETLES_COCCINELLIDAE,Pine ladybird,,1,23.1364929223,57.2576750376,Europe,Latvia,LV,,Latvia - Tukums,2011-11-11,
Anisosticta novemdecimpunctata,Animalia,LADYBIRDS_LADYBUGS_OR_LADY_BEETLES_COCCINELLIDAE,Water ladybird,,3,23.1364929223,57.2576750376,Europe,Latvia,LV,,Latvia - Tukums,2011-11-11,
Anisosticta novemdecimpunctata,Animalia,LADYBIRDS_LADYBUGS_OR_LADY_BEETLES_COCCINELLIDAE,Water ladybird,,1,23.1364929223,57.2576750376,Europe,Latvia,LV,,Latvia - Tukums,2011-11-11,
Anatis ocellata,Animalia,LADYBIRDS_LADYBUGS_OR_LADY_BEETLES_COCCINELLIDAE,Eyed ladybird,,1,23.1364929223,57.2576750376,Europe,Latvia,LV,,Latvia - Tukums,2011-11-11,
Coccinella septempunctata,Animalia,LADYBIRDS_LADYBUGS_OR_LADY_BEETLES_COCCINELLIDAE,7-spot Ladybird,,2,20.9810328484,56.3776682854,Europe,Latvia,LV,,Latvia - Liepaja,2011-11-11,
Exochomus quadripustulatus,Animalia,LADYBIRDS_LADYBUGS_OR_LADY_BEETLES_COCCINELLIDAE,Pine ladybird,,1,20.9832000732,56.3780128461,Europe,Latvia,LV,,Latvia - Liepaja,2011-11-11,
Coccinella septempunctata,Animalia,LADYBIRDS_LADYBUGS_OR_LADY_BEETLES_COCCINELLIDAE,7-spot Ladybird,,14,20.9832000732,56.3780128461,Europe,Latvia,LV,,Latvia - Liepaja,2011-11-11,
Motacilla flava,Animalia,PIPITS_EN_WAGTAILS_MOTACILLIDAE,Western Yellow Wagtail,,1,27.7281188965,56.5454794482,Europe,Latvia,LV,,Latvia - Ludza,2010-07-20,18:00
Antonechloris smaragdaria,Animalia,Geometridae,,,1,24.1336262226,56.9463844818,Europe,Latvia,LV,,Latvia - Riga,2010-06-27,20:45
Leucorrhinia caudalis,Animalia,SKIMMERS_LIBELLULIDAE,Lilypad Whiteface,,1,22.25,57.65,Europe,Latvia,LV,,Latvia - Slitere NP,2009-06-29,
Leucorrhinia pectoralis,Animalia,SKIMMERS_LIBELLULIDAE,Yellow-spotted Whiteface,,2,23.15,57.25,Europe,Latvia,LV,,Latvia / Letland,2009-06-29,
Anax parthenope,Animalia,DARNERS_AESHNIDAE,Lesser Emperor,,1,23.1502532959,57.2589944028,Europe,Latvia,LV,,Latvia / Letland,2009-06-29,
Crex crex,Animalia,RAILS_RALLIDAE,Corn Crake,,1,25.75,56.75,Europe,Latvia,LV,,Latvia / Letland,2009-07-21,
Aglais io,Animalia,BRUSHFOOTED_BUTTERFLIES_NYMPHALIDAE,Peacock,,5,24.31,57.05,Europe,Latvia,LV,,Latvia - Riga,2020-04-22,
Callophrys rubi,Animalia,GOSSAMERWINGED_BUTTERFLIES_LYCAENIDAE,Green Hairstreak,,5,24.31,57.05,Europe,Latvia,LV,,Latvia - Riga,2020-04-22,
Gonepteryx rhamni,Animalia,WHITES_PIERIDAE,Brimstone,,10,24.31,57.05,Europe,Latvia,LV,,Latvia - Riga,2020-04-22,
Polygonia c-album,Animalia,BRUSHFOOTED_BUTTERFLIES_NYMPHALIDAE,Comma Butterfly,,3,24.31,57.05,Europe,Latvia,LV,,Latvia - Riga,2020-04-22,
Pieris rapae,Animalia,WHITES_PIERIDAE,Small White,,1,24.31,57.05,Europe,Latvia,LV,,Latvia - Riga,2020-04-22,
Pieris rapae,Animalia,WHITES_PIERIDAE,Small White,,1,24.31,57.05,Europe,Latvia,LV,,Latvia - Riga,2020-04-21,
Gonepteryx rhamni,Animalia,WHITES_PIERIDAE,Brimstone,,6,24.31,57.05,Europe,Latvia,LV,,Latvia - Riga,2020-04-06,
Aglais urticae,Animalia,BRUSHFOOTED_BUTTERFLIES_NYMPHALIDAE,Small Tortoiseshell,,1,24.31,57.05,Europe,Latvia,LV,,Latvia - Riga,2020-04-06,
Aglais io,Animalia,BRUSHFOOTED_BUTTERFLIES_NYMPHALIDAE,Peacock,,2,24.31,57.05,Europe,Latvia,LV,,Latvia - Riga,2020-04-06,
Gonepteryx rhamni,Animalia,WHITES_PIERIDAE,Brimstone,,5,24.31,57.05,Europe,Latvia,LV,,Latvia - Riga,2020-03-28,
Polygonia c-album,Animalia,BRUSHFOOTED_BUTTERFLIES_NYMPHALIDAE,Comma Butterfly,,1,24.31,57.05,Europe,Latvia,LV,,Latvia - Riga,2020-03-27,
Nymphalis xanthomelas,Animalia,BRUSHFOOTED_BUTTERFLIES_NYMPHALIDAE,Yellow-legged Tortoiseshell,,3,24.31,57.05,Europe,Latvia,LV,,Latvia - Riga,2020-03-27,
Regulus regulus,Animalia,KINGLETS_REGULIDAE,Goldcrest,,8,23.9828890934587,56.9757041636107,Europe,Latvia,LV,,Latvia - Riga,2020-03-22,16:21
Buteo buteo,Animalia,HAWKS_AND_EAGLES_ACCIPITRIDAE,Common Buzzard,,2,23.9628573507071,56.9709249017405,Europe,Latvia,LV,,Latvia - Riga,2020-03-25,10:14
Dryocopus martius,Animalia,WOODPECKERS_PICIDAE,Black Woodpecker,,2,23.9634668827057,56.9713585581613,Europe,Latvia,LV,,Latvia - Riga,2020-03-26,10:49
Dryocopus martius,Animalia,WOODPECKERS_PICIDAE,Black Woodpecker,,1,23.9627342224121,56.9705123901367,Europe,Latvia,LV,,Latvia - Riga,2020-03-26,12:19
Buteo buteo,Animalia,HAWKS_AND_EAGLES_ACCIPITRIDAE,Common Buzzard,,2,23.9627170562744,56.9704856872559,Europe,Latvia,LV,,Latvia - Riga,2020-03-26,12:23
Certhia brachydactyla,Animalia,TREECREEPERS_CERTHIIDAE,Short-toed Treecreeper,,1,22.60314369,57.75686646,Europe,Latvia,LV,,Latvia - Slitere NP,2020-03-08,15:36
Meles meles,Animalia,WEASELS_AND_RELATIVES_MUSTELIDAE,Eurasian Badger,,1,21.824536,56.885416,Europe,Latvia,LV,,Latvia - Kuldiga,2019-07-21,07:56
Emberiza schoeniclus,Animalia,BUNTINGS_EMBERIZIDAE,Common Reed Bunting,,1,23.4709428400609,57.0006457823537,Europe,Latvia,LV,,Latvia - Kemeru NP,2019-10-09,09:49
Bufo bufo,Animalia,Bufonidae,Common Toad,,1,24.84992981,57.18155741,Europe,Latvia,LV,,Latvia - Gauja NP,2013-07-26,
Corvus cornix,Animalia,CROWS_AND_JAYS_CORVIDAE,Hooded Crow,,1,24.19488940799554,56.96078964930465,Europe,Latvia,LV,,Latvia - Riga,2019-09-18,16:40
Corvus cornix,Animalia,CROWS_AND_JAYS_CORVIDAE,Hooded Crow,,5,24.116207208938903,56.95506773386257,Europe,Latvia,LV,,Latvia - Riga,2019-09-18,08:10
Medicago falcata,Plantae,Fabaceae,Sickle Medick,,1,24.0959987640381,56.9577217102051,Europe,Latvia,LV,,Latvia - Riga,2019-09-15,11:41
Corvus cornix,Animalia,CROWS_AND_JAYS_CORVIDAE,Hooded Crow,,1,24.1000938415527,56.9523735046387,Europe,Latvia,LV,,Latvia - Riga,2019-09-15,11:51
Sturnus vulgaris,Animalia,STARLINGS_STURNIDAE,Common Starling,,1,23.9786567687988,56.9248428344727,Europe,Latvia,LV,,Latvia - Riga,2019-08-29,08:11
Corvus cornix,Animalia,CROWS_AND_JAYS_CORVIDAE,Hooded Crow,,2,23.9786567687988,56.9248428344727,Europe,Latvia,LV,,Latvia - Riga,2019-08-29,08:11
Melampyrum pratense,Plantae,OROBANCHACEAE,Common Cow-wheat,,1,24.39111111111106,57.225833333333334,Europe,Latvia,LV,,Latvia - Riga,2019-08-13,08:25
Linaria vulgaris,Plantae,PLANTAGINACEAE,Common Toadflax,,1,24.007777777777846,56.926944444444445,Europe,Latvia,LV,,Latvia - Riga,2019-08-13,20:25
Berteroa incana,Plantae,Brassicaceae,Hoary Alison,,1,24.007499999999936,56.92666666666666,Europe,Latvia,LV,,Latvia - Riga,2019-08-13,20:36
Trifolium arvense,Plantae,Fabaceae,Hare's-foot Clover,,1,24.007499999999936,56.92638888888889,Europe,Latvia,LV,,Latvia - Riga,2019-08-13,20:39
Campanula patula,Plantae,CAMPANULACEAE,Spreading Bellflower,,1,24.006111111111068,56.92611111111111,Europe,Latvia,LV,,Latvia - Riga,2019-08-13,20:58
Honckenya peploides,Plantae,CARYOPHYLLACEAE,Sea Sandwort,,1,24.364722222222213,57.212500000000006,Europe,Latvia,LV,,Latvia - Riga,2019-08-13,09:04
Phragmites australis,Plantae,Poaceae,Common Reed,,1,24.364444444444416,57.21222222222222,Europe,Latvia,LV,,Latvia - Riga,2019-08-13,09:08
Gavia arctica,Animalia,DIVERS_GAVIIDAE,Black-throated Diver,,1,24.37166666666667,57.21666666666667,Europe,Latvia,LV,,Latvia - Riga,2019-08-13,09:37
Polistes dominula,Animalia,Vespidae,European Paper Wasp,,1,24.465,57.24972222,Europe,Latvia,LV,,Latvia - Riga,2019-08-13,12:49
Bellis perennis,Plantae,Asteraceae,Common Daisy,,1,24.464722222222235,57.24944444444444,Europe,Latvia,LV,,Latvia - Riga,2019-08-13,12:39
Aglais urticae,Animalia,BRUSHFOOTED_BUTTERFLIES_NYMPHALIDAE,Small Tortoiseshell,,1,24.46527777777783,57.24944444444444,Europe,Latvia,LV,,Latvia - Riga,2019-08-13,12:35
Dryocopus martius,Animalia,WOODPECKERS_PICIDAE,Black Woodpecker,,1,23.968769274652,56.9719972464775,Europe,Latvia,LV,,Latvia - Riga,2019-08-13,08:04
Falco subbuteo,Animalia,CARACAS_AND_FALCONS_FALCONIDAE,Eurasian Hobby,,3,23.9705848693848,56.9724540710449,Europe,Latvia,LV,,Latvia - Riga,2019-08-12,08:05
Larus argentatus,Animalia,GULLS_TERNS_AND_SKIMMERS_LARIDAE,European Herring Gull,,1,21.0102844238281,56.5127410888672,Europe,Latvia,LV,,Latvia - Liepaja,2019-08-05,17:03
Coloeus monedula soemmerringii,Animalia,CROWS_AND_JAYS_CORVIDAE,Western Jackdaw ssp soemmerringii,,1,21.0069121420383,56.5133128848054,Europe,Latvia,LV,,Latvia - Liepaja,2019-08-05,17:03
Speyeria aglaja,Animalia,BRUSHFOOTED_BUTTERFLIES_NYMPHALIDAE,Dark Green Fritillary,,1,25.1000740751624,57.3476136868823,Europe,Latvia,LV,,Latvia - Gauja NP,2019-07-26,17:03
Odontites vernus,Plantae,OROBANCHACEAE,Red Bartsia,,1,25.7090644836426,57.082275390625,Europe,Latvia,LV,,Latvia - Cesis,2019-07-27,08:22
Ceratomegilla notata,Animalia,LADYBIRDS_LADYBUGS_OR_LADY_BEETLES_COCCINELLIDAE,,,1,25.69729372859,57.0807617330161,Europe,Latvia,LV,,Latvia - Cesis,2019-07-27,09:31
Pieris brassicae,Animalia,WHITES_PIERIDAE,Large White,,1,25.69817162,57.08273697,Europe,Latvia,LV,,Latvia - Cesis,2019-07-27,10:31
Araschnia levana,Animalia,BRUSHFOOTED_BUTTERFLIES_NYMPHALIDAE,Map Butterfly,,1,25.6989936828613,57.0827713012695,Europe,Latvia,LV,,Latvia - Cesis,2019-07-27,10:39
Pieris napi,Animalia,WHITES_PIERIDAE,Green-veined White,,1,25.6989727020264,57.0823097229004,Europe,Latvia,LV,,Latvia - Cesis,2019-07-27,10:45
Leptidea spec.,Animalia,WHITES_PIERIDAE,,,1,25.6991481781006,57.0823631286621,Europe,Latvia,LV,,Latvia - Cesis,2019-07-27,10:49
Pieris brassicae,Animalia,WHITES_PIERIDAE,Large White,,1,25.6994953155518,57.0825080871582,Europe,Latvia,LV,,Latvia - Cesis,2019-07-27,10:53
Polygonia c-album,Animalia,BRUSHFOOTED_BUTTERFLIES_NYMPHALIDAE,Comma Butterfly,,1,25.7002334594727,57.0822601318359,Europe,Latvia,LV,,Latvia - Cesis,2019-07-27,10:56
Lycaena dispar,Animalia,GOSSAMERWINGED_BUTTERFLIES_LYCAENIDAE,Large Copper,,1,25.65,57.05,Europe,Latvia,LV,,Latvia - Cesis,2019-07-27,11:17
Chilocorus renipustulatus,Animalia,LADYBIRDS_LADYBUGS_OR_LADY_BEETLES_COCCINELLIDAE,Kidney-spot ladybird,,1,25.7089328765869,57.0759773254395,Europe,Latvia,LV,,Latvia - Cesis,2019-07-28,11:17
Tettigonia cantans,Animalia,KATYDIDS_TETTIGONIIDAE,Upland Green Bush Cricket,,1,25.6977181881666,57.0823749670049,Europe,Latvia,LV,,Latvia - Cesis,2019-07-28,12:23
Riparia riparia,Animalia,SWALLOWS_HIRUNDINIDAE,Sand Martin,,5,25.6925659179687,57.1001281738281,Europe,Latvia,LV,,Latvia - Cesis,2019-07-28,13:32
Charadrius dubius,Animalia,PLOVERS_CHARADRIIDAE,Little Ringed Plover,,3,25.6948699951172,57.0999794006348,Europe,Latvia,LV,,Latvia - Cesis,2019-07-28,13:52
Aglais urticae,Animalia,BRUSHFOOTED_BUTTERFLIES_NYMPHALIDAE,Small Tortoiseshell,,2,26.3935966491699,57.5239410400391,Europe,Latvia,LV,,Latvia - Aluksne,2019-07-29,17:33
Argynnis paphia,Animalia,BRUSHFOOTED_BUTTERFLIES_NYMPHALIDAE,Silver-washed Fritillary,,1,25.1463985443115,57.2457618713379,Europe,Latvia,LV,,Latvia - Gauja NP,2019-07-25,14:35
Fabriciana adippe,Animalia,BRUSHFOOTED_BUTTERFLIES_NYMPHALIDAE,High Brown Fritillary,,1,25.1448421478271,57.2460517883301,Europe,Latvia,LV,,Latvia - Gauja NP,2019-07-25,14:49
Vanessa cardui,Animalia,BRUSHFOOTED_BUTTERFLIES_NYMPHALIDAE,Painted Lady,,1,25.1446228027344,57.2461280822754,Europe,Latvia,LV,,Latvia - Gauja NP,2019-07-25,14:52
Brenthis ino,Animalia,BRUSHFOOTED_BUTTERFLIES_NYMPHALIDAE,Lesser Marbled Fritillary,,1,25.1,57.2,Europe,Latvia,LV,,Latvia - Gauja NP,2019-07-25,15:05
Aricia artaxerxes,Animalia,GOSSAMERWINGED_BUTTERFLIES_LYCAENIDAE,Northern Brown Argus,,1,25.14430428,57.24659729,Europe,Latvia,LV,,Latvia - Gauja NP,2019-07-25,15:08
Nymphalis antiopa,Animalia,BRUSHFOOTED_BUTTERFLIES_NYMPHALIDAE,Camberwell Beauty,,1,25.1438045501709,57.2473373413086,Europe,Latvia,LV,,Latvia - Gauja NP,2019-07-25,15:31
Limenitis camilla,Animalia,BRUSHFOOTED_BUTTERFLIES_NYMPHALIDAE,White Admiral,,1,25.1437911987305,57.2473678588867,Europe,Latvia,LV,,Latvia - Gauja NP,2019-07-25,15:32
Lycaena tityrus,Animalia,GOSSAMERWINGED_BUTTERFLIES_LYCAENIDAE,Sooty Copper,,1,25.1,57.2,Europe,Latvia,LV,,Latvia - Gauja NP,2019-07-25,17:07
Thecla betulae,Animalia,GOSSAMERWINGED_BUTTERFLIES_LYCAENIDAE,Brown Hairstreak,,1,25.1473236083984,57.2459411621094,Europe,Latvia,LV,,Latvia - Gauja NP,2019-07-25,18:18
Apus apus,Animalia,SWIFTS_APODIDAE,Common Swift,,6,23.2766745239713,56.62503149365692,Europe,Latvia,LV,,Latvia - Dobele,2019-06-12,15:20
Craterellus cornucopioides,Fungi,CANTHARELLACEAE,,,1,25.95,57.3,Europe,Latvia,LV,,Latvia - Valka,2019-07-23,08:18
Fabriciana adippe,Animalia,BRUSHFOOTED_BUTTERFLIES_NYMPHALIDAE,High Brown Fritillary,,1,25.2014789581299,57.2378959655762,Europe,Latvia,LV,,Latvia - Gauja NP,2019-07-23,16:54
Fabriciana adippe,Animalia,BRUSHFOOTED_BUTTERFLIES_NYMPHALIDAE,High Brown Fritillary,,1,25.14730453,57.24578094,Europe,Latvia,LV,,Latvia - Gauja NP,2019-07-23,17:23
Leptidea spec.,Animalia,WHITES_PIERIDAE,,,1,25.2314720153809,57.3160400390625,Europe,Latvia,LV,,Latvia - Gauja NP,2019-07-21,12:45
Lycaena phlaeas,Animalia,GOSSAMERWINGED_BUTTERFLIES_LYCAENIDAE,Small Copper,,1,25.2327861785889,57.3168296813965,Europe,Latvia,LV,,Latvia - Gauja NP,2019-07-21,12:52
Eumedonia eumedon,Animalia,GOSSAMERWINGED_BUTTERFLIES_LYCAENIDAE,Geranium Argus,,1,25.2,57.3,Europe,Latvia,LV,,Latvia - Gauja NP,2019-07-21,13:02
Coenonympha glycerion,Animalia,BRUSHFOOTED_BUTTERFLIES_NYMPHALIDAE,Chestnut Heath,,1,25.2329578399658,57.3167495727539,Europe,Latvia,LV,,Latvia - Gauja NP,2019-07-21,13:02
Vanessa cardui,Animalia,BRUSHFOOTED_BUTTERFLIES_NYMPHALIDAE,Painted Lady,,1,25.2352256774902,57.3161125183106,Europe,Latvia,LV,,Latvia - Gauja NP,2019-07-21,13:24
Argynnis paphia,Animalia,BRUSHFOOTED_BUTTERFLIES_NYMPHALIDAE,Silver-washed Fritillary,,1,25.2356338500977,57.3163757324219,Europe,Latvia,LV,,Latvia - Gauja NP,2019-07-21,13:27
Argynnis paphia,Animalia,BRUSHFOOTED_BUTTERFLIES_NYMPHALIDAE,Silver-washed Fritillary,,1,25.2605489641428,57.3607235312515,Europe,Latvia,LV,,Latvia - Gauja NP,2019-07-18,15:27
Limenitis camilla,Animalia,BRUSHFOOTED_BUTTERFLIES_NYMPHALIDAE,White Admiral,,1,25.2604681625962,57.360732391948,Europe,Latvia,LV,,Latvia - Gauja NP,2019-07-18,16:53
Satyrium w-album,Animalia,GOSSAMERWINGED_BUTTERFLIES_LYCAENIDAE,White-letter Hairstreak,,1,25.2356185913086,57.3163681030273,Europe,Latvia,LV,,Latvia - Gauja NP,2019-07-19,09:45
Pieris napi,Animalia,WHITES_PIERIDAE,Green-veined White,,1,25.2277030944824,57.3171272277832,Europe,Latvia,LV,,Latvia - Gauja NP,2019-07-19,09:58
Leptidea spec.,Animalia,WHITES_PIERIDAE,,,1,25.0958042144775,57.3532562255859,Europe,Latvia,LV,,Latvia - Gauja NP,2019-07-20,18:47
Satyrium w-album,Animalia,GOSSAMERWINGED_BUTTERFLIES_LYCAENIDAE,White-letter Hairstreak,,1,25.0959777832031,57.3536911010742,Europe,Latvia,LV,,Latvia - Gauja NP,2019-07-20,18:52
Issoria lathonia,Animalia,BRUSHFOOTED_BUTTERFLIES_NYMPHALIDAE,Queen of Spain Fritillary,,1,25.0962505340576,57.3542633056641,Europe,Latvia,LV,,Latvia - Gauja NP,2019-07-20,18:57
Oenanthe oenanthe oenanthe,Animalia,OLD_WORLD_FLYCATCHERS_MUSCICAPIDAE,Northern Wheatear ssp oenanthe,,1,21.52880333,57.40088667,Europe,Latvia,LV,,Latvia - Ventspils,2019-05-23,11:22
Primula veris,Plantae,PRIMULACEAE,Cowslip,,1,21.24,56.91,Europe,Latvia,LV,,Latvia - Kurzeme,2019-05-22,19:24
Anthyllis vulneraria,Plantae,Fabaceae,Kidney Vetch,,1,21.15147667,56.143395,Europe,Latvia,LV,,Latvia - Liepaja,2019-05-22,15:32
Emberiza citrinella citrinella,Animalia,BUNTINGS_EMBERIZIDAE,Yellowhammer ssp citrinella,,1,21.242939,56.91610336,Europe,Latvia,LV,,Latvia - Liepaja,2019-05-22,21:33
Coenonympha pamphilus,Animalia,BRUSHFOOTED_BUTTERFLIES_NYMPHALIDAE,Small Heath,,1,21.24225,56.91607667,Europe,Latvia,LV,,Latvia - Liepaja,2019-05-22,19:24
Iris pseudacorus,Plantae,IRIDACEAE,Yellow Iris,,1,21.03027778,56.49333333,Europe,Latvia,LV,,Latvia - Liepaja,2019-05-22,17:22
Cuculus canorus,Animalia,CUCKOOS_AND_COUCALS_CUCULIDAE,Common Cuckoo,,1,26.9131278991699,56.6905975341797,Europe,Latvia,LV,,Latvia - Rezekne,2019-07-16,07:58
Carpodacus erythrinus,Animalia,FINCHES_FRINGILLIDAE,Common Rosefinch,,1,26.9158172607422,56.6894721984863,Europe,Latvia,LV,,Latvia - Rezekne,2019-07-16,08:24
Acrocephalus arundinaceus,Animalia,Acrocephalidae,Great Reed Warbler,,1,26.9106960296631,56.6916809082031,Europe,Latvia,LV,,Latvia - Rezekne,2019-07-16,08:33
Acrocephalus arundinaceus,Animalia,Acrocephalidae,Great Reed Warbler,,1,26.8855857849121,56.6934585571289,Europe,Latvia,LV,,Latvia - Rezekne,2019-07-16,09:24
Pandion haliaetus,Animalia,OSPREY_PANDIONIDAE,Western Osprey,,1,26.9081382751465,56.6917877197266,Europe,Latvia,LV,,Latvia - Rezekne,2019-07-16,10:18
Haliaeetus albicilla,Animalia,HAWKS_AND_EAGLES_ACCIPITRIDAE,White-tailed Eagle,,1,26.8885478973389,56.6995353698731,Europe,Latvia,LV,,Latvia - Rezekne,2019-07-16,10:42
Calidris alpina,Animalia,SANDPIPERS_AND_ALLIES_SCOLOPACIDAE,Dunlin,,1,26.9428176879883,56.7847328186035,Europe,Latvia,LV,,Latvia - Rezekne,2019-07-16,14:06
Cygnus cygnus,Animalia,DUCKS_GEESE_AND_SWANS_ANATIDAE,Whooper Swan,,1,26.9696636199951,56.7649650573731,Europe,Latvia,LV,,Latvia - Rezekne,2019-07-16,14:20
Neovison vison,Animalia,WEASELS_AND_RELATIVES_MUSTELIDAE,American Mink,,5,26.9698325917125,56.70919386801,Europe,Latvia,LV,,Latvia - Rezekne,2019-07-16,15:00
Haliaeetus albicilla,Animalia,HAWKS_AND_EAGLES_ACCIPITRIDAE,White-tailed Eagle,,1,26.9803695678711,56.6814804077148,Europe,Latvia,LV,,Latvia - Rezekne,2019-07-16,15:40
Remiz pendulinus,Animalia,PENDULINE_TITS_REMIZIDAE,Eurasian Penduline Tit,,1,26.95,56.65,Europe,Latvia,LV,,Latvia - Rezekne,2019-07-16,16:04
Cuculus canorus,Animalia,CUCKOOS_AND_COUCALS_CUCULIDAE,Common Cuckoo,,1,26.9726409912109,56.6776237487793,Europe,Latvia,LV,,Latvia - Rezekne,2019-07-15,09:53
Vaccinium uliginosum,Plantae,ERICACEAE,Bog Bilberry,,1,26.9499855041504,56.7192077636719,Europe,Latvia,LV,,Latvia - Rezekne,2019-07-15,11:17
Arichanna melanaria,Animalia,Geometridae,,,1,26.9479575008154,56.7185423136901,Europe,Latvia,LV,,Latvia - Rezekne,2019-07-15,11:45
Zootoca vivipara,Animalia,Lacertidae,Common Lizard,,1,26.9545230865479,56.7179794311523,Europe,Latvia,LV,,Latvia - Rezekne,2019-07-15,11:49
Rhododendron tomentosum,Plantae,ERICACEAE,Labrador-tea,,1000,26.9522724151611,56.7194061279297,Europe,Latvia,LV,,Latvia - Rezekne,2019-07-15,12:01
Plebejus argus/idas,Animalia,GOSSAMERWINGED_BUTTERFLIES_LYCAENIDAE,,,100,26.949499130249,56.7189102172852,Europe,Latvia,LV,,Latvia - Rezekne,2019-07-15,12:16
Pandion haliaetus,Animalia,OSPREY_PANDIONIDAE,Western Osprey,,1,26.9722099304199,56.677661895752,Europe,Latvia,LV,,Latvia - Rezekne,2019-07-15,13:03
Pandion haliaetus,Animalia,OSPREY_PANDIONIDAE,Western Osprey,,1,21.97425957,56.67013383,Europe,Latvia,LV,,Latvia - Kuldiga,2019-06-12,18:30
Capreolus capreolus,Animalia,DEER_CERVIDAE,European Roe Deer,,1,21.41160774,57.03086472,Europe,Latvia,LV,,Latvia - Ventspils,2019-05-23,09:54
Grus grus,Animalia,CRANES_GRUIDAE,Common Crane,,2,21.5779991149902,57.2777938842773,Europe,Latvia,LV,,Latvia - Ventspils,2019-05-23,10:27
Mergus merganser merganser,Animalia,DUCKS_GEESE_AND_SWANS_ANATIDAE,Common Merganser ssp merganser,,5,21.53187752,57.39943695,Europe,Latvia,LV,,Latvia - Ventspils,2019-05-23,11:03
Clangula hyemalis,Animalia,DUCKS_GEESE_AND_SWANS_ANATIDAE,Long-tailed Duck,,1,21.53189278,57.39943695,Europe,Latvia,LV,,Latvia - Ventspils,2019-05-23,11:03
Cygnus olor,Animalia,DUCKS_GEESE_AND_SWANS_ANATIDAE,Mute Swan,,10,21.5311965942383,57.3991088867188,Europe,Latvia,LV,,Latvia - Ventspils,2019-05-23,11:04
Corvus cornix cornix,Animalia,CROWS_AND_JAYS_CORVIDAE,Hooded Crow ssp cornix,,1,21.53046989,57.39956665,Europe,Latvia,LV,,Latvia - Ventspils,2019-05-23,11:11
Bucephala clangula clangula,Animalia,DUCKS_GEESE_AND_SWANS_ANATIDAE,Common Goldeneye ssp clangula,,2,21.52881241,57.40082932,Europe,Latvia,LV,,Latvia - Ventspils,2019-05-23,11:19
Aythya fuligula,Animalia,DUCKS_GEESE_AND_SWANS_ANATIDAE,Tufted Duck,,2,21.5288505554199,57.4008331298828,Europe,Latvia,LV,,Latvia - Ventspils,2019-05-23,11:19
Melanitta nigra,Animalia,DUCKS_GEESE_AND_SWANS_ANATIDAE,Common Scoter,,1,21.5288753509521,57.4008331298828,Europe,Latvia,LV,,Latvia - Ventspils,2019-05-23,11:20
Clangula hyemalis,Animalia,DUCKS_GEESE_AND_SWANS_ANATIDAE,Long-tailed Duck,,1,21.52886391,57.40082932,Europe,Latvia,LV,,Latvia - Ventspils,2019-05-23,11:20
Branta leucopsis,Animalia,DUCKS_GEESE_AND_SWANS_ANATIDAE,Barnacle Goose,,1,21.52466965,57.40526199,Europe,Latvia,LV,,Latvia - Ventspils,2019-05-23,11:40
Mergus merganser merganser,Animalia,DUCKS_GEESE_AND_SWANS_ANATIDAE,Common Merganser ssp merganser,,7,21.52466965,57.40526199,Europe,Latvia,LV,,Latvia - Ventspils,2019-05-23,11:40
Linaria cannabina cannabina,Animalia,FINCHES_FRINGILLIDAE,Common Linnet ssp cannabina,,2,21.24190903,56.9161377,Europe,Latvia,LV,,Latvia - Liepaja,2019-05-23,07:14
Larus canus canus,Animalia,GULLS_TERNS_AND_SKIMMERS_LARIDAE,Mew Gull ssp canus,,1,21.24159622,56.91630554,Europe,Latvia,LV,,Latvia - Kurzeme,2019-05-23,09:28
Motacilla flava flava,Animalia,PIPITS_EN_WAGTAILS_MOTACILLIDAE,Blue-headed Wagtail,,1,21.0305881500244,56.4931945800781,Europe,Latvia,LV,,Latvia - Liepaja,2019-05-22,17:26
Larus argentatus,Animalia,GULLS_TERNS_AND_SKIMMERS_LARIDAE,European Herring Gull,,1,21.0306243896484,56.4932098388672,Europe,Latvia,LV,,Latvia - Liepaja,2019-05-22,17:28
Acrocephalus schoenobaenus,Animalia,Acrocephalidae,Sedge Warbler,,1,21.03059769,56.49321747,Europe,Latvia,LV,,Latvia - Liepaja,2019-05-22,17:30
Emberiza citrinella citrinella,Animalia,BUNTINGS_EMBERIZIDAE,Yellowhammer ssp citrinella,,1,21.21670914,56.83362961,Europe,Latvia,LV,,Latvia - Liepaja,2019-05-22,18:54
Emberiza schoeniclus schoeniclus,Animalia,BUNTINGS_EMBERIZIDAE,Common Reed Bunting ssp schoeniclus,,1,21.02701187,56.4944458,Europe,Latvia,LV,,Latvia - Liepaja,2019-05-22,17:18
Acrocephalus scirpaceus scirpaceus,Animalia,Acrocephalidae,Eurasian Reed Warbler ssp scirpaceus,,1,21.02699471,56.49443436,Europe,Latvia,LV,,Latvia - Liepaja,2019-05-22,17:18
Cygnus cygnus,Animalia,DUCKS_GEESE_AND_SWANS_ANATIDAE,Whooper Swan,,4,26.977617703403325,56.67669876018229,Europe,Latvia,LV,,Latvia - Rezekne,2019-06-27,16:44
Haliaeetus albicilla,Animalia,HAWKS_AND_EAGLES_ACCIPITRIDAE,White-tailed Eagle,,1,26.977325426439734,56.6766715609065,Europe,Latvia,LV,,Latvia - Rezekne,2019-06-27,16:44
Haliaeetus albicilla,Animalia,HAWKS_AND_EAGLES_ACCIPITRIDAE,White-tailed Eagle,,13,26.862391977440403,56.72385171295417,Europe,Latvia,LV,,Latvia - Rezekne,2019-06-27,22:14
Acrocephalus arundinaceus,Animalia,Acrocephalidae,Great Reed Warbler,,1,26.89479527997495,56.70861721509761,Europe,Latvia,LV,,Latvia - Rezekne,2019-06-27,22:11
Cygnus cygnus,Animalia,DUCKS_GEESE_AND_SWANS_ANATIDAE,Whooper Swan,,2,26.894831322158588,56.70861025811798,Europe,Latvia,LV,,Latvia - Rezekne,2019-06-27,22:10
Grus grus,Animalia,CRANES_GRUIDAE,Common Crane,,1,21.08505707,56.47567095,Europe,Latvia,LV,,Latvia - Liepaja,2019-06-13,17:30
Ficedula hypoleuca,Animalia,OLD_WORLD_FLYCATCHERS_MUSCICAPIDAE,European Pied Flycatcher,,1,23.13503265,57.26234429,Europe,Latvia,LV,,Latvia - Tukums,2019-06-24,
Hydrocoloeus minutus,Animalia,GULLS_TERNS_AND_SKIMMERS_LARIDAE,Little Gull,,60,23.12777281,57.26729217,Europe,Latvia,LV,,Latvia - Tukums,2019-06-24,
Ficedula hypoleuca,Animalia,OLD_WORLD_FLYCATCHERS_MUSCICAPIDAE,European Pied Flycatcher,,3,23.1337108612061,57.2668113708496,Europe,Latvia,LV,,Latvia - Tukums,2019-06-12,11:28
Hydrocoloeus minutus,Animalia,GULLS_TERNS_AND_SKIMMERS_LARIDAE,Little Gull,,40,23.1263672187924,57.2715153944821,Europe,Latvia,LV,,Latvia - Tukums,2019-06-12,12:16
Sterna hirundo,Animalia,GULLS_TERNS_AND_SKIMMERS_LARIDAE,Common Tern,,3,23.1263672187924,57.2715153944821,Europe,Latvia,LV,,Latvia - Tukums,2019-06-12,12:16
Delichon urbicum,Animalia,SWALLOWS_HIRUNDINIDAE,Common House Martin,,6,23.1263672187924,57.2715153944821,Europe,Latvia,LV,,Latvia - Tukums,2019-06-12,12:16
Hirundo rustica,Animalia,SWALLOWS_HIRUNDINIDAE,Barn Swallow,,1,23.1263672187924,57.2715153944821,Europe,Latvia,LV,,Latvia - Tukums,2019-06-12,12:17
Caprimulgus europaeus,Animalia,NIGHTJARS_CAPRIMULGIDAE,European Nightjar,,2,23.144510269165,57.2608337402344,Europe,Latvia,LV,,Latvia - Tukums,2019-06-12,14:07
Cygnus cygnus,Animalia,DUCKS_GEESE_AND_SWANS_ANATIDAE,Whooper Swan,,100,21.99052238,56.6854248,Europe,Latvia,LV,,Latvia - Kuldiga,2019-06-12,17:32
Cygnus olor,Animalia,DUCKS_GEESE_AND_SWANS_ANATIDAE,Mute Swan,,20,21.99049377,56.68543243,Europe,Latvia,LV,,Latvia - Kuldiga,2019-06-12,17:32
Haliaeetus albicilla,Animalia,HAWKS_AND_EAGLES_ACCIPITRIDAE,White-tailed Eagle,,1,21.9803161621094,56.6864128112793,Europe,Latvia,LV,,Latvia - Kuldiga,2019-06-12,17:49
Saxicola rubetra,Animalia,OLD_WORLD_FLYCATCHERS_MUSCICAPIDAE,Whinchat,,1,21.0178676247597,56.449350284187,Europe,Latvia,LV,,Latvia - Liepaja,2019-06-13,11:09
Circus aeruginosus,Animalia,HAWKS_AND_EAGLES_ACCIPITRIDAE,Western Marsh Harrier,,1,21.0179534554482,56.4499806640264,Europe,Latvia,LV,,Latvia - Liepaja,2019-06-13,11:09
Lanius collurio,Animalia,SHRIKES_LANIIDAE,Red-backed Shrike,,2,21.03746083,56.46523945,Europe,Latvia,LV,,Latvia - Liepaja,2019-06-13,12:00
Chlidonias niger,Animalia,GULLS_TERNS_AND_SKIMMERS_LARIDAE,Black Tern,,5,21.0365740209818,56.4218413119755,Europe,Latvia,LV,,Latvia - Liepaja,2019-06-13,13:55
Circus aeruginosus,Animalia,HAWKS_AND_EAGLES_ACCIPITRIDAE,Western Marsh Harrier,,1,21.035314053297,56.4223762809978,Europe,Latvia,LV,,Latvia - Liepaja,2019-06-13,14:26
Lanius collurio,Animalia,SHRIKES_LANIIDAE,Red-backed Shrike,,2,21.0339518263936,56.4233273390617,Europe,Latvia,LV,,Latvia - Liepaja,2019-06-13,14:35
Grus grus,Animalia,CRANES_GRUIDAE,Common Crane,,1,21.0262354463339,56.4286807458747,Europe,Latvia,LV,,Latvia - Liepaja,2019-06-13,14:41
Remiz pendulinus,Animalia,PENDULINE_TITS_REMIZIDAE,Eurasian Penduline Tit,,1,21.0,56.4,Europe,Latvia,LV,,Latvia - Liepaja,2019-06-13,14:44
Saxicola rubetra,Animalia,OLD_WORLD_FLYCATCHERS_MUSCICAPIDAE,Whinchat,,1,21.0366125777364,56.4260503969863,Europe,Latvia,LV,,Latvia - Liepaja,2019-06-13,15:06
Circus aeruginosus,Animalia,HAWKS_AND_EAGLES_ACCIPITRIDAE,Western Marsh Harrier,,1,21.0335426330566,56.422664642334,Europe,Latvia,LV,,Latvia - Liepaja,2019-06-13,15:33
Sylvia nisoria,Animalia,OLD_WORLD_WARBLERS_SYLVIIDAE,Barred Warbler,,1,21.0242318361998,56.4248871043887,Europe,Latvia,LV,,Latvia - Liepaja,2019-06-13,15:54
Lanius collurio,Animalia,SHRIKES_LANIIDAE,Red-backed Shrike,,1,21.0887451171875,56.4035797119141,Europe,Latvia,LV,,Latvia - Liepaja,2019-06-13,17:15
Saxicola rubetra,Animalia,OLD_WORLD_FLYCATCHERS_MUSCICAPIDAE,Whinchat,,1,21.0885887145996,56.4035835266113,Europe,Latvia,LV,,Latvia - Liepaja,2019-06-13,17:24
Lanius collurio,Animalia,SHRIKES_LANIIDAE,Red-backed Shrike,,2,21.0354804992676,56.4653930664062,Europe,Latvia,LV,,Latvia - Liepaja,2019-06-13,11:52
Chlidonias niger,Animalia,GULLS_TERNS_AND_SKIMMERS_LARIDAE,Black Tern,,5,21.0359044745564,56.4215880103266,Europe,Latvia,LV,,Latvia - Liepaja,2019-06-13,14:02
Lanius collurio,Animalia,SHRIKES_LANIIDAE,Red-backed Shrike,,1,21.0337949171662,56.4222720692515,Europe,Latvia,LV,,Latvia - Liepaja,2019-06-13,14:29
Remiz pendulinus,Animalia,PENDULINE_TITS_REMIZIDAE,Eurasian Penduline Tit,,1,21.0,56.4,Europe,Latvia,LV,,Latvia - Liepaja,2019-06-13,14:44
Sylvia nisoria,Animalia,OLD_WORLD_WARBLERS_SYLVIIDAE,Barred Warbler,,1,21.0243823751807,56.4246506961394,Europe,Latvia,LV,,Latvia - Liepaja,2019-06-13,15:56
Lanius collurio,Animalia,SHRIKES_LANIIDAE,Red-backed Shrike,,1,21.088659286499,56.403564453125,Europe,Latvia,LV,,Latvia - Liepaja,2019-06-13,17:16
Saxicola rubetra,Animalia,OLD_WORLD_FLYCATCHERS_MUSCICAPIDAE,Whinchat,,1,21.0889123007655,56.4037285894509,Europe,Latvia,LV,,Latvia - Liepaja,2019-06-13,17:25
Hydrocoloeus minutus,Animalia,GULLS_TERNS_AND_SKIMMERS_LARIDAE,Little Gull,,40,23.1267147064209,57.2716102600098,Europe,Latvia,LV,,Latvia - Tukums,2019-06-12,12:15
Delichon urbicum,Animalia,SWALLOWS_HIRUNDINIDAE,Common House Martin,,8,23.1267051696777,57.2715911865234,Europe,Latvia,LV,,Latvia - Tukums,2019-06-12,12:19
Hirundo rustica,Animalia,SWALLOWS_HIRUNDINIDAE,Barn Swallow,,4,23.1266918182373,57.2715950012207,Europe,Latvia,LV,,Latvia - Tukums,2019-06-12,12:20
Caprimulgus europaeus,Animalia,NIGHTJARS_CAPRIMULGIDAE,European Nightjar,,2,23.144458770752,57.2608680725098,Europe,Latvia,LV,,Latvia - Tukums,2019-06-12,14:07
Cygnus cygnus,Animalia,DUCKS_GEESE_AND_SWANS_ANATIDAE,Whooper Swan,,100,21.993772611022,56.6911018342893,Europe,Latvia,LV,,Latvia - Kuldiga,2019-06-12,17:41
Ficedula hypoleuca,Animalia,OLD_WORLD_FLYCATCHERS_MUSCICAPIDAE,European Pied Flycatcher,,2,23.1338272094727,57.2668151855469,Europe,Latvia,LV,,Latvia - Tukums,2019-06-12,11:29
Pyrola rotundifolia,Plantae,ERICACEAE,Round-leaved Wintergreen,,1,22.3264789581299,57.6924743652344,Europe,Latvia,LV,,Latvia - Slitere NP,2019-06-11,13:27
Pulsatilla vulgaris,Plantae,RANUNCULACEAE,Pasqueflower,,1,22.32,57.69,Europe,Latvia,LV,,Latvia - Slitere NP,2019-06-11,13:31
Honckenya peploides,Plantae,CARYOPHYLLACEAE,Sea Sandwort,,1,22.3271064758301,57.692798614502,Europe,Latvia,LV,,Latvia - Slitere NP,2019-06-11,13:41
Epipactis atrorubens,Plantae,ORCHIDACEAE,Dark-red Helleborine,,1,22.3,57.65,Europe,Latvia,LV,,Latvia - Slitere NP,2019-06-11,15:08
Maianthemum bifolium,Plantae,ASPARAGACEAE,May Lily,,1,22.6018753051758,57.757209777832,Europe,Latvia,LV,,Latvia - Slitere NP,2019-06-11,15:10
Carpodacus erythrinus,Animalia,FINCHES_FRINGILLIDAE,Common Rosefinch,,1,24.3397579193115,57.8339538574219,Europe,Latvia,LV,,Latvia - Limbaži,2019-06-10,17:28
Lanius collurio,Animalia,SHRIKES_LANIIDAE,Red-backed Shrike,,1,24.3397560119629,57.8339538574219,Europe,Latvia,LV,,Latvia - Limbaži,2019-06-10,17:28
Thalasseus sandvicensis,Animalia,GULLS_TERNS_AND_SKIMMERS_LARIDAE,Sandwich Tern,,10,24.3376140594482,57.8335075378418,Europe,Latvia,LV,,Latvia - Limbaži,2019-06-10,17:41
Dendrocoptes medius,Animalia,WOODPECKERS_PICIDAE,Middle Spotted Woodpecker,,2,24.6461086273193,57.334156036377,Europe,Latvia,LV,,Latvia - Limbaži,2019-06-11,13:13
Lanius collurio,Animalia,SHRIKES_LANIIDAE,Red-backed Shrike,,2,24.3398036956787,57.8339309692383,Europe,Latvia,LV,,Latvia - Limbaži,2019-06-10,17:28
Carpodacus erythrinus,Animalia,FINCHES_FRINGILLIDAE,Common Rosefinch,,1,24.3397884368896,57.8339462280273,Europe,Latvia,LV,,Latvia - Limbaži,2019-06-10,17:28
Thalasseus sandvicensis,Animalia,GULLS_TERNS_AND_SKIMMERS_LARIDAE,Sandwich Tern,,25,24.3344884738326,57.8357585053611,Europe,Latvia,LV,,Latvia - Limbaži,2019-06-10,17:31
Lanius collurio,Animalia,SHRIKES_LANIIDAE,Red-backed Shrike,,1,26.3528003692627,56.749626159668,Europe,Latvia,LV,,Latvia - Madona,2019-06-01,11:35
Jynx torquilla,Animalia,WOODPECKERS_PICIDAE,Eurasian Wryneck,,2,25.7421184703708,57.674995248155,Europe,Latvia,LV,,Latvia - Valka,2019-06-04,11:37
Jynx torquilla,Animalia,WOODPECKERS_PICIDAE,Eurasian Wryneck,,1,25.7424068450928,57.6751823425293,Europe,Latvia,LV,,Latvia - Valka,2019-06-04,11:37
Emberiza schoeniclus,Animalia,BUNTINGS_EMBERIZIDAE,Common Reed Bunting,,1,25.7182846069336,57.7102966308594,Europe,Latvia,LV,,Latvia - Valka,2019-06-04,14:00
Sterna hirundo,Animalia,GULLS_TERNS_AND_SKIMMERS_LARIDAE,Common Tern,,1,25.7183418273926,57.7102508544922,Europe,Latvia,LV,,Latvia - Valka,2019-06-04,14:05
Haliaeetus albicilla,Animalia,HAWKS_AND_EAGLES_ACCIPITRIDAE,White-tailed Eagle,,1,26.968879699707,56.7639999389648,Europe,Latvia,LV,,Latvia - Rezekne,2019-06-03,12:25
Cuculus canorus,Animalia,CUCKOOS_AND_COUCALS_CUCULIDAE,Common Cuckoo,,1,26.8386726379395,56.889575958252,Europe,Latvia,LV,,Latvia - Madona,2019-06-03,07:49
Gallinago gallinago,Animalia,SANDPIPERS_AND_ALLIES_SCOLOPACIDAE,Common Snipe,,1,26.7584319412708,56.902807496551,Europe,Latvia,LV,,Latvia - Madona,2019-06-03,09:57
Haliaeetus albicilla,Animalia,HAWKS_AND_EAGLES_ACCIPITRIDAE,White-tailed Eagle,,1,26.8918949738145,56.8212573748962,Europe,Latvia,LV,,Latvia - Madona,2019-06-03,10:44
Muscicapa striata,Animalia,OLD_WORLD_FLYCATCHERS_MUSCICAPIDAE,Spotted Flycatcher,,1,26.9076461791992,56.816837310791,Europe,Latvia,LV,,Latvia - Madona,2019-06-03,11:20
Haliaeetus albicilla,Animalia,HAWKS_AND_EAGLES_ACCIPITRIDAE,White-tailed Eagle,,1,26.9232416152954,56.76437354792,Europe,Latvia,LV,,Latvia - Rezekne,2019-06-03,11:47
Cygnus cygnus,Animalia,DUCKS_GEESE_AND_SWANS_ANATIDAE,Whooper Swan,,1,26.9504051208496,56.7721214294434,Europe,Latvia,LV,,Latvia - Rezekne,2019-06-03,11:50
Streptopelia turtur,Animalia,PIGEONS_AND_DOVES_COLUMBIDAE,European Turtle Dove,,2,26.7160905897617,56.8704531152428,Europe,Latvia,LV,,Latvia - Madona,2019-06-03,15:40
Gallinago gallinago,Animalia,SANDPIPERS_AND_ALLIES_SCOLOPACIDAE,Common Snipe,,1,26.7577825114131,56.9025876153974,Europe,Latvia,LV,,Latvia - Madona,2019-06-03,09:57
Muscicapa striata,Animalia,OLD_WORLD_FLYCATCHERS_MUSCICAPIDAE,Spotted Flycatcher,,1,26.9075965881348,56.8167495727539,Europe,Latvia,LV,,Latvia - Madona,2019-06-03,11:20
Lanius collurio,Animalia,SHRIKES_LANIIDAE,Red-backed Shrike,,2,26.491060256958,56.7742156982422,Europe,Latvia,LV,,Latvia - Madona,2019-06-01,10:15
Calopteryx splendens,Animalia,BROADWINGED_DAMSELS_CALOPTERYGIDAE,Banded Demoiselle,,10,26.4382476806641,56.771369934082,Europe,Latvia,LV,,Latvia - Madona,2019-06-01,10:51
Lanius collurio,Animalia,SHRIKES_LANIIDAE,Red-backed Shrike,,1,26.352810524404,56.7498726921118,Europe,Latvia,LV,,Latvia - Madona,2019-06-01,11:39
Graphosoma italicum,Animalia,Pentatomidae,Striped shield bug,,30,26.5147705078125,56.8097457885742,Europe,Latvia,LV,,Latvia - Madona,2019-06-02,14:04
Vulpes vulpes,Animalia,DOGS_CANIDAE,Red Fox,,1,26.5,56.8,Europe,Latvia,LV,,Latvia - Madona,2019-06-02,14:10
Acrocephalus arundinaceus,Animalia,Acrocephalidae,Great Reed Warbler,,1,26.9953479766846,56.6757125854492,Europe,Latvia,LV,,Latvia - Rezekne,2019-05-30,14:20
Podiceps grisegena,Animalia,GREBES_PODICIPEDIDAE,Red-necked Grebe,,1,26.9953594207764,56.675708770752,Europe,Latvia,LV,,Latvia - Rezekne,2019-05-30,14:21
Pandion haliaetus,Animalia,OSPREY_PANDIONIDAE,Western Osprey,,1,26.995361328125,56.675708770752,Europe,Latvia,LV,,Latvia - Rezekne,2019-05-30,14:21
Cygnus cygnus,Animalia,DUCKS_GEESE_AND_SWANS_ANATIDAE,Whooper Swan,,2,26.9953632354736,56.675708770752,Europe,Latvia,LV,,Latvia - Rezekne,2019-05-30,14:21
Haliaeetus albicilla,Animalia,HAWKS_AND_EAGLES_ACCIPITRIDAE,White-tailed Eagle,,1,27.022743858397,56.7299385513386,Europe,Latvia,LV,,Latvia - Rezekne,2019-05-30,17:37
Cygnus cygnus,Animalia,DUCKS_GEESE_AND_SWANS_ANATIDAE,Whooper Swan,,100,26.9796380773187,56.694803155812,Europe,Latvia,LV,,Latvia - Rezekne,2019-05-30,17:39
Pandion haliaetus,Animalia,OSPREY_PANDIONIDAE,Western Osprey,,2,26.9048976525664,56.7531443604806,Europe,Latvia,LV,,Latvia - Rezekne,2019-05-30,18:08
Spatula querquedula,Animalia,DUCKS_GEESE_AND_SWANS_ANATIDAE,Garganey,,1,26.7679061889648,56.7150917053223,Europe,Latvia,LV,,Latvia - Madona,2019-05-30,18:38
Pandion haliaetus,Animalia,OSPREY_PANDIONIDAE,Western Osprey,,1,26.7984696105123,56.7334015682438,Europe,Latvia,LV,,Latvia - Rezekne,2019-05-30,18:41
Carpodacus erythrinus,Animalia,FINCHES_FRINGILLIDAE,Common Rosefinch,,1,26.7678871154785,56.7151145935059,Europe,Latvia,LV,,Latvia - Madona,2019-05-30,19:03
Lanius collurio,Animalia,SHRIKES_LANIIDAE,Red-backed Shrike,,1,26.7370872497559,56.7988891601563,Europe,Latvia,LV,,Latvia - Madona,2019-05-31,12:36
Saxicola rubetra,Animalia,OLD_WORLD_FLYCATCHERS_MUSCICAPIDAE,Whinchat,,2,26.7662754058838,56.7912902832031,Europe,Latvia,LV,,Latvia - Madona,2019-05-31,12:50
Alauda arvensis,Animalia,LARKS_ALAUDIDAE,Eurasian Skylark,,1,26.8452415466309,56.8154296875,Europe,Latvia,LV,,Latvia - Madona,2019-05-31,14:01
Spatula querquedula,Animalia,DUCKS_GEESE_AND_SWANS_ANATIDAE,Garganey,,2,26.8486404418945,56.814525604248,Europe,Latvia,LV,,Latvia - Madona,2019-05-31,14:04
Cuculus canorus,Animalia,CUCKOOS_AND_COUCALS_CUCULIDAE,Common Cuckoo,,1,26.8540714681148,56.8105357931004,Europe,Latvia,LV,,Latvia - Madona,2019-05-31,15:00
Pandion haliaetus,Animalia,OSPREY_PANDIONIDAE,Western Osprey,,1,26.8628261983395,56.8071213678679,Europe,Latvia,LV,,Latvia - Madona,2019-05-31,15:00
Cygnus cygnus,Animalia,DUCKS_GEESE_AND_SWANS_ANATIDAE,Whooper Swan,,6,26.9943656921387,56.6758193969727,Europe,Latvia,LV,,Latvia - Rezekne,2019-05-30,14:28
Spatula querquedula,Animalia,DUCKS_GEESE_AND_SWANS_ANATIDAE,Garganey,,2,26.849157333374,56.8144035339356,Europe,Latvia,LV,,Latvia - Madona,2019-05-31,14:06
Carpodacus erythrinus,Animalia,FINCHES_FRINGILLIDAE,Common Rosefinch,,1,26.7432556152344,55.7525367736816,Europe,Latvia,LV,,Latvia - Daugavpils,2019-05-29,13:37
Lanius collurio,Animalia,SHRIKES_LANIIDAE,Red-backed Shrike,,1,26.7416718229651,55.7493548815949,Europe,Latvia,LV,,Latvia - Daugavpils,2019-05-29,14:02
Carpodacus erythrinus,Animalia,FINCHES_FRINGILLIDAE,Common Rosefinch,,2,26.6961212158203,55.7398452758789,Europe,Latvia,LV,,Latvia - Daugavpils,2019-05-29,14:22
Lullula arborea,Animalia,LARKS_ALAUDIDAE,Woodlark,,1,26.6948928833008,55.7394638061523,Europe,Latvia,LV,,Latvia - Daugavpils,2019-05-29,14:31
Carpodacus erythrinus,Animalia,FINCHES_FRINGILLIDAE,Common Rosefinch,,1,26.6948261260986,55.7369728088379,Europe,Latvia,LV,,Latvia - Daugavpils,2019-05-29,14:49
Lanius collurio,Animalia,SHRIKES_LANIIDAE,Red-backed Shrike,,1,26.6945648193359,55.7376251220703,Europe,Latvia,LV,,Latvia - Daugavpils,2019-05-29,14:55
Saxicola rubetra,Animalia,OLD_WORLD_FLYCATCHERS_MUSCICAPIDAE,Whinchat,,1,26.6948547363281,55.7378730773926,Europe,Latvia,LV,,Latvia - Daugavpils,2019-05-29,15:03
Phylloscopus sibilatrix,Animalia,LEAF_WARBLERS_AND_ALLIES_PHYLLOSCOPIDAE,Wood Warbler,,1,26.7823874205351,55.7266845145477,Europe,Latvia,LV,,Latvia - Daugavpils,2019-05-30,09:08
Carpodacus erythrinus,Animalia,FINCHES_FRINGILLIDAE,Common Rosefinch,,1,26.7421455383301,55.7521743774414,Europe,Latvia,LV,,Latvia - Daugavpils,2019-05-29,13:49
Lanius collurio,Animalia,SHRIKES_LANIIDAE,Red-backed Shrike,,1,26.7409954071045,55.7491798400879,Europe,Latvia,LV,,Latvia - Daugavpils,2019-05-29,14:01
Carpodacus erythrinus,Animalia,FINCHES_FRINGILLIDAE,Common Rosefinch,,1,26.7410087585449,55.7486991882324,Europe,Latvia,LV,,Latvia - Daugavpils,2019-05-29,14:03
Lanius collurio,Animalia,SHRIKES_LANIIDAE,Red-backed Shrike,,1,26.6940642893314,55.7381077928899,Europe,Latvia,LV,,Latvia - Daugavpils,2019-05-29,14:54
Pandion haliaetus,Animalia,OSPREY_PANDIONIDAE,Western Osprey,,1,23.5466594696045,56.9572677612305,Europe,Latvia,LV,,Latvia - Kemeru NP,2019-05-28,09:09
Acrocephalus arundinaceus,Animalia,Acrocephalidae,Great Reed Warbler,,1,23.5468306392431,56.9576953156642,Europe,Latvia,LV,,Latvia - Kemeru NP,2019-05-28,09:25
Motacilla alba,Animalia,PIPITS_EN_WAGTAILS_MOTACILLIDAE,White Wagtail,,1,23.5470523834229,56.9576263427734,Europe,Latvia,LV,,Latvia - Kemeru NP,2019-05-28,09:28
Carpodacus erythrinus,Animalia,FINCHES_FRINGILLIDAE,Common Rosefinch,,1,23.5229894891381,56.9502577801835,Europe,Latvia,LV,,Latvia - Kemeru NP,2019-05-28,09:48
Saxicola rubetra,Animalia,OLD_WORLD_FLYCATCHERS_MUSCICAPIDAE,Whinchat,,1,25.6807537078857,56.1939353942871,Europe,Latvia,LV,,Latvia - Jekabpils,2019-05-28,15:52
Emberiza citrinella,Animalia,BUNTINGS_EMBERIZIDAE,Yellowhammer,,1,25.6806659698486,56.1939353942871,Europe,Latvia,LV,,Latvia - Jekabpils,2019-05-28,16:12
Ciconia ciconia,Animalia,STORKS_CICONIIDAE,White Stork,,3,25.6824463605881,56.1969716580325,Europe,Latvia,LV,,Latvia - Jekabpils,2019-05-28,16:12
Motacilla flava,Animalia,PIPITS_EN_WAGTAILS_MOTACILLIDAE,Western Yellow Wagtail,,1,26.1790237426758,56.0689659118652,Europe,Latvia,LV,,Latvia - Daugavpils,2019-05-28,19:17
Saxicola rubetra,Animalia,OLD_WORLD_FLYCATCHERS_MUSCICAPIDAE,Whinchat,,1,25.6807632446289,56.1939544677734,Europe,Latvia,LV,,Latvia - Jekabpils,2019-05-28,15:55
Carpodacus erythrinus,Animalia,FINCHES_FRINGILLIDAE,Common Rosefinch,,1,23.5232892259955,56.9497212987846,Europe,Latvia,LV,,Latvia - Kemeru NP,2019-05-28,09:49
Acrocephalus arundinaceus,Animalia,Acrocephalidae,Great Reed Warbler,,1,23.5466740652919,56.957667528225,Europe,Latvia,LV,,Latvia - Kemeru NP,2019-05-27,19:04
Pandion haliaetus,Animalia,OSPREY_PANDIONIDAE,Western Osprey,,2,23.5470905303955,56.9576377868652,Europe,Latvia,LV,,Latvia - Kemeru NP,2019-05-27,19:30
Emberiza schoeniclus,Animalia,BUNTINGS_EMBERIZIDAE,Common Reed Bunting,,1,23.5466841235757,56.9576560110566,Europe,Latvia,LV,,Latvia - Kemeru NP,2019-05-27,19:42
Acrocephalus arundinaceus,Animalia,Acrocephalidae,Great Reed Warbler,,1,23.4709697216749,56.9976260126831,Europe,Latvia,LV,,Latvia - Kemeru NP,2019-05-27,20:21
Carpodacus erythrinus,Animalia,FINCHES_FRINGILLIDAE,Common Rosefinch,,1,23.4715812653303,56.9955881436384,Europe,Latvia,LV,,Latvia - Kemeru NP,2019-05-27,20:21
Emberiza schoeniclus schoeniclus,Animalia,BUNTINGS_EMBERIZIDAE,Common Reed Bunting ssp schoeniclus,,1,21.02701187,56.4944458,Europe,Latvia,LV,,Latvia - Liepaja,2019-05-22,17:18
Acrocephalus scirpaceus scirpaceus,Animalia,Acrocephalidae,Eurasian Reed Warbler ssp scirpaceus,,1,21.02699471,56.49443436,Europe,Latvia,LV,,Latvia - Liepaja,2019-05-22,17:18
Motacilla flava flava,Animalia,PIPITS_EN_WAGTAILS_MOTACILLIDAE,Blue-headed Wagtail,,1,21.0305881500244,56.4931945800781,Europe,Latvia,LV,,Latvia - Liepaja,2019-05-22,17:26
Larus argentatus,Animalia,GULLS_TERNS_AND_SKIMMERS_LARIDAE,European Herring Gull,,1,21.0306243896484,56.4932098388672,Europe,Latvia,LV,,Latvia - Liepaja,2019-05-22,17:28
Acrocephalus schoenobaenus,Animalia,Acrocephalidae,Sedge Warbler,,1,21.03059769,56.49321747,Europe,Latvia,LV,,Latvia - Liepaja,2019-05-22,17:30
Emberiza citrinella citrinella,Animalia,BUNTINGS_EMBERIZIDAE,Yellowhammer ssp citrinella,,1,21.21670914,56.83362961,Europe,Latvia,LV,,Latvia - Liepaja,2019-05-22,18:54
Larus canus canus,Animalia,GULLS_TERNS_AND_SKIMMERS_LARIDAE,Mew Gull ssp canus,,1,21.24159622,56.91630554,Europe,Latvia,LV,,Latvia - Kurzeme,2019-05-23,09:28
Capreolus capreolus,Animalia,DEER_CERVIDAE,European Roe Deer,,1,21.4116077423096,57.0308647155762,Europe,Latvia,LV,,Latvia - Ventspils,2019-05-23,09:54
Mergus merganser merganser,Animalia,DUCKS_GEESE_AND_SWANS_ANATIDAE,Common Merganser ssp merganser,,5,21.53187752,57.39943695,Europe,Latvia,LV,,Latvia - Ventspils,2019-05-23,11:03
Clangula hyemalis,Animalia,DUCKS_GEESE_AND_SWANS_ANATIDAE,Long-tailed Duck,,1,21.5318927764893,57.3994369506836,Europe,Latvia,LV,,Latvia - Ventspils,2019-05-23,11:03
Cygnus olor,Animalia,DUCKS_GEESE_AND_SWANS_ANATIDAE,Mute Swan,,10,21.5311965942383,57.3991088867188,Europe,Latvia,LV,,Latvia - Ventspils,2019-05-23,11:04
Corvus cornix cornix,Animalia,CROWS_AND_JAYS_CORVIDAE,Hooded Crow ssp cornix,,1,21.53046989,57.39956665,Europe,Latvia,LV,,Latvia - Ventspils,2019-05-23,11:11
Bucephala clangula clangula,Animalia,DUCKS_GEESE_AND_SWANS_ANATIDAE,Common Goldeneye ssp clangula,,2,21.52881241,57.40082932,Europe,Latvia,LV,,Latvia - Ventspils,2019-05-23,11:19
Aythya fuligula,Animalia,DUCKS_GEESE_AND_SWANS_ANATIDAE,Tufted Duck,,2,21.5288505554199,57.4008331298828,Europe,Latvia,LV,,Latvia - Ventspils,2019-05-23,11:19
Melanitta nigra,Animalia,DUCKS_GEESE_AND_SWANS_ANATIDAE,Common Scoter,,1,21.5288753509521,57.4008331298828,Europe,Latvia,LV,,Latvia - Ventspils,2019-05-23,11:20
Clangula hyemalis,Animalia,DUCKS_GEESE_AND_SWANS_ANATIDAE,Long-tailed Duck,,1,21.5288639068604,57.4008293151855,Europe,Latvia,LV,,Latvia - Ventspils,2019-05-23,11:20
Branta leucopsis,Animalia,DUCKS_GEESE_AND_SWANS_ANATIDAE,Barnacle Goose,,1,21.52466965,57.40526199,Europe,Latvia,LV,,Latvia - Ventspils,2019-05-23,11:40
Mergus merganser merganser,Animalia,DUCKS_GEESE_AND_SWANS_ANATIDAE,Common Merganser ssp merganser,,7,21.52466965,57.40526199,Europe,Latvia,LV,,Latvia - Ventspils,2019-05-23,11:40
Martes martes,Animalia,WEASELS_AND_RELATIVES_MUSTELIDAE,Pine Marten,,1,25.0,57.25,Europe,Latvia,LV,,Latvia - Gauja NP,2019-05-21,16:03
Ornithogalum umbellatum,Plantae,ASPARAGACEAE,Garden Star-of-Bethlehem,,1,24.1119289398193,56.9515113830566,Europe,Latvia,LV,,Latvia - Riga,2019-05-22,16:12
Potentilla anserina,Plantae,ROSACEAE,Silverweed,,1,24.1117782592773,56.9516105651856,Europe,Latvia,LV,,Latvia - Riga,2019-05-22,16:13
Corvus cornix,Animalia,CROWS_AND_JAYS_CORVIDAE,Hooded Crow,,1,24.114574432373,56.9529418945313,Europe,Latvia,LV,,Latvia - Riga,2019-05-22,16:35
Plantago media,Plantae,PLANTAGINACEAE,Hoary Plantain,,1,24.1150455474853,56.9535713195801,Europe,Latvia,LV,,Latvia - Riga,2019-05-22,16:42
Pernis apivorus,Animalia,HAWKS_AND_EAGLES_ACCIPITRIDAE,European Honey Buzzard,,6,23.970365524292,56.9723205566406,Europe,Latvia,LV,,Latvia - Riga,2019-05-20,09:54
Acrocephalus arundinaceus,Animalia,Acrocephalidae,Great Reed Warbler,,1,23.4788455963135,57.0021705627441,Europe,Latvia,LV,,Latvia - Kemeru NP,2019-05-19,20:35
Lanius collurio,Animalia,SHRIKES_LANIIDAE,Red-backed Shrike,,1,23.97076225,56.97248459,Europe,Latvia,LV,,Latvia - Riga,2019-05-13,13:47
Nymphalis antiopa,Animalia,BRUSHFOOTED_BUTTERFLIES_NYMPHALIDAE,Camberwell Beauty,,1,25.0872325897217,57.3280372619629,Europe,Latvia,LV,,Latvia - Gauja NP,2019-04-26,14:19
Corvus cornix,Animalia,CROWS_AND_JAYS_CORVIDAE,Hooded Crow,,1,23.981803894043,56.927604675293,Europe,Latvia,LV,,Latvia - Riga,2019-04-13,14:17
Corvus cornix,Animalia,CROWS_AND_JAYS_CORVIDAE,Hooded Crow,,1,23.97865486,56.9223671,Europe,Latvia,LV,,Latvia - Riga,2019-04-11,14:56
Sturnus vulgaris,Animalia,STARLINGS_STURNIDAE,Common Starling,,15,23.977676974631823,56.92193799191799,Europe,Latvia,LV,,Latvia - Riga,2019-04-11,16:17
Corvus cornix,Animalia,CROWS_AND_JAYS_CORVIDAE,Hooded Crow,,1,23.977505564711965,56.92203392279979,Europe,Latvia,LV,,Latvia - Riga,2019-04-11,16:15
Circus aeruginosus,Animalia,HAWKS_AND_EAGLES_ACCIPITRIDAE,Western Marsh Harrier,,1,21.019938,56.505808,Europe,Latvia,LV,,Latvia - Liepaja,2013-07-13,
Larus argentatus,Animalia,GULLS_TERNS_AND_SKIMMERS_LARIDAE,European Herring Gull,,4,21.0136464983225,56.5944421221595,Europe,Latvia,LV,,Latvia - Kurzeme,2019-03-15,08:59
Gallinago gallinago,Animalia,SANDPIPERS_AND_ALLIES_SCOLOPACIDAE,Common Snipe,,1,27.1652,56.5039,Europe,Latvia,LV,,Latvia - Rezekne,2013-05-14,
Bucephala clangula,Animalia,DUCKS_GEESE_AND_SWANS_ANATIDAE,Common Goldeneye,,2,27.1652,56.5039,Europe,Latvia,LV,,Latvia - Rezekne,2013-05-14,
Tringa glareola,Animalia,SANDPIPERS_AND_ALLIES_SCOLOPACIDAE,Wood Sandpiper,,1,27.1652,56.5039,Europe,Latvia,LV,,Latvia - Rezekne,2013-05-14,
Actitis hypoleucos,Animalia,SANDPIPERS_AND_ALLIES_SCOLOPACIDAE,Common Sandpiper,,1,27.1652,56.5039,Europe,Latvia,LV,,Latvia - Rezekne,2013-05-14,
Natrix natrix,Animalia,Colubridae,European Grass Snake,,1,27.15,56.5,Europe,Latvia,LV,,Latvia - Rezekne,2013-05-14,
Oenanthe oenanthe,Animalia,OLD_WORLD_FLYCATCHERS_MUSCICAPIDAE,Northern Wheatear,,1,26.7206,56.4655,Europe,Latvia,LV,,Latvia - Preili,2013-05-13,
Ficedula hypoleuca,Animalia,OLD_WORLD_FLYCATCHERS_MUSCICAPIDAE,European Pied Flycatcher,,1,26.7206,56.4655,Europe,Latvia,LV,,Latvia - Preili,2013-05-13,
Pyrrhula pyrrhula,Animalia,FINCHES_FRINGILLIDAE,Eurasian Bullfinch,,1,26.7206,56.4655,Europe,Latvia,LV,,Latvia - Preili,2013-05-13,
Circus pygargus,Animalia,HAWKS_AND_EAGLES_ACCIPITRIDAE,Montagu's Harrier,,1,26.7206,56.4655,Europe,Latvia,LV,,Latvia - Preili,2013-05-13,
Martes foina,Animalia,WEASELS_AND_RELATIVES_MUSTELIDAE,Beech Marten,,1,26.7206,56.4655,Europe,Latvia,LV,,Latvia - Preili,2013-05-12,
Oriolus oriolus,Animalia,ORIOLES_AND_FIG_BIRDS_ORIOLIDAE,Eurasian Golden Oriole,,1,26.7206,56.4655,Europe,Latvia,LV,,Latvia - Preili,2013-05-11,
Locustella fluviatilis,Animalia,Locustellidae,River Warbler,,1,26.7206,56.4655,Europe,Latvia,LV,,Latvia - Preili,2013-05-10,
Pandion haliaetus,Animalia,OSPREY_PANDIONIDAE,Western Osprey,,2,26.7206,56.4655,Europe,Latvia,LV,,Latvia - Preili,2013-05-10,
Haliaeetus albicilla,Animalia,HAWKS_AND_EAGLES_ACCIPITRIDAE,White-tailed Eagle,,1,26.7206,56.4655,Europe,Latvia,LV,,Latvia - Preili,2013-05-10,
Tringa glareola,Animalia,SANDPIPERS_AND_ALLIES_SCOLOPACIDAE,Wood Sandpiper,,1,26.7206,56.4655,Europe,Latvia,LV,,Latvia - Preili,2013-05-10,
Carduelis carduelis,Animalia,FINCHES_FRINGILLIDAE,European Goldfinch,,1,26.7206,56.4655,Europe,Latvia,LV,,Latvia - Preili,2013-05-09,
Carpodacus erythrinus,Animalia,FINCHES_FRINGILLIDAE,Common Rosefinch,,1,26.7206,56.4655,Europe,Latvia,LV,,Latvia - Preili,2013-05-09,
Cuculus canorus,Animalia,CUCKOOS_AND_COUCALS_CUCULIDAE,Common Cuckoo,,3,26.7206,56.4655,Europe,Latvia,LV,,Latvia - Preili,2013-05-09,
Motacilla flava,Animalia,PIPITS_EN_WAGTAILS_MOTACILLIDAE,Western Yellow Wagtail,,1,26.7206,56.4655,Europe,Latvia,LV,,Latvia - Preili,2013-05-09,
Saxicola rubetra,Animalia,OLD_WORLD_FLYCATCHERS_MUSCICAPIDAE,Whinchat,,2,26.7206,56.4655,Europe,Latvia,LV,,Latvia - Preili,2013-05-10,
Pandion haliaetus,Animalia,OSPREY_PANDIONIDAE,Western Osprey,,1,27.1652,56.5039,Europe,Latvia,LV,,Latvia - Rezekne,2013-05-11,
Haliaeetus albicilla,Animalia,HAWKS_AND_EAGLES_ACCIPITRIDAE,White-tailed Eagle,,1,27.1652,56.5039,Europe,Latvia,LV,,Latvia - Rezekne,2013-05-11,
Sus scrofa,Animalia,PIGS_SUIDAE,Wild Boar,,17,27.165193091988492,56.50393850000006,Europe,Latvia,LV,,Latvia - Rezekne,2013-05-11,04:06
Castor fiber,Animalia,BEAVERS_CASTORIDAE,Eurasian Beaver,,2,27.15,56.5,Europe,Latvia,LV,,Latvia - Rezekne,2013-05-10,19:36
Lanius collurio,Animalia,SHRIKES_LANIIDAE,Red-backed Shrike,,10,27.165193091988492,56.50393850000006,Europe,Latvia,LV,,Latvia - Rezekne,2013-05-10,21:43
Nucifraga caryocatactes,Animalia,CROWS_AND_JAYS_CORVIDAE,Spotted Nutcracker,,1,27.165193091988492,56.50393850000006,Europe,Latvia,LV,,Latvia - Rezekne,2013-05-11,21:43
Caprimulgus europaeus,Animalia,NIGHTJARS_CAPRIMULGIDAE,European Nightjar,,1,27.165193091988492,56.50393850000006,Europe,Latvia,LV,,Latvia - Rezekne,2013-05-14,21:43
Coracias garrulus,Animalia,ROLLERS_CORACIIDAE,European Roller,,2,24.593058885186153,57.6096905037,Europe,Latvia,LV,,Latvia - Limbaži,2013-05-15,09:01
Crex crex,Animalia,RAILS_RALLIDAE,Corn Crake,,1,26.7,56.45,Europe,Latvia,LV,,Latvia - Preili,2013-05-11,06:00
Circus pygargus,Animalia,HAWKS_AND_EAGLES_ACCIPITRIDAE,Montagu's Harrier,,1,27.165193091988492,56.50393850000006,Europe,Latvia,LV,,Latvia - Rezekne,2013-05-10,09:39
Corvus cornix,Animalia,CROWS_AND_JAYS_CORVIDAE,Hooded Crow,,1,27.165193091988492,56.50393850000006,Europe,Latvia,LV,,Latvia - Rezekne,2013-05-13,07:45
Dryobates minor,Animalia,WOODPECKERS_PICIDAE,Lesser Spotted Woodpecker,,1,27.165193091988492,56.50393850000006,Europe,Latvia,LV,,Latvia - Rezekne,2013-05-12,07:10
Lyrurus tetrix,Animalia,FRANCOLINS_QUAILS_PARTRIDGES_AND_PHEASANTS_PHASIANIDAE,Black Grouse,,3,27.15,56.5,Europe,Latvia,LV,,Latvia - Rezekne,2013-05-10,05:29
Oriolus oriolus,Animalia,ORIOLES_AND_FIG_BIRDS_ORIOLIDAE,Eurasian Golden Oriole,,1,27.165193091988492,56.50393850000006,Europe,Latvia,LV,,Latvia - Rezekne,2013-05-11,10:00
Corvus cornix,Animalia,CROWS_AND_JAYS_CORVIDAE,Hooded Crow,,2,24.1014995574951,56.9495010375977,Europe,Latvia,LV,,Latvia - Riga,2018-12-09,11:49
Corvus cornix,Animalia,CROWS_AND_JAYS_CORVIDAE,Hooded Crow,,1,21.0263271331787,56.5424270629883,Europe,Latvia,LV,,Latvia - Liepaja,2018-11-22,10:19
Dendrocopos major,Animalia,WOODPECKERS_PICIDAE,Great Spotted Woodpecker,,1,24.17564421,56.40328275,Europe,Latvia,LV,,Latvia - Bauska,2018-09-15,14:15
Regulus regulus,Animalia,KINGLETS_REGULIDAE,Goldcrest,,1,24.1033744812012,56.9743804931641,Europe,Latvia,LV,,Latvia - Riga,2018-09-17,09:04
Corvus cornix,Animalia,CROWS_AND_JAYS_CORVIDAE,Hooded Crow,,1,24.1060314178467,56.9649505615234,Europe,Latvia,LV,,Latvia - Riga,2018-09-16,09:13
Corvus cornix,Animalia,CROWS_AND_JAYS_CORVIDAE,Hooded Crow,,4,24.1135940551758,56.9504203796387,Europe,Latvia,LV,,Latvia - Riga,2018-09-16,10:49
Sturnus vulgaris,Animalia,STARLINGS_STURNIDAE,Common Starling,,2,24.1137104034424,56.9506034851074,Europe,Latvia,LV,,Latvia - Riga,2018-09-16,11:09
Corvus cornix,Animalia,CROWS_AND_JAYS_CORVIDAE,Hooded Crow,,2,24.1067314147949,56.948902130127,Europe,Latvia,LV,,Latvia - Riga,2018-09-16,13:03
Catocala fraxini,Animalia,EREBIDAE,Clifden Nonpareil,,1,21.0,56.15,Europe,Latvia,LV,,Latvia - Liepaja,2018-08-23,00:58
Polyommatus icarus,Animalia,GOSSAMERWINGED_BUTTERFLIES_LYCAENIDAE,Common Blue,,1,25.23901463,57.30733862,Europe,Latvia,LV,,Latvia - Gauja NP,2018-08-21,
Apatura iris,Animalia,BRUSHFOOTED_BUTTERFLIES_NYMPHALIDAE,Purple Emperor,,1,25.65,57.05,Europe,Latvia,LV,,Latvia - Cesis,2018-07-27,
Thalpophila matura,Animalia,Noctuidae,Straw Underwing,,1,21.0174999237061,56.166389465332,Europe,Latvia,LV,,Latvia - Liepaja,2018-08-14,21:58
Libellula quadrimaculata,Animalia,SKIMMERS_LIBELLULIDAE,Four-spotted Chaser,,1,25.7158265356214,57.7088149684087,Europe,Latvia,LV,,Latvia - Valka,2018-08-06,13:57
Sympetrum flaveolum,Animalia,SKIMMERS_LIBELLULIDAE,Yellow-winged Darter,,1,25.65,57.7,Europe,Latvia,LV,,Latvia - Valka,2018-08-06,12:33
Lanius collurio,Animalia,SHRIKES_LANIIDAE,Red-backed Shrike,,1,25.6693434342981,57.6979757426844,Europe,Latvia,LV,,Latvia - Valka,2018-08-06,12:27
Ciconia ciconia,Animalia,STORKS_CICONIIDAE,White Stork,,1,25.8224513009431,57.5625466090232,Europe,Latvia,LV,,Latvia - Valka,2018-08-06,11:58
Lycaena dispar,Animalia,GOSSAMERWINGED_BUTTERFLIES_LYCAENIDAE,Large Copper,,1,24.4,57.3,Europe,Latvia,LV,,Latvia - Riga,2018-06-18,10:51
Coenonympha arcania,Animalia,BRUSHFOOTED_BUTTERFLIES_NYMPHALIDAE,Pearly Heath,,1,24.4,57.3,Europe,Latvia,LV,,Latvia - Riga,2018-06-18,10:51
Boloria selene,Animalia,BRUSHFOOTED_BUTTERFLIES_NYMPHALIDAE,Small Pearl-bordered Fritillary,,4,24.4,57.35,Europe,Latvia,LV,,Latvia - Limbaži,2018-06-17,12:48
Motacilla alba,Animalia,PIPITS_EN_WAGTAILS_MOTACILLIDAE,White Wagtail,,1,23.456611773021,56.9030888099753,Europe,Latvia,LV,,Latvia - Kemeru NP,2018-08-05,17:01
Erebia aethiops,Animalia,BRUSHFOOTED_BUTTERFLIES_NYMPHALIDAE,Scotch Argus,,1,23.4,56.9,Europe,Latvia,LV,,Latvia - Kemeru NP,2018-08-05,13:15
Argynnis paphia,Animalia,BRUSHFOOTED_BUTTERFLIES_NYMPHALIDAE,Silver-washed Fritillary,,1,23.4579863213221,56.9451090926835,Europe,Latvia,LV,,Latvia - Kemeru NP,2018-08-05,12:57
Veronica longifolia,Plantae,PLANTAGINACEAE,Long-leaved Speedwell,,1,25.3565694485096,57.3582498729763,Europe,Latvia,LV,,Latvia - Gauja NP,2018-08-04,17:13
Corvus cornix,Animalia,CROWS_AND_JAYS_CORVIDAE,Hooded Crow,,1,24.3916859105457,57.2364225565058,Europe,Latvia,LV,,Latvia - Riga,2018-08-03,14:49
Mergus merganser,Animalia,DUCKS_GEESE_AND_SWANS_ANATIDAE,Common Merganser,,1,24.366986872651,57.5519338623225,Europe,Latvia,LV,,Latvia - Limbaži,2018-08-03,12:23
Calliteara pudibunda,Animalia,EREBIDAE,Pale Tussock,,1,25.479625,57.371945,Europe,Latvia,LV,,Latvia - Gauja NP,2018-07-25,17:42
Oxybasis glauca,Plantae,AMARANTHACEAE,Oak-leaved Goosefoot,,1,25.4797583333333,57.3718016666667,Europe,Latvia,LV,,Latvia - Gauja NP,2018-07-26,13:38
Galeopsis tetrahit,Plantae,Lamiaceae,Common Hemp-nettle,,1,25.480495,57.3723533333333,Europe,Latvia,LV,,Latvia - Gauja NP,2018-07-26,18:11
Cameraria ohridella,Animalia,Gracillariidae,Horse-chestnut leaf-miner,,501,25.47952,57.3718533333333,Europe,Latvia,LV,,Latvia - Gauja NP,2018-07-29,18:02
Parmelia sulcata,,Parmeliaceae,Net-marked Parmelia,,1,25.4797333333333,57.3717633333333,Europe,Latvia,LV,,Latvia - Gauja NP,2018-07-29,18:23
Evernia prunastri,,Parmeliaceae,Oakmoss lichen,,1,25.4797333333333,57.3717633333333,Europe,Latvia,LV,,Latvia - Gauja NP,2018-07-29,18:24
Xanthoria parietina,,TELOSCHISTACEAE,Common orange lichen,,1,25.4793716666667,57.3719183333333,Europe,Latvia,LV,,Latvia - Gauja NP,2018-07-29,18:36
Climacium dendroides,,CLIMACIACEAE,Northern tree moss,,1,25.48004,57.3727933333333,Europe,Latvia,LV,,Latvia - Gauja NP,2018-07-30,16:56
Arctium tomentosum,Plantae,Asteraceae,Woolly Burdock,,1,25.4796333333333,57.372315,Europe,Latvia,LV,,Latvia - Gauja NP,2018-07-30,17:18
Impatiens parviflora,Plantae,BALSAMINACEAE,Small Balsam,,1,25.271845,57.3139233333333,Europe,Latvia,LV,,Latvia - Gauja NP,2018-07-30,20:47
Spinulum annotinum,Plantae,LYCOPODIACEAE,Interrupted Clubmoss,,1,25.47,57.37,Europe,Latvia,LV,,Latvia - Gauja NP,2018-07-31,09:33
Chrysops caecutiens,Animalia,HORSE_FLIES_TABANIDAE,,,1,25.476115,57.37486667,Europe,Latvia,LV,,Latvia - Gauja NP,2018-07-31,09:43
Paris quadrifolia,Plantae,MELANTHIACEAE,Herb-Paris,,1,25.4769283333333,57.3745333333333,Europe,Latvia,LV,,Latvia - Gauja NP,2018-07-31,11:10
Papilio machaon,Animalia,SWALLOWTAILS_PAPILIONIDAE,Swallowtail,,1,25.4773133333333,57.3728983333333,Europe,Latvia,LV,,Latvia - Gauja NP,2018-07-31,15:35
Anthoxanthum aristatum,Plantae,Poaceae,Annual Vernal-grass,,1,25.4788266666667,57.3727766666667,Europe,Latvia,LV,,Latvia - Gauja NP,2018-07-31,16:48
Asarum europaeum,Plantae,ARISTOLOCHIACEAE,European Wild Ginger,,1,24.8395433333333,57.1604716666667,Europe,Latvia,LV,,Latvia - Gauja NP,2018-08-01,14:43
Cirsium oleraceum,Plantae,Asteraceae,Cabbage Thistle,,1,24.8413083333333,57.1603516666667,Europe,Latvia,LV,,Latvia - Gauja NP,2018-08-01,16:22
Roeseliana roeselii,Animalia,KATYDIDS_TETTIGONIIDAE,Roesel's Bush-cricket,,1,25.480205,57.3723366666667,Europe,Latvia,LV,,Latvia - Gauja NP,2018-08-01,20:09
Succisa pratensis,Plantae,CAPRIFOLIACEAE,Devil's-bit Scabious,,1,25.477115,57.37423,Europe,Latvia,LV,,Latvia - Gauja NP,2018-08-02,15:19
Rhytidiadelphus triquetrus,,HYLOCOMIACEAE,Electrified cat's-tail moss,,1,25.475015,57.374095,Europe,Latvia,LV,,Latvia - Gauja NP,2018-08-02,16:25
Gymnocarpium dryopteris,Plantae,CYSTOPTERIDACEAE,Oak Fern,,1,25.47527167,57.373885,Europe,Latvia,LV,,Latvia - Gauja NP,2018-08-02,16:48
Rubus saxatilis,Plantae,ROSACEAE,Stone Bramble,,1,25.47,57.37,Europe,Latvia,LV,,Latvia - Gauja NP,2018-08-02,17:37
Cirsium arvense,Plantae,Asteraceae,Creeping Thistle,,1,25.4753133333333,57.3734216666667,Europe,Latvia,LV,,Latvia - Gauja NP,2018-08-02,17:45
Cirsium oleraceum,Plantae,Asteraceae,Cabbage Thistle,,1,25.4800216666667,57.3721616666667,Europe,Latvia,LV,,Latvia - Gauja NP,2018-08-03,09:15
Tropaeolum majus,Plantae,TROPAEOLACEAE,Nasturtium,,1,25.4322883333333,57.5189933333333,Europe,Latvia,LV,,Latvia - Valmiera,2018-08-03,16:56
Atriplex prostrata,Plantae,AMARANTHACEAE,Spear-leaved Orache,,1,25.4324883333333,57.5190966666667,Europe,Latvia,LV,,Latvia - Valmiera,2018-08-03,17:10
Stachys palustris,Plantae,Lamiaceae,Marsh Woundwort,,1,25.4795066666667,57.37345,Europe,Latvia,LV,,Latvia - Gauja NP,2018-08-04,21:26
Coenonympha glycerion,Animalia,BRUSHFOOTED_BUTTERFLIES_NYMPHALIDAE,Chestnut Heath,,1,24.4,57.35,Europe,Latvia,LV,,Latvia - Limbaži,2018-06-17,12:41
Platanthera bifolia,Plantae,ORCHIDACEAE,Lesser Butterfly-orchid,,1,24.4,57.35,Europe,Latvia,LV,,Latvia - Limbaži,2018-06-17,12:35
Odezia atrata,Animalia,Geometridae,Chimney Sweeper,,5,24.40304518,57.36699888,Europe,Latvia,LV,,Latvia - Limbaži,2018-06-17,10:59
Polyommatus amandus,Animalia,GOSSAMERWINGED_BUTTERFLIES_LYCAENIDAE,Amanda's Blue,,1,24.40304518,57.36699888,Europe,Latvia,LV,,Latvia - Limbaži,2018-06-17,10:29
Maniola jurtina,Animalia,BRUSHFOOTED_BUTTERFLIES_NYMPHALIDAE,Meadow Brown,,1,24.40304518,57.36699888,Europe,Latvia,LV,,Latvia - Limbaži,2018-06-17,09:06
Ochlodes sylvanus,Animalia,SKIPPERS_HESPERIIDAE,Large Skipper,,1,24.40304518,57.36699888,Europe,Latvia,LV,,Latvia - Limbaži,2018-06-17,08:55
Abraxas sylvata,Animalia,Geometridae,Clouded Magpie,,1,24.40304518,57.36699888,Europe,Latvia,LV,,Latvia - Limbaži,2018-06-17,08:05
Brenthis ino,Animalia,BRUSHFOOTED_BUTTERFLIES_NYMPHALIDAE,Lesser Marbled Fritillary,,1,24.4,57.35,Europe,Latvia,LV,,Latvia - Limbaži,2018-06-17,08:00
Trifolium montanum,Plantae,Fabaceae,Mountain clover,,1,24.33621573,57.82551331,Europe,Latvia,LV,,Latvia - Limbaži,2018-08-02,20:14
Lanius collurio,Animalia,SHRIKES_LANIIDAE,Red-backed Shrike,,1,24.3373494688648,57.8303198330643,Europe,Latvia,LV,,Latvia - Limbaži,2018-08-02,19:31
Aglais io,Animalia,BRUSHFOOTED_BUTTERFLIES_NYMPHALIDAE,Peacock,,1,24.4302343670506,57.7575676376538,Europe,Latvia,LV,,Latvia - Limbaži,2018-08-01,17:23
Plebejus argus,Animalia,GOSSAMERWINGED_BUTTERFLIES_LYCAENIDAE,Silver-studded Blue,,1,24.6411047782978,57.7410933003367,Europe,Latvia,LV,,Latvia - Limbaži,2018-08-01,15:19
Thalasseus sandvicensis,Animalia,GULLS_TERNS_AND_SKIMMERS_LARIDAE,Sandwich Tern,,1,24.3366453889984,57.8304106509852,Europe,Latvia,LV,,Latvia - Limbaži,2018-08-01,10:57
Thymelicus sylvestris,Animalia,SKIPPERS_HESPERIIDAE,Small Skipper,,1,24.3382781837362,57.8306197794693,Europe,Latvia,LV,,Latvia - Limbaži,2018-08-01,10:52
Boloria selene,Animalia,BRUSHFOOTED_BUTTERFLIES_NYMPHALIDAE,Small Pearl-bordered Fritillary,,1,24.3,57.8,Europe,Latvia,LV,,Latvia - Limbaži,2018-08-01,10:50
Aglais io,Animalia,BRUSHFOOTED_BUTTERFLIES_NYMPHALIDAE,Peacock,,1,24.3443092145252,57.8338225884902,Europe,Latvia,LV,,Latvia - Limbaži,2018-08-01,10:35
Aglais io,Animalia,BRUSHFOOTED_BUTTERFLIES_NYMPHALIDAE,Peacock,,1,24.3499905376684,57.8428603174331,Europe,Latvia,LV,,Latvia - Limbaži,2018-07-31,15:38
Corvus cornix,Animalia,CROWS_AND_JAYS_CORVIDAE,Hooded Crow,,1,24.1069967,56.9515759,Europe,Latvia,LV,,Latvia - Riga,2018-06-29,15:57
Sturnus vulgaris,Animalia,STARLINGS_STURNIDAE,Common Starling,,1,24.1069967,56.9515759,Europe,Latvia,LV,,Latvia - Riga,2018-06-29,15:57
Lanius collurio,Animalia,SHRIKES_LANIIDAE,Red-backed Shrike,,1,23.887716941535473,56.965395687147975,Europe,Latvia,LV,,Latvia - Riga,2018-05-29,18:07
Corvus cornix,Animalia,CROWS_AND_JAYS_CORVIDAE,Hooded Crow,,20,24.102337919175625,56.957493061199784,Europe,Latvia,LV,,Latvia - Riga,2018-05-28,19:41
Corvus cornix,Animalia,CROWS_AND_JAYS_CORVIDAE,Hooded Crow,,1,24.101170571520925,56.957615772262216,Europe,Latvia,LV,,Latvia - Riga,2018-05-28,19:39
Corvus cornix,Animalia,CROWS_AND_JAYS_CORVIDAE,Hooded Crow,,20,24.11379992030561,56.96492487564683,Europe,Latvia,LV,,Latvia - Riga,2018-05-28,18:48
Sturnus vulgaris,Animalia,STARLINGS_STURNIDAE,Common Starling,,8,24.113817187026143,56.964657912030816,Europe,Latvia,LV,,Latvia - Riga,2018-05-28,18:45
Corvus cornix,Animalia,CROWS_AND_JAYS_CORVIDAE,Hooded Crow,,1,24.144898373633623,56.94470018148422,Europe,Latvia,LV,,Latvia - Riga,2018-05-28,15:48
Corvus cornix,Animalia,CROWS_AND_JAYS_CORVIDAE,Hooded Crow,,2,24.11365097388625,56.94419131614268,Europe,Latvia,LV,,Latvia - Riga,2018-05-28,13:40
Corvus cornix,Animalia,CROWS_AND_JAYS_CORVIDAE,Hooded Crow,,2,24.182357601821423,56.86444915831089,Europe,Latvia,LV,,Latvia - Riga,2018-05-28,13:21
Mergus merganser,Animalia,DUCKS_GEESE_AND_SWANS_ANATIDAE,Common Merganser,,1,24.35829162,57.633813,Europe,Latvia,LV,,Latvia - Limbaži,2018-06-06,13:20
Speyeria aglaja,Animalia,BRUSHFOOTED_BUTTERFLIES_NYMPHALIDAE,Dark Green Fritillary,,4,24.4047533333333,57.36709,Europe,Latvia,LV,,Latvia - Limbaži,2018-06-17,13:37
Corvus cornix,Animalia,CROWS_AND_JAYS_CORVIDAE,Hooded Crow,,1,24.08794858,56.94091642,Europe,Latvia,LV,,Latvia - Riga,2018-06-10,08:34
Sturnus vulgaris,Animalia,STARLINGS_STURNIDAE,Common Starling,,2,24.08840925,56.94099311,Europe,Latvia,LV,,Latvia - Riga,2018-06-10,08:34
Sturnus vulgaris,Animalia,STARLINGS_STURNIDAE,Common Starling,,6,24.08889794,56.93932083,Europe,Latvia,LV,,Latvia - Riga,2018-06-10,08:40
Sterna hirundo,Animalia,GULLS_TERNS_AND_SKIMMERS_LARIDAE,Common Tern,,1,24.08409856,56.9383059,Europe,Latvia,LV,,Latvia - Riga,2018-06-10,08:52
Corvus cornix,Animalia,CROWS_AND_JAYS_CORVIDAE,Hooded Crow,,1,24.08579716,56.93346839,Europe,Latvia,LV,,Latvia - Riga,2018-06-10,09:00
Corvus cornix,Animalia,CROWS_AND_JAYS_CORVIDAE,Hooded Crow,,4,24.08549025,56.93292291,Europe,Latvia,LV,,Latvia - Riga,2018-06-10,09:01
Corvus cornix,Animalia,CROWS_AND_JAYS_CORVIDAE,Hooded Crow,,2,24.08491421,56.93231118,Europe,Latvia,LV,,Latvia - Riga,2018-06-10,09:13
Sturnus vulgaris,Animalia,STARLINGS_STURNIDAE,Common Starling,,2,24.08491421,56.93231118,Europe,Latvia,LV,,Latvia - Riga,2018-06-10,09:13
Corvus cornix,Animalia,CROWS_AND_JAYS_CORVIDAE,Hooded Crow,,2,24.09694193,56.93876806,Europe,Latvia,LV,,Latvia - Riga,2018-06-10,09:25
Corvus cornix,Animalia,CROWS_AND_JAYS_CORVIDAE,Hooded Crow,,1,24.10719758,56.92660411,Europe,Latvia,LV,,Latvia - Riga,2018-06-10,09:49
Corvus cornix,Animalia,CROWS_AND_JAYS_CORVIDAE,Hooded Crow,,2,24.11085611,56.92752624,Europe,Latvia,LV,,Latvia - Riga,2018-06-10,09:53
Sturnus vulgaris,Animalia,STARLINGS_STURNIDAE,Common Starling,,3,24.11378508,56.92928261,Europe,Latvia,LV,,Latvia - Riga,2018-06-10,09:56
Sturnus vulgaris,Animalia,STARLINGS_STURNIDAE,Common Starling,,7,24.12022959,56.93332285,Europe,Latvia,LV,,Latvia - Riga,2018-06-10,10:10
Corvus cornix,Animalia,CROWS_AND_JAYS_CORVIDAE,Hooded Crow,,2,24.12418669,56.93785546,Europe,Latvia,LV,,Latvia - Riga,2018-06-10,10:18
Corvus cornix,Animalia,CROWS_AND_JAYS_CORVIDAE,Hooded Crow,,1,24.0848551,56.94430389,Europe,Latvia,LV,,Latvia - Riga,2018-06-09,22:11
Corvus cornix,Animalia,CROWS_AND_JAYS_CORVIDAE,Hooded Crow,,1,24.08592305,56.94638595,Europe,Latvia,LV,,Latvia - Riga,2018-06-09,22:16
Corvus cornix,Animalia,CROWS_AND_JAYS_CORVIDAE,Hooded Crow,,2,24.08793543,56.95026832,Europe,Latvia,LV,,Latvia - Riga,2018-06-09,22:39
Corvus cornix,Animalia,CROWS_AND_JAYS_CORVIDAE,Hooded Crow,,2,24.08949506,56.9418827,Europe,Latvia,LV,,Latvia - Riga,2018-06-09,22:00
Corvus cornix,Animalia,CROWS_AND_JAYS_CORVIDAE,Hooded Crow,,4,24.11605636,56.95364244,Europe,Latvia,LV,,Latvia - Riga,2018-06-09,17:49
Corvus cornix,Animalia,CROWS_AND_JAYS_CORVIDAE,Hooded Crow,,4,24.11679689,56.94403654,Europe,Latvia,LV,,Latvia - Riga,2018-06-09,20:09
Corvus cornix,Animalia,CROWS_AND_JAYS_CORVIDAE,Hooded Crow,,1,24.11705164,56.9430685,Europe,Latvia,LV,,Latvia - Riga,2018-06-09,20:12
Corvus cornix,Animalia,CROWS_AND_JAYS_CORVIDAE,Hooded Crow,,1,24.12165784,56.94399299,Europe,Latvia,LV,,Latvia - Riga,2018-06-09,20:54
Corvus cornix,Animalia,CROWS_AND_JAYS_CORVIDAE,Hooded Crow,,1,24.10933429,56.94949685,Europe,Latvia,LV,,Latvia - Riga,2018-06-09,15:54
Sturnus vulgaris,Animalia,STARLINGS_STURNIDAE,Common Starling,,2,24.11013148,56.95283938,Europe,Latvia,LV,,Latvia - Riga,2018-06-09,17:18
Corvus cornix,Animalia,CROWS_AND_JAYS_CORVIDAE,Hooded Crow,,1,24.11162631,56.95306724,Europe,Latvia,LV,,Latvia - Riga,2018-06-09,17:23
Sturnus vulgaris,Animalia,STARLINGS_STURNIDAE,Common Starling,,10,24.11240067,56.95171764,Europe,Latvia,LV,,Latvia - Riga,2018-06-09,17:27
Corvus cornix,Animalia,CROWS_AND_JAYS_CORVIDAE,Hooded Crow,,2,24.11231723,56.95160549,Europe,Latvia,LV,,Latvia - Riga,2018-06-09,17:27
Corvus cornix,Animalia,CROWS_AND_JAYS_CORVIDAE,Hooded Crow,,1,24.10587754,56.9494954,Europe,Latvia,LV,,Latvia - Riga,2018-06-09,13:03
Corvus cornix,Animalia,CROWS_AND_JAYS_CORVIDAE,Hooded Crow,,1,24.1065851,56.94790434,Europe,Latvia,LV,,Latvia - Riga,2018-06-09,13:17
Corvus cornix,Animalia,CROWS_AND_JAYS_CORVIDAE,Hooded Crow,,2,23.99067087,56.91753868,Europe,Latvia,LV,,Latvia - Riga,2018-06-09,11:27
Corvus cornix,Animalia,CROWS_AND_JAYS_CORVIDAE,Hooded Crow,,1,24.12523494,56.93838859,Europe,Latvia,LV,,Latvia - Riga,2018-06-09,11:47
Corvus cornix,Animalia,CROWS_AND_JAYS_CORVIDAE,Hooded Crow,,1,24.10580885,56.9460866,Europe,Latvia,LV,,Latvia - Riga,2018-06-09,12:00
Corvus cornix,Animalia,CROWS_AND_JAYS_CORVIDAE,Hooded Crow,,1,24.1872093198115,56.9522225417114,Europe,Latvia,LV,,Latvia - Riga,2018-06-05,17:08
Sturnus vulgaris,Animalia,STARLINGS_STURNIDAE,Common Starling,,4,24.04130243,56.92709256,Europe,Latvia,LV,,Latvia - Riga,2018-06-03,19:39
Corvus cornix,Animalia,CROWS_AND_JAYS_CORVIDAE,Hooded Crow,,1,24.05300557,56.9277091,Europe,Latvia,LV,,Latvia - Riga,2018-06-03,19:40
Corvus cornix,Animalia,CROWS_AND_JAYS_CORVIDAE,Hooded Crow,,1,24.05947897,56.92760348,Europe,Latvia,LV,,Latvia - Riga,2018-06-03,19:41
Emberiza schoeniclus,Animalia,BUNTINGS_EMBERIZIDAE,Common Reed Bunting,,1,23.4787,57.0021,Europe,Latvia,LV,,Latvia - Kemeru NP,2018-05-16,14:18
Cuculus canorus,Animalia,CUCKOOS_AND_COUCALS_CUCULIDAE,Common Cuckoo,,1,23.5142821,56.95334725,Europe,Latvia,LV,,Latvia - Kemeru NP,2018-05-03,11:04
Acrocephalus schoenobaenus,Animalia,Acrocephalidae,Sedge Warbler,,1,21.02590027,56.4944565,Europe,Latvia,LV,,Latvia - Liepaja,2018-05-03,07:41
Corvus cornix,Animalia,CROWS_AND_JAYS_CORVIDAE,Hooded Crow,,1,21.02626395,56.49445624,Europe,Latvia,LV,,Latvia - Liepaja,2018-05-03,07:43
Larus argentatus,Animalia,GULLS_TERNS_AND_SKIMMERS_LARIDAE,European Herring Gull,,1,21.03059623,56.49313394,Europe,Latvia,LV,,Latvia - Liepaja,2018-05-03,07:57
Haliaeetus albicilla,Animalia,HAWKS_AND_EAGLES_ACCIPITRIDAE,White-tailed Eagle,,8,22.59195957,57.75737495,Europe,Latvia,LV,,Latvia - Slitere NP,2018-05-01,11:22
Grus grus,Animalia,CRANES_GRUIDAE,Common Crane,,2,23.4073949977755,56.8252918999398,Europe,Latvia,LV,,Latvia - Kemeru NP,2018-05-01,20:51
Corvus cornix,Animalia,CROWS_AND_JAYS_CORVIDAE,Hooded Crow,,3,20.99986734,56.5575995,Europe,Latvia,LV,,Latvia - Liepaja,2018-04-29,08:14
Larus argentatus,Animalia,GULLS_TERNS_AND_SKIMMERS_LARIDAE,European Herring Gull,,16,20.99982308,56.55768332,Europe,Latvia,LV,,Latvia - Liepaja,2018-04-29,09:28
Haliaeetus albicilla,Animalia,HAWKS_AND_EAGLES_ACCIPITRIDAE,White-tailed Eagle,,1,22.59193107,57.75731198,Europe,Latvia,LV,,Latvia - Slitere NP,2018-04-30,10:34
Sturnus vulgaris,Animalia,STARLINGS_STURNIDAE,Common Starling,,2,24.10418987,56.95244031,Europe,Latvia,LV,,Latvia - Riga,2018-04-20,13:30
Corvus cornix,Animalia,CROWS_AND_JAYS_CORVIDAE,Hooded Crow,,4,24.1136763,56.9463135,Europe,Latvia,LV,,Latvia - Riga,2018-03-30,17:56
Corvus cornix,Animalia,CROWS_AND_JAYS_CORVIDAE,Hooded Crow,,1,23.9744916666667,56.9215183333333,Europe,Latvia,LV,,Latvia - Riga,2018-02-12,14:22
Buteo buteo,Animalia,HAWKS_AND_EAGLES_ACCIPITRIDAE,Common Buzzard,,2,23.96839142,56.92342077,Europe,Latvia,LV,,Latvia - Riga,2018-02-12,15:06
Corvus cornix,Animalia,CROWS_AND_JAYS_CORVIDAE,Hooded Crow,,3,27.0009774,56.1331275,Europe,Latvia,LV,,Latvia - Preili,2018-02-01,13:10
Corvus cornix,Animalia,CROWS_AND_JAYS_CORVIDAE,Hooded Crow,,7,24.21003647,56.89724858,Europe,Latvia,LV,,Latvia - Riga,2018-02-02,14:09
Corvus cornix,Animalia,CROWS_AND_JAYS_CORVIDAE,Hooded Crow,,2,24.19985491,56.90156452,Europe,Latvia,LV,,Latvia - Riga,2018-02-02,14:11
Corvus cornix,Animalia,CROWS_AND_JAYS_CORVIDAE,Hooded Crow,,1,24.19826213,56.90226175,Europe,Latvia,LV,,Latvia - Riga,2018-02-02,14:11
Corvus cornix,Animalia,CROWS_AND_JAYS_CORVIDAE,Hooded Crow,,2,24.19181909,56.90475864,Europe,Latvia,LV,,Latvia - Riga,2018-02-02,14:12
Corvus cornix,Animalia,CROWS_AND_JAYS_CORVIDAE,Hooded Crow,,2,24.17895564,56.91103703,Europe,Latvia,LV,,Latvia - Riga,2018-02-02,14:13
Corvus cornix,Animalia,CROWS_AND_JAYS_CORVIDAE,Hooded Crow,,4,24.17646399,56.91362642,Europe,Latvia,LV,,Latvia - Riga,2018-02-02,14:13
Corvus cornix,Animalia,CROWS_AND_JAYS_CORVIDAE,Hooded Crow,,2,24.17356484,56.91828099,Europe,Latvia,LV,,Latvia - Riga,2018-02-02,14:14
Corvus cornix,Animalia,CROWS_AND_JAYS_CORVIDAE,Hooded Crow,,1,24.17079734,56.92205581,Europe,Latvia,LV,,Latvia - Riga,2018-02-02,14:15
Corvus cornix,Animalia,CROWS_AND_JAYS_CORVIDAE,Hooded Crow,,1,24.14631017,56.93292433,Europe,Latvia,LV,,Latvia - Riga,2018-02-02,14:17
Corvus cornix,Animalia,CROWS_AND_JAYS_CORVIDAE,Hooded Crow,,1,24.13714635,56.93541535,Europe,Latvia,LV,,Latvia - Riga,2018-02-02,14:18
Corvus cornix,Animalia,CROWS_AND_JAYS_CORVIDAE,Hooded Crow,,2,24.12069849,56.94118962,Europe,Latvia,LV,,Latvia - Riga,2018-02-02,14:20
Corvus cornix,Animalia,CROWS_AND_JAYS_CORVIDAE,Hooded Crow,,1,24.11872108,56.94607828,Europe,Latvia,LV,,Latvia - Riga,2018-02-02,14:22
Corvus cornix,Animalia,CROWS_AND_JAYS_CORVIDAE,Hooded Crow,,1,24.11969203,56.9488314,Europe,Latvia,LV,,Latvia - Riga,2018-02-02,14:52
Corvus cornix,Animalia,CROWS_AND_JAYS_CORVIDAE,Hooded Crow,,1,24.11829167,56.95192318,Europe,Latvia,LV,,Latvia - Riga,2018-02-02,14:59
Corvus cornix,Animalia,CROWS_AND_JAYS_CORVIDAE,Hooded Crow,,1,24.11884642,56.953529,Europe,Latvia,LV,,Latvia - Riga,2018-02-02,15:02
Corvus cornix,Animalia,CROWS_AND_JAYS_CORVIDAE,Hooded Crow,,3,24.11605744,56.95369442,Europe,Latvia,LV,,Latvia - Riga,2018-02-02,15:09
Corvus cornix,Animalia,CROWS_AND_JAYS_CORVIDAE,Hooded Crow,,2,24.11411084,56.95412663,Europe,Latvia,LV,,Latvia - Riga,2018-02-02,15:22
Corvus cornix,Animalia,CROWS_AND_JAYS_CORVIDAE,Hooded Crow,,3,24.1146836,56.95493101,Europe,Latvia,LV,,Latvia - Riga,2018-02-02,15:24
Corvus cornix,Animalia,CROWS_AND_JAYS_CORVIDAE,Hooded Crow,,3,24.10949077,56.95524468,Europe,Latvia,LV,,Latvia - Riga,2018-02-02,15:48
Corvus cornix,Animalia,CROWS_AND_JAYS_CORVIDAE,Hooded Crow,,4,24.10595436,56.95376937,Europe,Latvia,LV,,Latvia - Riga,2018-02-02,15:54
Corvus cornix,Animalia,CROWS_AND_JAYS_CORVIDAE,Hooded Crow,,2,24.10421749,56.95091829,Europe,Latvia,LV,,Latvia - Riga,2018-02-02,16:06
Corvus cornix,Animalia,CROWS_AND_JAYS_CORVIDAE,Hooded Crow,,5,27.00592214,56.13051909,Europe,Latvia,LV,,Latvia - Preili,2018-02-01,12:02
Corvus cornix,Animalia,CROWS_AND_JAYS_CORVIDAE,Hooded Crow,,20,26.6065327450633,55.896372535953,Europe,Latvia,LV,,Latvia - Daugavpils,2018-02-01,14:31
Corvus cornix,Animalia,CROWS_AND_JAYS_CORVIDAE,Hooded Crow,,2,26.51603808,55.8893173,Europe,Latvia,LV,,Latvia - Daugavpils,2018-02-01,14:43
Corvus cornix,Animalia,CROWS_AND_JAYS_CORVIDAE,Hooded Crow,,3,26.50708063,55.88483595,Europe,Latvia,LV,,Latvia - Daugavpils,2018-02-01,14:43
Corvus cornix,Animalia,CROWS_AND_JAYS_CORVIDAE,Hooded Crow,,6,26.51034176,55.87628308,Europe,Latvia,LV,,Latvia - Daugavpils,2018-02-01,14:45
Passer montanus,Animalia,OLD_WORLD_SPARROWS_PASSERIDAE,Eurasian Tree Sparrow,,9,26.51007682,55.8738881,Europe,Latvia,LV,,Latvia - Daugavpils,2018-02-01,14:53
Corvus cornix,Animalia,CROWS_AND_JAYS_CORVIDAE,Hooded Crow,,6,27.01679691,56.12724832,Europe,Latvia,LV,,Latvia - Preili,2018-02-01,10:56
Poecile montanus,Animalia,TITS_PARIDAE,Willow Tit,,2,26.78912937,55.70166127,Europe,Latvia,LV,,Latvia - Daugavpils,2018-01-31,08:58
Certhia familiaris,Animalia,TREECREEPERS_CERTHIIDAE,Eurasian Treecreeper,,1,26.5103952,55.86930303,Europe,Latvia,LV,,Latvia - Daugavpils,2018-01-31,15:01
Corvus cornix,Animalia,CROWS_AND_JAYS_CORVIDAE,Hooded Crow,,1,26.53892353,55.85727519,Europe,Latvia,LV,,Latvia - Daugavpils,2018-01-30,09:52
Alces alces,Animalia,DEER_CERVIDAE,Elk,,2,27.65505792,56.03061572,Europe,Latvia,LV,,Latvia - Kraslava,2018-01-30,15:33
Poecile palustris,Animalia,TITS_PARIDAE,Marsh Tit,,3,26.78327641,55.69096902,Europe,Latvia,LV,,Latvia - Daugavpils,2018-01-29,10:40
Dendrocoptes medius,Animalia,WOODPECKERS_PICIDAE,Middle Spotted Woodpecker,,1,26.78352993,55.69104907,Europe,Latvia,LV,,Latvia - Daugavpils,2018-01-29,10:43
Poecile montanus,Animalia,TITS_PARIDAE,Willow Tit,,1,26.78316638,55.69071824,Europe,Latvia,LV,,Latvia - Daugavpils,2018-01-29,10:42
Poecile montanus,Animalia,TITS_PARIDAE,Willow Tit,,1,26.78866299,55.69322926,Europe,Latvia,LV,,Latvia - Daugavpils,2018-01-29,10:57
Corvus cornix,Animalia,CROWS_AND_JAYS_CORVIDAE,Hooded Crow,,2,26.60357463,55.83462547,Europe,Latvia,LV,,Latvia - Daugavpils,2018-01-29,11:36
Corvus cornix,Animalia,CROWS_AND_JAYS_CORVIDAE,Hooded Crow,,7,26.54230147,55.85648692,Europe,Latvia,LV,,Latvia - Daugavpils,2018-01-29,11:39
Corvus cornix,Animalia,CROWS_AND_JAYS_CORVIDAE,Hooded Crow,,3,26.53065476,55.85897677,Europe,Latvia,LV,,Latvia - Daugavpils,2018-01-29,11:40
Corvus cornix,Animalia,CROWS_AND_JAYS_CORVIDAE,Hooded Crow,,8,26.52193336,55.86084629,Europe,Latvia,LV,,Latvia - Daugavpils,2018-01-29,11:40
Corvus cornix,Animalia,CROWS_AND_JAYS_CORVIDAE,Hooded Crow,,3,26.51227568,55.8659703,Europe,Latvia,LV,,Latvia - Daugavpils,2018-01-29,11:42
Corvus cornix,Animalia,CROWS_AND_JAYS_CORVIDAE,Hooded Crow,,1,26.51627457,55.86976722,Europe,Latvia,LV,,Latvia - Daugavpils,2018-01-29,11:44
Corvus cornix,Animalia,CROWS_AND_JAYS_CORVIDAE,Hooded Crow,,3,26.51703058,55.87156553,Europe,Latvia,LV,,Latvia - Daugavpils,2018-01-29,11:45
Passer montanus,Animalia,OLD_WORLD_SPARROWS_PASSERIDAE,Eurasian Tree Sparrow,,2,26.51440859,55.87062485,Europe,Latvia,LV,,Latvia - Daugavpils,2018-01-29,12:53
Corvus cornix,Animalia,CROWS_AND_JAYS_CORVIDAE,Hooded Crow,,3,26.50195348,55.8788994,Europe,Latvia,LV,,Latvia - Daugavpils,2018-01-29,13:58
Corvus cornix,Animalia,CROWS_AND_JAYS_CORVIDAE,Hooded Crow,,1,26.50150515,55.87989574,Europe,Latvia,LV,,Latvia - Daugavpils,2018-01-29,13:58
Corvus cornix,Animalia,CROWS_AND_JAYS_CORVIDAE,Hooded Crow,,2,26.49572139,55.88231365,Europe,Latvia,LV,,Latvia - Daugavpils,2018-01-29,13:59
Corvus cornix,Animalia,CROWS_AND_JAYS_CORVIDAE,Hooded Crow,,3,26.4174077,55.93456879,Europe,Latvia,LV,,Latvia - Daugavpils,2018-01-29,14:12
Castor fiber,Animalia,BEAVERS_CASTORIDAE,Eurasian Beaver,,1,26.3,55.85,Europe,Latvia,LV,,Latvia - Daugavpils,2018-01-29,15:36
Passer montanus,Animalia,OLD_WORLD_SPARROWS_PASSERIDAE,Eurasian Tree Sparrow,,1,26.51040207,55.86992753,Europe,Latvia,LV,,Latvia - Daugavpils,2018-01-29,16:52
Corvus cornix,Animalia,CROWS_AND_JAYS_CORVIDAE,Hooded Crow,,50,26.51220502,55.87024811,Europe,Latvia,LV,,Latvia - Daugavpils,2018-01-29,16:55
Phalacrocorax carbo,Animalia,CORMORANTS_PHALACROCORACIDAE,Great Cormorant,,1,25.00946947,57.30048986,Europe,Latvia,LV,,Latvia - Gauja NP,2013-07-26,
Ciconia ciconia,Animalia,STORKS_CICONIIDAE,White Stork,,1,25.54324005,57.31433104,Europe,Latvia,LV,,Latvia - Gauja NP,2013-07-26,
Ciconia ciconia,Animalia,STORKS_CICONIIDAE,White Stork,,3,24.02474613,56.4130898,Europe,Latvia,LV,,Latvia - Bauska,2013-07-23,
Buteo buteo,Animalia,HAWKS_AND_EAGLES_ACCIPITRIDAE,Common Buzzard,,1,23.8014915,58.87748719,Europe,Latvia,LV,,Latvia - Limbaži,2017-10-04,
Corvus corax,Animalia,CROWS_AND_JAYS_CORVIDAE,Northern Raven,,1,23.79428172,58.84828383,Europe,Latvia,LV,,Latvia - Limbaži,2017-10-04,
Corvus cornix,Animalia,CROWS_AND_JAYS_CORVIDAE,Hooded Crow,,2,24.16335368,56.87832265,Europe,Latvia,LV,,Latvia - Riga,2017-10-08,
Sympecma paedisca,Animalia,SPREADWINGS_LESTIDAE,Siberian Winter Damsel,,1,21.0294,56.1521,Europe,Latvia,LV,,Latvia - Liepaja,2017-08-22,15:21
Boloria dia,Animalia,BRUSHFOOTED_BUTTERFLIES_NYMPHALIDAE,Violet Fritillary,,1,21.0241,56.1552,Europe,Latvia,LV,,Latvia - Liepaja,2017-08-22,13:37
Anchusa officinalis,Plantae,BORAGINACEAE,Alkanet,,1,21.0233,56.155,Europe,Latvia,LV,,Latvia - Liepaja,2017-08-22,13:31
Aeshna mixta,Animalia,DARNERS_AESHNIDAE,Migrant Hawker,,1,21.0173,56.1643,Europe,Latvia,LV,,Latvia - Liepaja,2017-08-22,12:10
Boloria dia,Animalia,BRUSHFOOTED_BUTTERFLIES_NYMPHALIDAE,Violet Fritillary,,1,21.0184,56.1644,Europe,Latvia,LV,,Latvia - Liepaja,2017-08-22,12:03
Eupithecia icterata,Animalia,Geometridae,Tawny Speckled Pug,,1,21.0208,56.1631,Europe,Latvia,LV,,Latvia - Liepaja,2017-08-22,11:42
Oedipoda caerulescens,Animalia,SHORTHORNED_GRASSHOPPERS_ACRIDIDAE,Blue Winged Grasshopper,,1,21.0188,56.164,Europe,Latvia,LV,,Latvia - Liepaja,2017-08-22,08:21
Hipparchia semele,Animalia,BRUSHFOOTED_BUTTERFLIES_NYMPHALIDAE,Grayling,,1,21.0176,56.1642,Europe,Latvia,LV,,Latvia - Liepaja,2017-08-22,08:18
Lycaena tityrus,Animalia,GOSSAMERWINGED_BUTTERFLIES_LYCAENIDAE,Sooty Copper,,1,21.7,57.55,Europe,Latvia,LV,,Latvia - Ventspils,2017-08-21,15:29
Lycaena virgaureae,Animalia,GOSSAMERWINGED_BUTTERFLIES_LYCAENIDAE,Scarce Copper,,1,21.7,57.55,Europe,Latvia,LV,,Latvia - Ventspils,2017-08-21,15:27
Lycaena phlaeas,Animalia,GOSSAMERWINGED_BUTTERFLIES_LYCAENIDAE,Small Copper,,1,21.7186,57.5695,Europe,Latvia,LV,,Latvia - Ventspils,2017-08-21,15:26
Aeshna cyanea,Animalia,DARNERS_AESHNIDAE,Southern Hawker,,1,21.7186,57.5696,Europe,Latvia,LV,,Latvia - Ventspils,2017-08-21,15:21
Hipparchia semele,Animalia,BRUSHFOOTED_BUTTERFLIES_NYMPHALIDAE,Grayling,,1,21.7186,57.5696,Europe,Latvia,LV,,Latvia - Ventspils,2017-08-21,15:21
Maniola jurtina,Animalia,BRUSHFOOTED_BUTTERFLIES_NYMPHALIDAE,Meadow Brown,,1,21.7185,57.5696,Europe,Latvia,LV,,Latvia - Ventspils,2017-08-21,15:18
Sympetrum sanguineum,Animalia,SKIMMERS_LIBELLULIDAE,Ruddy Darter,,1,21.7171,57.5689,Europe,Latvia,LV,,Latvia - Ventspils,2017-08-21,15:08
Sphinx pinastri,Animalia,Sphingidae,Pine Hawk-moth,,1,21.7185,57.5695,Europe,Latvia,LV,,Latvia - Ventspils,2017-08-21,14:53
Maianthemum bifolium,Plantae,ASPARAGACEAE,May Lily,,1,22.6008,57.7569,Europe,Latvia,LV,,Latvia - Slitere NP,2017-08-21,12:59
Lasiommata megera,Animalia,BRUSHFOOTED_BUTTERFLIES_NYMPHALIDAE,Wall Brown,,1,23.1229,57.3652,Europe,Latvia,LV,,Latvia - Talsi,2017-08-21,10:55
Larus argentatus,Animalia,GULLS_TERNS_AND_SKIMMERS_LARIDAE,European Herring Gull,,1,23.1322,57.3569,Europe,Latvia,LV,,Latvia - Talsi,2017-08-21,09:18
Xanthorhoe fluctuata,Animalia,Geometridae,Garden Carpet,,1,23.1294,57.3573,Europe,Latvia,LV,,Latvia - Talsi,2017-08-20,19:58
Hirundo rustica,Animalia,SWALLOWS_HIRUNDINIDAE,Barn Swallow,,1,23.1298,57.357,Europe,Latvia,LV,,Latvia - Talsi,2017-08-20,18:34
Hirundo rustica,Animalia,SWALLOWS_HIRUNDINIDAE,Barn Swallow,,1,23.0357,57.2725,Europe,Latvia,LV,,Latvia - Talsi,2017-08-20,18:01
Corvus cornix,Animalia,CROWS_AND_JAYS_CORVIDAE,Hooded Crow,,1,24.0235,56.9291,Europe,Latvia,LV,,Latvia - Riga,2017-08-20,16:16
Sturnus vulgaris,Animalia,STARLINGS_STURNIDAE,Common Starling,,1,24.1863,56.9509,Europe,Latvia,LV,,Latvia - Riga,2017-08-20,15:40
Argynnis paphia,Animalia,BRUSHFOOTED_BUTTERFLIES_NYMPHALIDAE,Silver-washed Fritillary,,1,25.0889,57.3624,Europe,Latvia,LV,,Latvia - Gauja NP,2017-08-12,12:37
Hepatica nobilis,Plantae,RANUNCULACEAE,Liverleaf,,1,25.18,57.2759,Europe,Latvia,LV,,Latvia - Gauja NP,2017-08-11,16:48
Sympetrum vulgatum,Animalia,SKIMMERS_LIBELLULIDAE,Moustached Darter,,1,25.1816,57.2767,Europe,Latvia,LV,,Latvia - Gauja NP,2017-08-11,16:39
Lycaena phlaeas,Animalia,GOSSAMERWINGED_BUTTERFLIES_LYCAENIDAE,Small Copper,,1,25.1807,57.2779,Europe,Latvia,LV,,Latvia - Gauja NP,2017-08-11,16:31
Speyeria aglaja,Animalia,BRUSHFOOTED_BUTTERFLIES_NYMPHALIDAE,Dark Green Fritillary,,1,25.1807,57.2782,Europe,Latvia,LV,,Latvia - Gauja NP,2017-08-11,16:28
Pieris napi,Animalia,WHITES_PIERIDAE,Green-veined White,,1,25.1755,57.2817,Europe,Latvia,LV,,Latvia - Gauja NP,2017-08-11,16:20
Melampyrum pratense,Plantae,OROBANCHACEAE,Common Cow-wheat,,1,25.1918,57.2901,Europe,Latvia,LV,,Latvia - Gauja NP,2017-08-11,15:48
Spinulum annotinum,Plantae,LYCOPODIACEAE,Interrupted Clubmoss,,1,25.18,57.29,Europe,Latvia,LV,,Latvia - Gauja NP,2017-08-11,15:39
Sympetrum sanguineum,Animalia,SKIMMERS_LIBELLULIDAE,Ruddy Darter,,1,25.1825,57.2933,Europe,Latvia,LV,,Latvia - Gauja NP,2017-08-11,15:36
Limenitis camilla,Animalia,BRUSHFOOTED_BUTTERFLIES_NYMPHALIDAE,White Admiral,,1,25.1766,57.2991,Europe,Latvia,LV,,Latvia - Gauja NP,2017-08-11,15:25
Argynnis paphia,Animalia,BRUSHFOOTED_BUTTERFLIES_NYMPHALIDAE,Silver-washed Fritillary,,1,25.1763,57.3,Europe,Latvia,LV,,Latvia - Gauja NP,2017-08-11,15:20
Aeshna cyanea,Animalia,DARNERS_AESHNIDAE,Southern Hawker,,1,25.1698,57.304,Europe,Latvia,LV,,Latvia - Gauja NP,2017-08-11,15:03
Pieris napi,Animalia,WHITES_PIERIDAE,Green-veined White,,1,25.1485,57.3152,Europe,Latvia,LV,,Latvia - Gauja NP,2017-08-11,14:28
Scoliopteryx libatrix,Animalia,EREBIDAE,Herald,,1,24.2045,56.813,Europe,Latvia,LV,,Latvia - Riga,2017-08-11,09:42
Corvus cornix,Animalia,CROWS_AND_JAYS_CORVIDAE,Hooded Crow,,1,24.14,56.8945,Europe,Latvia,LV,,Latvia - Riga,2017-08-10,19:46
Sturnus vulgaris,Animalia,STARLINGS_STURNIDAE,Common Starling,,1,24.114,56.9533,Europe,Latvia,LV,,Latvia - Riga,2017-08-10,17:11
Corvus cornix,Animalia,CROWS_AND_JAYS_CORVIDAE,Hooded Crow,,1,24.1129,56.9547,Europe,Latvia,LV,,Latvia - Riga,2017-08-10,17:01
Corvus cornix,Animalia,CROWS_AND_JAYS_CORVIDAE,Hooded Crow,,1,24.1129,56.9427,Europe,Latvia,LV,,Latvia - Riga,2017-08-10,11:48
Sturnus vulgaris,Animalia,STARLINGS_STURNIDAE,Common Starling,,1,24.1138,56.9429,Europe,Latvia,LV,,Latvia - Riga,2017-08-10,11:30
Lasiommata megera,Animalia,BRUSHFOOTED_BUTTERFLIES_NYMPHALIDAE,Wall Brown,,1,24.0302,56.4161,Europe,Latvia,LV,,Latvia - Bauska,2017-08-09,12:02
Sympetrum vulgatum,Animalia,SKIMMERS_LIBELLULIDAE,Moustached Darter,,1,24.0302,56.4161,Europe,Latvia,LV,,Latvia - Bauska,2017-08-09,12:01
Agrypnia spec.,Animalia,PHRYGANEIDAE,,,1,23.4113,56.4974,Europe,Latvia,LV,,Latvia - Dobele,2017-08-09,10:17
Glyphotaelius pellucidus,Animalia,LIMNEPHILIDAE,Mottled sedge,,1,23.4112,56.4968,Europe,Latvia,LV,,Latvia - Dobele,2017-08-08,23:02
Limnephilus spec.,Animalia,LIMNEPHILIDAE,,,1,23.4112,56.497,Europe,Latvia,LV,,Latvia - Dobele,2017-08-08,22:51
Limnephilus marmoratus,Animalia,LIMNEPHILIDAE,,,1,23.4111,56.497,Europe,Latvia,LV,,Latvia - Dobele,2017-08-08,22:51
Stictoleptura rubra,Animalia,Cerambycidae,,,1,23.3698,56.4937,Europe,Latvia,LV,,Latvia - Dobele,2017-08-08,14:06
Neottia nidus-avis,Plantae,ORCHIDACEAE,Bird's-nest Orchid,,1,23.35,56.45,Europe,Latvia,LV,,Latvia - Dobele,2017-08-08,11:18
Melampyrum nemorosum,Plantae,OROBANCHACEAE,Wood Cow-wheat,,1,23.3703,56.487,Europe,Latvia,LV,,Latvia - Dobele,2017-08-08,09:23
Bombus spec.,Animalia,Apidae,Bumblebee unknown,,1,23.3687,56.485,Europe,Latvia,LV,,Latvia - Dobele,2017-08-08,08:54
Passer montanus,Animalia,OLD_WORLD_SPARROWS_PASSERIDAE,Eurasian Tree Sparrow,,2,23.50701593,56.52849204,Europe,Latvia,LV,,Latvia - Jelgava,2017-08-10,
Muscicapa striata,Animalia,OLD_WORLD_FLYCATCHERS_MUSCICAPIDAE,Spotted Flycatcher,,5,23.50701593,56.52849204,Europe,Latvia,LV,,Latvia - Jelgava,2017-08-10,
Dendrocoptes medius,Animalia,WOODPECKERS_PICIDAE,Middle Spotted Woodpecker,,2,24.85961902,57.177467,Europe,Latvia,LV,,Latvia - Gauja NP,2017-07-19,11:36
Dendrocoptes medius,Animalia,WOODPECKERS_PICIDAE,Middle Spotted Woodpecker,,2,24.8570622,57.172148,Europe,Latvia,LV,,Latvia - Gauja NP,2017-07-19,12:26
Passer montanus,Animalia,OLD_WORLD_SPARROWS_PASSERIDAE,Eurasian Tree Sparrow,,1,27.3413094890724,56.5007310064675,Europe,Latvia,LV,,Latvia - Rezekne,2017-08-05,11:31
Mergus merganser,Animalia,DUCKS_GEESE_AND_SWANS_ANATIDAE,Common Merganser,,28,27.4476599497398,56.2888894750182,Europe,Latvia,LV,,Latvia - Rāzna NP,2017-08-04,13:06
Lanius collurio,Animalia,SHRIKES_LANIIDAE,Red-backed Shrike,,1,27.3906190798317,56.2416589589676,Europe,Latvia,LV,,Latvia - Rezekne,2017-08-04,14:58
Larus argentatus,Animalia,GULLS_TERNS_AND_SKIMMERS_LARIDAE,European Herring Gull,,1,21.0063502,56.5070038,Europe,Latvia,LV,,Latvia - Liepaja,2017-07-23,19:41
Corvus cornix,Animalia,CROWS_AND_JAYS_CORVIDAE,Hooded Crow,,1,20.9940623466749,56.5103590062761,Europe,Latvia,LV,,Latvia - Liepaja,2017-07-24,13:33
Hirundo rustica,Animalia,SWALLOWS_HIRUNDINIDAE,Barn Swallow,,12,20.9951331119788,56.5078758633279,Europe,Latvia,LV,,Latvia - Liepaja,2017-07-24,16:05
Anchusa officinalis,Plantae,BORAGINACEAE,Alkanet,,1,24.00084279,56.93305746,Europe,Latvia,LV,,Latvia - Riga,2017-06-26,12:37
Clinopodium acinos,Plantae,Lamiaceae,Basil Thyme,,1,24.00084279,56.93305746,Europe,Latvia,LV,,Latvia - Riga,2017-06-26,12:37
Medicago falcata,Plantae,Fabaceae,Sickle Medick,,1,24.00084279,56.93305746,Europe,Latvia,LV,,Latvia - Riga,2017-06-26,12:36
Trifolium medium,Plantae,Fabaceae,Zigzag Clover,,1,23.98555404,56.96917592,Europe,Latvia,LV,,Latvia - Riga,2017-06-26,10:51
Vanessa atalanta,Animalia,BRUSHFOOTED_BUTTERFLIES_NYMPHALIDAE,Red Admiral,,1,23.98555404,56.96917592,Europe,Latvia,LV,,Latvia - Riga,2017-06-26,10:46
Coenonympha tullia,Animalia,BRUSHFOOTED_BUTTERFLIES_NYMPHALIDAE,Large Heath,,3,23.95,56.95,Europe,Latvia,LV,,Latvia - Riga,2017-06-26,10:41
Erigeron acris,Plantae,Asteraceae,Blue Fleabane,,1,23.98183867,56.97010545,Europe,Latvia,LV,,Latvia - Riga,2017-06-26,10:31
Alchemilla spec.,Plantae,ROSACEAE,,,1,23.98183867,56.97010545,Europe,Latvia,LV,,Latvia - Riga,2017-06-26,10:26
Campanula spec.,Plantae,CAMPANULACEAE,,,1,23.98183867,56.97010545,Europe,Latvia,LV,,Latvia - Riga,2017-06-26,10:21
Rumex confertus,Plantae,POLYGONACEAE,Russian Dock,,1,23.98550123,56.96926296,Europe,Latvia,LV,,Latvia - Riga,2017-06-26,10:02
Melampyrum pratense,Plantae,OROBANCHACEAE,Common Cow-wheat,,1,23.98841947,56.96664289,Europe,Latvia,LV,,Latvia - Riga,2017-06-26,09:21
Chelidonium majus,Plantae,PAPAVERACEAE,Greater Celandine,,1,23.98893446,56.96355471,Europe,Latvia,LV,,Latvia - Riga,2017-06-26,08:58
Silene nutans,Plantae,CARYOPHYLLACEAE,Nottingham Catchfly,,1,23.98893446,56.96355471,Europe,Latvia,LV,,Latvia - Riga,2017-06-26,08:58
Nehalennia speciosa,Animalia,POND_DAMSELS_COENAGRIONIDAE,Sedgling,,101,23.8,58.55,Europe,Latvia,LV,,Latvia - Cesis,2017-06-21,
Sturnus vulgaris,Animalia,STARLINGS_STURNIDAE,Common Starling,,2,24.10433585,56.95289147,Europe,Latvia,LV,,Latvia - Riga,2017-06-12,13:18
Corvus cornix,Animalia,CROWS_AND_JAYS_CORVIDAE,Hooded Crow,,1,24.10180515,56.95073742,Europe,Latvia,LV,,Latvia - Riga,2017-06-12,18:23
Motacilla alba,Animalia,PIPITS_EN_WAGTAILS_MOTACILLIDAE,White Wagtail,,1,23.47144078463316,57.00071451254189,Europe,Latvia,LV,,Latvia - Kemeru NP,2017-06-12,10:28
Emberiza schoeniclus,Animalia,BUNTINGS_EMBERIZIDAE,Common Reed Bunting,,1,23.470993610098958,57.000632621347904,Europe,Latvia,LV,,Latvia - Kemeru NP,2017-06-12,09:49
Acrocephalus arundinaceus,Animalia,Acrocephalidae,Great Reed Warbler,,1,23.47103032283485,57.00065382756293,Europe,Latvia,LV,,Latvia - Kemeru NP,2017-06-12,09:46
Anas platyrhynchos,Animalia,DUCKS_GEESE_AND_SWANS_ANATIDAE,Mallard,,1,23.481432432308793,56.99976459145546,Europe,Latvia,LV,,Latvia - Kemeru NP,2017-06-12,09:21
Cuculus canorus,Animalia,CUCKOOS_AND_COUCALS_CUCULIDAE,Common Cuckoo,,1,23.525556111708283,56.89726137556136,Europe,Latvia,LV,,Latvia - Kemeru NP,2017-06-11,15:56
Grus grus,Animalia,CRANES_GRUIDAE,Common Crane,,1,23.377794222906232,56.8689642380923,Europe,Latvia,LV,,Latvia - Kemeru NP,2017-06-11,12:15
Motacilla alba,Animalia,PIPITS_EN_WAGTAILS_MOTACILLIDAE,White Wagtail,,1,23.460292015224695,56.904516415670514,Europe,Latvia,LV,,Latvia - Kemeru NP,2017-06-11,09:24
Cuculus canorus,Animalia,CUCKOOS_AND_COUCALS_CUCULIDAE,Common Cuckoo,,1,23.458555452525616,56.90786289051175,Europe,Latvia,LV,,Latvia - Kemeru NP,2017-06-11,09:11
Tetrastes bonasia,Animalia,FRANCOLINS_QUAILS_PARTRIDGES_AND_PHEASANTS_PHASIANIDAE,Hazel Grouse,,1,23.4,56.95,Europe,Latvia,LV,,Latvia - Kemeru NP,2017-06-10,16:42
Cuculus canorus,Animalia,CUCKOOS_AND_COUCALS_CUCULIDAE,Common Cuckoo,,1,23.47501809708774,56.96660444140434,Europe,Latvia,LV,,Latvia - Kemeru NP,2017-06-10,15:21
Cuculus canorus,Animalia,CUCKOOS_AND_COUCALS_CUCULIDAE,Common Cuckoo,,1,23.519727922976017,56.942800004035234,Europe,Latvia,LV,,Latvia - Kemeru NP,2017-06-10,13:34
Carpodacus erythrinus,Animalia,FINCHES_FRINGILLIDAE,Common Rosefinch,,1,23.47095312550664,57.00062080286443,Europe,Latvia,LV,,Latvia - Kemeru NP,2017-06-10,11:56
Emberiza schoeniclus,Animalia,BUNTINGS_EMBERIZIDAE,Common Reed Bunting,,1,23.481439808383584,57.001957297325134,Europe,Latvia,LV,,Latvia - Kemeru NP,2017-06-10,10:57
Anas platyrhynchos,Animalia,DUCKS_GEESE_AND_SWANS_ANATIDAE,Mallard,,1,23.47386139445007,57.00092179700732,Europe,Latvia,LV,,Latvia - Kemeru NP,2017-06-10,10:45
Acrocephalus arundinaceus,Animalia,Acrocephalidae,Great Reed Warbler,,1,23.472735369578004,57.0007864292711,Europe,Latvia,LV,,Latvia - Kemeru NP,2017-06-10,10:43
Cuculus canorus,Animalia,CUCKOOS_AND_COUCALS_CUCULIDAE,Common Cuckoo,,1,23.510344130918384,56.95123546756804,Europe,Latvia,LV,,Latvia - Kemeru NP,2017-06-10,09:24
Motacilla alba,Animalia,PIPITS_EN_WAGTAILS_MOTACILLIDAE,White Wagtail,,1,23.513071350753307,56.951970057561994,Europe,Latvia,LV,,Latvia - Kemeru NP,2017-06-10,08:48
Carpodacus erythrinus,Animalia,FINCHES_FRINGILLIDAE,Common Rosefinch,,1,26.888839518651366,56.695980951189995,Europe,Latvia,LV,,Latvia - Rezekne,2017-06-09,16:04
Cygnus cygnus,Animalia,DUCKS_GEESE_AND_SWANS_ANATIDAE,Whooper Swan,,1,26.88804659061134,56.695227921009064,Europe,Latvia,LV,,Latvia - Rezekne,2017-06-09,14:41
Chlidonias niger,Animalia,GULLS_TERNS_AND_SKIMMERS_LARIDAE,Black Tern,,1,26.8875927105546,56.694869259372354,Europe,Latvia,LV,,Latvia - Rezekne,2017-06-09,14:39
Cuculus canorus,Animalia,CUCKOOS_AND_COUCALS_CUCULIDAE,Common Cuckoo,,1,26.889977445825934,56.696462240070105,Europe,Latvia,LV,,Latvia - Rezekne,2017-06-09,14:19
Spatula querquedula,Animalia,DUCKS_GEESE_AND_SWANS_ANATIDAE,Garganey,,1,26.90371739678085,56.694657281041145,Europe,Latvia,LV,,Latvia - Rezekne,2017-06-09,13:59
Acrocephalus arundinaceus,Animalia,Acrocephalidae,Great Reed Warbler,,1,26.911287596449256,56.69137090444565,Europe,Latvia,LV,,Latvia - Rezekne,2017-06-09,13:53
Podiceps grisegena,Animalia,GREBES_PODICIPEDIDAE,Red-necked Grebe,,1,26.911768801510334,56.69118004851043,Europe,Latvia,LV,,Latvia - Rezekne,2017-06-09,13:53
Pandion haliaetus,Animalia,OSPREY_PANDIONIDAE,Western Osprey,,1,26.98038674890995,56.67856117710471,Europe,Latvia,LV,,Latvia - Rezekne,2017-06-09,12:17
Cygnus cygnus,Animalia,DUCKS_GEESE_AND_SWANS_ANATIDAE,Whooper Swan,,1,26.98040426708758,56.678184578195214,Europe,Latvia,LV,,Latvia - Rezekne,2017-06-09,11:10
Acrocephalus arundinaceus,Animalia,Acrocephalidae,Great Reed Warbler,,1,26.98071599006653,56.676884796470404,Europe,Latvia,LV,,Latvia - Rezekne,2017-06-09,11:02
Podiceps grisegena,Animalia,GREBES_PODICIPEDIDAE,Red-necked Grebe,,1,26.975297424942255,56.676848167553544,Europe,Latvia,LV,,Latvia - Rezekne,2017-06-09,10:55
Haliaeetus albicilla,Animalia,HAWKS_AND_EAGLES_ACCIPITRIDAE,White-tailed Eagle,,1,26.975287031382322,56.676837522536516,Europe,Latvia,LV,,Latvia - Rezekne,2017-06-09,10:52
Hirundo rustica,Animalia,SWALLOWS_HIRUNDINIDAE,Barn Swallow,,1,26.943686082959175,56.68267149478197,Europe,Latvia,LV,,Latvia - Rezekne,2017-06-09,10:48
Chlidonias niger,Animalia,GULLS_TERNS_AND_SKIMMERS_LARIDAE,Black Tern,,1,26.933199148625135,56.67515837587416,Europe,Latvia,LV,,Latvia - Rezekne,2017-06-09,10:37
Pandion haliaetus,Animalia,OSPREY_PANDIONIDAE,Western Osprey,,1,26.972080869600177,56.762315668165684,Europe,Latvia,LV,,Latvia - Rezekne,2017-06-09,09:15
Carpodacus erythrinus,Animalia,FINCHES_FRINGILLIDAE,Common Rosefinch,,1,26.970285046845675,56.76291556097567,Europe,Latvia,LV,,Latvia - Rezekne,2017-06-09,09:10
Muscicapa striata,Animalia,OLD_WORLD_FLYCATCHERS_MUSCICAPIDAE,Spotted Flycatcher,,1,26.906049409881234,56.817323165014386,Europe,Latvia,LV,,Latvia - Madona,2017-06-09,06:51
Cuculus canorus,Animalia,CUCKOOS_AND_COUCALS_CUCULIDAE,Common Cuckoo,,1,26.905929716303945,56.81751720607281,Europe,Latvia,LV,,Latvia - Madona,2017-06-09,06:50
Hirundo rustica,Animalia,SWALLOWS_HIRUNDINIDAE,Barn Swallow,,1,26.905401991680264,56.816150872036815,Europe,Latvia,LV,,Latvia - Madona,2017-06-09,06:16
Saxicola rubetra,Animalia,OLD_WORLD_FLYCATCHERS_MUSCICAPIDAE,Whinchat,,1,26.73813340254128,56.767697352916,Europe,Latvia,LV,,Latvia - Madona,2017-06-08,18:43
Carpodacus erythrinus,Animalia,FINCHES_FRINGILLIDAE,Common Rosefinch,,1,26.714069042354822,56.7578075453639,Europe,Latvia,LV,,Latvia - Madona,2017-06-08,18:16
Lanius collurio,Animalia,SHRIKES_LANIIDAE,Red-backed Shrike,,1,26.40006199479103,56.760981772094965,Europe,Latvia,LV,,Latvia - Madona,2017-06-08,17:41
Sterna hirundo,Animalia,GULLS_TERNS_AND_SKIMMERS_LARIDAE,Common Tern,,1,24.078,56.9559,Europe,Latvia,LV,,Latvia - Riga,2017-06-09,16:22
Passer montanus,Animalia,OLD_WORLD_SPARROWS_PASSERIDAE,Eurasian Tree Sparrow,,2,26.723,58.385,Europe,Latvia,LV,,Latvia - Gauja NP,2017-05-15,
Corvus frugilegus,Animalia,CROWS_AND_JAYS_CORVIDAE,Rook,,35,26.723,58.385,Europe,Latvia,LV,,Latvia - Gauja NP,2017-05-15,
Neuroterus anthracinus,Animalia,Cynipidae,,,3,26.71406,58.38108,Europe,Latvia,LV,,Latvia - Gauja NP,2017-05-15,
Dendrocoptes medius,Animalia,WOODPECKERS_PICIDAE,Middle Spotted Woodpecker,,1,24.82817184,57.16868808,Europe,Latvia,LV,,Latvia - Gauja NP,2017-04-28,12:00
Corvus cornix,Animalia,CROWS_AND_JAYS_CORVIDAE,Hooded Crow,,1,24.0886,56.9377,Europe,Latvia,LV,,Latvia - Riga,2017-02-25,09:13
Ceratomegilla notata,Animalia,LADYBIRDS_LADYBUGS_OR_LADY_BEETLES_COCCINELLIDAE,,,1,24.91416373,57.2298793,Europe,Latvia,LV,,Latvia - Gauja NP,2016-07-13,14:05
Corvus cornix,Animalia,CROWS_AND_JAYS_CORVIDAE,Hooded Crow,,1,23.9788919,56.9232251,Europe,Latvia,LV,,Latvia - Riga,2016-09-17,07:52
Ficedula hypoleuca,Animalia,OLD_WORLD_FLYCATCHERS_MUSCICAPIDAE,European Pied Flycatcher,,1,26.403308058034,56.693884450621,Europe,Latvia,LV,,Latvia - Madona,2013-05-10,12:36
Corvus cornix,Animalia,CROWS_AND_JAYS_CORVIDAE,Hooded Crow,,1,23.9788919,56.9232251,Europe,Latvia,LV,,Latvia - Riga,2016-09-17,07:52
Melampyrum nemorosum,Plantae,OROBANCHACEAE,Wood Cow-wheat,,101,21.12664415,56.09102692,Europe,Latvia,LV,,Latvia - Liepaja,2016-08-09,15:54
Hirundo rustica,Animalia,SWALLOWS_HIRUNDINIDAE,Barn Swallow,,1,21.0673393152411,56.3424955867325,Europe,Latvia,LV,,Latvia - Liepaja,2016-08-09,16:21
Corvus cornix,Animalia,CROWS_AND_JAYS_CORVIDAE,Hooded Crow,,1,21.0060240502052,56.4846578017204,Europe,Latvia,LV,,Latvia - Liepaja,2016-08-09,16:37
Veronica longifolia,Plantae,PLANTAGINACEAE,Long-leaved Speedwell,,1,23.94457233,56.63495185,Europe,Latvia,LV,,Latvia - Jelgava,2016-08-11,12:41
Asarum europaeum,Plantae,ARISTOLOCHIACEAE,European Wild Ginger,,1,25.2129716202928,57.2318562648842,Europe,Latvia,LV,,Latvia - Gauja NP,2016-08-14,15:02
Sympetrum sanguineum,Animalia,SKIMMERS_LIBELLULIDAE,Ruddy Darter,,1,25.2109237459269,57.2337296328597,Europe,Latvia,LV,,Latvia - Gauja NP,2016-08-14,15:11
Pieris napi,Animalia,WHITES_PIERIDAE,Green-veined White,,1,25.2078292955312,57.2338885183047,Europe,Latvia,LV,,Latvia - Gauja NP,2016-08-14,15:40
Argynnis paphia,Animalia,BRUSHFOOTED_BUTTERFLIES_NYMPHALIDAE,Silver-washed Fritillary,,1,25.2048732446876,57.2352536078743,Europe,Latvia,LV,,Latvia - Gauja NP,2016-08-14,15:45
Polyommatus icarus,Animalia,GOSSAMERWINGED_BUTTERFLIES_LYCAENIDAE,Common Blue,,2,25.2003247017179,57.2372403595212,Europe,Latvia,LV,,Latvia - Gauja NP,2016-08-14,15:56
Castor fiber,Animalia,BEAVERS_CASTORIDAE,Eurasian Beaver,,1,25.3627974539995,57.2753813164934,Europe,Latvia,LV,,Latvia - Gauja NP,2016-08-14,19:42
Polyommatus icarus,Animalia,GOSSAMERWINGED_BUTTERFLIES_LYCAENIDAE,Common Blue,,1,25.3599214066204,57.275490956626,Europe,Latvia,LV,,Latvia - Gauja NP,2016-08-14,19:48
Pieris napi,Animalia,WHITES_PIERIDAE,Green-veined White,,1,25.2713502933512,57.3139291244394,Europe,Latvia,LV,,Latvia - Gauja NP,2016-08-15,14:05
Monotropa hypopitys,Plantae,ERICACEAE,Yellow Bird's-nest,,1,25.09,56.5,Europe,Latvia,LV,,Latvia - Aizkraukle,2016-08-18,15:05
Sympetrum depressiusculum,Animalia,SKIMMERS_LIBELLULIDAE,Spotted Darter,,1,26.9,56.7,Europe,Latvia,LV,,Latvia - Rezekne,2016-08-19,13:49
Haliaeetus albicilla,Animalia,HAWKS_AND_EAGLES_ACCIPITRIDAE,White-tailed Eagle,,1,26.9490538537502,56.7231798849721,Europe,Latvia,LV,,Latvia - Rezekne,2016-08-19,14:15
Certhia familiaris,Animalia,TREECREEPERS_CERTHIIDAE,Eurasian Treecreeper,,1,26.9467934221029,56.7158179706543,Europe,Latvia,LV,,Latvia - Rezekne,2016-08-19,15:48
Pelophylax spec.,Animalia,Ranidae,Green Frog spec.,,1,26.9469627913049,56.7506768638078,Europe,Latvia,LV,,Latvia - Rezekne,2016-08-19,19:14
Mergus merganser,Animalia,DUCKS_GEESE_AND_SWANS_ANATIDAE,Common Merganser,,1,27.41706459,56.30855631,Europe,Latvia,LV,,Latvia - Rāzna NP,2016-08-18,15:02
Grus grus,Animalia,CRANES_GRUIDAE,Common Crane,,1,24.3848,57.0646,Europe,Latvia,LV,,Latvia - Riga,2016-07-30,10:14
Grus grus,Animalia,CRANES_GRUIDAE,Common Crane,,2,24.4415,57.0869,Europe,Latvia,LV,,Latvia - Riga,2016-07-30,07:10
Euthrix potatoria,Animalia,Lasiocampidae,Drinker,,1,24.81778985,57.15439051,Europe,Latvia,LV,,Latvia - Gauja NP,2016-07-16,00:50
Pernis apivorus,Animalia,HAWKS_AND_EAGLES_ACCIPITRIDAE,European Honey Buzzard,,3,24.817253407091,57.154215940163,Europe,Latvia,LV,,Latvia - Gauja NP,2016-07-16,08:34
Dendrocoptes medius,Animalia,WOODPECKERS_PICIDAE,Middle Spotted Woodpecker,,1,24.807829968631,57.149854219796,Europe,Latvia,LV,,Latvia - Gauja NP,2016-07-09,07:25
Martes martes,Animalia,WEASELS_AND_RELATIVES_MUSTELIDAE,Pine Marten,,2,24.8,57.1,Europe,Latvia,LV,,Latvia - Gauja NP,2016-07-09,06:44
Leucorrhinia dubia,Animalia,SKIMMERS_LIBELLULIDAE,Small Whiteface,,1,25.018759220839,57.163010150645,Europe,Latvia,LV,,Latvia - Cesis,2016-07-12,14:58
Dendrocoptes medius,Animalia,WOODPECKERS_PICIDAE,Middle Spotted Woodpecker,,1,24.81842706,57.15486167,Europe,Latvia,LV,,Latvia - Gauja NP,2016-07-10,12:12
Lanius collurio,Animalia,SHRIKES_LANIIDAE,Red-backed Shrike,,3,24.81981533,57.15481758,Europe,Latvia,LV,,Latvia - Gauja NP,2016-07-11,08:10
Corvus cornix,Animalia,CROWS_AND_JAYS_CORVIDAE,Hooded Crow,,6,24.39324113,57.23355115,Europe,Latvia,LV,,Latvia - Riga,2016-07-15,14:40
Lasiommata maera,Animalia,BRUSHFOOTED_BUTTERFLIES_NYMPHALIDAE,Large Wall Brown,,3,26.8,57.55,Europe,Latvia,LV,,Latvia - Aluksne,2016-06-23,15:11
Anas platyrhynchos,Animalia,DUCKS_GEESE_AND_SWANS_ANATIDAE,Mallard,,1,23.465052098036,57.00206879756,Europe,Latvia,LV,,Latvia - Kemeru NP,2016-06-17,18:00
Hydroprogne caspia,Animalia,GULLS_TERNS_AND_SKIMMERS_LARIDAE,Caspian Tern,,3,23.118211627007,57.258157366784,Europe,Latvia,LV,,Latvia - Tukums,2016-06-17,11:00
Pandion haliaetus,Animalia,OSPREY_PANDIONIDAE,Western Osprey,,1,26.894080638885,56.695075070028,Europe,Latvia,LV,,Latvia - Rezekne,2016-06-15,11:00
Chlidonias niger,Animalia,GULLS_TERNS_AND_SKIMMERS_LARIDAE,Black Tern,,1,26.894080638885,56.695075070028,Europe,Latvia,LV,,Latvia - Rezekne,2016-06-15,11:00
Podiceps grisegena,Animalia,GREBES_PODICIPEDIDAE,Red-necked Grebe,,1,26.894080638885,56.695075070028,Europe,Latvia,LV,,Latvia - Rezekne,2016-06-15,11:00
Cygnus cygnus,Animalia,DUCKS_GEESE_AND_SWANS_ANATIDAE,Whooper Swan,,1,26.894080638885,56.695075070028,Europe,Latvia,LV,,Latvia - Rezekne,2016-06-15,11:00
Carpodacus erythrinus,Animalia,FINCHES_FRINGILLIDAE,Common Rosefinch,,1,26.938712596893,56.735019397173,Europe,Latvia,LV,,Latvia - Rezekne,2016-06-15,11:00
Hirundo rustica,Animalia,SWALLOWS_HIRUNDINIDAE,Barn Swallow,,1,26.90506696701,56.691304547399,Europe,Latvia,LV,,Latvia - Rezekne,2016-06-15,11:00
Carpodacus erythrinus,Animalia,FINCHES_FRINGILLIDAE,Common Rosefinch,,1,26.953818798065,56.741421616398,Europe,Latvia,LV,,Latvia - Rezekne,2016-06-14,14:00
Hirundo rustica,Animalia,SWALLOWS_HIRUNDINIDAE,Barn Swallow,,1,26.902320384979,56.69733720234,Europe,Latvia,LV,,Latvia - Rezekne,2016-06-14,14:00
Pandion haliaetus,Animalia,OSPREY_PANDIONIDAE,Western Osprey,,1,26.826102733612,56.730122846536,Europe,Latvia,LV,,Latvia - Rezekne,2016-06-14,14:00
Streptopelia turtur,Animalia,PIGEONS_AND_DOVES_COLUMBIDAE,European Turtle Dove,,1,26.951072216034,56.728616087245,Europe,Latvia,LV,,Latvia - Rezekne,2016-06-14,14:00
Chlidonias niger,Animalia,GULLS_TERNS_AND_SKIMMERS_LARIDAE,Black Tern,,1,26.979793310165,56.686216689056,Europe,Latvia,LV,,Latvia - Rezekne,2016-06-14,14:00
Cygnus cygnus,Animalia,DUCKS_GEESE_AND_SWANS_ANATIDAE,Whooper Swan,,1,26.979793310165,56.686216689056,Europe,Latvia,LV,,Latvia - Rezekne,2016-06-14,14:00
Podiceps grisegena,Animalia,GREBES_PODICIPEDIDAE,Red-necked Grebe,,1,26.979793310165,56.686216689056,Europe,Latvia,LV,,Latvia - Rezekne,2016-06-14,14:00
Hirundo rustica,Animalia,SWALLOWS_HIRUNDINIDAE,Barn Swallow,,1,26.810309886932,56.79598446913,Europe,Latvia,LV,,Latvia - Madona,2016-06-13,16:00
Pandion haliaetus,Animalia,OSPREY_PANDIONIDAE,Western Osprey,,1,26.850135326385,56.78583049814,Europe,Latvia,LV,,Latvia - Madona,2016-06-13,16:00
Cygnus cygnus,Animalia,DUCKS_GEESE_AND_SWANS_ANATIDAE,Whooper Swan,,1,26.884467601776,56.747446238235,Europe,Latvia,LV,,Latvia - Rezekne,2016-06-13,21:00
Grus grus,Animalia,CRANES_GRUIDAE,Common Crane,,2,23.4547,56.9027,Europe,Latvia,LV,,Latvia - Kemeru NP,2016-06-15,13:00
Calidris alpina,Animalia,SANDPIPERS_AND_ALLIES_SCOLOPACIDAE,Dunlin,,1,22.580573558807,57.719179994734,Europe,Latvia,LV,,Latvia - Slitere NP,2016-06-16,17:00
Phylloscopus sibilatrix,Animalia,LEAF_WARBLERS_AND_ALLIES_PHYLLOSCOPIDAE,Wood Warbler,,1,22.371146678925,57.694234692747,Europe,Latvia,LV,,Latvia - Slitere NP,2016-06-16,11:00
Remiz pendulinus,Animalia,PENDULINE_TITS_REMIZIDAE,Eurasian Penduline Tit,,1,26.95,56.75,Europe,Latvia,LV,,Latvia - Madona,2016-06-14,21:00
Haliaeetus albicilla,Animalia,HAWKS_AND_EAGLES_ACCIPITRIDAE,White-tailed Eagle,,5,26.98046906,56.69076762,Europe,Latvia,LV,,Latvia - Rezekne,2016-05-02,16:51
Chlidonias niger,Animalia,GULLS_TERNS_AND_SKIMMERS_LARIDAE,Black Tern,,10,26.98046906,56.69076762,Europe,Latvia,LV,,Latvia - Rezekne,2016-05-02,16:51
Remiz pendulinus,Animalia,PENDULINE_TITS_REMIZIDAE,Eurasian Penduline Tit,,3,26.95,56.65,Europe,Latvia,LV,,Latvia - Rezekne,2016-05-02,17:27
Dendrocoptes medius,Animalia,WOODPECKERS_PICIDAE,Middle Spotted Woodpecker,,2,26.71457188,56.90625158,Europe,Latvia,LV,,Latvia - Madona,2016-05-02,10:53
Pandion haliaetus,Animalia,OSPREY_PANDIONIDAE,Western Osprey,,1,26.81644013,56.71982419,Europe,Latvia,LV,,Latvia - Rezekne,2016-05-02,12:00
Podiceps grisegena,Animalia,GREBES_PODICIPEDIDAE,Red-necked Grebe,,4,26.8795453,56.70820834,Europe,Latvia,LV,,Latvia - Rezekne,2016-05-02,12:13
Remiz pendulinus,Animalia,PENDULINE_TITS_REMIZIDAE,Eurasian Penduline Tit,,1,26.85,56.7,Europe,Latvia,LV,,Latvia - Rezekne,2016-05-02,12:21
Cygnus cygnus,Animalia,DUCKS_GEESE_AND_SWANS_ANATIDAE,Whooper Swan,,101,26.88958321,56.69677781,Europe,Latvia,LV,,Latvia - Rezekne,2016-05-02,12:57
Motacilla citreola citreola,Animalia,PIPITS_EN_WAGTAILS_MOTACILLIDAE,Citrine Wagtail ssp citreola,,2,26.8915573,56.69369712,Europe,Latvia,LV,,Latvia - Rezekne,2016-05-02,13:40
Podiceps grisegena,Animalia,GREBES_PODICIPEDIDAE,Red-necked Grebe,,4,26.89760639,56.69722529,Europe,Latvia,LV,,Latvia - Rezekne,2016-05-02,14:34
Tetrao urogallus,Animalia,FRANCOLINS_QUAILS_PARTRIDGES_AND_PHEASANTS_PHASIANIDAE,Western Capercaillie,,1,25.91,57.51,Europe,Latvia,LV,,Latvia - Valka,2016-04-30,13:56
Clangula hyemalis,Animalia,DUCKS_GEESE_AND_SWANS_ANATIDAE,Long-tailed Duck,,1,22.5891953,57.73648083,Europe,Latvia,LV,,Latvia - Slitere NP,2016-04-29,14:15
Lepus timidus,Animalia,HARES_AND_RABBITS_LEPORIDAE,Mountain Hare,,1,26.17557164,57.13624701,Europe,Latvia,LV,,Latvia - Gulbene,2016-04-29,22:19
Clangula hyemalis,Animalia,DUCKS_GEESE_AND_SWANS_ANATIDAE,Long-tailed Duck,,250,22.60486584,57.75893138,Europe,Latvia,LV,,Latvia - Slitere NP,2016-04-29,09:25
Phylloscopus sibilatrix,Animalia,LEAF_WARBLERS_AND_ALLIES_PHYLLOSCOPIDAE,Wood Warbler,,1,22.59578782,57.7477014,Europe,Latvia,LV,,Latvia - Slitere NP,2016-04-29,05:46
Anas platyrhynchos,Animalia,DUCKS_GEESE_AND_SWANS_ANATIDAE,Mallard,,1,23.51221221,56.953901,Europe,Latvia,LV,,Latvia - Kemeru NP,2016-04-28,14:52
Sturnus vulgaris,Animalia,STARLINGS_STURNIDAE,Common Starling,,4,23.971996307373,56.919310265915,Europe,Latvia,LV,,Latvia - Riga,2016-04-11,
Corvus cornix,Animalia,CROWS_AND_JAYS_CORVIDAE,Hooded Crow,,2,23.9785,56.9212,Europe,Latvia,LV,,Latvia - Riga,2016-04-11,14:31
Castor fiber,Animalia,BEAVERS_CASTORIDAE,Eurasian Beaver,,1,24.8,57.1,Europe,Latvia,LV,,Latvia - Gauja NP,2016-02-07,11:47
Corvus cornix,Animalia,CROWS_AND_JAYS_CORVIDAE,Hooded Crow,,100,24.15930824,57.00793915,Europe,Latvia,LV,,Latvia - Riga,2016-02-05,14:21
Castor fiber,Animalia,BEAVERS_CASTORIDAE,Eurasian Beaver,,1,24.25,56.95,Europe,Latvia,LV,,Latvia - Riga,2016-02-03,11:17
Corvus cornix,Animalia,CROWS_AND_JAYS_CORVIDAE,Hooded Crow,,50,24.10838903,56.94856436,Europe,Latvia,LV,,Latvia - Riga,2016-02-02,10:41
Vespertilio murinus,Animalia,EVENING_BATS_VESPERTILIONIDAE,Particoloured Bat,,2,21.0865870899,56.5499889064,Europe,Latvia,LV,,Latvia - Liepaja,2015-10-25,20:00
Corvus cornix,Animalia,CROWS_AND_JAYS_CORVIDAE,Hooded Crow,,1,23.9778485521674,56.9219142690547,Europe,Latvia,LV,,Latvia - Riga,2015-10-23,14:12
Corvus cornix cornix,Animalia,CROWS_AND_JAYS_CORVIDAE,Hooded Crow ssp cornix,,1,24.1004,56.9577,Europe,Latvia,LV,,Latvia - Riga,2015-09-09,12:37
Castor fiber,Animalia,BEAVERS_CASTORIDAE,Eurasian Beaver,,1,25.2,57.3,Europe,Latvia,LV,,Latvia - Gauja NP,2015-07-08,21:10
Coenonympha glycerion,Animalia,BRUSHFOOTED_BUTTERFLIES_NYMPHALIDAE,Chestnut Heath,,1,25.2,57.3,Europe,Latvia,LV,,Latvia - Gauja NP,2015-07-06,
Erythromma najas,Animalia,POND_DAMSELS_COENAGRIONIDAE,Large Redeye,,2,24.8393063889,57.1719997222,Europe,Latvia,LV,,Latvia - Gauja NP,2015-07-08,15:31
Corvus cornix,Animalia,CROWS_AND_JAYS_CORVIDAE,Hooded Crow,,1,24.1133913889,56.9512197222,Europe,Latvia,LV,,Latvia - Riga,2015-07-11,17:28
Limenitis camilla,Animalia,BRUSHFOOTED_BUTTERFLIES_NYMPHALIDAE,White Admiral,,1,25.2224730556,57.2992213889,Europe,Latvia,LV,,Latvia - Gauja NP,2015-07-09,10:54
Brenthis ino,Animalia,BRUSHFOOTED_BUTTERFLIES_NYMPHALIDAE,Lesser Marbled Fritillary,,1,24.8,57.15,Europe,Latvia,LV,,Latvia - Gauja NP,2015-07-08,16:23
Speyeria aglaja,Animalia,BRUSHFOOTED_BUTTERFLIES_NYMPHALIDAE,Dark Green Fritillary,,1,25.243755,57.3146180556,Europe,Latvia,LV,,Latvia - Gauja NP,2015-07-06,13:49
Brenthis ino,Animalia,BRUSHFOOTED_BUTTERFLIES_NYMPHALIDAE,Lesser Marbled Fritillary,,1,25.2,57.3,Europe,Latvia,LV,,Latvia - Gauja NP,2015-07-06,13:41
Boloria selene,Animalia,BRUSHFOOTED_BUTTERFLIES_NYMPHALIDAE,Small Pearl-bordered Fritillary,,1,25.2,57.3,Europe,Latvia,LV,,Latvia - Gauja NP,2015-07-06,13:23
Dianthus deltoides,Plantae,CARYOPHYLLACEAE,Maiden Pink,,1,25.243785,57.3146547222,Europe,Latvia,LV,,Latvia - Gauja NP,2015-07-06,13:08
Leucorrhinia albifrons,Animalia,SKIMMERS_LIBELLULIDAE,Dark Whiteface,,1,23.45,56.9,Europe,Latvia,LV,,Latvia - Kemeru NP,2015-07-12,14:36
Apodemus agrarius,Animalia,OLD_WORLD_MICE_AND_RATS_MURIDAE,Striped Field Mouse,,2,23.4947366081,57.0276468959,Europe,Latvia,LV,,Latvia - Kemeru NP,2015-07-14,
Clanga pomarina,Animalia,HAWKS_AND_EAGLES_ACCIPITRIDAE,Lesser Spotted Eagle,,1,27.20039092,57.3736419622,Europe,Latvia,LV,,Latvia - Aluksne,2015-06-29,12:00
Hylobius abietis,Animalia,WEEVILS_CURCULIONIDAE,Large pine weevil,,1,23.4494027495,56.9052056,Europe,Latvia,LV,,Latvia - Kemeru NP,2015-05-07,
Brachycentrus subnubilus,Animalia,BRACHYCENTRIDAE,Grannom or Greentail,,5,21.9773843139,56.9680119813,Europe,Latvia,LV,,Latvia - Kuldiga,2015-05-06,
Leucorrhinia rubicunda,Animalia,SKIMMERS_LIBELLULIDAE,Ruby Whiteface,,1,23.5,56.85,Europe,Latvia,LV,,Latvia - Kemeru NP,2015-05-08,16:51
Grus grus,Animalia,CRANES_GRUIDAE,Common Crane,,8,24.31900273,57.10954687,Europe,Latvia,LV,,Latvia - Riga,2015-05-07,13:43
Grus grus,Animalia,CRANES_GRUIDAE,Common Crane,,2,23.45031329,56.90205656,Europe,Latvia,LV,,Latvia - Kemeru NP,2015-05-07,16:09
Oligostomis reticulata,Animalia,PHRYGANEIDAE,,,2,23.46157731,56.91434371,Europe,Latvia,LV,,Latvia - Kemeru NP,2015-05-07,17:19
Tetrastes bonasia,Animalia,FRANCOLINS_QUAILS_PARTRIDGES_AND_PHEASANTS_PHASIANIDAE,Hazel Grouse,,1,23.45,56.9,Europe,Latvia,LV,,Latvia - Kemeru NP,2015-05-07,17:46
Ciconia ciconia,Animalia,STORKS_CICONIIDAE,White Stork,,2,24.1818466410041,56.4303302064484,Europe,Latvia,LV,,Latvia - Bauska,2015-05-07,11:30
Luscinia luscinia,Animalia,OLD_WORLD_FLYCATCHERS_MUSCICAPIDAE,Thrush Nightingale,,1,23.76320552,56.93739566,Europe,Latvia,LV,,Latvia - Riga,2015-05-07,08:45
Clangula hyemalis,Animalia,DUCKS_GEESE_AND_SWANS_ANATIDAE,Long-tailed Duck,,1,22.60468329,57.75891456,Europe,Latvia,LV,,Latvia - Slitere NP,2015-05-04,16:36
Certhia familiaris,Animalia,TREECREEPERS_CERTHIIDAE,Eurasian Treecreeper,,1,22.35875198,57.70073936,Europe,Latvia,LV,,Latvia - Slitere NP,2015-05-04,18:26
Clangula hyemalis,Animalia,DUCKS_GEESE_AND_SWANS_ANATIDAE,Long-tailed Duck,,1000,22.59190861,57.75857866,Europe,Latvia,LV,,Latvia - Slitere NP,2015-05-05,06:44
Bombycilla garrulus,Animalia,WAXWINGS_BOMBYCILLIDAE,Bohemian Waxwing,,50,22.36076357,57.69746738,Europe,Latvia,LV,,Latvia - Slitere NP,2015-05-05,10:20
Certhia familiaris,Animalia,TREECREEPERS_CERTHIIDAE,Eurasian Treecreeper,,1,22.35861915,57.70063586,Europe,Latvia,LV,,Latvia - Slitere NP,2015-05-06,08:34
Lathyrus japonicus,Plantae,Fabaceae,Sea Pea,,1,21.53279838,57.3973404,Europe,Latvia,LV,,Latvia - Ventspils,2015-05-06,12:33
Chondrostoma nasus,Animalia,CARPS_CYPRINIDAE,Sneep,,1,21.97789304,56.96808096,Europe,Latvia,LV,,Latvia - Kuldiga,2015-05-06,14:31
Corvus cornix,Animalia,CROWS_AND_JAYS_CORVIDAE,Hooded Crow,,1,24.07215521,56.94491662,Europe,Latvia,LV,,Latvia - Riga,2015-05-02,17:16
