scientificName,kingdom,family,vernacularName,previousIdentifications,individualCount,longitudeDecimal,latitudeDecimal,continent,country,countryCode,stateProvince,locality,eventDate,eventTime
Corvus cornix,Animalia,CROWS_AND_JAYS_CORVIDAE,Hooded Crow,,1,35.80949705377303,33.727565,Asia,Lebanon,LB,,Lebanon - Aammiq wetland,2018-04-28,08:20
Lanius collurio,Animalia,SHRIKES_LANIIDAE,Red-backed Shrike,,12,35.80949705377303,33.727565,Asia,Lebanon,LB,,Lebanon - Aammiq wetland,2018-04-28,08:20
Egretta garzetta,Animalia,HERONS_ARDEIDAE,Little Egret,,2,35.80949705377303,33.727565,Asia,Lebanon,LB,,Lebanon - Aammiq wetland,2018-04-28,08:20
Tachybaptus ruficollis,Animalia,GREBES_PODICIPEDIDAE,Little Grebe,,3,35.80949705377303,33.727565,Asia,Lebanon,LB,,Lebanon - Aammiq wetland,2018-04-28,08:20
Tachybaptus ruficollis,Animalia,GREBES_PODICIPEDIDAE,Little Grebe,,2,35.80949705377303,33.727565,Asia,Lebanon,LB,,Lebanon - Aammiq wetland,2018-04-28,08:20
Milvus migrans,Animalia,HAWKS_AND_EAGLES_ACCIPITRIDAE,Black Kite,,50,35.5099316666667,33.0999016666667,Asia,Lebanon,LB,,Lebanon - Bent Jbayl,2018-04-16,22:58
Grus grus,Animalia,CRANES_GRUIDAE,Common Crane,,4000,35.90673577,33.84038311,Asia,Lebanon,LB,,Lebanon - Zahlé,2018-03-13,11:30
Procavia capensis,Animalia,HYRAXES_PROCAVIIDAE,Common Rock Hyrax,,1,35.80696106,34.06236338,Asia,Lebanon,LB,,Lebanon - Jabal Moussa,2017-11-05,12:00
Pernis apivorus,Animalia,HAWKS_AND_EAGLES_ACCIPITRIDAE,European Honey Buzzard,,1000,35.96058369,34.29682039,Asia,Lebanon,LB,,Lebanon - Zgharta,2017-09-10,
Milvus migrans,Animalia,HAWKS_AND_EAGLES_ACCIPITRIDAE,Black Kite,,10,35.96058369,34.29682039,Asia,Lebanon,LB,,Lebanon - Zgharta,2017-09-09,
Pernis apivorus,Animalia,HAWKS_AND_EAGLES_ACCIPITRIDAE,European Honey Buzzard,,1000,35.96058369,34.29682039,Asia,Lebanon,LB,,Lebanon - Zgharta,2017-09-09,
Spinus spinus,Animalia,FINCHES_FRINGILLIDAE,Eurasian Siskin,,40,35.20922542,33.27036197,Asia,Lebanon,LB,,Lebanon - Sour,2016-12-23,
Salamandra infraimmaculata,Animalia,Salamandridae,Arouss Al Ayn,,1,35.764989851159,34.076820079767,Asia,Lebanon,LB,,Lebanon - Jabal Moussa,2016-04-24,
Lanius collurio,Animalia,SHRIKES_LANIIDAE,Red-backed Shrike,,1,35.730686186871,33.747030575421,Asia,Lebanon,LB,,Lebanon - Shouf Cedar Nature Reserve,2016-10-02,16:30
Grus grus,Animalia,CRANES_GRUIDAE,Common Crane,,53,35.730686186871,33.747030575421,Asia,Lebanon,LB,,Lebanon - Shouf Cedar Nature Reserve,2016-10-01,16:30
Grus grus,Animalia,CRANES_GRUIDAE,Common Crane,,90,35.730686186871,33.747030575421,Asia,Lebanon,LB,,Lebanon - Shouf Cedar Nature Reserve,2016-10-01,16:03
Phoenicurus phoenicurus,Animalia,OLD_WORLD_FLYCATCHERS_MUSCICAPIDAE,Common Redstart,,2,35.736565589032,33.748089195051,Asia,Lebanon,LB,,Lebanon - Shouf Cedar Nature Reserve,2016-10-01,
Egretta garzetta,Animalia,HERONS_ARDEIDAE,Little Egret,,1,35.867543219647,33.791374363984,Asia,Lebanon,LB,,Lebanon - Zahlé,2016-09-25,
Tachybaptus ruficollis,Animalia,GREBES_PODICIPEDIDAE,Little Grebe,,2,35.867543219647,33.791374363984,Asia,Lebanon,LB,,Lebanon - Zahlé,2016-09-25,
Corvus cornix,Animalia,CROWS_AND_JAYS_CORVIDAE,Hooded Crow,,10,35.867543219647,33.791374363984,Asia,Lebanon,LB,,Lebanon - Zahlé,2016-09-25,
Ardea alba,Animalia,HERONS_ARDEIDAE,Great Egret,,1,35.86747169451,33.791520593219,Asia,Lebanon,LB,,Lebanon - Zahlé,2016-09-25,08:30
Hirundo rustica,Animalia,SWALLOWS_HIRUNDINIDAE,Barn Swallow,,3,36.019091606031,34.303063545152,Asia,Lebanon,LB,,Lebanon - Minie-Danniyeh,2016-09-22,
Motacilla flava feldegg,Animalia,PIPITS_EN_WAGTAILS_MOTACILLIDAE,Black-headed Wagtail,,2,36.019091606031,34.303063545152,Asia,Lebanon,LB,,Lebanon - Minie-Danniyeh,2016-09-22,
Pelecanus onocrotalus,Animalia,PELICANS_PELECANIDAE,Great White Pelican,,300,35.774803158129,34.105380210267,Asia,Lebanon,LB,,Lebanon - Jbayl,2016-09-18,13:15
Vulpes vulpes,Animalia,DOGS_CANIDAE,Red Fox,,1,35.95,34.25,Asia,Lebanon,LB,,Lebanon - Zgharta,2016-09-22,11:00
Testudo graeca,Animalia,Testudinidae,Greek Tortoise,,1,35.653824805995,34.182653161241,Asia,Lebanon,LB,,Lebanon - Jbayl,2016-06-02,08:00
Lanius excubitor theresae,Animalia,SHRIKES_LANIIDAE,Great Grey Shrike ssp theresae,,1,35.7951,33.7329,Asia,Lebanon,LB,,Lebanon - Aammiq wetland,2004-09-23,
Lanius excubitor theresae,Animalia,SHRIKES_LANIIDAE,Great Grey Shrike ssp theresae,,1,35.7951,33.7329,Asia,Lebanon,LB,,Lebanon - Aammiq wetland,2004-09-17,
Lanius excubitor theresae,Animalia,SHRIKES_LANIIDAE,Great Grey Shrike ssp theresae,,1,35.7566,33.6931,Asia,Lebanon,LB,,Lebanon - Barouk Cedar Forest NP,2004-09-16,
Pycnonotus xanthopygos,Animalia,BULBULS_PYCNONOTIDAE,White-spectacled Bulbul,,1,35.5075349168711,33.09995729672,Asia,Lebanon,LB,,Lebanon - Bent Jbayl,2015-10-13,09:06
Pycnonotus xanthopygos,Animalia,BULBULS_PYCNONOTIDAE,White-spectacled Bulbul,,1,35.5075349168711,33.09995729672,Asia,Lebanon,LB,,Lebanon - Bent Jbayl,2015-10-13,09:06
