scientificName,kingdom,family,vernacularName,previousIdentifications,individualCount,longitudeDecimal,latitudeDecimal,continent,country,countryCode,stateProvince,locality,eventDate,eventTime
Anthus hoeschi,Animalia,PIPITS_EN_WAGTAILS_MOTACILLIDAE,Mountain Pipit,,1,29.2630076408,-29.5740635942,Africa,Lesotho,LS,,Lesotho,2015-02-11,
Prinia maculosa,Animalia,CISTICOLAS_AND_ALLIES_CISTICOLIDAE,Karoo Prinia,,1,29.2582011223,-29.5692859751,Africa,Lesotho,LS,,Lesotho,2015-02-11,
Monticola explorator,Animalia,OLD_WORLD_FLYCATCHERS_MUSCICAPIDAE,Sentinel Rock Thrush,,1,29.2735433578,-29.5770588221,Africa,Lesotho,LS,,Lesotho,2015-02-11,
Geronticus calvus,Animalia,IBISSES_AND_SPOONBILLS_THRESKIORNITHIDAE,Southern Bald Ibis,,1,29.2712420225,-29.5755495556,Africa,Lesotho,LS,,Lesotho,2015-02-11,
Nectarinia famosa,Animalia,SUNBIRDS_NECTARINIIDAE,Malachite Sunbird,,1,29.2885458474,-29.5846836555,Africa,Lesotho,LS,,Lesotho,2014-12-20,
Crithagra symonsi,Animalia,FINCHES_FRINGILLIDAE,Drakensberg Siskin,,3,29.2884600167,-29.5845374839,Africa,Lesotho,LS,,Lesotho,2014-12-20,
Chaetops aurantius,Animalia,ROCKJUMPERS_CHAETOPIDAE,Drakensberg Rockjumper,,2,29.2887818818,-29.5849480074,Africa,Lesotho,LS,,Lesotho,2014-12-20,
Anthus hoeschi,Animalia,PIPITS_EN_WAGTAILS_MOTACILLIDAE,Mountain Pipit,,1,29.2720556329,-29.5721706092,Africa,Lesotho,LS,,Lesotho,2014-12-20,
Gypaetus barbatus,Animalia,HAWKS_AND_EAGLES_ACCIPITRIDAE,Bearded Vulture,,1,29.1826200555,-29.5025355645,Africa,Lesotho,LS,,Lesotho,2014-12-20,
Geocolaptes olivaceus,Animalia,WOODPECKERS_PICIDAE,Ground Woodpecker,,4,29.2120742938,-29.5378830492,Africa,Lesotho,LS,,Lesotho,2014-12-20,
Emarginata sinuata,Animalia,OLD_WORLD_FLYCATCHERS_MUSCICAPIDAE,Sickle-winged Chat,,2,29.2120742938,-29.5378830492,Africa,Lesotho,LS,,Lesotho,2014-12-20,
Geronticus calvus,Animalia,IBISSES_AND_SPOONBILLS_THRESKIORNITHIDAE,Southern Bald Ibis,,12,29.2781066964,-29.5791128142,Africa,Lesotho,LS,,Lesotho,2014-12-20,
Crithagra symonsi,Animalia,FINCHES_FRINGILLIDAE,Drakensberg Siskin,,4,29.288395645,-29.5844255215,Africa,Lesotho,LS,,Lesotho,2014-12-20,
Chaetops aurantius,Animalia,ROCKJUMPERS_CHAETOPIDAE,Drakensberg Rockjumper,,2,29.2884922045,-29.5849293462,Africa,Lesotho,LS,,Lesotho,2014-12-20,
Monticola explorator,Animalia,OLD_WORLD_FLYCATCHERS_MUSCICAPIDAE,Sentinel Rock Thrush,,1,29.2492961884,-29.4922436893,Africa,Lesotho,LS,,Lesotho,2009-09-30,
Geronticus calvus,Animalia,IBISSES_AND_SPOONBILLS_THRESKIORNITHIDAE,Southern Bald Ibis,,1,29.2502993345,-29.5628586944,Africa,Lesotho,LS,,Lesotho,2014-11-10,
Crithagra symonsi,Animalia,FINCHES_FRINGILLIDAE,Drakensberg Siskin,,25,29.2863535881,-29.5824238836,Africa,Lesotho,LS,,Lesotho,2014-11-10,
Crithagra flaviventris guillarmodi,Animalia,FINCHES_FRINGILLIDAE,Yellow Canary ssp guillarmodi,,2,29.2568278313,-29.5734664041,Africa,Lesotho,LS,,Lesotho,2014-11-10,
Anthus hoeschi,Animalia,PIPITS_EN_WAGTAILS_MOTACILLIDAE,Mountain Pipit,,4,29.2527079582,-29.5668970808,Africa,Lesotho,LS,,Lesotho,2014-11-10,
Helichrysum confertum,Plantae,Asteraceae,,,1,29.2406702,-29.57633102,Africa,Lesotho,LS,,Lesotho,2014-10-28,
Emberiza capensis,Animalia,BUNTINGS_EMBERIZIDAE,Cape Bunting,,2,29.2406702042,-29.5763310179,Africa,Lesotho,LS,,Lesotho,2014-10-28,
Crithagra flaviventris guillarmodi,Animalia,FINCHES_FRINGILLIDAE,Yellow Canary ssp guillarmodi,,5,29.2406702042,-29.5763310179,Africa,Lesotho,LS,,Lesotho,2014-10-28,
Passer melanurus,Animalia,OLD_WORLD_SPARROWS_PASSERIDAE,Cape Sparrow,,3,29.2841863632,-29.5824891956,Africa,Lesotho,LS,,Lesotho,2014-10-28,
Anthus hoeschi,Animalia,PIPITS_EN_WAGTAILS_MOTACILLIDAE,Mountain Pipit,,2,29.2599391937,-29.5741662358,Africa,Lesotho,LS,,Lesotho,2014-10-28,
Emarginata sinuata,Animalia,OLD_WORLD_FLYCATCHERS_MUSCICAPIDAE,Sickle-winged Chat,,4,29.2700242996,-29.5719267573,Africa,Lesotho,LS,,Lesotho,2014-10-28,
Monticola explorator,Animalia,OLD_WORLD_FLYCATCHERS_MUSCICAPIDAE,Sentinel Rock Thrush,,5,29.2700242996,-29.5719267573,Africa,Lesotho,LS,,Lesotho,2014-10-28,
Galerida magnirostris harei,Animalia,LARKS_ALAUDIDAE,Large-billed Lark ssp harei,,3,29.254360199,-29.5719640824,Africa,Lesotho,LS,,Lesotho,2014-10-28,
Geocolaptes olivaceus,Animalia,WOODPECKERS_PICIDAE,Ground Woodpecker,,2,29.2759895325,-29.5775253605,Africa,Lesotho,LS,,Lesotho,2014-10-28,
Buteo rufofuscus,Animalia,HAWKS_AND_EAGLES_ACCIPITRIDAE,Jackal Buzzard,,1,29.2300701141,-29.5616991741,Africa,Lesotho,LS,,Lesotho,2014-10-28,
Columba guinea,Animalia,PIGEONS_AND_DOVES_COLUMBIDAE,Speckled Pigeon,,3,29.2837357521,-29.5822652685,Africa,Lesotho,LS,,Lesotho,2014-10-28,
Geronticus calvus,Animalia,IBISSES_AND_SPOONBILLS_THRESKIORNITHIDAE,Southern Bald Ibis,,2,29.2750239372,-29.5742035601,Africa,Lesotho,LS,,Lesotho,2014-10-28,
Onychognathus morio,Animalia,STARLINGS_STURNIDAE,Red-winged Starling,,1,29.2822625488,-29.5830119819,Africa,Lesotho,LS,,Lesotho,2014-02-15,14:13
Galerida magnirostris harei,Animalia,LARKS_ALAUDIDAE,Large-billed Lark ssp harei,,1,29.2346191406,-29.5065494428,Africa,Lesotho,LS,,Lesotho,2014-02-20,
Anthus hoeschi,Animalia,PIPITS_EN_WAGTAILS_MOTACILLIDAE,Mountain Pipit,,1,29.2346191406,-29.5065494428,Africa,Lesotho,LS,,Lesotho,2014-02-20,
Emarginata sinuata,Animalia,OLD_WORLD_FLYCATCHERS_MUSCICAPIDAE,Sickle-winged Chat,,1,29.2346191406,-29.4969875965,Africa,Lesotho,LS,,Lesotho,2014-02-20,
Geronticus calvus,Animalia,IBISSES_AND_SPOONBILLS_THRESKIORNITHIDAE,Southern Bald Ibis,,1,29.2346191406,-29.4969875965,Africa,Lesotho,LS,,Lesotho,2014-02-20,
Buteo rufofuscus,Animalia,HAWKS_AND_EAGLES_ACCIPITRIDAE,Jackal Buzzard,,1,29.2346191406,-29.4969875965,Africa,Lesotho,LS,,Lesotho,2014-02-20,
Crithagra flaviventris guillarmodi,Animalia,FINCHES_FRINGILLIDAE,Yellow Canary ssp guillarmodi,,1,29.2346191406,-29.4969875965,Africa,Lesotho,LS,,Lesotho,2014-02-20,
Cecropis abyssinica,Animalia,SWALLOWS_HIRUNDINIDAE,Lesser Striped Swallow,,2,29.2914390564,-29.5794288148,Africa,Lesotho,LS,,Lesotho,2014-02-15,14:20
Cecropis abyssinica,Animalia,SWALLOWS_HIRUNDINIDAE,Lesser Striped Swallow,,2,29.2846021056,-29.5841313129,Africa,Lesotho,LS,,Lesotho,2014-02-15,12:06
Ciconia ciconia,Animalia,STORKS_CICONIIDAE,White Stork,,1,29.2843446136,-29.5840566718,Africa,Lesotho,LS,,Lesotho,2014-02-15,14:17
Corvus albicollis,Animalia,CROWS_AND_JAYS_CORVIDAE,White-necked Raven,,3,29.2755040526,-29.5752486327,Africa,Lesotho,LS,,Lesotho,2014-02-15,13:24
Buteo rufofuscus,Animalia,HAWKS_AND_EAGLES_ACCIPITRIDAE,Jackal Buzzard,,1,29.2790224403,-29.5789996077,Africa,Lesotho,LS,,Lesotho,2014-02-15,13:33
Geronticus calvus,Animalia,IBISSES_AND_SPOONBILLS_THRESKIORNITHIDAE,Southern Bald Ibis,,1,29.2800530791,-29.579802037,Africa,Lesotho,LS,,Lesotho,2014-02-15,13:28
Passer melanurus,Animalia,OLD_WORLD_SPARROWS_PASSERIDAE,Cape Sparrow,,1,29.284171,-29.584079,Africa,Lesotho,LS,,Lesotho,2014-02-01,10:35
Anthus hoeschi,Animalia,PIPITS_EN_WAGTAILS_MOTACILLIDAE,Mountain Pipit,,1,29.27445,-29.575556,Africa,Lesotho,LS,,Lesotho,2014-02-01,10:42
Monticola explorator,Animalia,OLD_WORLD_FLYCATCHERS_MUSCICAPIDAE,Sentinel Rock Thrush,,15,29.274217,-29.575316,Africa,Lesotho,LS,,Lesotho,2014-02-01,10:43
Buteo rufofuscus,Animalia,HAWKS_AND_EAGLES_ACCIPITRIDAE,Jackal Buzzard,,1,29.273669,-29.574736,Africa,Lesotho,LS,,Lesotho,2014-02-01,10:45
Emarginata sinuata,Animalia,OLD_WORLD_FLYCATCHERS_MUSCICAPIDAE,Sickle-winged Chat,,4,29.273449,-29.574533,Africa,Lesotho,LS,,Lesotho,2014-02-01,10:45
Geronticus calvus,Animalia,IBISSES_AND_SPOONBILLS_THRESKIORNITHIDAE,Southern Bald Ibis,,5,29.27177,-29.572929,Africa,Lesotho,LS,,Lesotho,2014-02-01,10:47
Anthus hoeschi,Animalia,PIPITS_EN_WAGTAILS_MOTACILLIDAE,Mountain Pipit,,1,29.270596,-29.571785,Africa,Lesotho,LS,,Lesotho,2014-02-01,10:47
Galerida magnirostris,Animalia,LARKS_ALAUDIDAE,Large-billed Lark,,3,29.222236,-29.549599,Africa,Lesotho,LS,,Lesotho,2014-02-01,11:57
Geocolaptes olivaceus,Animalia,WOODPECKERS_PICIDAE,Ground Woodpecker,,4,29.2159,-29.543036,Africa,Lesotho,LS,,Lesotho,2014-02-01,12:19
Stenostira scita,Animalia,Stenostiridae,Fairy Flycatcher,,2,29.216573,-29.543275,Africa,Lesotho,LS,,Lesotho,2014-02-01,12:35
Gyps coprotheres,Animalia,HAWKS_AND_EAGLES_ACCIPITRIDAE,Cape Vulture,,4,29.217701,-29.545732,Africa,Lesotho,LS,,Lesotho,2014-02-01,12:50
Chaetops aurantius,Animalia,ROCKJUMPERS_CHAETOPIDAE,Drakensberg Rockjumper,,1,29.211209,-29.532954,Africa,Lesotho,LS,,Lesotho,2014-02-01,13:10
Corvus albicollis,Animalia,CROWS_AND_JAYS_CORVIDAE,White-necked Raven,,3,29.210283,-29.527848,Africa,Lesotho,LS,,Lesotho,2014-02-01,13:13
Melaniparus afer,Animalia,TITS_PARIDAE,Grey Tit,,1,29.178614,-29.506121,Africa,Lesotho,LS,,Lesotho,2014-02-01,13:39
Crithagra symonsi,Animalia,FINCHES_FRINGILLIDAE,Drakensberg Siskin,,9,29.288279,-29.584765,Africa,Lesotho,LS,,Lesotho,2014-02-01,15:08
Xanthium orientale + Xanthium strumarium,Plantae,Asteraceae,,,1,27.601754665328,-29.831244065693,Africa,Lesotho,LS,,Lesotho - Malealea,2007-03-24,
Crithagra symonsi,Animalia,FINCHES_FRINGILLIDAE,Drakensberg Siskin,,1,29.285430908203,-29.581817412664,Africa,Lesotho,LS,,Lesotho,2013-02-19,12:00
Galerida magnirostris,Animalia,LARKS_ALAUDIDAE,Large-billed Lark,,1,29.285430908203,-29.581817412664,Africa,Lesotho,LS,,Lesotho,2013-02-19,12:00
Geronticus calvus,Animalia,IBISSES_AND_SPOONBILLS_THRESKIORNITHIDAE,Southern Bald Ibis,,30,29.285430908203,-29.581817412664,Africa,Lesotho,LS,,Lesotho,2013-02-19,12:00
Buteo rufofuscus,Animalia,HAWKS_AND_EAGLES_ACCIPITRIDAE,Jackal Buzzard,,2,29.285430908203,-29.581817412664,Africa,Lesotho,LS,,Lesotho,2013-02-19,12:00
Anthus hoeschi,Animalia,PIPITS_EN_WAGTAILS_MOTACILLIDAE,Mountain Pipit,,1,29.285430908203,-29.581817412664,Africa,Lesotho,LS,,Lesotho,2013-02-19,12:00
Monticola explorator,Animalia,OLD_WORLD_FLYCATCHERS_MUSCICAPIDAE,Sentinel Rock Thrush,,1,29.285430908203,-29.581817412664,Africa,Lesotho,LS,,Lesotho,2013-02-19,12:00
Leonotis spec.,Plantae,Lamiaceae,,,1,28.650054924656,-28.590113945285,Africa,Lesotho,LS,,Lesotho,2012-03-14,
Chlorolestes fasciatus,Animalia,SYLPHS_SYNLESTIDAE,Mountain Malachite,,1,28.650054924656,-28.590113945285,Africa,Lesotho,LS,,Lesotho,2012-03-14,
Buteo rufofuscus,Animalia,HAWKS_AND_EAGLES_ACCIPITRIDAE,Jackal Buzzard,,1,29.288308,-29.584869,Africa,Lesotho,LS,,Lesotho,2013-02-19,11:49
Passer melanurus,Animalia,OLD_WORLD_SPARROWS_PASSERIDAE,Cape Sparrow,,4,29.288308,-29.584869,Africa,Lesotho,LS,,Lesotho,2013-02-19,11:50
Monticola explorator,Animalia,OLD_WORLD_FLYCATCHERS_MUSCICAPIDAE,Sentinel Rock Thrush,,1,29.28161,-29.582892,Africa,Lesotho,LS,,Lesotho,2013-02-19,12:01
Anthus hoeschi,Animalia,PIPITS_EN_WAGTAILS_MOTACILLIDAE,Mountain Pipit,,2,29.272983,-29.575226,Africa,Lesotho,LS,,Lesotho,2013-02-19,12:35
Corvus albicollis,Animalia,CROWS_AND_JAYS_CORVIDAE,White-necked Raven,,2,29.273218,-29.574987,Africa,Lesotho,LS,,Lesotho,2013-02-19,12:35
Geronticus calvus,Animalia,IBISSES_AND_SPOONBILLS_THRESKIORNITHIDAE,Southern Bald Ibis,,30,29.190673828125,-29.516110386062,Africa,Lesotho,LS,,Lesotho,2013-02-19,14:46
Galerida magnirostris,Animalia,LARKS_ALAUDIDAE,Large-billed Lark,,2,29.242858886719,-29.556734316911,Africa,Lesotho,LS,,Lesotho,2013-02-19,14:46
Buteo rufofuscus,Animalia,HAWKS_AND_EAGLES_ACCIPITRIDAE,Jackal Buzzard,,1,29.294979,-29.588125,Africa,Lesotho,LS,,Lesotho,2013-02-19,14:47
Crithagra symonsi,Animalia,FINCHES_FRINGILLIDAE,Drakensberg Siskin,,25,29.294965,-29.588127,Africa,Lesotho,LS,,Lesotho,2013-02-19,14:47
Anthus hoeschi,Animalia,PIPITS_EN_WAGTAILS_MOTACILLIDAE,Mountain Pipit,,1,29.294956,-29.588131,Africa,Lesotho,LS,,Lesotho,2013-02-19,14:48
Chaetops aurantius,Animalia,ROCKJUMPERS_CHAETOPIDAE,Drakensberg Rockjumper,,2,29.294583,-29.58809,Africa,Lesotho,LS,,Lesotho,2013-02-19,14:50
Passer diffusus,Animalia,OLD_WORLD_SPARROWS_PASSERIDAE,Southern Grey-headed Sparrow,,2,29.294635,-29.588115,Africa,Lesotho,LS,,Lesotho,2013-02-19,14:51
Passer melanurus,Animalia,OLD_WORLD_SPARROWS_PASSERIDAE,Cape Sparrow,,10,29.294654,-29.588101,Africa,Lesotho,LS,,Lesotho,2013-02-19,14:51
Nectarinia famosa,Animalia,SUNBIRDS_NECTARINIIDAE,Malachite Sunbird,,2,28.6547389627,-28.5884384781,Africa,Lesotho,LS,,Lesotho,2012-03-14,
Nectarinia famosa,Animalia,SUNBIRDS_NECTARINIIDAE,Malachite Sunbird,,2,28.6264148355,-28.6050930827,Africa,Lesotho,LS,,Lesotho,2012-03-14,
Monticola explorator,Animalia,OLD_WORLD_FLYCATCHERS_MUSCICAPIDAE,Sentinel Rock Thrush,,1,29.2775961757,-29.5779965621,Africa,Lesotho,LS,,Lesotho,2010-11-30,
Buteo rufofuscus,Animalia,HAWKS_AND_EAGLES_ACCIPITRIDAE,Jackal Buzzard,,1,29.2393612861,-29.5578588971,Africa,Lesotho,LS,,Lesotho,2010-11-30,
Geronticus calvus,Animalia,IBISSES_AND_SPOONBILLS_THRESKIORNITHIDAE,Southern Bald Ibis,,7,29.2393612861,-29.5578588971,Africa,Lesotho,LS,,Lesotho,2010-11-30,
Crithagra symonsi,Animalia,FINCHES_FRINGILLIDAE,Drakensberg Siskin,,1,29.2886227369,-29.5846911195,Africa,Lesotho,LS,,Lesotho,2010-11-30,
Passer melanurus,Animalia,OLD_WORLD_SPARROWS_PASSERIDAE,Cape Sparrow,,4,29.2886227369,-29.5846911195,Africa,Lesotho,LS,,Lesotho,2010-11-30,
Ciconia nigra,Animalia,STORKS_CICONIIDAE,Black Stork,,1,29.2874747514,-29.584887051,Africa,Lesotho,LS,,Lesotho,2010-11-30,
Buteo rufofuscus,Animalia,HAWKS_AND_EAGLES_ACCIPITRIDAE,Jackal Buzzard,,2,29.276676178,-29.5771148068,Africa,Lesotho,LS,,Lesotho,2008-10-03,
Tagetes minuta,Plantae,Asteraceae,Southern Marigold,,1,27.601561546279,-29.831150993606,Africa,Lesotho,LS,,Lesotho - Malealea,2007-03-24,
Zehneria scabra,Plantae,CUCURBITACEAE,,,1,28.439655304,-28.9129538598,Africa,Lesotho,LS,,Lesotho - Tšehlanyane NP,2007-04-08,
Hibiscus trionum,Plantae,MALVACEAE,Flower-of-an-Hour,,1,28.454290514628,-28.885750919498,Africa,Lesotho,LS,,Lesotho - Tšehlanyane NP,2007-04-08,
Xanthium spinosum,Plantae,Asteraceae,Spiny Cocklebur,,1,27.4867703766,-29.335345777,Africa,Lesotho,LS,,Lesotho - Maseru,2007-04-09,
Lanius collaris,Animalia,SHRIKES_LANIIDAE,Southern Fiscal,,1,27.48716365546,-29.336730164774,Africa,Lesotho,LS,,Lesotho - Maseru,2007-03-21,
Geocolaptes olivaceus,Animalia,WOODPECKERS_PICIDAE,Ground Woodpecker,,10,29.19368161671537,-29.524975535721357,Africa,Lesotho,LS,,Lesotho,2018-12-14,12:27
Geronticus calvus,Animalia,IBISSES_AND_SPOONBILLS_THRESKIORNITHIDAE,Southern Bald Ibis,,6,29.240090051923723,-29.55969156144095,Africa,Lesotho,LS,,Lesotho,2018-12-14,12:07
Geronticus calvus,Animalia,IBISSES_AND_SPOONBILLS_THRESKIORNITHIDAE,Southern Bald Ibis,,11,28.0241451263428,-29.7785663604736,Africa,Lesotho,LS,,Lesotho,2020-01-23,16:57
Cossypha caffra,Animalia,OLD_WORLD_FLYCATCHERS_MUSCICAPIDAE,Cape Robin-Chat,,1,28.0427398681641,-29.8430595397949,Africa,Lesotho,LS,,Lesotho,2020-01-23,18:09
Passer melanurus,Animalia,OLD_WORLD_SPARROWS_PASSERIDAE,Cape Sparrow,,1,28.0427570343018,-29.8430423736572,Africa,Lesotho,LS,,Lesotho,2020-01-24,05:34
Pycnonotus nigricans,Animalia,BULBULS_PYCNONOTIDAE,African Red-eyed Bulbul,,1,28.0426635742187,-29.8430976867676,Africa,Lesotho,LS,,Lesotho,2020-01-24,06:53
Geronticus calvus,Animalia,IBISSES_AND_SPOONBILLS_THRESKIORNITHIDAE,Southern Bald Ibis,,50,28.0444259643555,-29.8544979095459,Africa,Lesotho,LS,,Lesotho,2020-01-24,11:20
Cossypha caffra,Animalia,OLD_WORLD_FLYCATCHERS_MUSCICAPIDAE,Cape Robin-Chat,,1,28.0426597595215,-29.8430061340332,Africa,Lesotho,LS,,Lesotho,2020-01-25,07:56
Monticola explorator,Animalia,OLD_WORLD_FLYCATCHERS_MUSCICAPIDAE,Sentinel Rock Thrush,,2,29.27267801,-29.57453024,Africa,Lesotho,LS,,Lesotho,2019-11-12,12:35
Passer melanurus,Animalia,OLD_WORLD_SPARROWS_PASSERIDAE,Cape Sparrow,,2,29.28844833,-29.58451843,Africa,Lesotho,LS,,Lesotho,2019-11-12,11:43
Lanius collaris,Animalia,SHRIKES_LANIIDAE,Southern Fiscal,,1,27.5742721557617,-29.4054794311523,Africa,Lesotho,LS,,Lesotho,2019-10-12,15:38
Motacilla capensis,Animalia,PIPITS_EN_WAGTAILS_MOTACILLIDAE,Cape Wagtail,,1,27.8307189941406,-29.6553840637207,Africa,Lesotho,LS,,Lesotho,2019-10-12,16:50
Geronticus calvus,Animalia,IBISSES_AND_SPOONBILLS_THRESKIORNITHIDAE,Southern Bald Ibis,,9,28.043514251709,-29.8432502746582,Africa,Lesotho,LS,,Lesotho,2019-10-12,18:20
Passer melanurus,Animalia,OLD_WORLD_SPARROWS_PASSERIDAE,Cape Sparrow,,1,28.0437622070313,-29.8441677093506,Africa,Lesotho,LS,,Lesotho,2019-10-13,06:38
Ploceus velatus,Animalia,WEAVERS_PLOCEIDAE,Southern Masked Weaver,,1,28.0439414978027,-29.844310760498,Africa,Lesotho,LS,,Lesotho,2019-10-13,06:46
Cossypha caffra,Animalia,OLD_WORLD_FLYCATCHERS_MUSCICAPIDAE,Cape Robin-Chat,,1,28.0437602996826,-29.8428211212158,Africa,Lesotho,LS,,Lesotho,2019-10-13,06:54
Serinus canicollis,Animalia,FINCHES_FRINGILLIDAE,Cape Canary,,1,28.0432891845703,-29.8423480987549,Africa,Lesotho,LS,,Lesotho,2019-10-13,06:58
Turdus olivaceus,Animalia,THRUSHES_TURDIDAE,Olive Thrush,,1,28.0435066223145,-29.843843460083,Africa,Lesotho,LS,,Lesotho,2019-10-13,07:35
Falco rupicolus,Animalia,CARACAS_AND_FALCONS_FALCONIDAE,Rock Kestrel,,1,28.0430431365967,-29.8418483734131,Africa,Lesotho,LS,,Lesotho,2019-10-13,07:59
Pycnonotus nigricans,Animalia,BULBULS_PYCNONOTIDAE,African Red-eyed Bulbul,,1,28.0434341430664,-29.8433456420898,Africa,Lesotho,LS,,Lesotho,2019-10-13,08:59
Emberiza capensis,Animalia,BUNTINGS_EMBERIZIDAE,Cape Bunting,,1,28.0477447509766,-29.8473224639893,Africa,Lesotho,LS,,Lesotho,2019-10-13,09:36
Calandrella cinerea,Animalia,LARKS_ALAUDIDAE,Red-capped Lark,,1,28.0460720062256,-29.8511180877686,Africa,Lesotho,LS,,Lesotho,2019-10-13,09:46
Cecropis cucullata,Animalia,SWALLOWS_HIRUNDINIDAE,Greater Striped Swallow,,1,28.0441398620605,-29.8445777893066,Africa,Lesotho,LS,,Lesotho,2019-10-13,14:12
Ploceus capensis,Animalia,WEAVERS_PLOCEIDAE,Cape Weaver,,1,28.0439414978027,-29.8439331054688,Africa,Lesotho,LS,,Lesotho,2019-10-14,07:59
Passer melanurus,Animalia,OLD_WORLD_SPARROWS_PASSERIDAE,Cape Sparrow,,10,28.787915,-29.48340822,Africa,Lesotho,LS,,Lesotho,2014-09-16,
Euplectes ardens ardens,Animalia,WEAVERS_PLOCEIDAE,Red-collared Widowbird ssp ardens,,1,27.49517441,-29.28168259,Africa,Lesotho,LS,,Lesotho,2019-04-21,
Amadina erythrocephala,Animalia,WAXBILLS_MUNIAS_ALLIES_ESTRILDIDAE,Red-headed Finch,,1,28.06002617,-29.83115099,Africa,Lesotho,LS,,Lesotho,2019-04-21,
Falco rupicolus,Animalia,CARACAS_AND_FALCONS_FALCONIDAE,Rock Kestrel,,1,28.06002617,-29.83115099,Africa,Lesotho,LS,,Lesotho,2019-04-21,
Geronticus calvus,Animalia,IBISSES_AND_SPOONBILLS_THRESKIORNITHIDAE,Southern Bald Ibis,,1,28.06002617,-29.83115099,Africa,Lesotho,LS,,Lesotho,2019-04-21,
Monticola explorator,Animalia,OLD_WORLD_FLYCATCHERS_MUSCICAPIDAE,Sentinel Rock Thrush,,1,28.06002617,-29.83115099,Africa,Lesotho,LS,,Lesotho,2019-04-21,
Emberiza capensis,Animalia,BUNTINGS_EMBERIZIDAE,Cape Bunting,,1,29.10325527,-29.89425257,Africa,Lesotho,LS,,Lesotho - Sehlabathebe NP,2019-04-21,
Pelea capreolus,Animalia,BOVIDS_BOVIDAE,Grey Rhebok,,1,29.10325527,-29.89425257,Africa,Lesotho,LS,,Lesotho - Sehlabathebe NP,2019-04-21,
Balearica regulorum,Animalia,CRANES_GRUIDAE,Grey Crowned Crane,,1,29.10325527,-29.89425257,Africa,Lesotho,LS,,Lesotho - Sehlabathebe NP,2019-04-21,
Buteo rufofuscus,Animalia,HAWKS_AND_EAGLES_ACCIPITRIDAE,Jackal Buzzard,,1,29.10325527,-29.89425257,Africa,Lesotho,LS,,Lesotho - Sehlabathebe NP,2019-04-21,
Saxicola torquatus oreobates,Animalia,OLD_WORLD_FLYCATCHERS_MUSCICAPIDAE,African Stonechat ssp oreobates,,1,29.10325527,-29.89425257,Africa,Lesotho,LS,,Lesotho - Sehlabathebe NP,2019-04-21,
Scleroptila afra,Animalia,FRANCOLINS_QUAILS_PARTRIDGES_AND_PHEASANTS_PHASIANIDAE,Grey-winged Francolin,,1,29.10325527,-29.89425257,Africa,Lesotho,LS,,Lesotho - Sehlabathebe NP,2019-04-21,
Geronticus calvus,Animalia,IBISSES_AND_SPOONBILLS_THRESKIORNITHIDAE,Southern Bald Ibis,,1,29.10325527,-29.89425257,Africa,Lesotho,LS,,Lesotho - Sehlabathebe NP,2019-04-21,
Monticola explorator,Animalia,OLD_WORLD_FLYCATCHERS_MUSCICAPIDAE,Sentinel Rock Thrush,,1,29.2789936065674,-29.5800189971924,Africa,Lesotho,LS,,Lesotho,2018-12-14,11:43
Myrmecocichla monticola,Animalia,OLD_WORLD_FLYCATCHERS_MUSCICAPIDAE,Mountain Wheatear,,1,29.2733783721924,-29.5744514465332,Africa,Lesotho,LS,,Lesotho,2018-12-14,11:46
Myrmecocichla monticola,Animalia,OLD_WORLD_FLYCATCHERS_MUSCICAPIDAE,Mountain Wheatear,,1,29.2634124755859,-29.5704803466797,Africa,Lesotho,LS,,Lesotho,2018-12-14,12:15
Chaetops aurantius,Animalia,ROCKJUMPERS_CHAETOPIDAE,Drakensberg Rockjumper,,2,29.2895240783691,-29.5849132537842,Africa,Lesotho,LS,,Lesotho,2018-12-14,14:33
Crithagra symonsi,Animalia,FINCHES_FRINGILLIDAE,Drakensberg Siskin,,1,29.2861423492432,-29.5847225189209,Africa,Lesotho,LS,,Lesotho,2018-12-14,11:33
Monticola explorator,Animalia,OLD_WORLD_FLYCATCHERS_MUSCICAPIDAE,Sentinel Rock Thrush,,1,29.2789440155029,-29.579870223999,Africa,Lesotho,LS,,Lesotho,2018-12-14,11:43
Myrmecocichla monticola,Animalia,OLD_WORLD_FLYCATCHERS_MUSCICAPIDAE,Mountain Wheatear,,1,29.2735347747803,-29.5745277404785,Africa,Lesotho,LS,,Lesotho,2018-12-14,11:47
Monticola explorator,Animalia,OLD_WORLD_FLYCATCHERS_MUSCICAPIDAE,Sentinel Rock Thrush,,1,29.2649517059326,-29.5708026885986,Africa,Lesotho,LS,,Lesotho,2018-12-14,12:04
Myrmecocichla monticola,Animalia,OLD_WORLD_FLYCATCHERS_MUSCICAPIDAE,Mountain Wheatear,,1,29.263391494751,-29.5702114105225,Africa,Lesotho,LS,,Lesotho,2018-12-14,12:16
Emberiza capensis,Animalia,BUNTINGS_EMBERIZIDAE,Cape Bunting,,1,29.2633457183838,-29.5716724395752,Africa,Lesotho,LS,,Lesotho,2018-12-14,12:32
Emberiza capensis,Animalia,BUNTINGS_EMBERIZIDAE,Cape Bunting,,1,29.2179164886475,-29.5439491271973,Africa,Lesotho,LS,,Lesotho,2018-12-14,13:40
Crithagra flaviventris,Animalia,FINCHES_FRINGILLIDAE,Yellow Canary,,2,29.2126522064209,-29.5386981964111,Africa,Lesotho,LS,,Lesotho,2018-12-14,14:10
Passer melanurus,Animalia,OLD_WORLD_SPARROWS_PASSERIDAE,Cape Sparrow,,2,29.2336235046387,-29.5543155670166,Africa,Lesotho,LS,,Lesotho,2018-12-14,14:13
Chaetops aurantius,Animalia,ROCKJUMPERS_CHAETOPIDAE,Drakensberg Rockjumper,,2,29.2895755767822,-29.5849514007568,Africa,Lesotho,LS,,Lesotho,2018-12-14,14:31
Crithagra symonsi,Animalia,FINCHES_FRINGILLIDAE,Drakensberg Siskin,,2,29.2883071899414,-29.5848197937012,Africa,Lesotho,LS,,Lesotho,2018-12-14,14:45
Monticola explorator,Animalia,OLD_WORLD_FLYCATCHERS_MUSCICAPIDAE,Sentinel Rock Thrush,,2,29.2868595123291,-29.5842266082764,Africa,Lesotho,LS,,Lesotho,2018-12-14,14:57
Tragelaphus oryx,Animalia,BOVIDS_BOVIDAE,Common Eland,,4,27.95660019,-28.97776028,Africa,Lesotho,LS,,Lesotho,2014-07-16,
Passer melanurus,Animalia,OLD_WORLD_SPARROWS_PASSERIDAE,Cape Sparrow,,1,29.28575701,-29.58447632,Africa,Lesotho,LS,,Lesotho,2018-07-30,11:53
Gyps coprotheres,Animalia,HAWKS_AND_EAGLES_ACCIPITRIDAE,Cape Vulture,,2,29.1906249616567,-29.5215875096894,Africa,Lesotho,LS,,Lesotho,2018-05-21,09:25
Monticola rupestris,Animalia,OLD_WORLD_FLYCATCHERS_MUSCICAPIDAE,Cape Rock Thrush,,1,29.2638474237446,-29.5700484048851,Africa,Lesotho,LS,,Lesotho,2018-05-21,08:38
Gyps coprotheres,Animalia,HAWKS_AND_EAGLES_ACCIPITRIDAE,Cape Vulture,,1,29.2638345156137,-29.57000469326,Africa,Lesotho,LS,,Lesotho,2018-05-21,08:33
Geocolaptes olivaceus,Animalia,WOODPECKERS_PICIDAE,Ground Woodpecker,,1,29.2639308236812,-29.5700107701398,Africa,Lesotho,LS,,Lesotho,2018-05-21,08:33
Passer melanurus,Animalia,OLD_WORLD_SPARROWS_PASSERIDAE,Cape Sparrow,,1,29.28935594,-29.58506104,Africa,Lesotho,LS,,Lesotho,2017-11-20,11:58
Crithagra symonsi,Animalia,FINCHES_FRINGILLIDAE,Drakensberg Siskin,,1,29.28935253,-29.58504851,Africa,Lesotho,LS,,Lesotho,2017-11-20,11:58
Chaetops aurantius,Animalia,ROCKJUMPERS_CHAETOPIDAE,Drakensberg Rockjumper,,1,29.28943435,-29.58501453,Africa,Lesotho,LS,,Lesotho,2017-11-20,12:02
Emberiza capensis,Animalia,BUNTINGS_EMBERIZIDAE,Cape Bunting,,1,29.28939823,-29.58503444,Africa,Lesotho,LS,,Lesotho,2017-11-20,12:03
Monticola explorator,Animalia,OLD_WORLD_FLYCATCHERS_MUSCICAPIDAE,Sentinel Rock Thrush,,1,29.28935303,-29.58503254,Africa,Lesotho,LS,,Lesotho,2017-11-20,12:12
Geronticus calvus,Animalia,IBISSES_AND_SPOONBILLS_THRESKIORNITHIDAE,Southern Bald Ibis,,4,29.27831908,-29.58337452,Africa,Lesotho,LS,,Lesotho,2017-11-20,13:36
Serinus canicollis,Animalia,FINCHES_FRINGILLIDAE,Cape Canary,,1,28.08289493,-29.848315,Africa,Lesotho,LS,,Lesotho,2016-12-23,
Cossypha caffra,Animalia,OLD_WORLD_FLYCATCHERS_MUSCICAPIDAE,Cape Robin-Chat,,1,28.04412603,-29.84408299,Africa,Lesotho,LS,,Lesotho,2016-12-23,
Nectarinia famosa,Animalia,SUNBIRDS_NECTARINIIDAE,Malachite Sunbird,,1,28.04367585,-29.84346889,Africa,Lesotho,LS,,Lesotho,2016-12-23,
Passer melanurus,Animalia,OLD_WORLD_SPARROWS_PASSERIDAE,Cape Sparrow,,1,28.04367585,-29.84346889,Africa,Lesotho,LS,,Lesotho,2016-12-23,
Pycnonotus nigricans,Animalia,BULBULS_PYCNONOTIDAE,African Red-eyed Bulbul,,1,28.04409027,-29.84304118,Africa,Lesotho,LS,,Lesotho,2016-12-22,
Onychognathus morio,Animalia,STARLINGS_STURNIDAE,Red-winged Starling,,1,28.04409027,-29.84304118,Africa,Lesotho,LS,,Lesotho,2016-12-22,
Crithagra flaviventris,Animalia,FINCHES_FRINGILLIDAE,Yellow Canary,,1,28.04409027,-29.84304118,Africa,Lesotho,LS,,Lesotho,2016-12-22,
Aves indet.,Animalia,unknown,Unidentified bird,,1,28.04409027,-29.84304118,Africa,Lesotho,LS,,Lesotho,2016-12-22,
Euplectes orix,Animalia,WEAVERS_PLOCEIDAE,Southern Red Bishop,,1,28.04409027,-29.84304118,Africa,Lesotho,LS,,Lesotho,2016-12-22,
Passer domesticus,Animalia,OLD_WORLD_SPARROWS_PASSERIDAE,House Sparrow,,1,28.04409027,-29.84304118,Africa,Lesotho,LS,,Lesotho,2016-12-22,
Serinus canicollis,Animalia,FINCHES_FRINGILLIDAE,Cape Canary,,1,28.04409027,-29.84304118,Africa,Lesotho,LS,,Lesotho,2016-12-22,
Motacilla capensis,Animalia,PIPITS_EN_WAGTAILS_MOTACILLIDAE,Cape Wagtail,,1,28.04409027,-29.84304118,Africa,Lesotho,LS,,Lesotho,2016-12-22,
Geronticus calvus,Animalia,IBISSES_AND_SPOONBILLS_THRESKIORNITHIDAE,Southern Bald Ibis,,8,28.04409027,-29.84304118,Africa,Lesotho,LS,,Lesotho,2016-12-22,
Cossypha caffra,Animalia,OLD_WORLD_FLYCATCHERS_MUSCICAPIDAE,Cape Robin-Chat,,1,28.04409027,-29.84304118,Africa,Lesotho,LS,,Lesotho,2016-12-22,
Passer melanurus,Animalia,OLD_WORLD_SPARROWS_PASSERIDAE,Cape Sparrow,,1,28.04409027,-29.84304118,Africa,Lesotho,LS,,Lesotho,2016-12-22,
Melaniparus afer,Animalia,TITS_PARIDAE,Grey Tit,,1,29.2181,-29.545,Africa,Lesotho,LS,,Lesotho,2017-01-31,13:22
Gypaetus barbatus,Animalia,HAWKS_AND_EAGLES_ACCIPITRIDAE,Bearded Vulture,,1,29.2176,-29.5458,Africa,Lesotho,LS,,Lesotho,2017-01-31,13:03
Myrmecocichla monticola,Animalia,OLD_WORLD_FLYCATCHERS_MUSCICAPIDAE,Mountain Wheatear,,1,29.2352,-29.5545,Africa,Lesotho,LS,,Lesotho,2017-01-31,12:07
Anthus hoeschi,Animalia,PIPITS_EN_WAGTAILS_MOTACILLIDAE,Mountain Pipit,,1,29.2642,-29.5708,Africa,Lesotho,LS,,Lesotho,2017-01-31,11:32
Emarginata sinuata,Animalia,OLD_WORLD_FLYCATCHERS_MUSCICAPIDAE,Sickle-winged Chat,,1,29.2856,-29.5838,Africa,Lesotho,LS,,Lesotho,2017-01-31,11:05
Monticola explorator,Animalia,OLD_WORLD_FLYCATCHERS_MUSCICAPIDAE,Sentinel Rock Thrush,,1,29.2883,-29.5849,Africa,Lesotho,LS,,Lesotho,2017-01-31,10:55
Passer melanurus,Animalia,OLD_WORLD_SPARROWS_PASSERIDAE,Cape Sparrow,,1,29.2859,-29.5845,Africa,Lesotho,LS,,Lesotho,2017-01-31,10:51
Geronticus calvus,Animalia,IBISSES_AND_SPOONBILLS_THRESKIORNITHIDAE,Southern Bald Ibis,,2,29.28361288,-29.58377517,Africa,Lesotho,LS,,Lesotho,2017-01-12,09:28
Gyps coprotheres,Animalia,HAWKS_AND_EAGLES_ACCIPITRIDAE,Cape Vulture,,17,29.28094345,-29.58258405,Africa,Lesotho,LS,,Lesotho,2017-01-12,09:29
Anthus hoeschi,Animalia,PIPITS_EN_WAGTAILS_MOTACILLIDAE,Mountain Pipit,,3,29.27173429,-29.57623148,Africa,Lesotho,LS,,Lesotho,2017-01-12,09:36
Emarginata sinuata,Animalia,OLD_WORLD_FLYCATCHERS_MUSCICAPIDAE,Sickle-winged Chat,,3,29.27173436,-29.57623555,Africa,Lesotho,LS,,Lesotho,2017-01-12,09:37
Passer melanurus,Animalia,OLD_WORLD_SPARROWS_PASSERIDAE,Cape Sparrow,,3,29.27173681,-29.57624938,Africa,Lesotho,LS,,Lesotho,2017-01-12,09:37
Buteo rufofuscus,Animalia,HAWKS_AND_EAGLES_ACCIPITRIDAE,Jackal Buzzard,,3,29.25131041,-29.56306937,Africa,Lesotho,LS,,Lesotho,2017-01-12,09:57
Geocolaptes olivaceus,Animalia,WOODPECKERS_PICIDAE,Ground Woodpecker,,4,29.21696274,-29.54332858,Africa,Lesotho,LS,,Lesotho,2017-01-12,10:28
Melaniparus afer,Animalia,TITS_PARIDAE,Grey Tit,,8,29.21660996,-29.54344751,Africa,Lesotho,LS,,Lesotho,2017-01-12,10:28
Monticola explorator,Animalia,OLD_WORLD_FLYCATCHERS_MUSCICAPIDAE,Sentinel Rock Thrush,,1,29.21611711,-29.54317768,Africa,Lesotho,LS,,Lesotho,2017-01-12,10:33
Crithagra symonsi,Animalia,FINCHES_FRINGILLIDAE,Drakensberg Siskin,,1,29.21787667,-29.54349971,Africa,Lesotho,LS,,Lesotho,2017-01-12,10:47
Chaetops aurantius,Animalia,ROCKJUMPERS_CHAETOPIDAE,Drakensberg Rockjumper,,1,29.17759868,-29.50714174,Africa,Lesotho,LS,,Lesotho,2017-01-12,11:15
Gypaetus barbatus,Animalia,HAWKS_AND_EAGLES_ACCIPITRIDAE,Bearded Vulture,,1,29.16783806,-29.49001272,Africa,Lesotho,LS,,Lesotho,2017-01-12,11:32
Passer melanurus,Animalia,OLD_WORLD_SPARROWS_PASSERIDAE,Cape Sparrow,,1,29.2858306655897,-29.5845931373352,Africa,Lesotho,LS,,Lesotho,2016-12-06,10:20
Crithagra symonsi,Animalia,FINCHES_FRINGILLIDAE,Drakensberg Siskin,,4,29.2855772618902,-29.5838976345719,Africa,Lesotho,LS,,Lesotho,2016-12-06,10:23
Crithagra symonsi,Animalia,FINCHES_FRINGILLIDAE,Drakensberg Siskin,,9,29.2881494101057,-29.5845192018853,Africa,Lesotho,LS,,Lesotho,2016-12-06,10:37
Emarginata sinuata,Animalia,OLD_WORLD_FLYCATCHERS_MUSCICAPIDAE,Sickle-winged Chat,,1,29.288142318401,-29.5845141072914,Africa,Lesotho,LS,,Lesotho,2016-12-06,10:37
Nectarinia famosa,Animalia,SUNBIRDS_NECTARINIIDAE,Malachite Sunbird,,4,29.287949096015,-29.5845119091435,Africa,Lesotho,LS,,Lesotho,2016-12-06,10:38
Passer melanurus,Animalia,OLD_WORLD_SPARROWS_PASSERIDAE,Cape Sparrow,,3,29.2874834480456,-29.5845156360389,Africa,Lesotho,LS,,Lesotho,2016-12-06,10:38
Geocolaptes olivaceus,Animalia,WOODPECKERS_PICIDAE,Ground Woodpecker,,1,29.2636190597113,-29.5702879587599,Africa,Lesotho,LS,,Lesotho,2016-12-06,10:48
Anthus hoeschi,Animalia,PIPITS_EN_WAGTAILS_MOTACILLIDAE,Mountain Pipit,,3,29.2634696420223,-29.5702970125,Africa,Lesotho,LS,,Lesotho,2016-12-06,10:51
Gyps coprotheres,Animalia,HAWKS_AND_EAGLES_ACCIPITRIDAE,Cape Vulture,,1,29.2634663749693,-29.5702928482678,Africa,Lesotho,LS,,Lesotho,2016-12-06,10:51
Geocolaptes olivaceus,Animalia,WOODPECKERS_PICIDAE,Ground Woodpecker,,2,29.2632525712003,-29.5701462833996,Africa,Lesotho,LS,,Lesotho,2016-12-06,10:53
Melaniparus afer,Animalia,TITS_PARIDAE,Grey Tit,,1,29.2632437441335,-29.5701317015616,Africa,Lesotho,LS,,Lesotho,2016-12-06,10:54
Myrmecocichla monticola,Animalia,OLD_WORLD_FLYCATCHERS_MUSCICAPIDAE,Mountain Wheatear,,2,29.2346255553801,-29.5545048615898,Africa,Lesotho,LS,,Lesotho,2016-12-06,11:17
Crithagra symonsi,Animalia,FINCHES_FRINGILLIDAE,Drakensberg Siskin,,3,29.2118812158184,-29.5339684783082,Africa,Lesotho,LS,,Lesotho,2016-12-06,11:24
Chaetops aurantius,Animalia,ROCKJUMPERS_CHAETOPIDAE,Drakensberg Rockjumper,,2,29.151116847077,-29.4639544069705,Africa,Lesotho,LS,,Lesotho,2016-12-06,12:33
Crithagra flaviventris,Animalia,FINCHES_FRINGILLIDAE,Yellow Canary,,1,29.1511058422205,-29.4639052412919,Africa,Lesotho,LS,,Lesotho,2016-12-06,12:38
Crithagra flaviventris,Animalia,FINCHES_FRINGILLIDAE,Yellow Canary,,5,29.1552638741864,-29.4663763309172,Africa,Lesotho,LS,,Lesotho,2016-12-06,12:49
Gypaetus barbatus,Animalia,HAWKS_AND_EAGLES_ACCIPITRIDAE,Bearded Vulture,,1,29.1619269342174,-29.4731702730235,Africa,Lesotho,LS,,Lesotho,2016-12-06,13:07
Monticola explorator,Animalia,OLD_WORLD_FLYCATCHERS_MUSCICAPIDAE,Sentinel Rock Thrush,,1,29.2152220538338,-29.5430581685539,Africa,Lesotho,LS,,Lesotho,2016-12-06,13:35
Nectarinia famosa,Animalia,SUNBIRDS_NECTARINIIDAE,Malachite Sunbird,,1,29.2151794775262,-29.5430818560765,Africa,Lesotho,LS,,Lesotho,2016-12-06,13:36
Crithagra symonsi,Animalia,FINCHES_FRINGILLIDAE,Drakensberg Siskin,,2,29.2151747204646,-29.5430876878706,Africa,Lesotho,LS,,Lesotho,2016-12-06,13:36
Emberiza capensis,Animalia,BUNTINGS_EMBERIZIDAE,Cape Bunting,,2,29.2151720453527,-29.5430910389463,Africa,Lesotho,LS,,Lesotho,2016-12-06,13:36
Geronticus calvus,Animalia,IBISSES_AND_SPOONBILLS_THRESKIORNITHIDAE,Southern Bald Ibis,,9,29.2840622536919,-29.5840370913369,Africa,Lesotho,LS,,Lesotho,2016-12-06,14:10
Monticola explorator,Animalia,OLD_WORLD_FLYCATCHERS_MUSCICAPIDAE,Sentinel Rock Thrush,,2,29.2884,-29.5843,Africa,Lesotho,LS,,Lesotho,2016-08-08,13:58
Emberiza capensis,Animalia,BUNTINGS_EMBERIZIDAE,Cape Bunting,,1,29.2884,-29.5843,Africa,Lesotho,LS,,Lesotho,2016-08-08,13:58
Chaetops aurantius,Animalia,ROCKJUMPERS_CHAETOPIDAE,Drakensberg Rockjumper,,2,29.2879,-29.5843,Africa,Lesotho,LS,,Lesotho,2016-08-08,14:29
Passer melanurus,Animalia,OLD_WORLD_SPARROWS_PASSERIDAE,Cape Sparrow,,15,29.2884,-29.5843,Africa,Lesotho,LS,,Lesotho,2016-08-08,13:58
Gyps coprotheres,Animalia,HAWKS_AND_EAGLES_ACCIPITRIDAE,Cape Vulture,,1,29.236,-29.5567,Africa,Lesotho,LS,,Lesotho,2016-08-08,12:16
Geronticus calvus,Animalia,IBISSES_AND_SPOONBILLS_THRESKIORNITHIDAE,Southern Bald Ibis,,11,27.7423,-29.0428,Africa,Lesotho,LS,,Lesotho,2016-08-07,10:10
Pycnonotus nigricans superior,Animalia,BULBULS_PYCNONOTIDAE,African Red-eyed Bulbul ssp superior,,2,27.4731,-29.3217,Africa,Lesotho,LS,,Lesotho - Maseru,2016-08-07,08:29
Prinia maculosa,Animalia,CISTICOLAS_AND_ALLIES_CISTICOLIDAE,Karoo Prinia,,2,29.2523,-29.5668,Africa,Lesotho,LS,,Lesotho,2016-06-08,11:18
Geocolaptes olivaceus,Animalia,WOODPECKERS_PICIDAE,Ground Woodpecker,,2,29.2565,-29.5658,Africa,Lesotho,LS,,Lesotho,2016-06-08,11:01
Passer melanurus,Animalia,OLD_WORLD_SPARROWS_PASSERIDAE,Cape Sparrow,,2,29.2854801099747,-29.5843992289156,Africa,Lesotho,LS,,Lesotho,2015-11-04,11:09
Crithagra symonsi,Animalia,FINCHES_FRINGILLIDAE,Drakensberg Siskin,,4,29.2856494244188,-29.5847363071516,Africa,Lesotho,LS,,Lesotho,2015-11-04,11:12
Crithagra symonsi,Animalia,FINCHES_FRINGILLIDAE,Drakensberg Siskin,,2,29.2854801099747,-29.5843992289156,Africa,Lesotho,LS,,Lesotho,2015-11-04,11:11
Emberiza capensis,Animalia,BUNTINGS_EMBERIZIDAE,Cape Bunting,,1,29.2882940825,-29.5847707568,Africa,Lesotho,LS,,Lesotho,2015-11-04,15:08
Emberiza capensis,Animalia,BUNTINGS_EMBERIZIDAE,Cape Bunting,,2,29.2533417139,-29.5674691675,Africa,Lesotho,LS,,Lesotho,2015-11-04,12:20
Anthus hoeschi,Animalia,PIPITS_EN_WAGTAILS_MOTACILLIDAE,Mountain Pipit,,1,29.252310320735,-29.5662799431011,Africa,Lesotho,LS,,Lesotho,2015-11-04,12:09
Anthus hoeschi,Animalia,PIPITS_EN_WAGTAILS_MOTACILLIDAE,Mountain Pipit,,1,29.2720750998706,-29.5765739679337,Africa,Lesotho,LS,,Lesotho,2015-11-04,11:32
Onychognathus morio,Animalia,STARLINGS_STURNIDAE,Red-winged Starling,,2,29.28548011,-29.5843992289,Africa,Lesotho,LS,,Lesotho,2015-11-04,11:11
Emarginata sinuata,Animalia,OLD_WORLD_FLYCATCHERS_MUSCICAPIDAE,Sickle-winged Chat,,1,29.2720750998706,-29.5765739679337,Africa,Lesotho,LS,,Lesotho,2015-11-04,11:30
Emarginata sinuata,Animalia,OLD_WORLD_FLYCATCHERS_MUSCICAPIDAE,Sickle-winged Chat,,3,29.2789817042649,-29.579797773622,Africa,Lesotho,LS,,Lesotho,2015-11-04,11:23
Emarginata sinuata,Animalia,OLD_WORLD_FLYCATCHERS_MUSCICAPIDAE,Sickle-winged Chat,,1,29.285462172702,-29.584363270551,Africa,Lesotho,LS,,Lesotho,2015-11-04,11:08
Monticola explorator,Animalia,OLD_WORLD_FLYCATCHERS_MUSCICAPIDAE,Sentinel Rock Thrush,,1,29.2882940825075,-29.5847707567737,Africa,Lesotho,LS,,Lesotho,2015-11-04,15:07
Monticola explorator,Animalia,OLD_WORLD_FLYCATCHERS_MUSCICAPIDAE,Sentinel Rock Thrush,,1,29.2532549612224,-29.5675043715164,Africa,Lesotho,LS,,Lesotho,2015-11-04,12:17
Monticola explorator,Animalia,OLD_WORLD_FLYCATCHERS_MUSCICAPIDAE,Sentinel Rock Thrush,,1,29.2720410693437,-29.5768648618832,Africa,Lesotho,LS,,Lesotho,2015-11-04,11:36
Prinia maculosa,Animalia,CISTICOLAS_AND_ALLIES_CISTICOLIDAE,Karoo Prinia,,1,29.2534511816,-29.5670416066,Africa,Lesotho,LS,,Lesotho,2015-11-04,12:22
Melaniparus afer,Animalia,TITS_PARIDAE,Grey Tit,,1,29.1614894662052,-29.4776486931369,Africa,Lesotho,LS,,Lesotho,2015-11-04,14:10
Melaniparus afer,Animalia,TITS_PARIDAE,Grey Tit,,1,29.1459282115102,-29.4582672603428,Africa,Lesotho,LS,,Lesotho,2015-11-04,13:51
Galerida magnirostris,Animalia,LARKS_ALAUDIDAE,Large-billed Lark,,2,29.2594229523,-29.5670499466,Africa,Lesotho,LS,,Lesotho,2015-11-04,11:58
Corvus albicollis,Animalia,CROWS_AND_JAYS_CORVIDAE,White-necked Raven,,1,29.213309744373,-29.539688732475,Africa,Lesotho,LS,,Lesotho,2015-11-04,12:38
Corvus albicollis,Animalia,CROWS_AND_JAYS_CORVIDAE,White-necked Raven,,6,29.27535510621965,-29.576161494478583,Africa,Lesotho,LS,,Lesotho,2015-11-04,11:27
Geronticus calvus,Animalia,IBISSES_AND_SPOONBILLS_THRESKIORNITHIDAE,Southern Bald Ibis,,1,29.288197020068765,-29.584780102595687,Africa,Lesotho,LS,,Lesotho,2015-11-04,15:11
Geronticus calvus,Animalia,IBISSES_AND_SPOONBILLS_THRESKIORNITHIDAE,Southern Bald Ibis,,2,29.2811431456357,-29.5827450603247,Africa,Lesotho,LS,,Lesotho,2015-11-04,11:21
Emberiza capensis,Animalia,BUNTINGS_EMBERIZIDAE,Cape Bunting,,2,29.2533417139,-29.5674691675,Africa,Lesotho,LS,,Lesotho,2015-11-04,12:20
Onychognathus morio,Animalia,STARLINGS_STURNIDAE,Red-winged Starling,,2,29.28548011,-29.5843992289,Africa,Lesotho,LS,,Lesotho,2015-11-04,11:11
Prinia maculosa,Animalia,CISTICOLAS_AND_ALLIES_CISTICOLIDAE,Karoo Prinia,,1,29.2534511816,-29.5670416066,Africa,Lesotho,LS,,Lesotho,2015-11-04,12:22
Emarginata sinuata,Animalia,OLD_WORLD_FLYCATCHERS_MUSCICAPIDAE,Sickle-winged Chat,,1,29.285462172702,-29.584363270551,Africa,Lesotho,LS,,Lesotho,2015-11-04,11:08
Passer melanurus,Animalia,OLD_WORLD_SPARROWS_PASSERIDAE,Cape Sparrow,,2,29.2854801099747,-29.5843992289156,Africa,Lesotho,LS,,Lesotho,2015-11-04,11:09
Crithagra symonsi,Animalia,FINCHES_FRINGILLIDAE,Drakensberg Siskin,,2,29.2854801099747,-29.5843992289156,Africa,Lesotho,LS,,Lesotho,2015-11-04,11:11
Crithagra symonsi,Animalia,FINCHES_FRINGILLIDAE,Drakensberg Siskin,,4,29.2856494244188,-29.5847363071516,Africa,Lesotho,LS,,Lesotho,2015-11-04,11:12
Geronticus calvus,Animalia,IBISSES_AND_SPOONBILLS_THRESKIORNITHIDAE,Southern Bald Ibis,,2,29.2811431456357,-29.5827450603247,Africa,Lesotho,LS,,Lesotho,2015-11-04,11:21
Emarginata sinuata,Animalia,OLD_WORLD_FLYCATCHERS_MUSCICAPIDAE,Sickle-winged Chat,,3,29.2789817042649,-29.579797773622,Africa,Lesotho,LS,,Lesotho,2015-11-04,11:23
Corvus albicollis,Animalia,CROWS_AND_JAYS_CORVIDAE,White-necked Raven,,4,29.2766107153,-29.5774093084,Africa,Lesotho,LS,,Lesotho,2015-11-04,11:27
Emarginata sinuata,Animalia,OLD_WORLD_FLYCATCHERS_MUSCICAPIDAE,Sickle-winged Chat,,1,29.2720750998706,-29.5765739679337,Africa,Lesotho,LS,,Lesotho,2015-11-04,11:30
Anthus hoeschi,Animalia,PIPITS_EN_WAGTAILS_MOTACILLIDAE,Mountain Pipit,,1,29.2720750998706,-29.5765739679337,Africa,Lesotho,LS,,Lesotho,2015-11-04,11:32
Monticola explorator,Animalia,OLD_WORLD_FLYCATCHERS_MUSCICAPIDAE,Sentinel Rock Thrush,,1,29.2720410693437,-29.5768648618832,Africa,Lesotho,LS,,Lesotho,2015-11-04,11:36
Galerida magnirostris,Animalia,LARKS_ALAUDIDAE,Large-billed Lark,,2,29.2594229523,-29.5670499466,Africa,Lesotho,LS,,Lesotho,2015-11-04,11:58
Anthus hoeschi,Animalia,PIPITS_EN_WAGTAILS_MOTACILLIDAE,Mountain Pipit,,1,29.252310320735,-29.5662799431011,Africa,Lesotho,LS,,Lesotho,2015-11-04,12:09
Monticola explorator,Animalia,OLD_WORLD_FLYCATCHERS_MUSCICAPIDAE,Sentinel Rock Thrush,,1,29.2532549612224,-29.5675043715164,Africa,Lesotho,LS,,Lesotho,2015-11-04,12:17
Corvus albicollis,Animalia,CROWS_AND_JAYS_CORVIDAE,White-necked Raven,,1,29.213309744373,-29.539688732475,Africa,Lesotho,LS,,Lesotho,2015-11-04,12:38
Melaniparus afer,Animalia,TITS_PARIDAE,Grey Tit,,1,29.1459282115102,-29.4582672603428,Africa,Lesotho,LS,,Lesotho,2015-11-04,13:51
Melaniparus afer,Animalia,TITS_PARIDAE,Grey Tit,,1,29.1614894662052,-29.4776486931369,Africa,Lesotho,LS,,Lesotho,2015-11-04,14:10
Monticola explorator,Animalia,OLD_WORLD_FLYCATCHERS_MUSCICAPIDAE,Sentinel Rock Thrush,,1,29.2882940825075,-29.5847707567737,Africa,Lesotho,LS,,Lesotho,2015-11-04,15:07
Emberiza capensis,Animalia,BUNTINGS_EMBERIZIDAE,Cape Bunting,,1,29.2882940825,-29.5847707568,Africa,Lesotho,LS,,Lesotho,2015-11-04,15:08
Crithagra symonsi,Animalia,FINCHES_FRINGILLIDAE,Drakensberg Siskin,,1,29.28826566,-29.58474533,Africa,Lesotho,LS,,Lesotho,2015-11-22,15:39
Emarginata sinuata,Animalia,OLD_WORLD_FLYCATCHERS_MUSCICAPIDAE,Sickle-winged Chat,,1,29.28827798,-29.58486179,Africa,Lesotho,LS,,Lesotho,2015-11-22,16:03
Columba guinea,Animalia,PIGEONS_AND_DOVES_COLUMBIDAE,Speckled Pigeon,,10,29.28827798,-29.58486179,Africa,Lesotho,LS,,Lesotho,2015-11-22,16:03
Monticola explorator,Animalia,OLD_WORLD_FLYCATCHERS_MUSCICAPIDAE,Sentinel Rock Thrush,,4,29.28828443,-29.58486497,Africa,Lesotho,LS,,Lesotho,2015-11-22,16:04
Emberiza capensis,Animalia,BUNTINGS_EMBERIZIDAE,Cape Bunting,,6,29.28828454,-29.58486505,Africa,Lesotho,LS,,Lesotho,2015-11-22,16:04
Passer melanurus,Animalia,OLD_WORLD_SPARROWS_PASSERIDAE,Cape Sparrow,,4,29.28828474,-29.58486502,Africa,Lesotho,LS,,Lesotho,2015-11-22,16:04
Emarginata sinuata,Animalia,OLD_WORLD_FLYCATCHERS_MUSCICAPIDAE,Sickle-winged Chat,,1,29.285462172702,-29.584363270551,Africa,Lesotho,LS,,Lesotho,2015-11-04,11:08
Passer melanurus,Animalia,OLD_WORLD_SPARROWS_PASSERIDAE,Cape Sparrow,,2,29.2854801099747,-29.5843992289156,Africa,Lesotho,LS,,Lesotho,2015-11-04,11:09
Crithagra symonsi,Animalia,FINCHES_FRINGILLIDAE,Drakensberg Siskin,,2,29.2854801099747,-29.5843992289156,Africa,Lesotho,LS,,Lesotho,2015-11-04,11:11
Crithagra symonsi,Animalia,FINCHES_FRINGILLIDAE,Drakensberg Siskin,,4,29.2856494244188,-29.5847363071516,Africa,Lesotho,LS,,Lesotho,2015-11-04,11:12
Geronticus calvus,Animalia,IBISSES_AND_SPOONBILLS_THRESKIORNITHIDAE,Southern Bald Ibis,,2,29.2811431456357,-29.5827450603247,Africa,Lesotho,LS,,Lesotho,2015-11-04,11:21
Emarginata sinuata,Animalia,OLD_WORLD_FLYCATCHERS_MUSCICAPIDAE,Sickle-winged Chat,,3,29.2789817042649,-29.579797773622,Africa,Lesotho,LS,,Lesotho,2015-11-04,11:23
Corvus albicollis,Animalia,CROWS_AND_JAYS_CORVIDAE,White-necked Raven,,2,29.2766107153147,-29.5774093084037,Africa,Lesotho,LS,,Lesotho,2015-11-04,11:27
Emarginata sinuata,Animalia,OLD_WORLD_FLYCATCHERS_MUSCICAPIDAE,Sickle-winged Chat,,1,29.2720750998706,-29.5765739679337,Africa,Lesotho,LS,,Lesotho,2015-11-04,11:30
Anthus hoeschi,Animalia,PIPITS_EN_WAGTAILS_MOTACILLIDAE,Mountain Pipit,,1,29.2720750998706,-29.5765739679337,Africa,Lesotho,LS,,Lesotho,2015-11-04,11:32
Monticola explorator,Animalia,OLD_WORLD_FLYCATCHERS_MUSCICAPIDAE,Sentinel Rock Thrush,,1,29.2720410693437,-29.5768648618832,Africa,Lesotho,LS,,Lesotho,2015-11-04,11:36
Galerida magnirostris,Animalia,LARKS_ALAUDIDAE,Large-billed Lark,,1,29.2594229523093,-29.567049946636,Africa,Lesotho,LS,,Lesotho,2015-11-04,11:58
Anthus hoeschi,Animalia,PIPITS_EN_WAGTAILS_MOTACILLIDAE,Mountain Pipit,,1,29.252310320735,-29.5662799431011,Africa,Lesotho,LS,,Lesotho,2015-11-04,12:09
Monticola explorator,Animalia,OLD_WORLD_FLYCATCHERS_MUSCICAPIDAE,Sentinel Rock Thrush,,1,29.2532549612224,-29.5675043715164,Africa,Lesotho,LS,,Lesotho,2015-11-04,12:17
Corvus albicollis,Animalia,CROWS_AND_JAYS_CORVIDAE,White-necked Raven,,1,29.213309744373,-29.539688732475,Africa,Lesotho,LS,,Lesotho,2015-11-04,12:38
Melaniparus afer,Animalia,TITS_PARIDAE,Grey Tit,,1,29.1459282115102,-29.4582672603428,Africa,Lesotho,LS,,Lesotho,2015-11-04,13:51
Melaniparus afer,Animalia,TITS_PARIDAE,Grey Tit,,1,29.1614894662052,-29.4776486931369,Africa,Lesotho,LS,,Lesotho,2015-11-04,14:10
Monticola explorator,Animalia,OLD_WORLD_FLYCATCHERS_MUSCICAPIDAE,Sentinel Rock Thrush,,1,29.2882940825075,-29.5847707567737,Africa,Lesotho,LS,,Lesotho,2015-11-04,15:07
Emberiza capensis,Animalia,BUNTINGS_EMBERIZIDAE,Cape Bunting,,1,29.2882940825075,-29.5847707567737,Africa,Lesotho,LS,,Lesotho,2015-11-04,15:08
Geronticus calvus,Animalia,IBISSES_AND_SPOONBILLS_THRESKIORNITHIDAE,Southern Bald Ibis,,1,29.288197020068765,-29.584780102595687,Africa,Lesotho,LS,,Lesotho,2015-11-04,15:11
Monticola explorator,Animalia,OLD_WORLD_FLYCATCHERS_MUSCICAPIDAE,Sentinel Rock Thrush,,1,29.288197020068765,-29.584780102595687,Africa,Lesotho,LS,,Lesotho,2015-11-04,15:11
Emberiza capensis,Animalia,BUNTINGS_EMBERIZIDAE,Cape Bunting,,1,29.288197020068765,-29.584780102595687,Africa,Lesotho,LS,,Lesotho,2015-11-04,15:11
Onychognathus morio,Animalia,STARLINGS_STURNIDAE,Red-winged Starling,,1,29.28515992127359,-29.58433225750923,Africa,Lesotho,LS,,Lesotho,2015-11-04,14:47
Melaniparus afer,Animalia,TITS_PARIDAE,Grey Tit,,1,29.160896446555853,-29.478627825155854,Africa,Lesotho,LS,,Lesotho,2015-11-04,14:11
Melaniparus afer,Animalia,TITS_PARIDAE,Grey Tit,,1,29.146025106310844,-29.458264326676726,Africa,Lesotho,LS,,Lesotho,2015-11-04,14:02
Gypaetus barbatus,Animalia,HAWKS_AND_EAGLES_ACCIPITRIDAE,Bearded Vulture,,3,29.16079510934651,-29.469858091324568,Africa,Lesotho,LS,,Lesotho,2015-11-04,13:03
Anthus hoeschi,Animalia,PIPITS_EN_WAGTAILS_MOTACILLIDAE,Mountain Pipit,,1,29.25222985446453,-29.56623086705804,Africa,Lesotho,LS,,Lesotho,2015-11-04,12:28
Emberiza capensis,Animalia,BUNTINGS_EMBERIZIDAE,Cape Bunting,,1,29.25222985446453,-29.56623086705804,Africa,Lesotho,LS,,Lesotho,2015-11-04,12:28
Gyps coprotheres,Animalia,HAWKS_AND_EAGLES_ACCIPITRIDAE,Cape Vulture,,2,29.27329600788653,-29.574425099417567,Africa,Lesotho,LS,,Lesotho,2015-11-04,11:49
Anthus hoeschi,Animalia,PIPITS_EN_WAGTAILS_MOTACILLIDAE,Mountain Pipit,,1,29.27348082885146,-29.574439264833927,Africa,Lesotho,LS,,Lesotho,2015-11-04,11:42
Corvus albicollis,Animalia,CROWS_AND_JAYS_CORVIDAE,White-necked Raven,,6,29.27535510621965,-29.576161494478583,Africa,Lesotho,LS,,Lesotho,2015-11-04,11:27
Emarginata sinuata,Animalia,OLD_WORLD_FLYCATCHERS_MUSCICAPIDAE,Sickle-winged Chat,,5,29.2774885520339,-29.57814850844443,Africa,Lesotho,LS,,Lesotho,2015-11-04,11:25
Geronticus calvus,Animalia,IBISSES_AND_SPOONBILLS_THRESKIORNITHIDAE,Southern Bald Ibis,,2,29.28108179010451,-29.58275143057108,Africa,Lesotho,LS,,Lesotho,2015-11-04,11:21
Passer melanurus,Animalia,OLD_WORLD_SPARROWS_PASSERIDAE,Cape Sparrow,,4,29.28569938056171,-29.584236536175013,Africa,Lesotho,LS,,Lesotho,2015-11-04,11:13
Crithagra symonsi,Animalia,FINCHES_FRINGILLIDAE,Drakensberg Siskin,,4,29.285698626190424,-29.584228824824095,Africa,Lesotho,LS,,Lesotho,2015-11-04,11:13
Emarginata sinuata,Animalia,OLD_WORLD_FLYCATCHERS_MUSCICAPIDAE,Sickle-winged Chat,,1,29.285374581813812,-29.58435815759003,Africa,Lesotho,LS,,Lesotho,2015-11-04,11:08
Crithagra symonsi,Animalia,FINCHES_FRINGILLIDAE,Drakensberg Siskin,,2,29.2854801099747,-29.5843992289156,Africa,Lesotho,LS,,Lesotho,2015-11-04,11:11
Crithagra symonsi,Animalia,FINCHES_FRINGILLIDAE,Drakensberg Siskin,,4,29.2856494244188,-29.5847363071516,Africa,Lesotho,LS,,Lesotho,2015-11-04,11:12
Geronticus calvus,Animalia,IBISSES_AND_SPOONBILLS_THRESKIORNITHIDAE,Southern Bald Ibis,,2,29.2811431456357,-29.5827450603247,Africa,Lesotho,LS,,Lesotho,2015-11-04,11:21
Corvus albicollis,Animalia,CROWS_AND_JAYS_CORVIDAE,White-necked Raven,,2,29.2766107153147,-29.5774093084037,Africa,Lesotho,LS,,Lesotho,2015-11-04,11:27
Anthus hoeschi,Animalia,PIPITS_EN_WAGTAILS_MOTACILLIDAE,Mountain Pipit,,1,29.2720750998706,-29.5765739679337,Africa,Lesotho,LS,,Lesotho,2015-11-04,11:32
Galerida magnirostris harei,Animalia,LARKS_ALAUDIDAE,Large-billed Lark ssp harei,,1,29.25942295,-29.56704995,Africa,Lesotho,LS,,Lesotho,2015-11-04,11:58
Anthus hoeschi,Animalia,PIPITS_EN_WAGTAILS_MOTACILLIDAE,Mountain Pipit,,1,29.252310320735,-29.5662799431011,Africa,Lesotho,LS,,Lesotho,2015-11-04,12:09
Corvus albicollis,Animalia,CROWS_AND_JAYS_CORVIDAE,White-necked Raven,,1,29.213309744373,-29.539688732475,Africa,Lesotho,LS,,Lesotho,2015-11-04,12:38
Pycnonotus nigricans,Animalia,BULBULS_PYCNONOTIDAE,African Red-eyed Bulbul,,5,27.381362915,-29.8233698606,Africa,Lesotho,LS,,Lesotho,2001-07-31,
Geronticus calvus,Animalia,IBISSES_AND_SPOONBILLS_THRESKIORNITHIDAE,Southern Bald Ibis,,1,29.2712420225,-29.5755495556,Africa,Lesotho,LS,,Lesotho,2015-02-11,
