scientificName,kingdom,family,vernacularName,previousIdentifications,individualCount,longitudeDecimal,latitudeDecimal,continent,country,countryCode,stateProvince,locality,eventDate,eventTime
Gonepteryx rhamni,Animalia,WHITES_PIERIDAE,Brimstone,,2,9.54,47.25,Europe,Liechtenstein,LI,,Liechtenstein,2013-07-13,
Brenthis ino,Animalia,BRUSHFOOTED_BUTTERFLIES_NYMPHALIDAE,Lesser Marbled Fritillary,,1,9.5,47.25,Europe,Liechtenstein,LI,,Liechtenstein,2013-07-13,
Ochlodes sylvanus,Animalia,SKIPPERS_HESPERIIDAE,Large Skipper,,6,9.54,47.25,Europe,Liechtenstein,LI,,Liechtenstein,2013-07-13,
Phoenicurus ochruros,Animalia,OLD_WORLD_FLYCATCHERS_MUSCICAPIDAE,Black Redstart,,1,9.52717065768,47.0868941432,Europe,Liechtenstein,LI,,Liechtenstein,2014-09-14,
Phoenicurus ochruros,Animalia,OLD_WORLD_FLYCATCHERS_MUSCICAPIDAE,Black Redstart,,1,9.52738523472,47.0867139497,Europe,Liechtenstein,LI,,Liechtenstein,2014-09-13,
Cinclus cinclus,Animalia,DIPPERS_CINCLIDAE,White-throated Dipper,,1,9.52725648869,47.0859249861,Europe,Liechtenstein,LI,,Liechtenstein,2014-09-13,
Phoenicurus ochruros,Animalia,OLD_WORLD_FLYCATCHERS_MUSCICAPIDAE,Black Redstart,,1,9.50662683695555,47.1640574047342,Europe,Liechtenstein,LI,,Liechtenstein,2014-09-09,09:40
Libellula depressa,Animalia,SKIMMERS_LIBELLULIDAE,Broad-bodied Chaser,,1,9.54437255859,47.2545338174,Europe,Liechtenstein,LI,,Liechtenstein,2014-07-14,
Iris sibirica,Plantae,IRIDACEAE,Siberian Iris,,1,9.54299926758,47.2572718232,Europe,Liechtenstein,LI,,Liechtenstein,2014-07-14,
Sanguisorba officinalis,Plantae,ROSACEAE,Great Burnet,,1,9.5458,47.2529,Europe,Liechtenstein,LI,,Liechtenstein,2014-07-14,14:46
Ochlodes sylvanus,Animalia,SKIPPERS_HESPERIIDAE,Large Skipper,,1,9.55321504152063,47.2521022679872,Europe,Liechtenstein,LI,,Liechtenstein,2014-06-23,09:39
Aphantopus hyperantus,Animalia,BRUSHFOOTED_BUTTERFLIES_NYMPHALIDAE,Ringlet,,1,9.55321504152063,47.2521022679872,Europe,Liechtenstein,LI,,Liechtenstein,2014-06-23,09:39
Leptidea sinapis,Animalia,WHITES_PIERIDAE,Wood White,,1,9.55362278901829,47.2526405129593,Europe,Liechtenstein,LI,,Liechtenstein,2014-06-23,09:43
Brenthis ino,Animalia,BRUSHFOOTED_BUTTERFLIES_NYMPHALIDAE,Lesser Marbled Fritillary,,1,9.5,47.25,Europe,Liechtenstein,LI,,Liechtenstein,2014-06-23,10:07
Apatura ilia,Animalia,BRUSHFOOTED_BUTTERFLIES_NYMPHALIDAE,Lesser Purple Emperor,,1,9.5,47.25,Europe,Liechtenstein,LI,,Liechtenstein,2014-06-23,10:14
Phengaris teleius,Animalia,GOSSAMERWINGED_BUTTERFLIES_LYCAENIDAE,Scarce Large Blue,,1,9.5,47.25,Europe,Liechtenstein,LI,,Liechtenstein,2014-06-23,10:57
Phengaris teleius,Animalia,GOSSAMERWINGED_BUTTERFLIES_LYCAENIDAE,Scarce Large Blue,,5,9.5,47.25,Europe,Liechtenstein,LI,,Liechtenstein,2014-06-23,11:13
Gonepteryx rhamni,Animalia,WHITES_PIERIDAE,Brimstone,,1,9.54029883101419,47.2456122640939,Europe,Liechtenstein,LI,,Liechtenstein,2014-06-23,11:33
Euthystira brachyptera,Animalia,SHORTHORNED_GRASSHOPPERS_ACRIDIDAE,Small Gold Grasshopper,,100,9.54,47.25,Europe,Liechtenstein,LI,,Liechtenstein,2004-07-02,
Chrysochraon dispar,Animalia,SHORTHORNED_GRASSHOPPERS_ACRIDIDAE,Large Golden Grasshopper,,25,9.54689115286,47.2531356322,Europe,Liechtenstein,LI,,Liechtenstein,2004-07-02,
Pseudochorthippus montanus,Animalia,SHORTHORNED_GRASSHOPPERS_ACRIDIDAE,,,25,9.54689115286,47.2531356322,Europe,Liechtenstein,LI,,Liechtenstein,2004-07-02,
Pholidoptera griseoaptera,Animalia,KATYDIDS_TETTIGONIIDAE,Dark Bush-cricket,,2,9.54689115286,47.2531356322,Europe,Liechtenstein,LI,,Liechtenstein,2004-07-02,
Decticus verrucivorus,Animalia,KATYDIDS_TETTIGONIIDAE,Wart-Biter,,25,9.5,47.25,Europe,Liechtenstein,LI,,Liechtenstein,2004-07-02,
Tettigonia cantans,Animalia,KATYDIDS_TETTIGONIIDAE,Upland Green Bush Cricket,,10,9.54689115286,47.2531356322,Europe,Liechtenstein,LI,,Liechtenstein,2004-07-02,
Roeseliana roeselii,Animalia,KATYDIDS_TETTIGONIIDAE,Roesel's Bush-cricket,,100,9.54689115286,47.2531356322,Europe,Liechtenstein,LI,,Liechtenstein,2004-07-02,
Minois dryas,Animalia,BRUSHFOOTED_BUTTERFLIES_NYMPHALIDAE,Dryad,,2,9.535856,47.268778,Europe,Liechtenstein,LI,,Liechtenstein,2013-08-01,09:36
Melanargia galathea,Animalia,BRUSHFOOTED_BUTTERFLIES_NYMPHALIDAE,Marbled White,,5,9.535896,47.269263,Europe,Liechtenstein,LI,,Liechtenstein,2013-08-01,09:41
Leptidea sinapis,Animalia,WHITES_PIERIDAE,Wood White,,2,9.536383,47.268079,Europe,Liechtenstein,LI,,Liechtenstein,2013-08-01,09:48
Phengaris teleius,Animalia,GOSSAMERWINGED_BUTTERFLIES_LYCAENIDAE,Scarce Large Blue,,10,9.5,47.25,Europe,Liechtenstein,LI,,Liechtenstein,2013-08-01,09:54
Aromia moschata,Animalia,Cerambycidae,Musk beetle,,1,9.5452811568975,47.252858903713,Europe,Liechtenstein,LI,,Liechtenstein,2013-07-20,
Ochlodes sylvanus,Animalia,SKIPPERS_HESPERIIDAE,Large Skipper,,1,9.545571,47.252794,Europe,Liechtenstein,LI,,Liechtenstein,2013-07-20,11:20
Leptidea sinapis,Animalia,WHITES_PIERIDAE,Wood White,,1,9.54519,47.252877,Europe,Liechtenstein,LI,,Liechtenstein,2013-07-20,11:25
Gonepteryx rhamni,Animalia,WHITES_PIERIDAE,Brimstone,,1,9.546015,47.252682,Europe,Liechtenstein,LI,,Liechtenstein,2013-07-20,11:45
Brenthis ino,Animalia,BRUSHFOOTED_BUTTERFLIES_NYMPHALIDAE,Lesser Marbled Fritillary,,1,9.5,47.25,Europe,Liechtenstein,LI,,Liechtenstein,2013-07-20,11:57
Phengaris teleius,Animalia,GOSSAMERWINGED_BUTTERFLIES_LYCAENIDAE,Scarce Large Blue,,3,9.5,47.25,Europe,Liechtenstein,LI,,Liechtenstein,2013-07-20,10:48
Ochlodes sylvanus,Animalia,SKIPPERS_HESPERIIDAE,Large Skipper,,1,9.545571,47.252794,Europe,Liechtenstein,LI,,Liechtenstein,2013-07-20,11:20
Phengaris teleius,Animalia,GOSSAMERWINGED_BUTTERFLIES_LYCAENIDAE,Scarce Large Blue,,1,9.5,47.25,Europe,Liechtenstein,LI,,Liechtenstein,2013-07-20,11:24
Leptidea sinapis,Animalia,WHITES_PIERIDAE,Wood White,,1,9.54519,47.252877,Europe,Liechtenstein,LI,,Liechtenstein,2013-07-20,11:25
Gonepteryx rhamni,Animalia,WHITES_PIERIDAE,Brimstone,,1,9.546015,47.252682,Europe,Liechtenstein,LI,,Liechtenstein,2013-07-20,11:45
Phengaris teleius,Animalia,GOSSAMERWINGED_BUTTERFLIES_LYCAENIDAE,Scarce Large Blue,,1,9.5,47.25,Europe,Liechtenstein,LI,,Liechtenstein,2013-07-20,11:51
Brenthis ino,Animalia,BRUSHFOOTED_BUTTERFLIES_NYMPHALIDAE,Lesser Marbled Fritillary,,1,9.5,47.25,Europe,Liechtenstein,LI,,Liechtenstein,2013-07-20,11:57
Brenthis ino,Animalia,BRUSHFOOTED_BUTTERFLIES_NYMPHALIDAE,Lesser Marbled Fritillary,,1,9.5,47.25,Europe,Liechtenstein,LI,,Liechtenstein,2013-07-20,11:58
Gonepteryx rhamni,Animalia,WHITES_PIERIDAE,Brimstone,,1,9.546090111922204,47.25264044624371,Europe,Liechtenstein,LI,,Liechtenstein,2013-07-20,11:56
Ochlodes sylvanus,Animalia,SKIPPERS_HESPERIIDAE,Large Skipper,,1,9.546643772955681,47.252943933931725,Europe,Liechtenstein,LI,,Liechtenstein,2013-07-20,11:35
Leptidea sinapis,Animalia,WHITES_PIERIDAE,Wood White,,1,9.545215831151697,47.252877899473056,Europe,Liechtenstein,LI,,Liechtenstein,2013-07-20,11:26
Phengaris teleius,Animalia,GOSSAMERWINGED_BUTTERFLIES_LYCAENIDAE,Scarce Large Blue,,1,9.5,47.25,Europe,Liechtenstein,LI,,Liechtenstein,2013-07-20,11:25
Ochlodes sylvanus,Animalia,SKIPPERS_HESPERIIDAE,Large Skipper,,1,9.545321961842344,47.252872543180715,Europe,Liechtenstein,LI,,Liechtenstein,2013-07-20,11:20
Phengaris teleius,Animalia,GOSSAMERWINGED_BUTTERFLIES_LYCAENIDAE,Scarce Large Blue,,2,9.5,47.25,Europe,Liechtenstein,LI,,Liechtenstein,2013-07-20,10:48
Euphorbia amygdaloides,Plantae,EUPHORBIACEAE,Wood Spurge,,1,9.5266639,47.137153,Europe,Liechtenstein,LI,,Liechtenstein - Vaduz,2019-12-29,15:08
Erebia euryale,Animalia,BRUSHFOOTED_BUTTERFLIES_NYMPHALIDAE,Large Ringlet,,1,9.61206465,47.12009442,Europe,Liechtenstein,LI,,Liechtenstein - Schaan,2019-08-18,10:47
Erebia pronoe,Animalia,BRUSHFOOTED_BUTTERFLIES_NYMPHALIDAE,Water Ringlet,,3,9.61206465,47.12009442,Europe,Liechtenstein,LI,,Liechtenstein - Schaan,2019-08-18,10:47
Erebia aethiops,Animalia,BRUSHFOOTED_BUTTERFLIES_NYMPHALIDAE,Scotch Argus,,1,9.6,47.1,Europe,Liechtenstein,LI,,Liechtenstein - Schaan,2019-08-18,11:10
Erebia pronoe,Animalia,BRUSHFOOTED_BUTTERFLIES_NYMPHALIDAE,Water Ringlet,,1,9.58753123,47.12397162,Europe,Liechtenstein,LI,,Liechtenstein - Triesenberg,2019-08-18,13:05
Speyeria aglaja,Animalia,BRUSHFOOTED_BUTTERFLIES_NYMPHALIDAE,Dark Green Fritillary,,1,9.58899035,47.12372823,Europe,Liechtenstein,LI,,Liechtenstein - Schaan,2019-08-18,12:00
Erebia manto,Animalia,BRUSHFOOTED_BUTTERFLIES_NYMPHALIDAE,Yellow-spotted Ringlet,,1,9.58180203,47.11833568,Europe,Liechtenstein,LI,,Liechtenstein - Triesenberg,2019-08-18,
Erebia pronoe,Animalia,BRUSHFOOTED_BUTTERFLIES_NYMPHALIDAE,Water Ringlet,,1,9.58165183,47.1169339,Europe,Liechtenstein,LI,,Liechtenstein - Triesenberg,2019-08-18,
Erebia tyndarus,Animalia,BRUSHFOOTED_BUTTERFLIES_NYMPHALIDAE,Swiss Brassy Ringlet,,1,9.58274617,47.11611618,Europe,Liechtenstein,LI,,Liechtenstein - Triesenberg,2019-08-18,
Argynnis paphia,Animalia,BRUSHFOOTED_BUTTERFLIES_NYMPHALIDAE,Silver-washed Fritillary,,1,9.59452686,47.10994418,Europe,Liechtenstein,LI,,Liechtenstein - Vaduz,2019-08-18,
Gentiana asclepiadea,Plantae,GENTIANACEAE,Willow Gentian,,1,9.60674314,47.11623957,Europe,Liechtenstein,LI,,Liechtenstein - Schaan,2019-08-18,
Cirsium acaule,Plantae,Asteraceae,Dwarf Thistle,,1,9.60674314,47.11623957,Europe,Liechtenstein,LI,,Liechtenstein - Schaan,2019-08-18,
Erebia pronoe,Animalia,BRUSHFOOTED_BUTTERFLIES_NYMPHALIDAE,Water Ringlet,,1,9.59129448,47.13062579,Europe,Liechtenstein,LI,,Liechtenstein - Schaan,2019-08-18,13:55
Erebia montana,Animalia,BRUSHFOOTED_BUTTERFLIES_NYMPHALIDAE,Marbled Ringlet,,1,9.59641514,47.12625897,Europe,Liechtenstein,LI,,Liechtenstein - Schaan,2019-08-18,12:05
Erebia tyndarus,Animalia,BRUSHFOOTED_BUTTERFLIES_NYMPHALIDAE,Swiss Brassy Ringlet,,2,9.59296732,47.13063542,Europe,Liechtenstein,LI,,Liechtenstein - Vaduz,2019-08-18,13:42
Erebia tyndarus,Animalia,BRUSHFOOTED_BUTTERFLIES_NYMPHALIDAE,Swiss Brassy Ringlet,,5,9.59545641,47.12711216,Europe,Liechtenstein,LI,,Liechtenstein - Schaan,2019-08-18,13:06
Erebia manto,Animalia,BRUSHFOOTED_BUTTERFLIES_NYMPHALIDAE,Yellow-spotted Ringlet,,1,9.61322336,47.12153495,Europe,Liechtenstein,LI,,Liechtenstein - Schaan,2019-08-18,11:16
Erebia pronoe,Animalia,BRUSHFOOTED_BUTTERFLIES_NYMPHALIDAE,Water Ringlet,,1,9.59292773,47.13029911,Europe,Liechtenstein,LI,,Liechtenstein - Schaan,2019-08-18,12:49
Corvus corax,Animalia,CROWS_AND_JAYS_CORVIDAE,Northern Raven,,2,9.58336887,47.12725172,Europe,Liechtenstein,LI,,Liechtenstein - Schaan,2019-08-18,14:49
Gomphocerus sibiricus,Animalia,SHORTHORNED_GRASSHOPPERS_ACRIDIDAE,,,1,9.59232445,47.13027543,Europe,Liechtenstein,LI,,Liechtenstein - Schaan,2019-08-18,
Carlina acaulis,Plantae,Asteraceae,Stemless Carline Thistle,,1,9.58331137,47.11688206,Europe,Liechtenstein,LI,,Liechtenstein - Triesenberg,2019-08-18,
Dianthus superbus,Plantae,CARYOPHYLLACEAE,Superb Pink,,1,9.59000616,47.12719975,Europe,Liechtenstein,LI,,Liechtenstein - Schaan,2019-08-18,
Cirsium spinosissimum,Plantae,Asteraceae,,,1,9.58697376,47.12725172,Europe,Liechtenstein,LI,,Liechtenstein - Schaan,2019-08-18,
Gymnadenia conopsea,Plantae,ORCHIDACEAE,Chalk Fragrant-orchid,,1,9.6,47.1,Europe,Liechtenstein,LI,,Liechtenstein - Schaan,2019-08-18,
Speyeria aglaja,Animalia,BRUSHFOOTED_BUTTERFLIES_NYMPHALIDAE,Dark Green Fritillary,,1,9.60730104,47.11624921,Europe,Liechtenstein,LI,,Liechtenstein - Schaan,2019-08-18,11:26
Lysandra coridon,Animalia,GOSSAMERWINGED_BUTTERFLIES_LYCAENIDAE,Chalk hill Blue,,5,9.58158746,47.1175082,Europe,Liechtenstein,LI,,Liechtenstein - Triesenberg,2019-08-18,15:32
Hesperia comma,Animalia,SKIPPERS_HESPERIIDAE,Silver-spotted Skipper,,1,9.59014907,47.1112388,Europe,Liechtenstein,LI,,Liechtenstein - Vaduz,2019-08-18,
Erebia aethiops,Animalia,BRUSHFOOTED_BUTTERFLIES_NYMPHALIDAE,Scotch Argus,,5,9.59014907,47.1112388,Europe,Liechtenstein,LI,,Liechtenstein - Vaduz,2019-08-18,
Speyeria aglaja,Animalia,BRUSHFOOTED_BUTTERFLIES_NYMPHALIDAE,Dark Green Fritillary,,1,9.59014907,47.1112388,Europe,Liechtenstein,LI,,Liechtenstein - Vaduz,2019-08-18,
Hesperia comma,Animalia,SKIPPERS_HESPERIIDAE,Silver-spotted Skipper,,1,9.60641384,47.11499786,Europe,Liechtenstein,LI,,Liechtenstein - Schaan,2019-08-18,10:44
Erebia manto,Animalia,BRUSHFOOTED_BUTTERFLIES_NYMPHALIDAE,Yellow-spotted Ringlet,,1,9.60711002,47.11581421,Europe,Liechtenstein,LI,,Liechtenstein - Schaan,2019-08-18,10:55
Colias crocea,Animalia,WHITES_PIERIDAE,Clouded Yellow,,1,9.60984516,47.11943817,Europe,Liechtenstein,LI,,Liechtenstein - Schaan,2019-08-18,11:15
Erebia euryale,Animalia,BRUSHFOOTED_BUTTERFLIES_NYMPHALIDAE,Large Ringlet,,1,9.5972271,47.12150574,Europe,Liechtenstein,LI,,Liechtenstein - Schaan,2019-08-18,11:56
Colias phicomone,Animalia,WHITES_PIERIDAE,Mountain Clouded Yellow,,5,9.59304142,47.13024139,Europe,Liechtenstein,LI,,Liechtenstein - Schaan,2019-08-18,13:25
Speyeria aglaja,Animalia,BRUSHFOOTED_BUTTERFLIES_NYMPHALIDAE,Dark Green Fritillary,,1,9.57995891571045,47.1194648742676,Europe,Liechtenstein,LI,,Liechtenstein - Triesenberg,2019-08-18,15:31
Oecanthus pellucens,Animalia,TRUE_CRICKETS_GRYLLIDAE,European Tree cricket,,1,9.52157497406006,47.1399154663086,Europe,Liechtenstein,LI,,Liechtenstein - Vaduz,2019-08-07,22:18
Lilioceris merdigera,Animalia,ROOTWORM_BEETLES_CHRYSOMELIDAE,,,1,9.577257000000031,47.109457,Europe,Liechtenstein,LI,,Liechtenstein - Triesenberg,2019-06-10,18:56
Lasiommata maera,Animalia,BRUSHFOOTED_BUTTERFLIES_NYMPHALIDAE,Large Wall Brown,,1,9.548005,47.13861167,Europe,Liechtenstein,LI,,Liechtenstein - Triesenberg,2019-06-13,12:38
Podarcis muralis,Animalia,Lacertidae,Common Wall Lizard,,1,9.5,47.05,Europe,Liechtenstein,LI,,Liechtenstein - Balzers,2019-06-11,11:28
Pyrrhocoris apterus,Animalia,PYRRHOCORIDAE,Firebug,,1,9.501870000000054,47.064454999999995,Europe,Liechtenstein,LI,,Liechtenstein - Balzers,2019-06-11,11:28
Erynnis tages,Animalia,SKIPPERS_HESPERIIDAE,Dingy Skipper,,1,9.574723333333395,47.11260166666667,Europe,Liechtenstein,LI,,Liechtenstein - Triesenberg,2019-06-11,14:01
Callophrys rubi,Animalia,GOSSAMERWINGED_BUTTERFLIES_LYCAENIDAE,Green Hairstreak,,1,9.55201333333332,47.145158333333335,Europe,Liechtenstein,LI,,Liechtenstein - Triesenberg,2019-06-13,10:20
Pontia callidice,Animalia,WHITES_PIERIDAE,Peak White,,2,9.55377667,47.14854833,Europe,Liechtenstein,LI,,Liechtenstein - Vaduz,2019-06-13,11:27
Papilio machaon,Animalia,SWALLOWTAILS_PAPILIONIDAE,Swallowtail,,1,9.55377333333331,47.14854,Europe,Liechtenstein,LI,,Liechtenstein - Vaduz,2019-06-13,11:26
Aglia tau,Animalia,Saturniidae,Tau Emperor,,1,9.559341666666683,47.123826666666666,Europe,Liechtenstein,LI,,Liechtenstein - Triesenberg,2019-06-10,19:24
Ctenicera pectinicornis,Animalia,CLICK_BEETLES_ELATERIDAE,,,1,9.558451666666656,47.12704166666667,Europe,Liechtenstein,LI,,Liechtenstein - Triesenberg,2019-06-11,15:48
Perizoma albulata,Animalia,Geometridae,Grass Rivulet,,1,9.55794666666668,47.127825,Europe,Liechtenstein,LI,,Liechtenstein - Triesenberg,2019-06-11,15:56
Trichodes apiarius,Animalia,CHECKERED_BEETLES_CLERIDAE,,,1,9.525756666666666,47.24936833333334,Europe,Liechtenstein,LI,,Liechtenstein - Ruggell,2019-06-12,12:30
Melanargia galathea,Animalia,BRUSHFOOTED_BUTTERFLIES_NYMPHALIDAE,Marbled White,,1,9.526119999999992,47.249433333333336,Europe,Liechtenstein,LI,,Liechtenstein - Ruggell,2019-06-12,12:30
Melanargia galathea,Animalia,BRUSHFOOTED_BUTTERFLIES_NYMPHALIDAE,Marbled White,,1,9.527271666666707,47.25259666666667,Europe,Liechtenstein,LI,,Liechtenstein - Ruggell,2019-06-12,12:37
Camptogramma bilineata,Animalia,Geometridae,Yellow Shell,,1,9.536510000000021,47.26101,Europe,Liechtenstein,LI,,Liechtenstein - Ruggell,2019-06-12,14:01
Ceratomegilla notata,Animalia,LADYBIRDS_LADYBUGS_OR_LADY_BEETLES_COCCINELLIDAE,,,1,9.558175000000006,47.114642,Europe,Liechtenstein,LI,,Liechtenstein - Triesenberg,2019-06-13,08:31
Macroglossum stellatarum,Animalia,Sphingidae,Humming-bird Hawk Moth,,1,9.558175000000006,47.114642,Europe,Liechtenstein,LI,,Liechtenstein - Triesenberg,2019-06-13,08:17
Hamearis lucina,Animalia,METALMARKS_RIODINIDAE,Duke Of Burgundy Fritillary,,1,9.55,47.1,Europe,Liechtenstein,LI,,Liechtenstein - Triesenberg,2019-06-13,08:13
Calamagrostis pseudophragmites,Plantae,Poaceae,Coastal Small-reed,,1,9.51411691,47.08563565,Europe,Liechtenstein,LI,,Liechtenstein,2018-08-04,16:50
Sorbus chamaemespilus,Plantae,ROSACEAE,,,1,9.55872011,47.13294705,Europe,Liechtenstein,LI,,Liechtenstein - Triesenberg,2018-08-03,14:30
Laserpitium latifolium,Plantae,Apiaceae,Broad-leaved Sermountain,,1,9.54982381,47.13540123,Europe,Liechtenstein,LI,,Liechtenstein - Triesenberg,2018-08-03,16:33
Gomphocerus sibiricus,Animalia,SHORTHORNED_GRASSHOPPERS_ACRIDIDAE,,,1,9.61996056,47.09363492,Europe,Liechtenstein,LI,,Liechtenstein - Triesenberg,2018-08-01,15:17
Senecio alpinus,Plantae,Asteraceae,,,1,9.61996056,47.09363492,Europe,Liechtenstein,LI,,Liechtenstein - Triesenberg,2018-08-01,15:17
Adenostyles alliariae,Plantae,Asteraceae,,,1,9.62515977,47.09529516,Europe,Liechtenstein,LI,,Liechtenstein - Triesenberg,2018-08-01,12:10
Gentianella aspera,Plantae,GENTIANACEAE,,,1,9.62476163,47.08949241,Europe,Liechtenstein,LI,,Liechtenstein - Triesenberg,2018-08-01,13:16
Gentiana bavarica,Plantae,GENTIANACEAE,,,1,9.62344458,47.08696669,Europe,Liechtenstein,LI,,Liechtenstein - Triesenberg,2018-08-01,13:26
Pedicularis verticillata,Plantae,OROBANCHACEAE,Whorled lousewort,,1,9.62237019,47.09215002,Europe,Liechtenstein,LI,,Liechtenstein - Triesenberg,2018-08-01,14:33
Oxytropis jacquinii,Plantae,Fabaceae,,,1,9.62562279,47.09430635,Europe,Liechtenstein,LI,,Liechtenstein - Triesenberg,2018-08-01,12:14
Crepis jacquinii subsp. kerneri,Plantae,Asteraceae,,,1,9.62641262,47.09215379,Europe,Liechtenstein,LI,,Liechtenstein - Triesenberg,2018-08-01,12:28
Festuca alpina,Plantae,Poaceae,,,1,9.6262345,47.09214462,Europe,Liechtenstein,LI,,Liechtenstein - Triesenberg,2018-08-01,12:23
Athamanta cretensis,Plantae,Apiaceae,,,1,9.62433248,47.09703043,Europe,Liechtenstein,LI,,Liechtenstein - Triesenberg,2018-08-01,12:03
Hieracium villosum,Plantae,Asteraceae,,,1,9.62433248,47.09703043,Europe,Liechtenstein,LI,,Liechtenstein - Triesenberg,2018-08-01,12:03
Plantago media,Plantae,PLANTAGINACEAE,Hoary Plantain,,1,9.52702768,47.08734299,Europe,Liechtenstein,LI,,Liechtenstein - Triesen,2018-07-30,21:05
Plantago lanceolata,Plantae,PLANTAGINACEAE,Ribwort Plantain,,1,9.5271739,47.08729754,Europe,Liechtenstein,LI,,Liechtenstein - Triesen,2018-07-30,21:05
Prunella vulgaris,Plantae,Lamiaceae,Selfheal,,1,9.52712938,47.08734947,Europe,Liechtenstein,LI,,Liechtenstein - Triesen,2018-07-30,21:07
Fragaria vesca,Plantae,ROSACEAE,Wild Strawberry,,1,9.52722279,47.08595752,Europe,Liechtenstein,LI,,Liechtenstein - Triesen,2018-07-30,21:11
Taraxacum officinale s.l. (incl. all sec.),Plantae,Asteraceae,Common Dandelion,,1,9.52722239,47.08595332,Europe,Liechtenstein,LI,,Liechtenstein - Triesen,2018-07-30,21:11
Trifolium pratense,Plantae,Fabaceae,Red Clover,,1,9.52671265,47.08605952,Europe,Liechtenstein,LI,,Liechtenstein - Triesen,2018-07-30,21:15
Verbena officinalis,Plantae,VERBENACEAE,Vervain,,1,9.52649375,47.08611068,Europe,Liechtenstein,LI,,Liechtenstein - Triesen,2018-07-30,21:18
Carex sylvatica,Plantae,CYPERACEAE,Wood-sedge,,1,9.52714835,47.08715218,Europe,Liechtenstein,LI,,Liechtenstein - Triesen,2018-07-31,10:19
Erigeron canadensis,Plantae,Asteraceae,Canadian Fleabane,,1,9.52636688,47.08702802,Europe,Liechtenstein,LI,,Liechtenstein - Triesen,2018-07-31,10:25
Filipendula ulmaria,Plantae,ROSACEAE,Meadowsweet,,1,9.52815993,47.0851495,Europe,Liechtenstein,LI,,Liechtenstein - Triesen,2018-07-31,10:54
Cyclamen purpurascens,Plantae,PRIMULACEAE,Cyclamen,,1,9.52810275,47.08504229,Europe,Liechtenstein,LI,,Liechtenstein - Triesen,2018-07-31,10:55
Valeriana montana,Plantae,CAPRIFOLIACEAE,,,1,9.60706511,47.10439398,Europe,Liechtenstein,LI,,Liechtenstein - Triesenberg,2018-08-01,10:59
Petasites paradoxus,Plantae,Asteraceae,,,1,9.60708218,47.10440442,Europe,Liechtenstein,LI,,Liechtenstein - Triesenberg,2018-08-01,11:00
Jacobaea alpina,Plantae,Asteraceae,,,1,9.60948577,47.1016372,Europe,Liechtenstein,LI,,Liechtenstein - Triesenberg,2018-08-01,11:07
Scabiosa lucida,Plantae,CAPRIFOLIACEAE,Shining scabious,,1,9.61977697,47.10288532,Europe,Liechtenstein,LI,,Liechtenstein - Triesenberg,2018-08-01,11:35
Gymnadenia conopsea,Plantae,ORCHIDACEAE,Chalk Fragrant-orchid,,1,9.6,47.1,Europe,Liechtenstein,LI,,Liechtenstein - Triesenberg,2018-08-01,11:36
Silene vulgaris,Plantae,CARYOPHYLLACEAE,Bladder Campion,,1,9.62003846,47.10270367,Europe,Liechtenstein,LI,,Liechtenstein - Triesenberg,2018-08-01,11:36
Phleum alpinum,Plantae,Poaceae,Alpine Cat's-tail,,1,9.62042634,47.10230392,Europe,Liechtenstein,LI,,Liechtenstein - Triesenberg,2018-08-01,11:38
Trollius europaeus,Plantae,RANUNCULACEAE,Globeflower,,1,9.62061737,47.10223406,Europe,Liechtenstein,LI,,Liechtenstein - Triesenberg,2018-08-01,11:39
Bartsia alpina,Plantae,OROBANCHACEAE,Alpine Bartsia,,1,9.62067891,47.10215626,Europe,Liechtenstein,LI,,Liechtenstein - Triesenberg,2018-08-01,11:40
Centaurea montana,Plantae,Asteraceae,Perennial Cornflower,,1,9.62069961,47.10216833,Europe,Liechtenstein,LI,,Liechtenstein - Triesenberg,2018-08-01,11:40
Campanula barbata,Plantae,CAMPANULACEAE,Bearded bellflower,,1,9.62075737,47.10211218,Europe,Liechtenstein,LI,,Liechtenstein - Triesenberg,2018-08-01,11:40
Erica herbacea,Plantae,ERICACEAE,Spring Heather,,1,9.62074761,47.10210551,Europe,Liechtenstein,LI,,Liechtenstein - Triesenberg,2018-08-01,11:42
Arnica montana,Plantae,Asteraceae,Arnica,,1,9.6,47.1,Europe,Liechtenstein,LI,,Liechtenstein - Triesenberg,2018-08-01,11:42
Pulsatilla alpina,Plantae,RANUNCULACEAE,,,1,9.62112903,47.10166664,Europe,Liechtenstein,LI,,Liechtenstein - Triesenberg,2018-08-01,11:43
Centaurea montana,Plantae,Asteraceae,Perennial Cornflower,,1,9.61947073,47.10286453,Europe,Liechtenstein,LI,,Liechtenstein - Triesenberg,2018-08-05,12:59
Carduus defloratus,Plantae,Asteraceae,,,1,9.6195609,47.10287413,Europe,Liechtenstein,LI,,Liechtenstein - Triesenberg,2018-08-05,13:06
Colias phicomone,Animalia,WHITES_PIERIDAE,Mountain Clouded Yellow,,1,9.61949087,47.10289372,Europe,Liechtenstein,LI,,Liechtenstein - Triesenberg,2018-08-05,13:30
Gymnadenia conopsea,Plantae,ORCHIDACEAE,Chalk Fragrant-orchid,,1,9.6,47.1,Europe,Liechtenstein,LI,,Liechtenstein - Triesenberg,2018-08-05,13:39
Poa alpina,Plantae,Poaceae,Alpine Meadow-grass,,1,9.62131995,47.10090065,Europe,Liechtenstein,LI,,Liechtenstein - Triesenberg,2018-08-05,13:47
Dryas octopetala,Plantae,ROSACEAE,Mountain Avens,,1,9.62163727,47.10046674,Europe,Liechtenstein,LI,,Liechtenstein - Triesenberg,2018-08-05,13:49
Rhododendron hirsutum,Plantae,ERICACEAE,,,1,9.62192726,47.1001657,Europe,Liechtenstein,LI,,Liechtenstein - Triesenberg,2018-08-05,13:51
Erica herbacea,Plantae,ERICACEAE,Spring Heather,,1,9.62192154,47.10017592,Europe,Liechtenstein,LI,,Liechtenstein - Triesenberg,2018-08-05,13:51
Marmota marmota,Animalia,SQUIRRELS_CHIPMUNKS_AND_PRAIRIEDOGS_SCIURIDAE,Alpine Marmot,,1,9.62339651,47.098782,Europe,Liechtenstein,LI,,Liechtenstein - Triesenberg,2018-08-05,14:04
Erebia tyndarus,Animalia,BRUSHFOOTED_BUTTERFLIES_NYMPHALIDAE,Swiss Brassy Ringlet,,1,9.623701,47.09820655,Europe,Liechtenstein,LI,,Liechtenstein - Triesenberg,2018-08-05,14:17
Erebia cassioides,Animalia,BRUSHFOOTED_BUTTERFLIES_NYMPHALIDAE,Common Brassy Ringlet,,1,9.62394917,47.09773765,Europe,Liechtenstein,LI,,Liechtenstein - Triesenberg,2018-08-05,14:29
Gentianopsis ciliata,Plantae,GENTIANACEAE,Fringed Gentian,,1,9.6,47.05,Europe,Liechtenstein,LI,,Liechtenstein - Triesenberg,2018-08-05,14:48
Erebia manto,Animalia,BRUSHFOOTED_BUTTERFLIES_NYMPHALIDAE,Yellow-spotted Ringlet,,1,9.62391043,47.09767326,Europe,Liechtenstein,LI,,Liechtenstein - Triesenberg,2018-08-05,14:50
Silene acaulis,Plantae,CARYOPHYLLACEAE,Moss Campion,,1,9.62390917,47.09768886,Europe,Liechtenstein,LI,,Liechtenstein - Triesenberg,2018-08-05,14:54
Cirsium acaule,Plantae,Asteraceae,Dwarf Thistle,,1,9.62390917,47.09768635,Europe,Liechtenstein,LI,,Liechtenstein - Triesenberg,2018-08-05,14:55
Bupleurum ranunculoides,Plantae,Apiaceae,,,1,9.6239981,47.09770038,Europe,Liechtenstein,LI,,Liechtenstein - Triesenberg,2018-08-05,15:00
Verbena officinalis,Plantae,VERBENACEAE,Vervain,,1,9.48979911,47.06060041,Europe,Liechtenstein,LI,,Liechtenstein - Balzers,2018-08-06,12:43
Eupatorium cannabinum,Plantae,Asteraceae,Hemp-agrimony,,1,9.48681473,47.05547158,Europe,Liechtenstein,LI,,Liechtenstein - Balzers,2018-08-06,13:02
Lathyrus vernus,Plantae,Fabaceae,Spring Pea,,1,9.48667965,47.05529122,Europe,Liechtenstein,LI,,Liechtenstein - Balzers,2018-08-06,13:04
Polyommatus icarus,Animalia,GOSSAMERWINGED_BUTTERFLIES_LYCAENIDAE,Common Blue,,1,9.48715042,47.0543321,Europe,Liechtenstein,LI,,Liechtenstein - Balzers,2018-08-06,13:20
Podarcis muralis,Animalia,Lacertidae,Common Wall Lizard,,1,9.45,47.05,Europe,Liechtenstein,LI,,Liechtenstein - Balzers,2018-08-06,13:33
Euphorbia amygdaloides,Plantae,EUPHORBIACEAE,Wood Spurge,,1,9.4860183,47.05437122,Europe,Liechtenstein,LI,,Liechtenstein - Balzers,2018-08-06,13:57
Arrhenatherum elatius,Plantae,Poaceae,False Oat-grass,,1,9.51254295186094,47.0750017790562,Europe,Liechtenstein,LI,,Liechtenstein - Balzers,2018-08-06,16:25
Euphorbia amygdaloides,Plantae,EUPHORBIACEAE,Wood Spurge,,1,9.4864960201173,47.0543996477938,Europe,Liechtenstein,LI,,Liechtenstein - Balzers,2018-08-06,13:57
Crepis spec.,Plantae,Asteraceae,,,1,9.48693900369991,47.0547544118455,Europe,Liechtenstein,LI,,Liechtenstein - Balzers,2018-08-06,13:25
Lathyrus vernus,Plantae,Fabaceae,Spring Pea,,1,9.48639426381279,47.0552561106598,Europe,Liechtenstein,LI,,Liechtenstein - Balzers,2018-08-06,13:04
Fragaria vesca,Plantae,ROSACEAE,Wild Strawberry,,1,9.48813082651187,47.0557511039516,Europe,Liechtenstein,LI,,Liechtenstein - Balzers,2018-08-06,12:58
Carlina vulgaris,Plantae,Asteraceae,Carline Thistle,,1,9.52208859846883,47.0852101408384,Europe,Liechtenstein,LI,,Liechtenstein - Balzers,2018-08-04,17:16
Hippophae rhamnoides,Plantae,ELAEAGNACEAE,Sea-buckthorn,,1,9.51304972172669,47.0849232702023,Europe,Liechtenstein,LI,,Liechtenstein,2018-08-04,16:54
Gypsophila repens,Plantae,CARYOPHYLLACEAE,Alpine Gypsophila,,1,9.51374282129995,47.0854391763425,Europe,Liechtenstein,LI,,Liechtenstein,2018-08-04,16:51
Myricaria germanica,Plantae,TAMARICACEAE,False tamarisk,,1,9.5141169056385,47.0856356481529,Europe,Liechtenstein,LI,,Liechtenstein,2018-08-04,16:50
Centaurea scabiosa,Plantae,Asteraceae,Greater Knapweed,,1,9.51506506652526,47.0861704135752,Europe,Liechtenstein,LI,,Liechtenstein,2018-08-04,16:43
Colias crocea,Animalia,WHITES_PIERIDAE,Clouded Yellow,,1,9.51506506652526,47.0861704135752,Europe,Liechtenstein,LI,,Liechtenstein,2018-08-04,16:42
Erigeron annuus,Plantae,Asteraceae,Tall Fleabane,,1,9.51605220326177,47.0867116749725,Europe,Liechtenstein,LI,,Liechtenstein,2018-08-04,16:38
Silene vulgaris,Plantae,CARYOPHYLLACEAE,Bladder Campion,,1,9.51605220326177,47.0867116749725,Europe,Liechtenstein,LI,,Liechtenstein,2018-08-04,16:38
Cornus mas,Plantae,CORNACEAE,Cornelian Cherry,,1,9.52087665908925,47.0878224866903,Europe,Liechtenstein,LI,,Liechtenstein - Balzers,2018-08-04,15:55
Cyperus fuscus,Plantae,CYPERACEAE,Brown Galingale,,1,9.52074397,47.08822591,Europe,Liechtenstein,LI,,Liechtenstein - Triesen,2018-08-04,15:47
Zannichellia palustris subsp. palustris,Plantae,POTAMOGETONACEAE,,,1,9.52047156170897,47.0881440584055,Europe,Liechtenstein,LI,,Liechtenstein - Balzers,2018-08-04,15:43
Filipendula ulmaria,Plantae,ROSACEAE,Meadowsweet,,1,9.52201265842609,47.0879243687234,Europe,Liechtenstein,LI,,Liechtenstein - Triesen,2018-08-04,15:34
Euphorbia helioscopia,Plantae,EUPHORBIACEAE,Sun Spurge,,1,9.52568317764394,47.0867229486323,Europe,Liechtenstein,LI,,Liechtenstein - Triesen,2018-08-04,14:28
Gypsophila repens,Plantae,CARYOPHYLLACEAE,Alpine Gypsophila,,1,9.52494297177487,47.0899027074194,Europe,Liechtenstein,LI,,Liechtenstein - Triesen,2018-08-04,14:19
Allium carinatum,Plantae,AMARYLLIDACEAE,Keeled Garlic,,1,9.52694532462352,47.0930522913552,Europe,Liechtenstein,LI,,Liechtenstein - Triesen,2018-08-04,13:02
Euphorbia amygdaloides,Plantae,EUPHORBIACEAE,Wood Spurge,,1,9.52717029490464,47.0935342926971,Europe,Liechtenstein,LI,,Liechtenstein - Triesen,2018-08-04,12:20
Cyclamen purpurascens,Plantae,PRIMULACEAE,Cyclamen,,1,9.52765669674569,47.0913376473329,Europe,Liechtenstein,LI,,Liechtenstein - Triesen,2018-08-04,11:08
Eupatorium cannabinum,Plantae,Asteraceae,Hemp-agrimony,,1,9.52843009495132,47.0904629957369,Europe,Liechtenstein,LI,,Liechtenstein - Triesen,2018-08-04,11:05
Laserpitium siler,Plantae,Apiaceae,,,1,9.54982381314929,47.1354012284867,Europe,Liechtenstein,LI,,Liechtenstein - Triesenberg,2018-08-03,16:33
Geranium sylvaticum,Plantae,GERANIACEAE,Wood Crane's-bill,,1,9.55294565298553,47.1342340065605,Europe,Liechtenstein,LI,,Liechtenstein - Triesenberg,2018-08-03,16:03
Asperula cynanchica,Plantae,RUBIACEAE,Squinancywort,,1,9.55409355462487,47.1326339012451,Europe,Liechtenstein,LI,,Liechtenstein - Triesenberg,2018-08-03,15:47
Rumex obtusifolius,Plantae,POLYGONACEAE,Broad-leaved Dock,,1,9.55565434881445,47.1311393240906,Europe,Liechtenstein,LI,,Liechtenstein - Triesenberg,2018-08-03,15:35
Centaurea scabiosa,Plantae,Asteraceae,Greater Knapweed,,1,9.55975066871341,47.1305581648342,Europe,Liechtenstein,LI,,Liechtenstein - Triesenberg,2018-08-03,15:08
Carlina vulgaris,Plantae,Asteraceae,Carline Thistle,,1,9.55972116441425,47.1305458434365,Europe,Liechtenstein,LI,,Liechtenstein - Triesenberg,2018-08-03,15:08
Laserpitium latifolium,Plantae,Apiaceae,Broad-leaved Sermountain,,1,9.55859455280896,47.1331291040845,Europe,Liechtenstein,LI,,Liechtenstein - Triesenberg,2018-08-03,14:42
Athamanta cretensis,Plantae,Apiaceae,,,1,9.55844443292316,47.1332721831716,Europe,Liechtenstein,LI,,Liechtenstein - Triesenberg,2018-08-03,14:35
Potentilla caulescens,Plantae,ROSACEAE,,,1,9.55758310855325,47.1343802707709,Europe,Liechtenstein,LI,,Liechtenstein - Triesenberg,2018-08-03,14:21
Trifolium medium,Plantae,Fabaceae,Zigzag Clover,,1,9.5570330042481,47.1349256393007,Europe,Liechtenstein,LI,,Liechtenstein - Triesenberg,2018-08-03,14:17
Lathyrus vernus,Plantae,Fabaceae,Spring Pea,,1,9.55677987077232,47.1353724785588,Europe,Liechtenstein,LI,,Liechtenstein - Triesenberg,2018-08-03,14:15
Carex sylvatica,Plantae,CYPERACEAE,Wood-sedge,,1,9.55677987077232,47.1353724785588,Europe,Liechtenstein,LI,,Liechtenstein - Triesenberg,2018-08-03,14:14
Plantago alpina,Plantae,PLANTAGINACEAE,,,1,9.55651449971791,47.1360074915431,Europe,Liechtenstein,LI,,Liechtenstein - Triesenberg,2018-08-03,14:10
Cirsium eriophorum,Plantae,Asteraceae,Woolly Thistle,,1,9.55702504144009,47.1369937481798,Europe,Liechtenstein,LI,,Liechtenstein - Triesenberg,2018-08-03,14:06
Corvus corax,Animalia,CROWS_AND_JAYS_CORVIDAE,Northern Raven,,1,9.55699025654193,47.1374234045363,Europe,Liechtenstein,LI,,Liechtenstein - Triesenberg,2018-08-03,14:05
Tofieldia calyculata,Plantae,Tofieldiaceae,Alpine-asphodel,,1,9.55472311937209,47.1390577080167,Europe,Liechtenstein,LI,,Liechtenstein - Triesenberg,2018-08-03,13:58
Dryas octopetala,Plantae,ROSACEAE,Mountain Avens,,1,9.5545429084539,47.1392332669786,Europe,Liechtenstein,LI,,Liechtenstein - Triesenberg,2018-08-03,13:55
Pulsatilla alpina,Plantae,RANUNCULACEAE,,,1,9.5545429084539,47.1392332669786,Europe,Liechtenstein,LI,,Liechtenstein - Triesenberg,2018-08-03,13:55
Soldanella alpina,Plantae,PRIMULACEAE,Alpine snowbell,,1,9.55372190103825,47.1401758538998,Europe,Liechtenstein,LI,,Liechtenstein - Triesenberg,2018-08-03,13:52
Campanula barbata,Plantae,CAMPANULACEAE,Bearded bellflower,,1,9.55292930827434,47.1406607889078,Europe,Liechtenstein,LI,,Liechtenstein - Triesenberg,2018-08-03,13:51
Petasites paradoxus,Plantae,Asteraceae,,,1,9.55030862242873,47.1418489655919,Europe,Liechtenstein,LI,,Liechtenstein - Triesenberg,2018-08-03,13:32
Campanula cochleariifolia,Plantae,CAMPANULACEAE,Fairies'-thimbles,,1,9.55037450418766,47.1417476702921,Europe,Liechtenstein,LI,,Liechtenstein - Triesenberg,2018-08-03,13:31
Rhododendron hirsutum,Plantae,ERICACEAE,,,1,9.54863945023115,47.1388679836384,Europe,Liechtenstein,LI,,Liechtenstein - Triesenberg,2018-08-03,13:09
Sesleria caerulea,Plantae,Poaceae,Blue Moor-grass,,1,9.54855060205753,47.1391355758972,Europe,Liechtenstein,LI,,Liechtenstein - Triesenberg,2018-08-03,12:55
Polygala chamaebuxus,Plantae,POLYGALACEAE,Shrubby Milkwort,,1,9.54851950519676,47.1392520424418,Europe,Liechtenstein,LI,,Liechtenstein - Triesenberg,2018-08-03,12:54
Adenostyles alliariae,Plantae,Asteraceae,,,1,9.5485418010592,47.139273751571,Europe,Liechtenstein,LI,,Liechtenstein - Triesenberg,2018-08-03,12:54
Pinguicula vulgaris,Plantae,LENTIBULARIACEAE,Common Butterwort,,1,9.5,47.1,Europe,Liechtenstein,LI,,Liechtenstein - Triesenberg,2018-08-03,12:53
Asplenium viride,Plantae,ASPLENIACEAE,Green Spleenwort,,1,9.5,47.1,Europe,Liechtenstein,LI,,Liechtenstein - Triesenberg,2018-08-03,12:52
Chaerophyllum hirsutum,Plantae,Apiaceae,Hairy Chervil,,1,9.54816025682683,47.1393374121256,Europe,Liechtenstein,LI,,Liechtenstein - Triesenberg,2018-08-03,12:51
Plantago media,Plantae,PLANTAGINACEAE,Hoary Plantain,,1,9.54816092737908,47.1393628512017,Europe,Liechtenstein,LI,,Liechtenstein - Triesenberg,2018-08-03,12:49
Hippocrepis comosa,Plantae,Fabaceae,Horseshoe Vetch,,1,9.54850684852297,47.1396100335262,Europe,Liechtenstein,LI,,Liechtenstein - Triesenberg,2018-08-03,12:48
Silene vulgaris,Plantae,CARYOPHYLLACEAE,Bladder Campion,,1,9.54833158292766,47.1395352250404,Europe,Liechtenstein,LI,,Liechtenstein - Triesenberg,2018-08-03,12:48
Pimpinella major,Plantae,Apiaceae,Greater Burnet-saxifrage,,1,9.54851204530294,47.1397122508354,Europe,Liechtenstein,LI,,Liechtenstein - Triesenberg,2018-08-03,12:47
Saxifraga rotundifolia,Plantae,SAXIFRAGACEAE,Round-leaved Saxifrage,,1,9.54833284021313,47.1396433515913,Europe,Liechtenstein,LI,,Liechtenstein - Triesenberg,2018-08-03,12:46
Sedum dasyphyllum,Plantae,CRASSULACEAE,Thick-leaved Stonecrop,,1,9.54845563509459,47.1396647673539,Europe,Liechtenstein,LI,,Liechtenstein - Triesenberg,2018-08-03,12:43
Cirsium acaule,Plantae,Asteraceae,Dwarf Thistle,,1,9.54745542258913,47.1400294220514,Europe,Liechtenstein,LI,,Liechtenstein - Triesenberg,2018-08-03,12:29
Carlina acaulis,Plantae,Asteraceae,Stemless Carline Thistle,,1,9.54745542258913,47.1400294220514,Europe,Liechtenstein,LI,,Liechtenstein - Triesenberg,2018-08-03,12:29
Pedicularis foliosa,Plantae,OROBANCHACEAE,,,1,9.54701629468198,47.1408412093736,Europe,Liechtenstein,LI,,Liechtenstein - Triesenberg,2018-08-03,12:25
Veratrum album,Plantae,MELANTHIACEAE,White false hellebore,,1,9.54664925114209,47.141295550435,Europe,Liechtenstein,LI,,Liechtenstein - Triesenberg,2018-08-03,12:20
Veronica urticifolia,Plantae,PLANTAGINACEAE,Nettle-leaved Speedwell,,1,9.54668831081087,47.1418770449675,Europe,Liechtenstein,LI,,Liechtenstein - Triesenberg,2018-08-03,12:12
Fragaria vesca,Plantae,ROSACEAE,Wild Strawberry,,1,9.5461341831922,47.1419940144263,Europe,Liechtenstein,LI,,Liechtenstein - Triesenberg,2018-08-03,12:09
Centaurea montana,Plantae,Asteraceae,Perennial Cornflower,,1,9.5469407737344,47.1424016263775,Europe,Liechtenstein,LI,,Liechtenstein - Triesenberg,2018-08-03,12:08
Valeriana montana,Plantae,CAPRIFOLIACEAE,,,1,9.54590544105465,47.1419911645792,Europe,Liechtenstein,LI,,Liechtenstein - Triesenberg,2018-08-03,12:08
Dactylorhiza fuchsii,Plantae,ORCHIDACEAE,Common Spotted Orchid,,1,9.5,47.1,Europe,Liechtenstein,LI,,Liechtenstein - Triesenberg,2018-08-03,12:07
Valeriana officinalis,Plantae,CAPRIFOLIACEAE,Common Valerian,,1,9.54618849792475,47.1426011575825,Europe,Liechtenstein,LI,,Liechtenstein - Triesenberg,2018-08-03,12:06
Trollius europaeus,Plantae,RANUNCULACEAE,Globeflower,,1,9.54591373913879,47.1421569167144,Europe,Liechtenstein,LI,,Liechtenstein - Triesenberg,2018-08-03,12:05
Lonicera alpigena,Plantae,CAPRIFOLIACEAE,Alpine Honeysuckle,,1,9.54588180408771,47.1420988301254,Europe,Liechtenstein,LI,,Liechtenstein - Triesenberg,2018-08-03,12:04
Pimpinella major,Plantae,Apiaceae,Greater Burnet-saxifrage,,1,9.54591759481425,47.1421225928209,Europe,Liechtenstein,LI,,Liechtenstein - Triesenberg,2018-08-03,12:03
Crepis pyrenaica,Plantae,Asteraceae,,,1,9.54594039359088,47.1421302203528,Europe,Liechtenstein,LI,,Liechtenstein - Triesenberg,2018-08-03,12:02
Cirsium rivulare,Plantae,Asteraceae,Brook Thistle,,1,9.54588465,47.14194121,Europe,Liechtenstein,LI,,Liechtenstein - Triesenberg,2018-08-03,12:00
Trifolium medium,Plantae,Fabaceae,Zigzag Clover,,1,9.5457718335181,47.1416662820123,Europe,Liechtenstein,LI,,Liechtenstein - Triesenberg,2018-08-03,11:57
Homogyne alpina,Plantae,Asteraceae,Purple Colt's-foot,,1,9.54555734061594,47.1413640305839,Europe,Liechtenstein,LI,,Liechtenstein - Triesenberg,2018-08-03,11:56
Phyteuma spicatum,Plantae,CAMPANULACEAE,Spiked Rampion,,1,9.54,47.14,Europe,Liechtenstein,LI,,Liechtenstein - Triesenberg,2018-08-03,11:54
Teucrium chamaedrys,Plantae,Lamiaceae,Wall Germander,,1,9.54483423382933,47.1413354902036,Europe,Liechtenstein,LI,,Liechtenstein - Triesenberg,2018-08-03,11:50
Allium carinatum,Plantae,AMARYLLIDACEAE,Keeled Garlic,,1,9.54464094714219,47.1414702712066,Europe,Liechtenstein,LI,,Liechtenstein - Triesenberg,2018-08-03,11:50
Geranium sylvaticum,Plantae,GERANIACEAE,Wood Crane's-bill,,1,9.54469375313217,47.1419560444049,Europe,Liechtenstein,LI,,Liechtenstein - Triesenberg,2018-08-03,11:47
Gentiana lutea,Plantae,GENTIANACEAE,Yellow gentian,,1,9.5,47.1,Europe,Liechtenstein,LI,,Liechtenstein - Triesenberg,2018-08-03,11:47
Crepis pyrenaica,Plantae,Asteraceae,,,1,9.61209607311488,47.1011352539501,Europe,Liechtenstein,LI,,Liechtenstein - Triesenberg,2018-08-01,15:56
Dianthus superbus,Plantae,CARYOPHYLLACEAE,Superb Pink,,1,9.6123215463102,47.10110583347,Europe,Liechtenstein,LI,,Liechtenstein - Triesenberg,2018-08-01,15:55
Pimpinella major,Plantae,Apiaceae,Greater Burnet-saxifrage,,1,9.61433915422262,47.1000850433922,Europe,Liechtenstein,LI,,Liechtenstein - Triesenberg,2018-08-01,15:50
Ranunculus aconitifolius,Plantae,RANUNCULACEAE,Aconite-Leaved Buttercup,,1,9.61682816036941,47.0983886719189,Europe,Liechtenstein,LI,,Liechtenstein - Triesenberg,2018-08-01,15:43
Geum rivale,Plantae,ROSACEAE,Water Avens,,1,9.61,47.09,Europe,Liechtenstein,LI,,Liechtenstein - Triesenberg,2018-08-01,15:21
Daphne mezereum,Plantae,THYMELAEACEAE,Mezereon,,1,9.6,47.05,Europe,Liechtenstein,LI,,Liechtenstein - Triesenberg,2018-08-01,15:17
Senecio hercynicus,Plantae,Asteraceae,,,1,9.62003709,47.0931548,Europe,Liechtenstein,LI,,Liechtenstein - Triesenberg,2018-08-01,15:15
Geranium sylvaticum,Plantae,GERANIACEAE,Wood Crane's-bill,,1,9.62003708817961,47.093154802031,Europe,Liechtenstein,LI,,Liechtenstein - Triesenberg,2018-08-01,15:15
Chaerophyllum hirsutum,Plantae,Apiaceae,Hairy Chervil,,1,9.62006877177359,47.0930542191929,Europe,Liechtenstein,LI,,Liechtenstein - Triesenberg,2018-08-01,15:07
Crepis aurea,Plantae,Asteraceae,Golden Hawk's-beard,,1,9.62008235045673,47.0930496091462,Europe,Liechtenstein,LI,,Liechtenstein - Triesenberg,2018-08-01,15:06
Aconitum napellus,Plantae,RANUNCULACEAE,Monk's-hood,,1,9.62,47.09,Europe,Liechtenstein,LI,,Liechtenstein - Triesenberg,2018-08-01,15:05
Peucedanum ostruthium,Plantae,Apiaceae,Masterwort,,1,9.62019232102634,47.0932190912283,Europe,Liechtenstein,LI,,Liechtenstein - Triesenberg,2018-08-01,15:02
Blitum bonus-henricus,Plantae,AMARANTHACEAE,Good-King-Henry,,1,9.62055232376756,47.0933812810547,Europe,Liechtenstein,LI,,Liechtenstein - Triesenberg,2018-08-01,14:50
Rumex alpinus,Plantae,POLYGONACEAE,Monk's-rhubarb,,1,9.62154968642594,47.0923529053545,Europe,Liechtenstein,LI,,Liechtenstein - Triesenberg,2018-08-01,14:42
Euphrasia minima,Plantae,OROBANCHACEAE,,,1,9.62242886424961,47.0924074715442,Europe,Liechtenstein,LI,,Liechtenstein - Triesenberg,2018-08-01,14:35
Soldanella alpina,Plantae,PRIMULACEAE,Alpine snowbell,,1,9.62237019092741,47.0921500213883,Europe,Liechtenstein,LI,,Liechtenstein - Triesenberg,2018-08-01,14:33
Daphne striata,Plantae,THYMELAEACEAE,,,1,9.62279205211403,47.0922480477459,Europe,Liechtenstein,LI,,Liechtenstein - Triesenberg,2018-08-01,14:30
Cirsium acaule,Plantae,Asteraceae,Dwarf Thistle,,1,9.6248245798141,47.0918892184711,Europe,Liechtenstein,LI,,Liechtenstein - Triesenberg,2018-08-01,14:08
Gymnadenia conopsea,Plantae,ORCHIDACEAE,Chalk Fragrant-orchid,,1,9.6,47.05,Europe,Liechtenstein,LI,,Liechtenstein - Triesenberg,2018-08-01,13:56
Pyrola rotundifolia,Plantae,ERICACEAE,Round-leaved Wintergreen,,1,9.62355639786424,47.0877179224483,Europe,Liechtenstein,LI,,Liechtenstein - Triesenberg,2018-08-01,13:42
Doronicum grandiflorum,Plantae,Asteraceae,,,1,9.62329379,47.08681293,Europe,Liechtenstein,LI,,Liechtenstein - Triesenberg,2018-08-01,13:31
Cirsium spinosissimum,Plantae,Asteraceae,,,1,9.62321500294807,47.0869580610162,Europe,Liechtenstein,LI,,Liechtenstein - Triesenberg,2018-08-01,13:26
Plantago alpina,Plantae,PLANTAGINACEAE,,,1,9.62476163172128,47.0894924132592,Europe,Liechtenstein,LI,,Liechtenstein - Triesenberg,2018-08-01,13:16
Ranunculus alpestris,Plantae,RANUNCULACEAE,,,1,9.62633592077496,47.0921570621869,Europe,Liechtenstein,LI,,Liechtenstein - Triesenberg,2018-08-01,12:55
Hornungia alpina,Plantae,Brassicaceae,,,1,9.62617582642438,47.0922503108597,Europe,Liechtenstein,LI,,Liechtenstein - Triesenberg,2018-08-01,12:41
Gypsophila repens,Plantae,CARYOPHYLLACEAE,Alpine Gypsophila,,1,9.62642267347279,47.0924843335963,Europe,Liechtenstein,LI,,Liechtenstein - Triesenberg,2018-08-01,12:40
Poa alpina,Plantae,Poaceae,Alpine Meadow-grass,,1,9.62643440813723,47.0924607385388,Europe,Liechtenstein,LI,,Liechtenstein - Triesenberg,2018-08-01,12:40
Biscutella laevigata,Plantae,Brassicaceae,Buckler-mustard,,1,9.62650506758096,47.0922272187165,Europe,Liechtenstein,LI,,Liechtenstein - Triesenberg,2018-08-01,12:37
Silene acaulis,Plantae,CARYOPHYLLACEAE,Moss Campion,,1,9.62648067624273,47.0921978401459,Europe,Liechtenstein,LI,,Liechtenstein - Triesenberg,2018-08-01,12:35
Arctostaphylos alpina,Plantae,ERICACEAE,,,1,9.62648067624273,47.0921978401459,Europe,Liechtenstein,LI,,Liechtenstein - Triesenberg,2018-08-01,12:35
Persicaria vivipara,Plantae,POLYGONACEAE,Alpine Bistort,,1,9.62632267736795,47.0921662822804,Europe,Liechtenstein,LI,,Liechtenstein - Triesenberg,2018-08-01,12:29
Cystopteris alpina,Plantae,CYSTOPTERIDACEAE,Alpine Bladder-fern,,1,9.62641262,47.09215379,Europe,Liechtenstein,LI,,Liechtenstein - Triesenberg,2018-08-01,12:28
Campanula cochleariifolia,Plantae,CAMPANULACEAE,Fairies'-thimbles,,1,9.62625503540936,47.092153248421,Europe,Liechtenstein,LI,,Liechtenstein - Triesenberg,2018-08-01,12:24
Carex firma,Plantae,CYPERACEAE,Dwarf pillow sedge,,1,9.62623449974659,47.0921446150607,Europe,Liechtenstein,LI,,Liechtenstein - Triesenberg,2018-08-01,12:23
Kernera saxatilis,Plantae,Brassicaceae,Kernera,,1,9.62585572154226,47.0928473538226,Europe,Liechtenstein,LI,,Liechtenstein - Triesenberg,2018-08-01,12:21
Phyteuma orbiculare,Plantae,CAMPANULACEAE,Round-headed Rampion,,1,9.62562186644378,47.0928462641752,Europe,Liechtenstein,LI,,Liechtenstein - Triesenberg,2018-08-01,12:18
Hedysarum hedysaroides,Plantae,Fabaceae,Zulla silvestre,,1,9.62562278845312,47.0943063497982,Europe,Liechtenstein,LI,,Liechtenstein - Triesenberg,2018-08-01,12:14
Carlina acaulis,Plantae,Asteraceae,Stemless Carline Thistle,,1,9.62515977212193,47.0952951629153,Europe,Liechtenstein,LI,,Liechtenstein - Triesenberg,2018-08-01,12:10
Veratrum album,Plantae,MELANTHIACEAE,White false hellebore,,1,9.62487520650926,47.0962606324322,Europe,Liechtenstein,LI,,Liechtenstein - Triesenberg,2018-08-01,12:06
Gentiana lutea,Plantae,GENTIANACEAE,Yellow gentian,,1,9.6,47.05,Europe,Liechtenstein,LI,,Liechtenstein - Triesenberg,2018-08-01,12:06
Pinguicula alpina,Plantae,LENTIBULARIACEAE,Alpine Butterwort,,1,9.6243324782789,47.0970304264194,Europe,Liechtenstein,LI,,Liechtenstein - Triesenberg,2018-08-01,12:03
Saxifraga caesia,Plantae,SAXIFRAGACEAE,,,1,9.62433248,47.09703043,Europe,Liechtenstein,LI,,Liechtenstein - Triesenberg,2018-08-01,12:03
Bupleurum ranunculoides,Plantae,Apiaceae,,,1,9.62337526493671,47.0986279752544,Europe,Liechtenstein,LI,,Liechtenstein - Triesenberg,2018-08-01,11:57
Parnassia palustris,Plantae,CELASTRACEAE,Grass-of-Parnassus,,1,9.62349982001784,47.0986085292391,Europe,Liechtenstein,LI,,Liechtenstein - Triesenberg,2018-08-01,11:55
Spinulum annotinum,Plantae,LYCOPODIACEAE,Interrupted Clubmoss,,1,9.62,47.09,Europe,Liechtenstein,LI,,Liechtenstein - Triesenberg,2018-08-01,11:54
Anemone narcissiflora,Plantae,RANUNCULACEAE,Narcissus anemone,,1,9.62340870873036,47.0986907557092,Europe,Liechtenstein,LI,,Liechtenstein - Triesenberg,2018-08-01,11:54
Tofieldia calyculata,Plantae,Tofieldiaceae,Alpine-asphodel,,1,9.62338255719247,47.0987809449873,Europe,Liechtenstein,LI,,Liechtenstein - Triesenberg,2018-08-01,11:54
Sesleria caerulea,Plantae,Poaceae,Blue Moor-grass,,1,9.62335783057811,47.0987598645008,Europe,Liechtenstein,LI,,Liechtenstein - Triesenberg,2018-08-01,11:53
Calluna vulgaris,Plantae,ERICACEAE,Heather,,1,9.6227399166763,47.0994412713191,Europe,Liechtenstein,LI,,Liechtenstein - Triesenberg,2018-08-01,11:51
Hippocrepis comosa,Plantae,Fabaceae,Horseshoe Vetch,,1,9.62260982953908,47.0995319216019,Europe,Liechtenstein,LI,,Liechtenstein - Triesenberg,2018-08-01,11:50
Trifolium thalii,Plantae,Fabaceae,,,1,9.62257797830703,47.0995258028126,Europe,Liechtenstein,LI,,Liechtenstein - Triesenberg,2018-08-01,11:49
Sorbus chamaemespilus,Plantae,ROSACEAE,,,1,9.6224793233067,47.0996483881465,Europe,Liechtenstein,LI,,Liechtenstein - Triesenberg,2018-08-01,11:49
Rhododendron hirsutum,Plantae,ERICACEAE,,,1,9.62241268717649,47.099779145836,Europe,Liechtenstein,LI,,Liechtenstein - Triesenberg,2018-08-01,11:48
Dryas octopetala,Plantae,ROSACEAE,Mountain Avens,,1,9.62216818706097,47.1000958141378,Europe,Liechtenstein,LI,,Liechtenstein - Triesenberg,2018-08-01,11:48
Allium carinatum,Plantae,AMARYLLIDACEAE,Keeled Garlic,,1,9.52492595651143,47.0924841659582,Europe,Liechtenstein,LI,,Liechtenstein - Triesen,2018-07-31,18:13
Sonchus oleraceus,Plantae,Asteraceae,Smooth Sow-thistle,,1,9.53564590775365,47.0967915840886,Europe,Liechtenstein,LI,,Liechtenstein - Triesen,2018-07-31,17:28
Laserpitium siler,Plantae,Apiaceae,,,1,9.53742119484538,47.0926921628854,Europe,Liechtenstein,LI,,Liechtenstein - Triesen,2018-07-31,17:13
Carlina vulgaris,Plantae,Asteraceae,Carline Thistle,,1,9.53585729935163,47.0905260695583,Europe,Liechtenstein,LI,,Liechtenstein - Triesen,2018-07-31,16:57
Teucrium chamaedrys,Plantae,Lamiaceae,Wall Germander,,1,9.53572855331892,47.0905145444414,Europe,Liechtenstein,LI,,Liechtenstein - Triesen,2018-07-31,16:57
Speyeria aglaja,Animalia,BRUSHFOOTED_BUTTERFLIES_NYMPHALIDAE,Dark Green Fritillary,,1,9.5374600868761,47.0899781026385,Europe,Liechtenstein,LI,,Liechtenstein - Triesen,2018-07-31,16:47
Adenostyles alliariae,Plantae,Asteraceae,,,1,9.53644855880135,47.0895207860014,Europe,Liechtenstein,LI,,Liechtenstein - Triesen,2018-07-31,16:23
Veronica urticifolia,Plantae,PLANTAGINACEAE,Nettle-leaved Speedwell,,1,9.53644855880135,47.0895207860014,Europe,Liechtenstein,LI,,Liechtenstein - Triesen,2018-07-31,16:22
Poterium sanguisorba subsp. sanguisorba,Plantae,ROSACEAE,Salad Burnet,,1,9.53366165981585,47.0896472689203,Europe,Liechtenstein,LI,,Liechtenstein - Triesen,2018-07-31,16:15
Phyteuma spicatum,Plantae,CAMPANULACEAE,Spiked Rampion,,1,9.53,47.08,Europe,Liechtenstein,LI,,Liechtenstein - Triesen,2018-07-31,16:08
Lathyrus vernus,Plantae,Fabaceae,Spring Pea,,1,9.53218778596216,47.0890054246849,Europe,Liechtenstein,LI,,Liechtenstein - Triesen,2018-07-31,16:06
Euphorbia amygdaloides,Plantae,EUPHORBIACEAE,Wood Spurge,,1,9.52841643244915,47.0883019315517,Europe,Liechtenstein,LI,,Liechtenstein - Triesen,2018-07-31,15:50
Cyclamen purpurascens,Plantae,PRIMULACEAE,Cyclamen,,1,9.52844325,47.08827515,Europe,Liechtenstein,LI,,Liechtenstein - Triesen,2018-07-31,15:49
Corvus corax,Animalia,CROWS_AND_JAYS_CORVIDAE,Northern Raven,,1,9.50700819,47.18154958,Europe,Liechtenstein,LI,,Liechtenstein - Schaan,2018-08-02,13:34
Phengaris nausithous,Animalia,GOSSAMERWINGED_BUTTERFLIES_LYCAENIDAE,Dusky Large Blue,,1,9.55,47.25,Europe,Liechtenstein,LI,,Liechtenstein - Ruggell,2018-07-29,10:33
Coenonympha pamphilus,Animalia,BRUSHFOOTED_BUTTERFLIES_NYMPHALIDAE,Small Heath,,2,9.55105547012853,47.2576838280782,Europe,Liechtenstein,LI,,Liechtenstein - Ruggell,2018-07-29,10:33
Minois dryas,Animalia,BRUSHFOOTED_BUTTERFLIES_NYMPHALIDAE,Dryad,,3,9.55106474173708,47.2576852321456,Europe,Liechtenstein,LI,,Liechtenstein - Ruggell,2018-07-29,10:34
Minois dryas,Animalia,BRUSHFOOTED_BUTTERFLIES_NYMPHALIDAE,Dryad,,1,9.55143610813893,47.2554770208432,Europe,Liechtenstein,LI,,Liechtenstein - Ruggell,2018-07-29,10:44
Coenonympha pamphilus,Animalia,BRUSHFOOTED_BUTTERFLIES_NYMPHALIDAE,Small Heath,,2,9.55143524488093,47.2554768320109,Europe,Liechtenstein,LI,,Liechtenstein - Ruggell,2018-07-29,10:44
Euplagia quadripunctaria,Animalia,EREBIDAE,Jersey Tiger,,1,9.5238018,47.1413052,Europe,Liechtenstein,LI,,Liechtenstein - Vaduz,2018-07-25,
Lasiommata maera,Animalia,BRUSHFOOTED_BUTTERFLIES_NYMPHALIDAE,Large Wall Brown,,1,9.5,47.1,Europe,Liechtenstein,LI,,Liechtenstein - Vaduz,2018-07-25,
Argynnis paphia,Animalia,BRUSHFOOTED_BUTTERFLIES_NYMPHALIDAE,Silver-washed Fritillary,,1,9.5238018,47.1413052,Europe,Liechtenstein,LI,,Liechtenstein - Vaduz,2018-07-25,
Gaurotes virginea,Animalia,Cerambycidae,,,1,9.5911,47.1111,Europe,Liechtenstein,LI,,Liechtenstein - Vaduz,2017-06-14,09:54
Rumex alpinus,Plantae,POLYGONACEAE,Monk's-rhubarb,,1,9.61110055,47.1010708,Europe,Liechtenstein,LI,,Liechtenstein - Triesenberg,2017-06-17,09:00
Valeriana montana,Plantae,CAPRIFOLIACEAE,,,1,9.5908,47.111,Europe,Liechtenstein,LI,,Liechtenstein - Vaduz,2017-06-17,10:13
Phyteuma ovatum,Plantae,CAMPANULACEAE,,,1,9.6122,47.0998,Europe,Liechtenstein,LI,,Liechtenstein - Triesenberg,2017-06-16,18:51
Dactylorhiza maculata,Plantae,ORCHIDACEAE,Spotted Orchid,,1,9.55,47.1,Europe,Liechtenstein,LI,,Liechtenstein - Vaduz,2017-06-17,09:58
Ardea cinerea,Animalia,HERONS_ARDEIDAE,Grey Heron,,2,9.54061074644205,47.2466177815145,Europe,Liechtenstein,LI,,Liechtenstein - Ruggell,2017-08-05,09:13
Corvus corax,Animalia,CROWS_AND_JAYS_CORVIDAE,Northern Raven,,2,9.60331235543561,47.1133673359373,Europe,Liechtenstein,LI,,Liechtenstein - Schaan,2017-08-05,13:40
Phoenicurus ochruros,Animalia,OLD_WORLD_FLYCATCHERS_MUSCICAPIDAE,Black Redstart,,2,9.60724375653443,47.116162943942,Europe,Liechtenstein,LI,,Liechtenstein - Schaan,2017-08-05,13:58
Aphantopus hyperantus,Animalia,BRUSHFOOTED_BUTTERFLIES_NYMPHALIDAE,Ringlet,,1,9.54,47.25,Europe,Liechtenstein,LI,,Liechtenstein - Ruggell,2017-07-20,10:00
Phengaris teleius,Animalia,GOSSAMERWINGED_BUTTERFLIES_LYCAENIDAE,Scarce Large Blue,,2,9.5,47.25,Europe,Liechtenstein,LI,,Liechtenstein - Ruggell,2017-07-20,10:05
Phengaris teleius,Animalia,GOSSAMERWINGED_BUTTERFLIES_LYCAENIDAE,Scarce Large Blue,,1,9.5,47.25,Europe,Liechtenstein,LI,,Liechtenstein - Ruggell,2017-07-20,10:18
Minois dryas,Animalia,BRUSHFOOTED_BUTTERFLIES_NYMPHALIDAE,Dryad,,10,9.54,47.25,Europe,Liechtenstein,LI,,Liechtenstein - Ruggell,2017-07-20,10:31
Minois dryas,Animalia,BRUSHFOOTED_BUTTERFLIES_NYMPHALIDAE,Dryad,,10,9.54,47.25,Europe,Liechtenstein,LI,,Liechtenstein - Ruggell,2017-07-20,11:12
Coenonympha pamphilus,Animalia,BRUSHFOOTED_BUTTERFLIES_NYMPHALIDAE,Small Heath,,3,9.54,47.25,Europe,Liechtenstein,LI,,Liechtenstein - Ruggell,2017-07-20,11:17
Minois dryas,Animalia,BRUSHFOOTED_BUTTERFLIES_NYMPHALIDAE,Dryad,,1,9.52278555,47.24678863,Europe,Liechtenstein,LI,,Liechtenstein,2017-07-20,12:02
Minois dryas,Animalia,BRUSHFOOTED_BUTTERFLIES_NYMPHALIDAE,Dryad,,2,9.52362165,47.24865427,Europe,Liechtenstein,LI,,Liechtenstein,2017-07-20,12:08
Aphantopus hyperantus,Animalia,BRUSHFOOTED_BUTTERFLIES_NYMPHALIDAE,Ringlet,,1,9.54,47.25,Europe,Liechtenstein,LI,,Liechtenstein - Ruggell,2017-07-20,10:00
Phengaris teleius,Animalia,GOSSAMERWINGED_BUTTERFLIES_LYCAENIDAE,Scarce Large Blue,,2,9.5,47.25,Europe,Liechtenstein,LI,,Liechtenstein - Ruggell,2017-07-20,10:05
Phengaris teleius,Animalia,GOSSAMERWINGED_BUTTERFLIES_LYCAENIDAE,Scarce Large Blue,,1,9.5,47.25,Europe,Liechtenstein,LI,,Liechtenstein - Ruggell,2017-07-20,10:18
Minois dryas,Animalia,BRUSHFOOTED_BUTTERFLIES_NYMPHALIDAE,Dryad,,10,9.54,47.25,Europe,Liechtenstein,LI,,Liechtenstein - Ruggell,2017-07-20,10:31
Minois dryas,Animalia,BRUSHFOOTED_BUTTERFLIES_NYMPHALIDAE,Dryad,,10,9.54,47.25,Europe,Liechtenstein,LI,,Liechtenstein - Ruggell,2017-07-20,11:12
Coenonympha pamphilus,Animalia,BRUSHFOOTED_BUTTERFLIES_NYMPHALIDAE,Small Heath,,3,9.54,47.25,Europe,Liechtenstein,LI,,Liechtenstein - Ruggell,2017-07-20,11:17
Minois dryas,Animalia,BRUSHFOOTED_BUTTERFLIES_NYMPHALIDAE,Dryad,,1,9.52278555,47.24678863,Europe,Liechtenstein,LI,,Liechtenstein,2017-07-20,12:02
Minois dryas,Animalia,BRUSHFOOTED_BUTTERFLIES_NYMPHALIDAE,Dryad,,2,9.52362165,47.24865427,Europe,Liechtenstein,LI,,Liechtenstein,2017-07-20,12:08
Aphantopus hyperantus,Animalia,BRUSHFOOTED_BUTTERFLIES_NYMPHALIDAE,Ringlet,,1,9.54326212406158,47.2509956359863,Europe,Liechtenstein,LI,,Liechtenstein - Ruggell,2017-07-20,10:00
Phengaris teleius,Animalia,GOSSAMERWINGED_BUTTERFLIES_LYCAENIDAE,Scarce Large Blue,,1,9.5,47.25,Europe,Liechtenstein,LI,,Liechtenstein - Ruggell,2017-07-20,10:19
Ptyonoprogne rupestris,Animalia,SWALLOWS_HIRUNDINIDAE,Eurasian Crag Martin,,1,9.5441,47.2001,Europe,Liechtenstein,LI,,Liechtenstein - Eschen,2017-07-10,15:31
Silene vulgaris,Plantae,CARYOPHYLLACEAE,Bladder Campion,,1,9.51057818,47.06087338,Europe,Liechtenstein,LI,,Liechtenstein - Balzers,2017-07-09,07:34
Filipendula ulmaria,Plantae,ROSACEAE,Meadowsweet,,1,9.51593274,47.08194178,Europe,Liechtenstein,LI,,Liechtenstein - Balzers,2017-07-09,07:38
Prunella vulgaris,Plantae,Lamiaceae,Selfheal,,1,9.51598602,47.08192637,Europe,Liechtenstein,LI,,Liechtenstein - Balzers,2017-07-09,07:39
Trifolium pratense,Plantae,Fabaceae,Red Clover,,1,9.51596518,47.08191109,Europe,Liechtenstein,LI,,Liechtenstein - Balzers,2017-07-09,07:41
Fragaria vesca,Plantae,ROSACEAE,Wild Strawberry,,1,9.51597858,47.08216007,Europe,Liechtenstein,LI,,Liechtenstein - Balzers,2017-07-09,07:43
Sonchus asper,Plantae,Asteraceae,Prickly Sow-thistle,,1,9.51633464,47.08248049,Europe,Liechtenstein,LI,,Liechtenstein - Balzers,2017-07-09,07:46
Filipendula ulmaria,Plantae,ROSACEAE,Meadowsweet,,1,9.51632114,47.08247878,Europe,Liechtenstein,LI,,Liechtenstein - Balzers,2017-07-09,07:46
Erigeron canadensis,Plantae,Asteraceae,Canadian Fleabane,,1,9.51440401,47.14531941,Europe,Liechtenstein,LI,,Liechtenstein - Vaduz,2017-07-09,08:00
Verbena officinalis,Plantae,VERBENACEAE,Vervain,,1,9.51433453,47.14530305,Europe,Liechtenstein,LI,,Liechtenstein - Vaduz,2017-07-09,08:00
Arrhenatherum elatius,Plantae,Poaceae,False Oat-grass,,1,9.54300172,47.19858358,Europe,Liechtenstein,LI,,Liechtenstein - Eschen,2017-07-09,08:10
Filipendula ulmaria,Plantae,ROSACEAE,Meadowsweet,,1,9.5161,47.0819,Europe,Liechtenstein,LI,,Liechtenstein - Balzers,2017-07-09,07:41
Valeriana officinalis,Plantae,CAPRIFOLIACEAE,Common Valerian,,1,9.5161,47.0819,Europe,Liechtenstein,LI,,Liechtenstein - Balzers,2017-07-09,07:38
Phoenicurus ochruros,Animalia,OLD_WORLD_FLYCATCHERS_MUSCICAPIDAE,Black Redstart,,1,9.52701699402373,47.0871507073479,Europe,Liechtenstein,LI,,Liechtenstein - Triesen,2017-07-06,08:49
Phoenicurus ochruros,Animalia,OLD_WORLD_FLYCATCHERS_MUSCICAPIDAE,Black Redstart,,1,9.52715894618788,47.0871949303608,Europe,Liechtenstein,LI,,Liechtenstein - Triesen,2017-07-05,18:39
Aster bellidiastrum,Plantae,Asteraceae,,,1,9.591,47.111,Europe,Liechtenstein,LI,,Liechtenstein - Vaduz,2017-06-17,
Poa alpina,Plantae,Poaceae,Alpine Meadow-grass,,1,9.611,47.1004,Europe,Liechtenstein,LI,,Liechtenstein - Triesenberg,2017-06-16,18:40
Chaerophyllum hirsutum subsp. hirsutum,Plantae,Apiaceae,,,1,9.611,47.1004,Europe,Liechtenstein,LI,,Liechtenstein - Triesenberg,2017-06-16,18:36
Trifolium pratense,Plantae,Fabaceae,Red Clover,,1,9.5911,47.1111,Europe,Liechtenstein,LI,,Liechtenstein - Vaduz,2017-06-17,
Poa alpina,Plantae,Poaceae,Alpine Meadow-grass,,1,9.59111452,47.11109106,Europe,Liechtenstein,LI,,Liechtenstein - Vaduz,2017-06-17,09:30
Centaurea scabiosa,Plantae,Asteraceae,Greater Knapweed,,1,9.611,47.101,Europe,Liechtenstein,LI,,Liechtenstein - Triesenberg,2017-06-16,
Crepis aurea,Plantae,Asteraceae,Golden Hawk's-beard,,1,9.61100936,47.10087727,Europe,Liechtenstein,LI,,Liechtenstein - Triesenberg,2017-06-16,18:05
Bartsia alpina,Plantae,OROBANCHACEAE,Alpine Bartsia,,1,9.61125612,47.10027475,Europe,Liechtenstein,LI,,Liechtenstein - Triesenberg,2017-06-16,
Phyteuma spicatum,Plantae,CAMPANULACEAE,Spiked Rampion,,1,9.61,47.1,Europe,Liechtenstein,LI,,Liechtenstein - Triesenberg,2017-06-16,18:06
Cicerbita alpina,Plantae,Asteraceae,Alpine Blue-sow-thistle,,1,9.5911,47.1111,Europe,Liechtenstein,LI,,Liechtenstein - Vaduz,2017-06-17,
Carduus defloratus subsp. defloratus,Plantae,Asteraceae,,,1,9.5916,47.1113,Europe,Liechtenstein,LI,,Liechtenstein - Vaduz,2017-06-17,10:24
Valeriana montana,Plantae,CAPRIFOLIACEAE,,,1,9.5908,47.1113,Europe,Liechtenstein,LI,,Liechtenstein - Vaduz,2017-06-17,10:21
Crepis paludosa,Plantae,Asteraceae,Marsh Hawk's-beard,,1,9.5908,47.1113,Europe,Liechtenstein,LI,,Liechtenstein - Vaduz,2017-06-17,10:17
Phleum alpinum subsp. rhaeticum,Plantae,Poaceae,,,1,9.5905,47.1109,Europe,Liechtenstein,LI,,Liechtenstein - Vaduz,2017-06-17,10:11
Carex sylvatica,Plantae,CYPERACEAE,Wood-sedge,,1,9.5905,47.1109,Europe,Liechtenstein,LI,,Liechtenstein - Vaduz,2017-06-17,10:10
Helianthemum nummularium subsp. nummularium,Plantae,CISTACEAE,,,1,9.5906,47.1105,Europe,Liechtenstein,LI,,Liechtenstein - Vaduz,2017-06-17,10:10
Pilosella lactucella,Plantae,Asteraceae,Glaucous Fox-and-cubs,,1,9.5907855,47.11096206,Europe,Liechtenstein,LI,,Liechtenstein - Vaduz,2017-06-17,10:08
Ranunculus aconitifolius,Plantae,RANUNCULACEAE,Aconite-Leaved Buttercup,,1,9.5905,47.1105,Europe,Liechtenstein,LI,,Liechtenstein - Vaduz,2017-06-17,10:06
Dactylorhiza maculata,Plantae,ORCHIDACEAE,Spotted Orchid,,1,9.55,47.1,Europe,Liechtenstein,LI,,Liechtenstein - Vaduz,2017-06-17,10:05
Carex davalliana,Plantae,CYPERACEAE,Davall's Sedge,,1,9.5908,47.1108,Europe,Liechtenstein,LI,,Liechtenstein - Vaduz,2017-06-17,10:02
Pinguicula vulgaris,Plantae,LENTIBULARIACEAE,Common Butterwort,,1,9.55,47.1,Europe,Liechtenstein,LI,,Liechtenstein - Vaduz,2017-06-17,10:01
Carex paniculata,Plantae,CYPERACEAE,Greater Tussock-sedge,,1,9.591,47.111,Europe,Liechtenstein,LI,,Liechtenstein - Vaduz,2017-06-17,09:56
Chaerophyllum hirsutum,Plantae,Apiaceae,Hairy Chervil,,1,9.5911,47.1108,Europe,Liechtenstein,LI,,Liechtenstein - Vaduz,2017-06-17,09:51
Plantago alpina,Plantae,PLANTAGINACEAE,,,1,9.59109664,47.11107159,Europe,Liechtenstein,LI,,Liechtenstein - Vaduz,2017-06-17,09:50
Galium pumilum,Plantae,RUBIACEAE,Slender Bedstraw,,1,9.5912,47.1111,Europe,Liechtenstein,LI,,Liechtenstein - Vaduz,2017-06-17,09:49
Carex flava,Plantae,CYPERACEAE,Large Yellow-sedge,,1,9.591,47.1111,Europe,Liechtenstein,LI,,Liechtenstein - Vaduz,2017-06-17,09:47
Veratrum album,Plantae,MELANTHIACEAE,White false hellebore,,1,9.5911,47.1111,Europe,Liechtenstein,LI,,Liechtenstein - Vaduz,2017-06-17,09:45
Trollius europaeus,Plantae,RANUNCULACEAE,Globeflower,,1,9.5911,47.1111,Europe,Liechtenstein,LI,,Liechtenstein - Vaduz,2017-06-17,09:44
Phyteuma orbiculare,Plantae,CAMPANULACEAE,Round-headed Rampion,,1,9.5911,47.1111,Europe,Liechtenstein,LI,,Liechtenstein - Vaduz,2017-06-17,09:43
Crepis aurea,Plantae,Asteraceae,Golden Hawk's-beard,,1,9.5911,47.1111,Europe,Liechtenstein,LI,,Liechtenstein - Vaduz,2017-06-17,09:43
Hippocrepis comosa,Plantae,Fabaceae,Horseshoe Vetch,,1,9.5911,47.1111,Europe,Liechtenstein,LI,,Liechtenstein - Vaduz,2017-06-17,09:43
Plantago media,Plantae,PLANTAGINACEAE,Hoary Plantain,,1,9.591,47.1111,Europe,Liechtenstein,LI,,Liechtenstein - Vaduz,2017-06-17,09:42
Dactylorhiza fuchsii,Plantae,ORCHIDACEAE,Common Spotted Orchid,,1,9.55,47.1,Europe,Liechtenstein,LI,,Liechtenstein - Vaduz,2017-06-17,09:41
Anthyllis vulneraria subsp. carpatica,Plantae,Fabaceae,,,1,9.5911,47.111,Europe,Liechtenstein,LI,,Liechtenstein - Vaduz,2017-06-17,09:40
Carduus defloratus subsp. defloratus,Plantae,Asteraceae,,,1,9.5911,47.111,Europe,Liechtenstein,LI,,Liechtenstein - Vaduz,2017-06-17,09:39
Homogyne alpina,Plantae,Asteraceae,Purple Colt's-foot,,1,9.5911,47.111,Europe,Liechtenstein,LI,,Liechtenstein - Vaduz,2017-06-17,09:38
Veronica urticifolia,Plantae,PLANTAGINACEAE,Nettle-leaved Speedwell,,1,9.5911,47.1109,Europe,Liechtenstein,LI,,Liechtenstein - Vaduz,2017-06-17,09:37
Geranium sylvaticum,Plantae,GERANIACEAE,Wood Crane's-bill,,1,9.5911,47.1112,Europe,Liechtenstein,LI,,Liechtenstein - Vaduz,2017-06-17,09:34
Geum rivale,Plantae,ROSACEAE,Water Avens,,1,9.59,47.11,Europe,Liechtenstein,LI,,Liechtenstein - Vaduz,2017-06-17,09:34
Sesleria caerulea,Plantae,Poaceae,Blue Moor-grass,,1,9.5911,47.1111,Europe,Liechtenstein,LI,,Liechtenstein - Vaduz,2017-06-17,09:33
Persicaria vivipara,Plantae,POLYGONACEAE,Alpine Bistort,,1,9.5911,47.1111,Europe,Liechtenstein,LI,,Liechtenstein - Vaduz,2017-06-17,09:33
Fragaria vesca,Plantae,ROSACEAE,Wild Strawberry,,1,9.591,47.111,Europe,Liechtenstein,LI,,Liechtenstein - Vaduz,2017-06-17,09:32
Pyrola rotundifolia,Plantae,ERICACEAE,Round-leaved Wintergreen,,1,9.591,47.111,Europe,Liechtenstein,LI,,Liechtenstein - Vaduz,2017-06-17,09:32
Centaurea montana,Plantae,Asteraceae,Perennial Cornflower,,1,9.611,47.1009,Europe,Liechtenstein,LI,,Liechtenstein - Triesenberg,2017-06-16,17:52
Plantago media,Plantae,PLANTAGINACEAE,Hoary Plantain,,1,9.611,47.1008,Europe,Liechtenstein,LI,,Liechtenstein - Triesenberg,2017-06-16,17:53
Anthyllis vulneraria subsp. carpatica,Plantae,Fabaceae,,,1,9.611,47.1007,Europe,Liechtenstein,LI,,Liechtenstein - Triesenberg,2017-06-16,17:53
Trifolium pratense,Plantae,Fabaceae,Red Clover,,1,9.6109,47.1007,Europe,Liechtenstein,LI,,Liechtenstein - Triesenberg,2017-06-16,17:54
Geranium sylvaticum,Plantae,GERANIACEAE,Wood Crane's-bill,,1,9.6109,47.1008,Europe,Liechtenstein,LI,,Liechtenstein - Triesenberg,2017-06-16,17:54
Silene vulgaris,Plantae,CARYOPHYLLACEAE,Bladder Campion,,1,9.6107,47.1009,Europe,Liechtenstein,LI,,Liechtenstein - Triesenberg,2017-06-16,17:57
Campanula scheuchzeri,Plantae,CAMPANULACEAE,,,1,9.61099327,47.10086266,Europe,Liechtenstein,LI,,Liechtenstein - Triesenberg,2017-06-16,17:57
Carex flacca,Plantae,CYPERACEAE,Glaucous Sedge,,1,9.6109,47.1008,Europe,Liechtenstein,LI,,Liechtenstein - Triesenberg,2017-06-16,18:08
Hippocrepis comosa,Plantae,Fabaceae,Horseshoe Vetch,,1,9.61107373,47.10088457,Europe,Liechtenstein,LI,,Liechtenstein - Triesenberg,2017-06-16,18:09
Dactylorhiza fuchsii,Plantae,ORCHIDACEAE,Common Spotted Orchid,,1,9.6,47.1,Europe,Liechtenstein,LI,,Liechtenstein - Triesenberg,2017-06-16,18:19
Pimpinella major,Plantae,Apiaceae,Greater Burnet-saxifrage,,1,9.61096823,47.10087483,Europe,Liechtenstein,LI,,Liechtenstein - Triesenberg,2017-06-16,18:24
Saxifraga rotundifolia,Plantae,SAXIFRAGACEAE,Round-leaved Saxifrage,,1,9.6107,47.1004,Europe,Liechtenstein,LI,,Liechtenstein - Triesenberg,2017-06-16,18:27
Blitum bonus-henricus,Plantae,AMARANTHACEAE,Good-King-Henry,,1,9.6107,47.1003,Europe,Liechtenstein,LI,,Liechtenstein - Triesenberg,2017-06-16,18:27
Rumex alpinus,Plantae,POLYGONACEAE,Monk's-rhubarb,,1,9.6106,47.1007,Europe,Liechtenstein,LI,,Liechtenstein - Triesenberg,2017-06-16,18:29
Ranunculus aconitifolius,Plantae,RANUNCULACEAE,Aconite-Leaved Buttercup,,1,9.6109,47.1003,Europe,Liechtenstein,LI,,Liechtenstein - Triesenberg,2017-06-16,18:31
Petasites paradoxus,Plantae,Asteraceae,,,1,9.61124271,47.10018893,Europe,Liechtenstein,LI,,Liechtenstein - Triesenberg,2017-06-16,18:34
Geum rivale,Plantae,ROSACEAE,Water Avens,,1,9.61,47.1,Europe,Liechtenstein,LI,,Liechtenstein - Triesenberg,2017-06-16,18:36
Biscutella laevigata,Plantae,Brassicaceae,Buckler-mustard,,1,9.611,47.0999,Europe,Liechtenstein,LI,,Liechtenstein - Triesenberg,2017-06-16,18:38
Homogyne alpina,Plantae,Asteraceae,Purple Colt's-foot,,1,9.6113,47.1002,Europe,Liechtenstein,LI,,Liechtenstein - Triesenberg,2017-06-16,18:39
Adenostyles alliariae,Plantae,Asteraceae,,,1,9.6112,47.1004,Europe,Liechtenstein,LI,,Liechtenstein - Triesenberg,2017-06-16,18:44
Trollius europaeus,Plantae,RANUNCULACEAE,Globeflower,,1,9.612,47.0998,Europe,Liechtenstein,LI,,Liechtenstein - Triesenberg,2017-06-16,18:47
Dactylorhiza fuchsii,Plantae,ORCHIDACEAE,Common Spotted Orchid,,1,9.6,47.05,Europe,Liechtenstein,LI,,Liechtenstein - Triesenberg,2017-06-16,18:50
Dactylorhiza fuchsii,Plantae,ORCHIDACEAE,Common Spotted Orchid,,1,9.6,47.05,Europe,Liechtenstein,LI,,Liechtenstein - Triesenberg,2017-06-16,18:50
Phoenicurus ochruros,Animalia,OLD_WORLD_FLYCATCHERS_MUSCICAPIDAE,Black Redstart,,1,9.5246,47.1389,Europe,Liechtenstein,LI,,Liechtenstein - Vaduz,2016-10-09,12:26
Coenonympha pamphilus,Animalia,BRUSHFOOTED_BUTTERFLIES_NYMPHALIDAE,Small Heath,,6,9.5560026168823,47.251883059984,Europe,Liechtenstein,LI,,Liechtenstein - Schellenberg,2016-08-02,
Minois dryas,Animalia,BRUSHFOOTED_BUTTERFLIES_NYMPHALIDAE,Dryad,,20,9.55,47.25,Europe,Liechtenstein,LI,,Liechtenstein - Ruggell,2016-08-02,
Hesperia comma,Animalia,SKIPPERS_HESPERIIDAE,Silver-spotted Skipper,,2,9.55,47.25,Europe,Liechtenstein,LI,,Liechtenstein - Ruggell,2016-08-02,
Phengaris teleius,Animalia,GOSSAMERWINGED_BUTTERFLIES_LYCAENIDAE,Scarce Large Blue,,2,9.55,47.25,Europe,Liechtenstein,LI,,Liechtenstein - Ruggell,2016-08-02,
Phengaris nausithous,Animalia,GOSSAMERWINGED_BUTTERFLIES_LYCAENIDAE,Dusky Large Blue,,4,9.55,47.25,Europe,Liechtenstein,LI,,Liechtenstein - Ruggell,2016-08-02,
Phoenicurus ochruros,Animalia,OLD_WORLD_FLYCATCHERS_MUSCICAPIDAE,Black Redstart,,1,9.54313454,47.11827009,Europe,Liechtenstein,LI,,Liechtenstein - Triesenberg,2016-07-17,08:45
Trifolium pratense,Plantae,Fabaceae,Red Clover,,1,9.52392666666667,47.1196733333333,Europe,Liechtenstein,LI,,Liechtenstein - Triesen,2016-07-12,14:39
Aphantopus hyperantus,Animalia,BRUSHFOOTED_BUTTERFLIES_NYMPHALIDAE,Ringlet,,50,9.5546014,47.25205797,Europe,Liechtenstein,LI,,Liechtenstein,2016-06-18,08:48
Aphantopus hyperantus,Animalia,BRUSHFOOTED_BUTTERFLIES_NYMPHALIDAE,Ringlet,,50,9.5546014,47.25205797,Europe,Liechtenstein,LI,,Liechtenstein,2016-06-18,08:48
Thymus pulegioides,Plantae,Lamiaceae,Large Thyme,,11,9.51878070657,47.0927306277,Europe,Liechtenstein,LI,,Liechtenstein,2015-07-06,
Buphthalmum salicifolium,Plantae,Asteraceae,Yellow Oxeye Daisy,,11,9.51878070657,47.0927306277,Europe,Liechtenstein,LI,,Liechtenstein,2015-07-06,
Phoenicurus ochruros,Animalia,OLD_WORLD_FLYCATCHERS_MUSCICAPIDAE,Black Redstart,,1,9.5211935,47.1401286,Europe,Liechtenstein,LI,,Liechtenstein,2015-07-11,09:43
