scientificName,kingdom,family,vernacularName,previousIdentifications,individualCount,longitudeDecimal,latitudeDecimal,continent,country,countryCode,stateProvince,locality,eventDate,eventTime
Elminia albonotata,Animalia,Stenostiridae,White-tailed Crested Flycatcher,,1,35.541883770973186,-15.9010129752,Africa,Malawi,MW,,Malawi - Mulanje,1989-08-15,
Galago moholi,Animalia,GALAGOS_GALAGIDAE,Southern Lesser Galago,,1,34.87330919567367,-14.056884999999937,Africa,Malawi,MW,,Malawi - Lake Malawi NP,1989-08-11,
Haliaeetus vocifer,Animalia,HAWKS_AND_EAGLES_ACCIPITRIDAE,African Fish Eagle,,1,34.6282786131,-13.7127062585,Africa,Malawi,MW,,Malawi - Salima,2010-04-16,
Motacilla aguimp,Animalia,PIPITS_EN_WAGTAILS_MOTACILLIDAE,African Pied Wagtail,,1,34.6282786131,-13.7127062585,Africa,Malawi,MW,,Malawi - Salima,2010-04-16,
Precis octavia,Animalia,BRUSHFOOTED_BUTTERFLIES_NYMPHALIDAE,Gaudy commodore,,1,35.2916633333,-15.3613833333,Africa,Malawi,MW,,Malawi - Zomba,1998-01-01,
Anastomus lamelligerus,Animalia,STORKS_CICONIIDAE,African Openbill,,6,34.0162015334,-9.49553104118,Africa,Malawi,MW,,Malawi - Karonga,2014-08-30,16:49
Laniarius major,Animalia,HELMETSHRIKES_BUSHSHRIKES_MALACONOTIDAE,Tropical Boubou,,1,34.0173073578626,-9.49904456734657,Africa,Malawi,MW,,Malawi - Karonga,2014-08-30,17:25
Baliochila hildegarda,Animalia,GOSSAMERWINGED_BUTTERFLIES_LYCAENIDAE,,,1,35.5491292477,-15.9359107857,Africa,Malawi,MW,,Malawi - Mulanje,2013-12-16,
Gloriosa superba,Plantae,COLCHICACEAE,Flame lily,,1,35.542203784,-15.9402024124,Africa,Malawi,MW,,Malawi - Mulanje,2013-12-20,
Borassus aethiopum,Plantae,Arecaceae,Palmyra palm,,1,35.2546709776,-15.0228882946,Africa,Malawi,MW,,Malawi - Liwonde NP,2013-12-14,
Dryoscopus cubla,Animalia,HELMETSHRIKES_BUSHSHRIKES_MALACONOTIDAE,Black-backed Puffback,,2,33.6415395141,-11.1392451472,Africa,Malawi,MW,,Malawi - Rumphi,2013-12-23,
Iduna natalensis,Animalia,Acrocephalidae,African Yellow Warbler,,1,35.5430620909,-15.9641347998,Africa,Malawi,MW,,Malawi - Mulanje,2013-12-18,
Bradypterus cinnamomeus,Animalia,Locustellidae,Cinnamon Bracken Warbler,,1,35.5555933714,-15.9525815902,Africa,Malawi,MW,,Malawi - Mulanje,2013-12-18,
Accipiter badius,Animalia,HAWKS_AND_EAGLES_ACCIPITRIDAE,Shikra,,1,33.6415395141,-11.1392451472,Africa,Malawi,MW,,Malawi - Rumphi,2013-12-23,
Falco subbuteo,Animalia,CARACAS_AND_FALCONS_FALCONIDAE,Eurasian Hobby,,1,33.6415395141,-11.1392451472,Africa,Malawi,MW,,Malawi - Rumphi,2013-12-23,
Aves indet.,Animalia,unknown,Unidentified bird,,1,33.6415395141,-11.1392451472,Africa,Malawi,MW,,Malawi - Rumphi,2013-12-23,
Sclerophrys gutturalis,Animalia,Bufonidae,Guttural Toad,,1,35.5422627926,-15.9623193396,Africa,Malawi,MW,,Malawi - Mulanje,2013-12-17,
Chiromantis xerampelina,Animalia,Rhacophoridae,Grey Foam-nest Treefrog,,1,35.2518090606,-15.0354882967,Africa,Malawi,MW,,Malawi - Machinga,2013-12-14,
Sclerophrys gutturalis,Animalia,Bufonidae,Guttural Toad,,1,35.5368876457,-15.9415228944,Africa,Malawi,MW,,Malawi - Mulanje,2013-12-20,
Ispidina picta,Animalia,KINGFISHERS_ALCEDINIDAE,African Pygmy Kingfisher,,1,34.1780502163,-11.9177754432,Africa,Malawi,MW,,Malawi - Nkhata Bay,2013-12-25,
Platysteira peltata,Animalia,WATTLEEYES_BATISES_PLATYSTEIRIDAE,Black-throated Wattle-eye,,3,34.1780502163,-11.9177754432,Africa,Malawi,MW,,Malawi - Nkhata Bay,2013-12-25,
Cercotrichas barbata,Animalia,OLD_WORLD_FLYCATCHERS_MUSCICAPIDAE,Miombo Scrub Robin,,1,33.6434572935,-11.1484242943,Africa,Malawi,MW,,Malawi - Mzimba,2013-12-24,
Pernis apivorus,Animalia,HAWKS_AND_EAGLES_ACCIPITRIDAE,European Honey Buzzard,,1,33.6434572935,-11.1484242943,Africa,Malawi,MW,,Malawi - Mzimba,2013-12-23,
Falco subbuteo,Animalia,CARACAS_AND_FALCONS_FALCONIDAE,Eurasian Hobby,,10,33.6443156004,-11.1455611052,Africa,Malawi,MW,,Malawi - Rumphi,2013-12-23,
Hieraaetus wahlbergi,Animalia,HAWKS_AND_EAGLES_ACCIPITRIDAE,Wahlberg's Eagle,,1,33.57682289550067,-11.849425999999966,Africa,Malawi,MW,,Malawi - Mzimba,2013-12-22,
Varanus niloticus,Animalia,Varanidae,Nile Monitor,,1,34.8326110835,-13.9901079696,Africa,Malawi,MW,,Malawi - Mangochi,2013-12-12,
Galagoides granti,Animalia,GALAGOS_GALAGIDAE,Mozambique Dwarf Galago,,1,35.5300158262,-15.9395421681,Africa,Malawi,MW,,Malawi - Mulanje,2013-12-20,
Cercopithecus mitis erythrarchus,Animalia,OLD_WORLD_MONKEYS_CERCOPITHECIDAE,Stairs's White-collared Monkey,,2,35.5409717542,-15.9468212422,Africa,Malawi,MW,,Malawi - Mulanje,2013-12-17,
Tauraco porphyreolophus,Animalia,TURACOS_MUSOPHAGIDAE,Purple-crested Turaco,,1,35.0043869016,-15.7793710311,Africa,Malawi,MW,,Malawi - Blantyre,2013-12-21,
Ploceus xanthops,Animalia,WEAVERS_PLOCEIDAE,Holub's Golden Weaver,,1,35.0043869,-15.77937103,Africa,Malawi,MW,,Malawi - Blantyre,2013-12-21,
Urocolius indicus,Animalia,MOUSEBIRDS_COLIIDAE,Red-faced Mousebird,,6,35.0043869016,-15.7793710311,Africa,Malawi,MW,,Malawi - Blantyre,2013-12-21,
Saxicola torquatus,Animalia,OLD_WORLD_FLYCATCHERS_MUSCICAPIDAE,African Stonechat,,1,35.5445623389,-15.9577063466,Africa,Malawi,MW,,Malawi - Mulanje,2013-12-16,
Corvus albicollis,Animalia,CROWS_AND_JAYS_CORVIDAE,White-necked Raven,,1,35.5445623389,-15.9577063466,Africa,Malawi,MW,,Malawi - Mulanje,2013-12-16,
Arizelocichla fusciceps,Animalia,BULBULS_PYCNONOTIDAE,Black-browed Greenbul,,1,35.5505275724,-15.9743175763,Africa,Malawi,MW,,Malawi - Mulanje,2013-12-15,
Chlorophoneus olivaceus,Animalia,HELMETSHRIKES_BUSHSHRIKES_MALACONOTIDAE,Olive Bushshrike,,1,35.5505275724,-15.9743175763,Africa,Malawi,MW,,Malawi - Mulanje,2013-12-17,
Corvus albicollis,Animalia,CROWS_AND_JAYS_CORVIDAE,White-necked Raven,,1,35.5505275724,-15.9743175763,Africa,Malawi,MW,,Malawi - Mulanje,2013-12-15,
Motacilla clara,Animalia,PIPITS_EN_WAGTAILS_MOTACILLIDAE,Mountain Wagtail,,2,35.5130767818,-15.9387333656,Africa,Malawi,MW,,Malawi - Mulanje,2013-12-15,
Pytilia melba,Animalia,WAXBILLS_MUNIAS_ALLIES_ESTRILDIDAE,Green-winged Pytilia,,1,35.2455711382,-15.0289065468,Africa,Malawi,MW,,Malawi - Liwonde NP,2013-12-14,
Tragelaphus strepsiceros,Animalia,BOVIDS_BOVIDAE,Greater Kudu,,10,35.2569580218,-15.0109618153,Africa,Malawi,MW,,Malawi - Liwonde NP,2013-12-14,
Kobus ellipsiprymnus,Animalia,BOVIDS_BOVIDAE,Waterbuck,,100,35.2569580218,-15.0109618153,Africa,Malawi,MW,,Malawi - Liwonde NP,2013-12-14,
Aepyceros melampus,Animalia,BOVIDS_BOVIDAE,Impala,,100,35.2569580218,-15.0109618153,Africa,Malawi,MW,,Malawi - Liwonde NP,2013-12-14,
Tockus rufirostris,Animalia,HORNBILLS_BUCEROTIDAE,Southern Red-billed Hornbill,,1,35.2569580218,-15.0109618153,Africa,Malawi,MW,,Malawi - Liwonde NP,2013-12-14,
Cichladusa arquata,Animalia,OLD_WORLD_FLYCATCHERS_MUSCICAPIDAE,Collared Palm Thrush,,1,35.245914461,-15.0289811517,Africa,Malawi,MW,,Malawi - Liwonde NP,2013-12-13,
Numida meleagris,Animalia,GUINEAFOWL_NUMIDIDAE,Helmeted Guineafowl,,1,35.245914461,-15.0289811517,Africa,Malawi,MW,,Malawi - Liwonde NP,2013-12-13,
Falco rupicolus,Animalia,CARACAS_AND_FALCONS_FALCONIDAE,Rock Kestrel,,1,35.2394485509,-15.0233856772,Africa,Malawi,MW,,Malawi - Machinga,2013-12-13,
Aepyceros melampus,Animalia,BOVIDS_BOVIDAE,Impala,,100,35.2394485509,-15.0233856772,Africa,Malawi,MW,,Malawi - Machinga,2013-12-13,
Kobus ellipsiprymnus,Animalia,BOVIDS_BOVIDAE,Waterbuck,,1,35.2394485509,-15.0233856772,Africa,Malawi,MW,,Malawi - Machinga,2013-12-13,
Laniarius major,Animalia,HELMETSHRIKES_BUSHSHRIKES_MALACONOTIDAE,Tropical Boubou,,1,35.2460861224,-15.0292795733,Africa,Malawi,MW,,Malawi - Liwonde NP,2013-12-13,
Scopus umbretta,Animalia,HAMERKOP_SCOPIDAE,Hamerkop,,1,34.8326853197,-13.9900543551,Africa,Malawi,MW,,Malawi - Mangochi,2013-12-12,
Haliaeetus vocifer,Animalia,HAWKS_AND_EAGLES_ACCIPITRIDAE,African Fish Eagle,,1,34.8326853197,-13.9900543551,Africa,Malawi,MW,,Malawi - Mangochi,2013-12-12,
Cercopithecus mitis,Animalia,OLD_WORLD_MONKEYS_CERCOPITHECIDAE,Blue Monkey,,2,34.8326853197,-13.9900543551,Africa,Malawi,MW,,Malawi - Mangochi,2013-12-12,
Varanus niloticus,Animalia,Varanidae,Nile Monitor,,3,34.8326853197,-13.9900543551,Africa,Malawi,MW,,Malawi - Mangochi,2013-12-11,
Potamochoerus larvatus,Animalia,PIGS_SUIDAE,Bushpig,,2,34.8326853197,-13.9900543551,Africa,Malawi,MW,,Malawi - Mangochi,2013-12-11,
Civettictis civetta,Animalia,CIVETS_VIVERRIDAE,African Civet,,1,34.8326853197,-13.9900543551,Africa,Malawi,MW,,Malawi - Mangochi,2013-12-11,
Phalacrocorax lucidus,Animalia,CORMORANTS_PHALACROCORACIDAE,White-breasted Cormorant,,1,34.8322624527,-13.9906191291,Africa,Malawi,MW,,Malawi - Mangochi,2013-12-11,
Scopus umbretta,Animalia,HAMERKOP_SCOPIDAE,Hamerkop,,1,34.8379076645,-14.0264651257,Africa,Malawi,MW,,Malawi - Mangochi,2013-12-11,
Haliaeetus vocifer,Animalia,HAWKS_AND_EAGLES_ACCIPITRIDAE,African Fish Eagle,,1,34.8225654289,-14.0396008364,Africa,Malawi,MW,,Malawi - Mangochi,2013-12-10,
Uraeginthus angolensis,Animalia,WAXBILLS_MUNIAS_ALLIES_ESTRILDIDAE,Blue Waxbill,,1,35.2785587311,-14.9993441929,Africa,Malawi,MW,,Malawi - Liwonde NP,2008-07-30,
Lanius collaris marwitzi,Animalia,SHRIKES_LANIIDAE,Southern Fiscal ssp marwitzi,,1,33.807849884,-10.5914337104,Africa,Malawi,MW,,Malawi - Nyika NP,2008-08-05,
Cisticola njombe,Animalia,CISTICOLAS_AND_ALLIES_CISTICOLIDAE,Churring Cisticola,,1,33.8109827042,-10.5881011414,Africa,Malawi,MW,,Malawi - Nyika NP,2008-08-05,
Euplectes psammacromius,Animalia,WEAVERS_PLOCEIDAE,Montane Widowbird,,1,33.8071203232,-10.5880167721,Africa,Malawi,MW,,Malawi - Nyika NP,2008-08-05,
Neotis denhami,Animalia,BUSTARDS_OTIDIDAE,Denham's Bustard,,1,33.8418388367,-10.5446056883,Africa,Malawi,MW,,Malawi - Nyika NP,2008-08-05,
Accipiter rufiventris,Animalia,HAWKS_AND_EAGLES_ACCIPITRIDAE,Rufous-breasted Sparrowhawk,,1,33.8097381592,-10.544521307,Africa,Malawi,MW,,Malawi - Nyika NP,2008-08-06,
Onychognathus morio,Animalia,STARLINGS_STURNIDAE,Red-winged Starling,,7,34.836423397064,-14.027685571065,Africa,Malawi,MW,,Malawi - Mangochi,2012-08-11,
Haliaeetus vocifer,Animalia,HAWKS_AND_EAGLES_ACCIPITRIDAE,African Fish Eagle,,2,34.821639060974,-14.040006761592,Africa,Malawi,MW,,Malawi - Mangochi,2012-08-11,
Papio cynocephalus,Animalia,OLD_WORLD_MONKEYS_CERCOPITHECIDAE,Yellow Baboon,,1,34.824191666667,-14.039272222222,Africa,Malawi,MW,,Malawi - Mangochi,1990-07-15,
Motacilla aguimp,Animalia,PIPITS_EN_WAGTAILS_MOTACILLIDAE,African Pied Wagtail,,2,34.828347265689,-14.031828271223,Africa,Malawi,MW,,Malawi - Mangochi,2012-08-11,
Hirundo smithii,Animalia,SWALLOWS_HIRUNDINIDAE,Wire-tailed Swallow,,2,34.82224524018,-14.039059601707,Africa,Malawi,MW,,Malawi - Mangochi,2012-08-11,
Scopus umbretta,Animalia,HAMERKOP_SCOPIDAE,Hamerkop,,2,34.826944470374,-14.034792129481,Africa,Malawi,MW,,Malawi - Mangochi,2012-08-09,
Epomophorus spec.,Animalia,OLD_WORLD_FRUITEATING_BATS_PTEROPODIDAE,Fruit Bat (Epomophorus) unknown,,14,34.828406274287,-14.03179704512,Africa,Malawi,MW,,Malawi - Mangochi,2012-08-12,07:27
Lamprotornis elisabeth,Animalia,STARLINGS_STURNIDAE,Miombo Blue-eared Starling,,2,34.7577331641,-16.2383674432,Africa,Malawi,MW,,Malawi - Lengwe NP,2011-11-11,
Lamprotornis elisabeth,Animalia,STARLINGS_STURNIDAE,Miombo Blue-eared Starling,,1,35.07208658,-16.55062268,Africa,Malawi,MW,,Malawi - Nsanje,2011-11-10,
Porphyrio madagascariensis,Animalia,RAILS_RALLIDAE,African Swamphen,,5,35.0755198096,-16.5262678628,Africa,Malawi,MW,,Malawi - Nsanje,2011-11-09,
Motacilla aguimp,Animalia,PIPITS_EN_WAGTAILS_MOTACILLIDAE,African Pied Wagtail,,2,34.8273519138,-14.0343132708,Africa,Malawi,MW,,Malawi - Mangochi,2011-11-05,
Hirundo smithii,Animalia,SWALLOWS_HIRUNDINIDAE,Wire-tailed Swallow,,10,34.8276094058,-14.0342300021,Africa,Malawi,MW,,Malawi - Mangochi,2011-11-05,
Haliaeetus vocifer,Animalia,HAWKS_AND_EAGLES_ACCIPITRIDAE,African Fish Eagle,,25,34.8169883162,-14.0196213382,Africa,Malawi,MW,,Malawi - Mangochi,2011-11-05,
Scopus umbretta,Animalia,HAMERKOP_SCOPIDAE,Hamerkop,,5,34.8270305067,-14.0329447968,Africa,Malawi,MW,,Malawi - Mangochi,2011-11-05,
Lamprotornis elisabeth,Animalia,STARLINGS_STURNIDAE,Miombo Blue-eared Starling,,2,33.79999122,-13.9443397,Africa,Malawi,MW,,Malawi - Lilongwe,2011-11-07,
Centropus burchellii,Animalia,CUCKOOS_AND_COUCALS_CUCULIDAE,Burchell's Coucal,,2,33.80007,-13.94442,Africa,Malawi,MW,,Malawi - Lilongwe,2011-11-07,
Cypsiurus parvus,Animalia,SWIFTS_APODIDAE,African Palm Swift,,1,34.627790451,-13.7142045639,Africa,Malawi,MW,,Malawi,2010-04-16,
Trigonoceps occipitalis,Animalia,HAWKS_AND_EAGLES_ACCIPITRIDAE,White-headed Vulture,,1,33.6493206024,-11.1429505259,Africa,Malawi,MW,,Malawi,2008-08-07,
Lonchura cucullata,Animalia,WAXBILLS_MUNIAS_ALLIES_ESTRILDIDAE,Bronze Mannikin,,1,35.3491759,-15.2063849,Africa,Malawi,MW,,Malawi - Zomba,2003-08-13,08:00
Zosterops anderssoni,Animalia,WHITEEYES_ZOSTEROPIDAE,Southern Yellow White-eye,,1,35.3265381,-15.3504105,Africa,Malawi,MW,,Malawi - Zomba,2003-08-18,10:00
Pycnonotus tricolor,Animalia,BULBULS_PYCNONOTIDAE,Dark-capped Bulbul,,1,35.3265381,-15.3504105,Africa,Malawi,MW,,Malawi - Zomba,2003-08-18,10:00
Pycnonotus tricolor,Animalia,BULBULS_PYCNONOTIDAE,Dark-capped Bulbul,,1,35.3491759,-15.2063849,Africa,Malawi,MW,,Malawi - Zomba,2003-08-13,08:00
Pycnonotus tricolor,Animalia,BULBULS_PYCNONOTIDAE,Dark-capped Bulbul,,1,35.3534657,-14.904634,Africa,Malawi,MW,,Malawi - Liwonde NP,2003-08-20,08:00
Upupa africana,Animalia,HOOPOES_UPUPIDAE,African Hoopoe,,1,35.3534657,-14.904634,Africa,Malawi,MW,,Malawi - Liwonde NP,2003-08-20,08:00
Milvus aegyptius,Animalia,HAWKS_AND_EAGLES_ACCIPITRIDAE,Yellow-billed Kite,,1,35.5847168,-15.3742466,Africa,Malawi,MW,,Malawi - Zomba,2003-08-15,10:00
Phalacrocorax lucidus,Animalia,CORMORANTS_PHALACROCORACIDAE,White-breasted Cormorant,,1,35.3534657,-14.904634,Africa,Malawi,MW,,Malawi - Liwonde NP,2003-08-20,08:00
Centropus burchellii,Animalia,CUCKOOS_AND_COUCALS_CUCULIDAE,Burchell's Coucal,,1,35.3534657,-14.904634,Africa,Malawi,MW,,Malawi - Liwonde NP,2003-08-20,08:00
Junonia terea,Animalia,BRUSHFOOTED_BUTTERFLIES_NYMPHALIDAE,Soldier Commodore,,1,35.30705,-15.359508,Africa,Malawi,MW,,Malawi - Zomba,2017-04-13,13:35
Caprimulgus fossii,Animalia,NIGHTJARS_CAPRIMULGIDAE,Square-tailed Nightjar,,1,35.305578,-14.843482,Africa,Malawi,MW,,Malawi - Liwonde NP,2017-04-08,21:48
Phacochoerus africanus,Animalia,PIGS_SUIDAE,Common Warthog,,1,35.30278,-14.849206,Africa,Malawi,MW,,Malawi - Liwonde NP,2017-04-09,09:13
Bostrychia hagedash,Animalia,IBISSES_AND_SPOONBILLS_THRESKIORNITHIDAE,Hadada Ibis,,2,35.292086,-14.836421,Africa,Malawi,MW,,Malawi - Balaka,2017-04-09,10:19
Chlorocebus pygerythrus,Animalia,OLD_WORLD_MONKEYS_CERCOPITHECIDAE,Vervet Monkey,,15,35.29423,-14.851385,Africa,Malawi,MW,,Malawi - Machinga,2017-04-09,11:23
Ploceus xanthopterus,Animalia,WEAVERS_PLOCEIDAE,Southern Brown-throated Weaver,,1,35.294053,-14.849796,Africa,Malawi,MW,,Malawi - Machinga,2017-04-09,07:30
Chamaeleo melleri,Animalia,Chamaeleonidae,Meller's Chameleon,,1,35.50157755,-16.02373074,Africa,Malawi,MW,,Malawi - Mulanje,2019-12-11,
Chamaeleo melleri,Animalia,Chamaeleonidae,Meller's Chameleon,,1,34.96082395,-15.81266123,Africa,Malawi,MW,,Malawi - Blantyre,2019-12-09,
Crithagra mennelli,Animalia,FINCHES_FRINGILLIDAE,Black-eared Seedeater,,1,33.45327759,-14.2651329,Africa,Malawi,MW,,Malawi - Lilongwe,2019-04-27,07:37
Oenanthe familiaris,Animalia,OLD_WORLD_FLYCATCHERS_MUSCICAPIDAE,Familiar Chat,,2,33.46883774,-14.27114391,Africa,Malawi,MW,,Malawi - Lilongwe,2019-04-26,10:14
Lonchura nigriceps,Animalia,WAXBILLS_MUNIAS_ALLIES_ESTRILDIDAE,Red-backed Mannikin,,1,33.45790863,-14.2319622,Africa,Malawi,MW,,Malawi - Lilongwe,2019-04-26,16:39
Junonia natalica,Animalia,BRUSHFOOTED_BUTTERFLIES_NYMPHALIDAE,Natal pansy,,1,33.455,-14.264,Africa,Malawi,MW,,Malawi - Lilongwe,2019-04-27,
Precis octavia,Animalia,BRUSHFOOTED_BUTTERFLIES_NYMPHALIDAE,Gaudy commodore,,1,33.455,-14.264,Africa,Malawi,MW,,Malawi - Lilongwe,2019-04-27,
Pycnonotus tricolor,Animalia,BULBULS_PYCNONOTIDAE,Dark-capped Bulbul,,1,34.80414041,-16.02809108,Africa,Malawi,MW,,Malawi - Chikwawa,2019-08-31,11:57
Paraxerus cepapi,Animalia,SQUIRRELS_CHIPMUNKS_AND_PRAIRIEDOGS_SCIURIDAE,Smith's Bush Squirrel,,1,35.1196148,-17.10070475,Africa,Malawi,MW,,Malawi - Nsanje,2019-08-24,14:49
Zosterops anderssoni,Animalia,WHITEEYES_ZOSTEROPIDAE,Southern Yellow White-eye,,1,35.64704882,-15.94267907,Africa,Malawi,MW,,Malawi - Mulanje,2019-08-21,10:23
Zosterops anderssoni,Animalia,WHITEEYES_ZOSTEROPIDAE,Southern Yellow White-eye,,1,35.64712199,-15.94345871,Africa,Malawi,MW,,Malawi - Mulanje,2019-08-18,12:34
Pycnonotus tricolor,Animalia,BULBULS_PYCNONOTIDAE,Dark-capped Bulbul,,1,35.64313296,-15.93283402,Africa,Malawi,MW,,Malawi - Mulanje,2019-08-18,10:45
Arizelocichla fusciceps,Animalia,BULBULS_PYCNONOTIDAE,Black-browed Greenbul,,1,35.68789157,-15.9551039,Africa,Malawi,MW,,Malawi - Mulanje,2019-08-16,12:46
Apalis chapini,Animalia,CISTICOLAS_AND_ALLIES_CISTICOLIDAE,Chapin's Apalis,,1,33.45703125,-9.69258197,Africa,Malawi,MW,,Malawi - Chitipa,2003-05-08,10:00
Anthus cinnamomeus winterbottomi,Animalia,PIPITS_EN_WAGTAILS_MOTACILLIDAE,African Pipit ssp winterbottomi,,1,33.45703125,-9.69258197,Africa,Malawi,MW,,Malawi - Chitipa,2003-05-08,10:00
Bubo africanus,Animalia,OWLS_STRIGIDAE,Spotted Eagle-Owl,,1,33.78058433,-10.62131553,Africa,Malawi,MW,,Malawi - Nyika NP,2009-01-17,20:00
Neotis denhami,Animalia,BUSTARDS_OTIDIDAE,Denham's Bustard,,2,33.83062362,-10.49390527,Africa,Malawi,MW,,Malawi - Nyika NP,2009-01-17,10:00
Scleroptila levaillantii,Animalia,FRANCOLINS_QUAILS_PARTRIDGES_AND_PHEASANTS_PHASIANIDAE,Red-winged Francolin,,2,33.83062362,-10.49390527,Africa,Malawi,MW,,Malawi - Nyika NP,2009-01-17,10:00
Bubulcus ibis,Animalia,HERONS_ARDEIDAE,Western Cattle Egret,,1,34.8497989,-14.01311039,Africa,Malawi,MW,,Malawi - Mangochi,1998-09-05,
Motacilla clara,Animalia,PIPITS_EN_WAGTAILS_MOTACILLIDAE,Mountain Wagtail,,1,34.8497989,-14.01311039,Africa,Malawi,MW,,Malawi - Mangochi,1998-09-05,
Cuculus gularis,Animalia,CUCKOOS_AND_COUCALS_CUCULIDAE,African Cuckoo,,1,35.0004065,-15.7810023,Africa,Malawi,MW,,Malawi - Blantyre,2002-10-05,10:00
Crithagra whytii,Animalia,FINCHES_FRINGILLIDAE,Yellow-browed Seedeater,,1,33.94615173,-10.72927175,Africa,Malawi,MW,,Malawi - Nyika NP,2000-04-25,09:00
Cisticola nigriloris,Animalia,CISTICOLAS_AND_ALLIES_CISTICOLIDAE,Black-lored Cisticola,,1,33.94615173,-10.72927175,Africa,Malawi,MW,,Malawi - Nyika NP,2000-04-25,09:00
Nicator gularis,Animalia,Nicatoridae,Eastern Nicator,,1,35.32148838,-14.8310696,Africa,Malawi,MW,,Malawi - Liwonde NP,2000-02-13,09:00
Glaucidium capense,Animalia,OWLS_STRIGIDAE,African Barred Owlet,,1,35.32148838,-14.8310696,Africa,Malawi,MW,,Malawi - Liwonde NP,2000-02-13,09:00
Batis fratrum,Animalia,WATTLEEYES_BATISES_PLATYSTEIRIDAE,Woodward's Batis,,1,34.74729538,-16.27713091,Africa,Malawi,MW,,Malawi - Lengwe NP,2003-04-13,09:00
Saxicola rubetra,Animalia,OLD_WORLD_FLYCATCHERS_MUSCICAPIDAE,Whinchat,,1,33.68342399,-10.55177239,Africa,Malawi,MW,,Malawi - Nyika NP,2009-01-16,14:00
Ptilopsis granti,Animalia,OWLS_STRIGIDAE,Southern White-faced Owl,,1,35.30187606,-14.8232674,Africa,Malawi,MW,,Malawi - Liwonde NP,2002-07-13,20:00
Clamator levaillantii,Animalia,CUCKOOS_AND_COUCALS_CUCULIDAE,Levaillant's Cuckoo,,1,33.45099807,-9.7843279,Africa,Malawi,MW,,Malawi - Chitipa,2003-02-23,09:00
Turdus abyssinicus nyikae,Animalia,THRUSHES_TURDIDAE,Abyssinian Thrush ssp nyikae,,1,33.77449035,-10.61785675,Africa,Malawi,MW,,Malawi - Nyika NP,2001-10-23,10:00
Cinnyris gertrudis,Animalia,SUNBIRDS_NECTARINIIDAE,Western Miombo Sunbird,,1,33.77449035,-10.61785675,Africa,Malawi,MW,,Malawi - Nyika NP,2001-10-23,10:00
Catriscus brevirostris,Animalia,Locustellidae,Fan-tailed Grassbird,,1,33.72127532,-12.11557456,Africa,Malawi,MW,,Malawi - Mzimba,2001-04-14,08:00
Anthus cinnamomeus winterbottomi,Animalia,PIPITS_EN_WAGTAILS_MOTACILLIDAE,African Pipit ssp winterbottomi,,1,33.79105568,-10.62170359,Africa,Malawi,MW,,Malawi - Nyika NP,2001-04-19,08:00
Apalis chapini,Animalia,CISTICOLAS_AND_ALLIES_CISTICOLIDAE,Chapin's Apalis,,1,33.7097168,-10.57437114,Africa,Malawi,MW,,Malawi - Nyika NP,2001-04-17,08:00
Zosterops anderssoni,Animalia,WHITEEYES_ZOSTEROPIDAE,Southern Yellow White-eye,,1,33.7097168,-10.57437114,Africa,Malawi,MW,,Malawi - Nyika NP,2001-04-17,08:00
Cinnyris gertrudis,Animalia,SUNBIRDS_NECTARINIIDAE,Western Miombo Sunbird,,1,33.7097168,-10.57437114,Africa,Malawi,MW,,Malawi - Nyika NP,2001-04-17,08:00
Bradypterus lopezi usambarae,Animalia,Locustellidae,Evergreen Forest Warbler ssp usambarae,,1,33.7097168,-10.57437114,Africa,Malawi,MW,,Malawi - Nyika NP,2001-04-17,08:00
Turdus abyssinicus nyikae,Animalia,THRUSHES_TURDIDAE,Abyssinian Thrush ssp nyikae,,1,33.7097168,-10.57437114,Africa,Malawi,MW,,Malawi - Nyika NP,2001-04-17,08:00
Phyllastrephus placidus,Animalia,BULBULS_PYCNONOTIDAE,Placid Greenbul,,1,35.65524101,-15.9672513,Africa,Malawi,MW,,Malawi - Mulanje,2009-01-20,10:00
Bycanistes brevis,Animalia,HORNBILLS_BUCEROTIDAE,Silvery-cheeked Hornbill,,1,33.42016697,-9.65485426,Africa,Malawi,MW,,Malawi - Chitipa,2009-01-15,09:00
Batis crypta,Animalia,WATTLEEYES_BATISES_PLATYSTEIRIDAE,Dark Batis,,1,33.42016697,-9.65485426,Africa,Malawi,MW,,Malawi - Chitipa,2009-01-15,09:00
Elminia albicauda,Animalia,Stenostiridae,White-tailed Blue Flycatcher,,1,34.26389694,-14.31732654,Africa,Malawi,MW,,Malawi - Dedza,2009-01-11,09:00
Anthus nyassae,Animalia,PIPITS_EN_WAGTAILS_MOTACILLIDAE,Wood Pipit,,1,34.26389694,-14.31732654,Africa,Malawi,MW,,Malawi - Dedza,2009-01-11,09:00
Circaetus pectoralis,Animalia,HAWKS_AND_EAGLES_ACCIPITRIDAE,Black-chested Snake Eagle,,1,34.77371693,-16.23947766,Africa,Malawi,MW,,Malawi - Lengwe NP,2009-01-09,08:00
Clamator jacobinus,Animalia,CUCKOOS_AND_COUCALS_CUCULIDAE,Jacobin Cuckoo,,1,34.77371693,-16.23947766,Africa,Malawi,MW,,Malawi - Lengwe NP,2009-01-09,08:00
Cinnyris gertrudis,Animalia,SUNBIRDS_NECTARINIIDAE,Western Miombo Sunbird,,1,33.72156143,-12.11803617,Africa,Malawi,MW,,Malawi - Mzimba,2005-08-01,08:00
Apalis chapini,Animalia,CISTICOLAS_AND_ALLIES_CISTICOLIDAE,Chapin's Apalis,,1,33.72156143,-12.11803617,Africa,Malawi,MW,,Malawi - Mzimba,2005-08-01,08:00
Melaenornis pallidus,Animalia,OLD_WORLD_FLYCATCHERS_MUSCICAPIDAE,Pale Flycatcher,,1,33.50097655,-14.30417501,Africa,Malawi,MW,,Malawi - Lilongwe,2005-07-31,09:00
Tchagra australis,Animalia,HELMETSHRIKES_BUSHSHRIKES_MALACONOTIDAE,Brown-crowned Tchagra,,1,33.50097655,-14.30417501,Africa,Malawi,MW,,Malawi - Lilongwe,2005-07-31,09:00
Cisticola natalensis,Animalia,CISTICOLAS_AND_ALLIES_CISTICOLIDAE,Croaking Cisticola,,4,34.40491676,-14.37592239,Africa,Malawi,MW,,Malawi - Dedza,2005-07-27,10:00
Batis crypta,Animalia,WATTLEEYES_BATISES_PLATYSTEIRIDAE,Dark Batis,,1,33.42407226,-9.6536217,Africa,Malawi,MW,,Malawi - Chitipa,2004-09-17,11:00
Circaetus pectoralis,Animalia,HAWKS_AND_EAGLES_ACCIPITRIDAE,Black-chested Snake Eagle,,1,34.94972706,-15.3608543,Africa,Malawi,MW,,Malawi - Blantyre,2004-01-17,08:00
Cisticola galactotes,Animalia,CISTICOLAS_AND_ALLIES_CISTICOLIDAE,Rufous-winged Cisticola,,1,34.94972706,-15.3608543,Africa,Malawi,MW,,Malawi - Blantyre,2004-01-17,08:00
Turdus abyssinicus nyikae,Animalia,THRUSHES_TURDIDAE,Abyssinian Thrush ssp nyikae,,1,34.13230419,-10.87366378,Africa,Malawi,MW,,Malawi - Rumphi,2003-09-18,16:00
Cisticola galactotes,Animalia,CISTICOLAS_AND_ALLIES_CISTICOLIDAE,Rufous-winged Cisticola,,1,34.94948745,-15.36109294,Africa,Malawi,MW,,Malawi - Blantyre,2003-04-18,08:00
Apalis flavida,Animalia,CISTICOLAS_AND_ALLIES_CISTICOLIDAE,Yellow-breasted Apalis,,1,34.76978301,-16.23021224,Africa,Malawi,MW,,Malawi - Lengwe NP,2003-04-16,08:00
Poicephalus fuscicollis suahelicus,Animalia,PARROTS_PSITTACIDAE,Brown-necked Parrot ssp suahelicus,,2,34.76978301,-16.23021224,Africa,Malawi,MW,,Malawi - Lengwe NP,2003-04-16,08:00
Tchagra australis,Animalia,HELMETSHRIKES_BUSHSHRIKES_MALACONOTIDAE,Brown-crowned Tchagra,,1,34.76978301,-16.23021224,Africa,Malawi,MW,,Malawi - Lengwe NP,2003-04-16,08:00
Cisticola natalensis,Animalia,CISTICOLAS_AND_ALLIES_CISTICOLIDAE,Croaking Cisticola,,1,33.72058868,-12.11403045,Africa,Malawi,MW,,Malawi - Mzimba,2003-04-08,10:00
Bradypterus lopezi granti,Animalia,Locustellidae,Evergreen Forest Warbler ssp granti,,1,33.67744445,-12.12429079,Africa,Malawi,MW,,Malawi - Mzimba,2003-04-08,08:00
Circaetus pectoralis,Animalia,HAWKS_AND_EAGLES_ACCIPITRIDAE,Black-chested Snake Eagle,,1,33.72104645,-12.12019565,Africa,Malawi,MW,,Malawi - Mzimba,2003-04-07,08:00
Zosterops anderssoni,Animalia,WHITEEYES_ZOSTEROPIDAE,Southern Yellow White-eye,,1,33.72104645,-12.12019565,Africa,Malawi,MW,,Malawi - Mzimba,2003-04-07,08:00
Lanius humeralis,Animalia,SHRIKES_LANIIDAE,Northern Fiscal,,1,33.72104645,-12.12019565,Africa,Malawi,MW,,Malawi - Mzimba,2003-04-06,10:00
Zosterops anderssoni,Animalia,WHITEEYES_ZOSTEROPIDAE,Southern Yellow White-eye,,1,33.72104645,-12.12019565,Africa,Malawi,MW,,Malawi - Mzimba,2003-04-06,10:00
Lanius humeralis,Animalia,SHRIKES_LANIIDAE,Northern Fiscal,,1,34.94854331,-15.36091707,Africa,Malawi,MW,,Malawi - Blantyre,2003-03-30,10:00
Tchagra australis,Animalia,HELMETSHRIKES_BUSHSHRIKES_MALACONOTIDAE,Brown-crowned Tchagra,,1,34.94854331,-15.36091707,Africa,Malawi,MW,,Malawi - Blantyre,2003-03-30,10:00
Cisticola galactotes,Animalia,CISTICOLAS_AND_ALLIES_CISTICOLIDAE,Rufous-winged Cisticola,,1,34.94854331,-15.36091707,Africa,Malawi,MW,,Malawi - Blantyre,2003-03-30,10:00
Tchagra australis,Animalia,HELMETSHRIKES_BUSHSHRIKES_MALACONOTIDAE,Brown-crowned Tchagra,,1,34.58327293,-13.80584199,Africa,Malawi,MW,,Malawi - Salima,2003-03-27,09:00
Cisticola natalensis,Animalia,CISTICOLAS_AND_ALLIES_CISTICOLIDAE,Croaking Cisticola,,1,34.58327293,-13.80584199,Africa,Malawi,MW,,Malawi - Salima,2003-03-27,09:00
Lonchura fringilloides,Animalia,WAXBILLS_MUNIAS_ALLIES_ESTRILDIDAE,Magpie Mannikin,,1,33.78625631,-13.97065114,Africa,Malawi,MW,,Malawi - Lilongwe,2003-03-07,07:00
Cyanomitra olivacea,Animalia,SUNBIRDS_NECTARINIIDAE,Olive Sunbird,,1,34.26323891,-14.31529453,Africa,Malawi,MW,,Malawi - Dedza,2003-03-03,09:00
Tchagra australis,Animalia,HELMETSHRIKES_BUSHSHRIKES_MALACONOTIDAE,Brown-crowned Tchagra,,1,35.05250216,-16.08546504,Africa,Malawi,MW,,Malawi - Thyolo,2003-01-15,12:00
Zosterops anderssoni,Animalia,WHITEEYES_ZOSTEROPIDAE,Southern Yellow White-eye,,1,35.05319595,-16.08296067,Africa,Malawi,MW,,Malawi - Thyolo,2003-01-15,10:00
Dicrurus adsimilis,Animalia,DRONGOS_DICRURIDAE,Fork-tailed Drongo,,1,34.42920684,-15.67156881,Africa,Malawi,MW,,Malawi - Mwanza,2003-01-19,10:00
Gymnoris superciliaris,Animalia,OLD_WORLD_SPARROWS_PASSERIDAE,Yellow-throated Bush Sparrow,,1,34.42920684,-15.67156881,Africa,Malawi,MW,,Malawi - Mwanza,2002-11-20,10:00
Ceryle rudis,Animalia,KINGFISHERS_ALCEDINIDAE,Pied Kingfisher,,3,34.85019218,-14.01490066,Africa,Malawi,MW,,Malawi - Mangochi,2019-08-06,
Aepyceros melampus,Animalia,BOVIDS_BOVIDAE,Impala,,100,35.29679775,-14.84261474,Africa,Malawi,MW,,Malawi - Liwonde NP,2019-08-11,
Hirundo smithii,Animalia,SWALLOWS_HIRUNDINIDAE,Wire-tailed Swallow,,1,35.29678702,-14.8508957,Africa,Malawi,MW,,Malawi - Machinga,2019-08-10,
Tragelaphus strepsiceros,Animalia,BOVIDS_BOVIDAE,Greater Kudu,,1,35.29678702,-14.8508957,Africa,Malawi,MW,,Malawi - Machinga,2019-08-10,
Chlorocebus pygerythrus,Animalia,OLD_WORLD_MONKEYS_CERCOPITHECIDAE,Vervet Monkey,,5,35.29678702,-14.8508957,Africa,Malawi,MW,,Malawi - Machinga,2019-08-10,
Syncerus caffer,Animalia,BOVIDS_BOVIDAE,African Buffalo,,2,35.29678702,-14.8508957,Africa,Malawi,MW,,Malawi - Machinga,2019-08-11,
Lophoceros alboterminatus,Animalia,HORNBILLS_BUCEROTIDAE,Crowned Hornbill,,1,35.51491499,-15.93493071,Africa,Malawi,MW,,Malawi - Mulanje,2019-08-12,
Muscicapa boehmi,Animalia,OLD_WORLD_FLYCATCHERS_MUSCICAPIDAE,Böhm's Flycatcher,,1,33.58454354,-14.22061914,Africa,Malawi,MW,,Malawi - Lilongwe,1992-08-15,
Equus quagga,Animalia,HORSES_ASSES_AND_ZEBRAS_EQUIDAE,Plains Zebra,,1,33.84327049,-10.61919808,Africa,Malawi,MW,,Malawi - Nyika NP,1991-12-10,
Merops nubicoides,Animalia,BEEEATERS_MEROPIDAE,Southern Carmine Bee-eater,,1,34.80629425,-16.03297809,Africa,Malawi,MW,,Malawi - Chikwawa,1989-10-22,
Syncerus caffer,Animalia,BOVIDS_BOVIDAE,African Buffalo,,2,33.06564789,-13.01429201,Africa,Malawi,MW,,Malawi - Kasungu NP,1992-08-10,
Vanellus crassirostris,Animalia,PLOVERS_CHARADRIIDAE,Long-toed Lapwing,,1,34.78366628,-16.22090827,Africa,Malawi,MW,,Malawi - Lengwe NP,1992-10-19,
Phacochoerus africanus,Animalia,PIGS_SUIDAE,Common Warthog,,1,34.78343024,-16.22088767,Africa,Malawi,MW,,Malawi - Lengwe NP,1992-10-19,
Aepyceros melampus,Animalia,BOVIDS_BOVIDAE,Impala,,1,34.78343024,-16.22088767,Africa,Malawi,MW,,Malawi - Lengwe NP,1992-10-19,
Scopus umbretta,Animalia,HAMERKOP_SCOPIDAE,Hamerkop,,1,34.78343024,-16.22088767,Africa,Malawi,MW,,Malawi - Lengwe NP,1992-10-19,
Cercopithecus mitis albogularis,Animalia,OLD_WORLD_MONKEYS_CERCOPITHECIDAE,Zanzibar Sykes’s Monkey,,1,34.78343024,-16.22088767,Africa,Malawi,MW,,Malawi - Lengwe NP,1992-10-19,
Circaetus cinerascens,Animalia,HAWKS_AND_EAGLES_ACCIPITRIDAE,Western Banded Snake Eagle,,1,34.78343024,-16.22088767,Africa,Malawi,MW,,Malawi - Lengwe NP,1992-10-19,
Tragelaphus angasii,Animalia,BOVIDS_BOVIDAE,Nyala,,4,34.78343024,-16.22088767,Africa,Malawi,MW,,Malawi - Lengwe NP,1992-10-19,
Ciconia episcopus,Animalia,STORKS_CICONIIDAE,Woolly-necked Stork,,2,34.78343024,-16.22088767,Africa,Malawi,MW,,Malawi - Lengwe NP,1992-10-19,
Erythrocercus livingstonei,Animalia,ERYTHROCERCIDAE,Livingstone's Flycatcher,,1,35.29552488,-14.84865961,Africa,Malawi,MW,,Malawi - Machinga,1991-11-24,
Coracias caudatus,Animalia,ROLLERS_CORACIIDAE,Lilac-breasted Roller,,1,33.759880065918,-13.9666509628296,Africa,Malawi,MW,,Malawi - Lilongwe,2019-05-01,10:51
Coracias caudatus,Animalia,ROLLERS_CORACIIDAE,Lilac-breasted Roller,,1,33.7776489257813,-13.948881149292,Africa,Malawi,MW,,Malawi - Lilongwe,2019-05-01,10:55
Coracias caudatus,Animalia,ROLLERS_CORACIIDAE,Lilac-breasted Roller,,2,33.7876472473145,-13.9300527572632,Africa,Malawi,MW,,Malawi - Lilongwe,2019-05-01,10:59
Coracias caudatus,Animalia,ROLLERS_CORACIIDAE,Lilac-breasted Roller,,2,33.7880744934082,-13.9177360534668,Africa,Malawi,MW,,Malawi - Lilongwe,2019-05-01,11:01
Coracias caudatus,Animalia,ROLLERS_CORACIIDAE,Lilac-breasted Roller,,1,33.7919654846191,-13.8988275527954,Africa,Malawi,MW,,Malawi - Lilongwe,2019-05-01,11:03
Uraeginthus angolensis,Animalia,WAXBILLS_MUNIAS_ALLIES_ESTRILDIDAE,Blue Waxbill,,1,33.7495269775391,-13.978985786438,Africa,Malawi,MW,,Malawi - Lilongwe,2019-05-01,08:20
Coracias caudatus,Animalia,ROLLERS_CORACIIDAE,Lilac-breasted Roller,,1,33.7502899169922,-13.9763345718384,Africa,Malawi,MW,,Malawi - Lilongwe,2019-05-01,08:40
Salpornis salvadori,Animalia,TREECREEPERS_CERTHIIDAE,African Spotted Creeper,,1,33.4519119262695,-14.2582454681396,Africa,Malawi,MW,,Malawi - Lilongwe,2019-04-26,06:45
Dendropicos stierlingi,Animalia,WOODPECKERS_PICIDAE,Stierling's Woodpecker,,1,33.451847076416,-14.2584161758423,Africa,Malawi,MW,,Malawi - Lilongwe,2019-04-26,06:51
Zosterops anderssoni,Animalia,WHITEEYES_ZOSTEROPIDAE,Southern Yellow White-eye,,5,33.4519233703613,-14.2584114074707,Africa,Malawi,MW,,Malawi - Lilongwe,2019-04-26,06:51
Prionops retzii,Animalia,VANGAS_VANGIDAE,Retz's Helmetshrike,,10,33.4585494995117,-14.2672300338745,Africa,Malawi,MW,,Malawi - Lilongwe,2019-04-26,08:01
Aquila spilogaster,Animalia,HAWKS_AND_EAGLES_ACCIPITRIDAE,African Hawk-Eagle,,1,33.4634132385254,-14.2655582427979,Africa,Malawi,MW,,Malawi - Lilongwe,2019-04-26,08:51
Anthus lineiventris,Animalia,PIPITS_EN_WAGTAILS_MOTACILLIDAE,Striped Pipit,,2,33.4638404846191,-14.2662677764893,Africa,Malawi,MW,,Malawi - Lilongwe,2019-04-26,08:58
Melaniparus rufiventris,Animalia,TITS_PARIDAE,Rufous-bellied Tit,,1,33.4638404846191,-14.2662677764893,Africa,Malawi,MW,,Malawi - Lilongwe,2019-04-26,08:58
Pytilia afra,Animalia,WAXBILLS_MUNIAS_ALLIES_ESTRILDIDAE,Orange-winged Pytilia,,1,33.4688377380371,-14.271143913269,Africa,Malawi,MW,,Malawi - Lilongwe,2019-04-26,10:14
Anthus lineiventris,Animalia,PIPITS_EN_WAGTAILS_MOTACILLIDAE,Striped Pipit,,5,33.46883774,-14.27114391,Africa,Malawi,MW,,Malawi - Lilongwe,2019-04-26,10:14
Oenanthe familiaris,Animalia,OLD_WORLD_FLYCATCHERS_MUSCICAPIDAE,Familiar Chat,,1,33.46883774,-14.27114391,Africa,Malawi,MW,,Malawi - Lilongwe,2019-04-26,10:14
Calamonastes stierlingi,Animalia,CISTICOLAS_AND_ALLIES_CISTICOLIDAE,Stierling's Wren-Warbler,,2,33.4688377380371,-14.271143913269,Africa,Malawi,MW,,Malawi - Lilongwe,2019-04-26,10:14
Chlorocebus pygerythrus,Animalia,OLD_WORLD_MONKEYS_CERCOPITHECIDAE,Vervet Monkey,,5,33.4464569091797,-14.2470684051514,Africa,Malawi,MW,,Malawi - Lilongwe,2019-04-26,14:33
Anthus lineiventris,Animalia,PIPITS_EN_WAGTAILS_MOTACILLIDAE,Striped Pipit,,1,33.4478607177734,-14.2427425384521,Africa,Malawi,MW,,Malawi - Lilongwe,2019-04-26,14:43
Zosterops anderssoni,Animalia,WHITEEYES_ZOSTEROPIDAE,Southern Yellow White-eye,,5,33.4521102905273,-14.2408447265625,Africa,Malawi,MW,,Malawi - Lilongwe,2019-04-26,15:23
Dendropicos fuscescens,Animalia,WOODPECKERS_PICIDAE,Cardinal Woodpecker,,1,33.4548835754395,-14.2328443527222,Africa,Malawi,MW,,Malawi - Lilongwe,2019-04-26,16:17
Chloropicus namaquus,Animalia,WOODPECKERS_PICIDAE,Bearded Woodpecker,,2,33.4548835754395,-14.2328443527222,Africa,Malawi,MW,,Malawi - Lilongwe,2019-04-26,16:17
Crithagra mennelli,Animalia,FINCHES_FRINGILLIDAE,Black-eared Seedeater,,10,33.4579086303711,-14.2319622039795,Africa,Malawi,MW,,Malawi - Lilongwe,2019-04-26,16:39
Salpornis salvadori,Animalia,TREECREEPERS_CERTHIIDAE,African Spotted Creeper,,2,33.4579086303711,-14.2319622039795,Africa,Malawi,MW,,Malawi - Lilongwe,2019-04-26,16:39
Bubo africanus,Animalia,OWLS_STRIGIDAE,Spotted Eagle-Owl,,1,33.4537887573242,-14.2371168136597,Africa,Malawi,MW,,Malawi - Lilongwe,2019-04-26,21:44
Macronyx croceus,Animalia,PIPITS_EN_WAGTAILS_MOTACILLIDAE,Yellow-throated Longclaw,,1,33.4550971984863,-14.2638788223267,Africa,Malawi,MW,,Malawi - Lilongwe,2019-04-27,07:12
Eremomela scotops,Animalia,CISTICOLAS_AND_ALLIES_CISTICOLIDAE,Green-capped Eremomela,,4,33.45468903,-14.26505089,Africa,Malawi,MW,,Malawi - Lilongwe,2019-04-27,07:25
Dendropicos fuscescens,Animalia,WOODPECKERS_PICIDAE,Cardinal Woodpecker,,1,33.4532775878906,-14.2651329040527,Africa,Malawi,MW,,Malawi - Lilongwe,2019-04-27,07:37
Anthus lineiventris,Animalia,PIPITS_EN_WAGTAILS_MOTACILLIDAE,Striped Pipit,,2,33.4492530822754,-14.2567310333252,Africa,Malawi,MW,,Malawi - Lilongwe,2019-04-27,08:04
Vidua paradisaea,Animalia,INDIGOBIRDS_AND_WHYDAHS_VIDUIDAE,Long-tailed Paradise Whydah,,1,35.2643814086914,-14.842022895813,Africa,Malawi,MW,,Malawi - Balaka,2019-04-27,14:49
Ceryle rudis,Animalia,KINGFISHERS_ALCEDINIDAE,Pied Kingfisher,,1,35.2902526855469,-14.8433990478516,Africa,Malawi,MW,,Malawi - Balaka,2019-04-27,15:14
Ardeola ralloides,Animalia,HERONS_ARDEIDAE,Squacco Heron,,1,35.2903747558594,-14.8435487747192,Africa,Malawi,MW,,Malawi - Balaka,2019-04-27,15:16
Ardea alba,Animalia,HERONS_ARDEIDAE,Great Egret,,2,35.2902755737305,-14.8435525894165,Africa,Malawi,MW,,Malawi - Balaka,2019-04-27,15:18
Phacochoerus africanus,Animalia,PIGS_SUIDAE,Common Warthog,,1,35.2931518554688,-14.8474597930908,Africa,Malawi,MW,,Malawi - Machinga,2019-04-27,15:28
Actophilornis africanus,Animalia,JACANAS_JACANIDAE,African Jacana,,2,35.2946281433105,-14.8477964401245,Africa,Malawi,MW,,Malawi - Machinga,2019-04-27,15:31
Bostrychia hagedash,Animalia,IBISSES_AND_SPOONBILLS_THRESKIORNITHIDAE,Hadada Ibis,,2,35.2953643798828,-14.8478202819824,Africa,Malawi,MW,,Malawi - Machinga,2019-04-27,15:47
Kobus ellipsiprymnus,Animalia,BOVIDS_BOVIDAE,Waterbuck,,3,35.296688079834,-14.8481197357178,Africa,Malawi,MW,,Malawi - Liwonde NP,2019-04-27,16:29
Merops boehmi,Animalia,BEEEATERS_MEROPIDAE,Böhm's Bee-eater,,3,35.2966766357422,-14.8481702804565,Africa,Malawi,MW,,Malawi - Liwonde NP,2019-04-27,16:29
Cichladusa arquata,Animalia,OLD_WORLD_FLYCATCHERS_MUSCICAPIDAE,Collared Palm Thrush,,5,35.2969779968262,-14.8489599227905,Africa,Malawi,MW,,Malawi - Liwonde NP,2019-04-27,16:34
Plocepasser mahali,Animalia,WEAVERS_PLOCEIDAE,White-browed Sparrow-Weaver,,1,35.2986145019531,-14.8490333557129,Africa,Malawi,MW,,Malawi - Liwonde NP,2019-04-27,16:44
Camaroptera brachyura,Animalia,CISTICOLAS_AND_ALLIES_CISTICOLIDAE,Green-backed Camaroptera,,1,35.2981224060059,-14.849157333374,Africa,Malawi,MW,,Malawi - Liwonde NP,2019-04-27,16:48
Lybius torquatus,Animalia,Lybiidae,Black-collared Barbet,,3,35.2986373901367,-14.8482990264893,Africa,Malawi,MW,,Malawi - Liwonde NP,2019-04-27,16:50
Turtur chalcospilos,Animalia,PIGEONS_AND_DOVES_COLUMBIDAE,Emerald-spotted Wood Dove,,1,35.2985725402832,-14.8480710983276,Africa,Malawi,MW,,Malawi - Liwonde NP,2019-04-27,16:52
Tragelaphus strepsiceros,Animalia,BOVIDS_BOVIDAE,Greater Kudu,,2,35.2980003356934,-14.8474206924438,Africa,Malawi,MW,,Malawi - Liwonde NP,2019-04-27,16:57
Aepyceros melampus,Animalia,BOVIDS_BOVIDAE,Impala,,5,35.2963447570801,-14.8460025787354,Africa,Malawi,MW,,Malawi - Liwonde NP,2019-04-27,17:02
Falco dickinsoni,Animalia,CARACAS_AND_FALCONS_FALCONIDAE,Dickinson's Kestrel,,1,35.2968711853027,-14.8511867523193,Africa,Malawi,MW,,Malawi - Machinga,2019-04-27,17:21
Haliaeetus vocifer,Animalia,HAWKS_AND_EAGLES_ACCIPITRIDAE,African Fish Eagle,,1,35.3054351806641,-14.8653049468994,Africa,Malawi,MW,,Malawi - Liwonde NP,2019-04-27,17:30
Scotopelia peli,Animalia,OWLS_STRIGIDAE,Pel's Fishing Owl,,1,35.3060264587402,-14.868275642395,Africa,Malawi,MW,,Malawi - Liwonde NP,2019-04-27,21:56
Turtur chalcospilos,Animalia,PIGEONS_AND_DOVES_COLUMBIDAE,Emerald-spotted Wood Dove,,1,35.2964744567871,-14.8482666015625,Africa,Malawi,MW,,Malawi - Liwonde NP,2019-04-28,04:51
Cichladusa arquata,Animalia,OLD_WORLD_FLYCATCHERS_MUSCICAPIDAE,Collared Palm Thrush,,1,35.2967262268066,-14.8482532501221,Africa,Malawi,MW,,Malawi - Liwonde NP,2019-04-28,05:28
Ceryle rudis,Animalia,KINGFISHERS_ALCEDINIDAE,Pied Kingfisher,,1,35.2977981567383,-14.8478193283081,Africa,Malawi,MW,,Malawi - Liwonde NP,2019-04-28,05:30
Phacochoerus africanus,Animalia,PIGS_SUIDAE,Common Warthog,,3,35.2961120605469,-14.8502492904663,Africa,Malawi,MW,,Malawi - Machinga,2019-04-28,05:40
Aepyceros melampus,Animalia,BOVIDS_BOVIDAE,Impala,,20,35.2961883544922,-14.8504362106323,Africa,Malawi,MW,,Malawi - Machinga,2019-04-28,05:40
Kobus ellipsiprymnus,Animalia,BOVIDS_BOVIDAE,Waterbuck,,1,35.2961387634277,-14.8561630249023,Africa,Malawi,MW,,Malawi - Machinga,2019-04-28,05:46
Ardea alba,Animalia,HERONS_ARDEIDAE,Great Egret,,1,35.2961273193359,-14.8566951751709,Africa,Malawi,MW,,Malawi - Machinga,2019-04-28,05:50
Anastomus lamelligerus,Animalia,STORKS_CICONIIDAE,African Openbill,,10,35.29626465,-14.85744476,Africa,Malawi,MW,,Malawi - Machinga,2019-04-28,05:54
Actophilornis africanus,Animalia,JACANAS_JACANIDAE,African Jacana,,4,35.2953758239746,-14.8582916259766,Africa,Malawi,MW,,Malawi - Machinga,2019-04-28,05:54
Tragelaphus strepsiceros,Animalia,BOVIDS_BOVIDAE,Greater Kudu,,2,35.2966995239258,-14.8546495437622,Africa,Malawi,MW,,Malawi - Machinga,2019-04-28,06:07
Plocepasser mahali,Animalia,WEAVERS_PLOCEIDAE,White-browed Sparrow-Weaver,,5,35.2997856140137,-14.8538455963135,Africa,Malawi,MW,,Malawi - Liwonde NP,2019-04-28,06:12
Campethera scriptoricauda,Animalia,WOODPECKERS_PICIDAE,Speckle-throated Woodpecker,,1,35.3084831237793,-14.8387689590454,Africa,Malawi,MW,,Malawi - Liwonde NP,2019-04-28,06:40
Halcyon chelicuti,Animalia,KINGFISHERS_ALCEDINIDAE,Striped Kingfisher,,1,35.3266792297363,-14.8265571594238,Africa,Malawi,MW,,Malawi - Liwonde NP,2019-04-28,06:53
Leptoptilos crumenifer,Animalia,STORKS_CICONIIDAE,Marabou Stork,,1,35.3276329040527,-14.825966835022,Africa,Malawi,MW,,Malawi - Liwonde NP,2019-04-28,06:58
Vidua paradisaea,Animalia,INDIGOBIRDS_AND_WHYDAHS_VIDUIDAE,Long-tailed Paradise Whydah,,1,35.2960357666016,-14.8417167663574,Africa,Malawi,MW,,Malawi - Machinga,2019-04-28,07:15
Ardea alba,Animalia,HERONS_ARDEIDAE,Great Egret,,1,35.29506683,-14.84774971,Africa,Malawi,MW,,Malawi - Machinga,2019-04-28,07:35
Ceryle rudis,Animalia,KINGFISHERS_ALCEDINIDAE,Pied Kingfisher,,1,35.2956199645996,-14.8483591079712,Africa,Malawi,MW,,Malawi - Machinga,2019-04-28,07:39
Bubulcus ibis,Animalia,HERONS_ARDEIDAE,Western Cattle Egret,,3,35.2951965332031,-14.8480529785156,Africa,Malawi,MW,,Malawi - Machinga,2019-04-28,07:51
Hirundo smithii,Animalia,SWALLOWS_HIRUNDINIDAE,Wire-tailed Swallow,,1,35.2951202392578,-14.8481178283691,Africa,Malawi,MW,,Malawi - Machinga,2019-04-28,08:02
Bostrychia hagedash,Animalia,IBISSES_AND_SPOONBILLS_THRESKIORNITHIDAE,Hadada Ibis,,5,35.29515839,-14.84807014,Africa,Malawi,MW,,Malawi - Machinga,2019-04-28,08:02
Cichladusa arquata,Animalia,OLD_WORLD_FLYCATCHERS_MUSCICAPIDAE,Collared Palm Thrush,,2,35.2954368591309,-14.8478727340698,Africa,Malawi,MW,,Malawi - Machinga,2019-04-28,08:06
Tchagra australis,Animalia,HELMETSHRIKES_BUSHSHRIKES_MALACONOTIDAE,Brown-crowned Tchagra,,1,35.2953872680664,-14.8491058349609,Africa,Malawi,MW,,Malawi - Machinga,2019-04-28,08:32
Erythrocercus livingstonei,Animalia,ERYTHROCERCIDAE,Livingstone's Flycatcher,,4,35.294979095459,-14.8497724533081,Africa,Malawi,MW,,Malawi - Machinga,2019-04-28,08:38
Merops boehmi,Animalia,BEEEATERS_MEROPIDAE,Böhm's Bee-eater,,4,35.2946434020996,-14.8518075942993,Africa,Malawi,MW,,Malawi - Machinga,2019-04-28,08:47
Cinnyris talatala,Animalia,SUNBIRDS_NECTARINIIDAE,White-bellied Sunbird,,1,35.2970848083496,-14.8529796600342,Africa,Malawi,MW,,Malawi - Machinga,2019-04-28,09:00
Platysteira peltata,Animalia,WATTLEEYES_BATISES_PLATYSTEIRIDAE,Black-throated Wattle-eye,,1,35.29561234,-14.84865379,Africa,Malawi,MW,,Malawi - Machinga,2019-04-28,09:35
Terathopius ecaudatus,Animalia,HAWKS_AND_EAGLES_ACCIPITRIDAE,Bateleur,,1,35.2938461303711,-14.8500690460205,Africa,Malawi,MW,,Malawi - Machinga,2019-04-28,09:46
Ploceus xanthopterus,Animalia,WEAVERS_PLOCEIDAE,Southern Brown-throated Weaver,,5,35.291934967041,-14.8486223220825,Africa,Malawi,MW,,Malawi - Balaka,2019-04-28,09:51
Haliaeetus vocifer,Animalia,HAWKS_AND_EAGLES_ACCIPITRIDAE,African Fish Eagle,,1,35.2909812927246,-14.8452835083008,Africa,Malawi,MW,,Malawi - Balaka,2019-04-28,09:56
Polemaetus bellicosus,Animalia,HAWKS_AND_EAGLES_ACCIPITRIDAE,Martial Eagle,,1,35.29187393,-14.83909512,Africa,Malawi,MW,,Malawi,2019-04-28,10:03
Ardeola ralloides,Animalia,HERONS_ARDEIDAE,Squacco Heron,,1,35.2919921875,-14.8382892608643,Africa,Malawi,MW,,Malawi,2019-04-28,10:10
Corythornis cristatus,Animalia,KINGFISHERS_ALCEDINIDAE,Malachite Kingfisher,,1,35.2914237976074,-14.8315439224243,Africa,Malawi,MW,,Malawi - Balaka,2019-04-28,10:24
Kobus ellipsiprymnus,Animalia,BOVIDS_BOVIDAE,Waterbuck,,40,35.2923202514648,-14.8260765075684,Africa,Malawi,MW,,Malawi - Balaka,2019-04-28,10:46
Centropus senegalensis,Animalia,CUCKOOS_AND_COUCALS_CUCULIDAE,Senegal Coucal,,1,35.2913513183594,-14.82594871521,Africa,Malawi,MW,,Malawi - Balaka,2019-04-28,10:53
Terathopius ecaudatus,Animalia,HAWKS_AND_EAGLES_ACCIPITRIDAE,Bateleur,,1,35.2942314147949,-14.8278932571411,Africa,Malawi,MW,,Malawi - Machinga,2019-04-28,10:56
Phacochoerus africanus,Animalia,PIGS_SUIDAE,Common Warthog,,5,35.2967643737793,-14.84827709198,Africa,Malawi,MW,,Malawi - Liwonde NP,2019-04-28,14:06
Syncerus caffer,Animalia,BOVIDS_BOVIDAE,African Buffalo,,1,35.3063926696777,-14.8703880310059,Africa,Malawi,MW,,Malawi - Liwonde NP,2019-04-28,14:56
Halcyon chelicuti,Animalia,KINGFISHERS_ALCEDINIDAE,Striped Kingfisher,,2,35.301944732666,-14.8884563446045,Africa,Malawi,MW,,Malawi - Liwonde NP,2019-04-28,15:19
Vanellus senegallus,Animalia,PLOVERS_CHARADRIIDAE,African Wattled Lapwing,,1,35.2985572814941,-14.8881130218506,Africa,Malawi,MW,,Malawi - Liwonde NP,2019-04-28,15:25
Leptoptilos crumenifer,Animalia,STORKS_CICONIIDAE,Marabou Stork,,1,35.2957916259766,-14.8881616592407,Africa,Malawi,MW,,Malawi - Liwonde NP,2019-04-28,15:27
Vanellus coronatus,Animalia,PLOVERS_CHARADRIIDAE,Crowned Lapwing,,3,35.2951202392578,-14.8876180648804,Africa,Malawi,MW,,Malawi - Liwonde NP,2019-04-28,15:29
Canis adustus,Animalia,DOGS_CANIDAE,Side-striped Jackal,,1,35.2954254150391,-14.8863220214844,Africa,Malawi,MW,,Malawi - Liwonde NP,2019-04-28,15:32
Ephippiorhynchus senegalensis,Animalia,STORKS_CICONIIDAE,Saddle-billed Stork,,1,35.2954330444336,-14.886305809021,Africa,Malawi,MW,,Malawi - Liwonde NP,2019-04-28,15:32
Vidua paradisaea,Animalia,INDIGOBIRDS_AND_WHYDAHS_VIDUIDAE,Long-tailed Paradise Whydah,,1,35.2975997924805,-14.8883848190308,Africa,Malawi,MW,,Malawi - Liwonde NP,2019-04-28,15:35
Canis adustus,Animalia,DOGS_CANIDAE,Side-striped Jackal,,1,35.2968406677246,-14.8511581420898,Africa,Malawi,MW,,Malawi - Machinga,2019-04-28,17:28
Turtur chalcospilos,Animalia,PIGEONS_AND_DOVES_COLUMBIDAE,Emerald-spotted Wood Dove,,1,35.2965965270996,-14.8483180999756,Africa,Malawi,MW,,Malawi - Liwonde NP,2019-04-29,05:19
Plocepasser mahali,Animalia,WEAVERS_PLOCEIDAE,White-browed Sparrow-Weaver,,10,35.2967681884766,-14.8484678268433,Africa,Malawi,MW,,Malawi - Liwonde NP,2019-04-29,05:32
Falco dickinsoni,Animalia,CARACAS_AND_FALCONS_FALCONIDAE,Dickinson's Kestrel,,2,35.2963333129883,-14.8506860733032,Africa,Malawi,MW,,Malawi - Machinga,2019-04-29,05:38
Canis adustus,Animalia,DOGS_CANIDAE,Side-striped Jackal,,1,35.2978057861328,-14.8512744903564,Africa,Malawi,MW,,Malawi - Liwonde NP,2019-04-29,05:40
Pternistis afer,Animalia,FRANCOLINS_QUAILS_PARTRIDGES_AND_PHEASANTS_PHASIANIDAE,Red-necked Spurfowl,,2,35.3177833557129,-14.8388223648071,Africa,Malawi,MW,,Malawi - Liwonde NP,2019-04-29,05:57
Rhinoptilus chalcopterus,Animalia,COURSERS_AND_PRATINCOLES_GLAREOLIDAE,Bronze-winged Courser,,1,35.3177757263184,-14.8388023376465,Africa,Malawi,MW,,Malawi - Liwonde NP,2019-04-29,05:57
Syncerus caffer,Animalia,BOVIDS_BOVIDAE,African Buffalo,,1,35.325267791748,-14.8275880813599,Africa,Malawi,MW,,Malawi - Liwonde NP,2019-04-29,06:08
Poicephalus fuscicollis suahelicus,Animalia,PARROTS_PSITTACIDAE,Brown-necked Parrot ssp suahelicus,,1,35.32950592,-14.82173443,Africa,Malawi,MW,,Malawi - Liwonde NP,2019-04-29,06:14
Halcyon chelicuti,Animalia,KINGFISHERS_ALCEDINIDAE,Striped Kingfisher,,1,35.3683624267578,-14.794942855835,Africa,Malawi,MW,,Malawi - Liwonde NP,2019-04-29,06:45
Terathopius ecaudatus,Animalia,HAWKS_AND_EAGLES_ACCIPITRIDAE,Bateleur,,2,35.3392562866211,-14.8143491744995,Africa,Malawi,MW,,Malawi - Liwonde NP,2019-04-29,07:05
Aepyceros melampus,Animalia,BOVIDS_BOVIDAE,Impala,,20,35.3274230957031,-14.8254346847534,Africa,Malawi,MW,,Malawi - Liwonde NP,2019-04-29,07:13
Tragelaphus strepsiceros,Animalia,BOVIDS_BOVIDAE,Greater Kudu,,2,35.3120651245117,-14.8360605239868,Africa,Malawi,MW,,Malawi - Liwonde NP,2019-04-29,07:22
Vidua paradisaea,Animalia,INDIGOBIRDS_AND_WHYDAHS_VIDUIDAE,Long-tailed Paradise Whydah,,1,35.2947845458984,-14.8402757644653,Africa,Malawi,MW,,Malawi - Machinga,2019-04-29,07:32
Aepyceros melampus,Animalia,BOVIDS_BOVIDAE,Impala,,50,35.2947196960449,-14.8436965942383,Africa,Malawi,MW,,Malawi - Machinga,2019-04-29,07:38
Kobus ellipsiprymnus,Animalia,BOVIDS_BOVIDAE,Waterbuck,,10,35.2949752807617,-14.8437395095825,Africa,Malawi,MW,,Malawi - Machinga,2019-04-29,07:38
Ardea alba,Animalia,HERONS_ARDEIDAE,Great Egret,,1,35.2952919006348,-14.8478918075562,Africa,Malawi,MW,,Malawi - Machinga,2019-04-29,07:53
Ploceus xanthopterus,Animalia,WEAVERS_PLOCEIDAE,Southern Brown-throated Weaver,,5,35.2952117919922,-14.8479070663452,Africa,Malawi,MW,,Malawi - Machinga,2019-04-29,07:53
Ceryle rudis,Animalia,KINGFISHERS_ALCEDINIDAE,Pied Kingfisher,,1,35.2951278686523,-14.8479528427124,Africa,Malawi,MW,,Malawi - Machinga,2019-04-29,07:53
Haliaeetus vocifer,Animalia,HAWKS_AND_EAGLES_ACCIPITRIDAE,African Fish Eagle,,1,35.2950973510742,-14.8478059768677,Africa,Malawi,MW,,Malawi - Machinga,2019-04-29,07:55
Actophilornis africanus,Animalia,JACANAS_JACANIDAE,African Jacana,,2,35.2950859069824,-14.8478364944458,Africa,Malawi,MW,,Malawi - Machinga,2019-04-29,07:59
Hirundo smithii,Animalia,SWALLOWS_HIRUNDINIDAE,Wire-tailed Swallow,,10,35.2947235107422,-14.8481893539429,Africa,Malawi,MW,,Malawi - Machinga,2019-04-29,08:01
Batis soror,Animalia,WATTLEEYES_BATISES_PLATYSTEIRIDAE,Pale Batis,,2,35.2967681884766,-14.8487062454224,Africa,Malawi,MW,,Malawi - Liwonde NP,2019-04-29,08:34
Paraxerus cepapi,Animalia,SQUIRRELS_CHIPMUNKS_AND_PRAIRIEDOGS_SCIURIDAE,Smith's Bush Squirrel,,5,35.2967681884766,-14.8487062454224,Africa,Malawi,MW,,Malawi - Liwonde NP,2019-04-29,08:34
Merops boehmi,Animalia,BEEEATERS_MEROPIDAE,Böhm's Bee-eater,,3,35.2967681884766,-14.8487062454224,Africa,Malawi,MW,,Malawi - Liwonde NP,2019-04-29,08:34
Phacochoerus africanus,Animalia,PIGS_SUIDAE,Common Warthog,,3,35.2969284057617,-14.848090171814,Africa,Malawi,MW,,Malawi - Liwonde NP,2019-04-29,08:37
Coracias caudatus,Animalia,ROLLERS_CORACIIDAE,Lilac-breasted Roller,,1,33.785514831543,-13.9891395568848,Africa,Malawi,MW,,Malawi - Lilongwe,2019-04-29,13:11
Batis capensis dimorpha,Animalia,WATTLEEYES_BATISES_PLATYSTEIRIDAE,Cape Batis ssp dimorpha,,2,34.0064430236816,-13.3757457733154,Africa,Malawi,MW,,Malawi - Ntchisi,2019-04-30,06:23
Zosterops anderssoni,Animalia,WHITEEYES_ZOSTEROPIDAE,Southern Yellow White-eye,,1,34.0063667297363,-13.3756418228149,Africa,Malawi,MW,,Malawi - Ntchisi,2019-04-30,06:23
Papio cynocephalus,Animalia,OLD_WORLD_MONKEYS_CERCOPITHECIDAE,Yellow Baboon,,10,34.0060691833496,-13.3732538223267,Africa,Malawi,MW,,Malawi - Ntchisi,2019-04-30,06:37
Turtur tympanistria,Animalia,PIGEONS_AND_DOVES_COLUMBIDAE,Tambourine Dove,,1,34.004997253418,-13.3631925582886,Africa,Malawi,MW,,Malawi - Ntchisi,2019-04-30,09:04
Melaniparus rufiventris,Animalia,TITS_PARIDAE,Rufous-bellied Tit,,1,34.0046730041504,-13.3651132583618,Africa,Malawi,MW,,Malawi - Ntchisi,2019-04-30,09:26
Emberiza tahapisi,Animalia,BUNTINGS_EMBERIZIDAE,Cinnamon-breasted Bunting,,2,34.0023155212402,-13.3726167678833,Africa,Malawi,MW,,Malawi - Ntchisi,2019-04-30,10:08
Tchagra australis,Animalia,HELMETSHRIKES_BUSHSHRIKES_MALACONOTIDAE,Brown-crowned Tchagra,,1,34.0031929016113,-13.3805446624756,Africa,Malawi,MW,,Malawi - Ntchisi,2019-04-30,10:36
Coracias caudatus,Animalia,ROLLERS_CORACIIDAE,Lilac-breasted Roller,,1,33.7720031738281,-13.9544086456299,Africa,Malawi,MW,,Malawi - Lilongwe,2019-04-30,15:46
Coracias caudatus,Animalia,ROLLERS_CORACIIDAE,Lilac-breasted Roller,,1,33.7597541809082,-13.9670724868774,Africa,Malawi,MW,,Malawi - Lilongwe,2019-04-30,15:49
Coracias caudatus,Animalia,ROLLERS_CORACIIDAE,Lilac-breasted Roller,,1,33.821102142334,-13.9616289138794,Africa,Malawi,MW,,Malawi - Lilongwe,2019-04-25,14:04
Uraeginthus angolensis,Animalia,WAXBILLS_MUNIAS_ALLIES_ESTRILDIDAE,Blue Waxbill,,2,33.750789642334,-13.9777059555054,Africa,Malawi,MW,,Malawi - Lilongwe,2019-04-24,16:22
Hirundo atrocaerulea,Animalia,SWALLOWS_HIRUNDINIDAE,Blue Swallow,,6,35.63852288,-15.92464202,Africa,Malawi,MW,,Malawi - Mulanje,2018-11-17,
Bubo africanus,Animalia,OWLS_STRIGIDAE,Spotted Eagle-Owl,,1,33.7934659016452,-10.5650301723514,Africa,Malawi,MW,,Malawi - Nyika NP,2018-09-15,19:18
Melierax metabates,Animalia,HAWKS_AND_EAGLES_ACCIPITRIDAE,Dark Chanting Goshawk,,1,34.1753971875177,-10.5852433568373,Africa,Malawi,MW,,Malawi - Rumphi,2018-09-18,07:06
Gymnoris superciliaris,Animalia,OLD_WORLD_SPARROWS_PASSERIDAE,Yellow-throated Bush Sparrow,,2,35.50788706,-15.9394519,Africa,Malawi,MW,,Malawi - Mulanje,2018-06-22,
Zosterops anderssoni,Animalia,WHITEEYES_ZOSTEROPIDAE,Southern Yellow White-eye,,4,35.65414256,-15.961899,Africa,Malawi,MW,,Malawi - Mulanje,2018-06-21,
Uraeginthus angolensis,Animalia,WAXBILLS_MUNIAS_ALLIES_ESTRILDIDAE,Blue Waxbill,,2,35.25885351,-15.01505789,Africa,Malawi,MW,,Malawi - Liwonde NP,2008-08-16,
Apalis flavigularis,Animalia,CISTICOLAS_AND_ALLIES_CISTICOLIDAE,Yellow-throated Apalis,,1,35.31578178,-15.35642608,Africa,Malawi,MW,,Malawi - Zomba,2008-09-08,
Falco biarmicus biarmicus,Animalia,CARACAS_AND_FALCONS_FALCONIDAE,Lanner Falcon ssp biarmicus,,1,35.02006545,-15.84242159,Africa,Malawi,MW,,Malawi - Blantyre,2008-06-22,
Lophaetus occipitalis,Animalia,HAWKS_AND_EAGLES_ACCIPITRIDAE,Long-crested Eagle,,1,35.05645981,-15.87031672,Africa,Malawi,MW,,Malawi - Blantyre,2008-06-07,
Anastomus lamelligerus,Animalia,STORKS_CICONIIDAE,African Openbill,,1,35.14067538,-16.47992088,Africa,Malawi,MW,,Malawi - Nsanje,2008-07-13,
Scopus umbretta,Animalia,HAMERKOP_SCOPIDAE,Hamerkop,,1,34.82342777,-14.02377003,Africa,Malawi,MW,,Malawi - Mangochi,2008-08-01,
Zosterops anderssoni,Animalia,WHITEEYES_ZOSTEROPIDAE,Southern Yellow White-eye,,1,35.55041864,-15.97411314,Africa,Malawi,MW,,Malawi - Mulanje,2008-07-06,
Cinnyris manoensis,Animalia,SUNBIRDS_NECTARINIIDAE,Eastern Miombo Sunbird,,1,35.31252901,-15.36469468,Africa,Malawi,MW,,Malawi - Zomba,2008-06-29,
Cisticola galactotes isodactylus,Animalia,CISTICOLAS_AND_ALLIES_CISTICOLIDAE,Rufous-winged Cisticola ssp isodactylus,,1,35.25293484,-15.0007536,Africa,Malawi,MW,,Malawi - Liwonde NP,2008-08-16,
Chlorocichla flaviventris,Animalia,BULBULS_PYCNONOTIDAE,Yellow-bellied Greenbul,,1,34.82287674,-14.02253426,Africa,Malawi,MW,,Malawi - Mangochi,2008-08-01,
Caprimulgus pectoralis,Animalia,NIGHTJARS_CAPRIMULGIDAE,Fiery-necked Nightjar,,1,35.71150503,-15.84526385,Africa,Malawi,MW,,Malawi - Phalombe,2008-06-15,
Hippotragus equinus,Animalia,BOVIDS_BOVIDAE,Roan Antelope,,1,33.89344477738894,-10.55023499999993,Africa,Malawi,MW,,Malawi - Nyika NP,2009-09-20,
Kobus vardonii,Animalia,BOVIDS_BOVIDAE,Puku,,1,33.48037718,-11.00132111,Africa,Malawi,MW,,Malawi - Rumphi,2009-09-18,
Redunca arundinum,Animalia,BOVIDS_BOVIDAE,Southern Reedbuck,,1,33.89344477738894,-10.55023499999993,Africa,Malawi,MW,,Malawi - Nyika NP,2009-09-20,
Cephalophus harveyi,Animalia,BOVIDS_BOVIDAE,Harvey's Duiker,,1,33.89344477738894,-10.55023499999993,Africa,Malawi,MW,,Malawi - Nyika NP,2009-09-21,
Tragelaphus strepsiceros,Animalia,BOVIDS_BOVIDAE,Greater Kudu,,1,33.48506927,-11.00709522,Africa,Malawi,MW,,Malawi - Rumphi,2009-09-18,
Tragelaphus scriptus,Animalia,BOVIDS_BOVIDAE,Bushbuck,,1,33.89344477738894,-10.55023499999993,Africa,Malawi,MW,,Malawi - Nyika NP,2009-09-20,
Passer griseus ugandae,Animalia,OLD_WORLD_SPARROWS_PASSERIDAE,Northern Grey-headed Sparrow ssp ugandae,,1,34.06608581,-12.35786638,Africa,Malawi,MW,,Malawi - Nkhotakota,2009-09-16,
Cinnyris whytei whytei,Animalia,SUNBIRDS_NECTARINIIDAE,Whyte’s Double-collared Sunbird ssp whytei,,1,33.89344477738894,-10.55023499999993,Africa,Malawi,MW,,Malawi - Nyika NP,2009-09-21,
Lanius collaris marwitzi,Animalia,SHRIKES_LANIIDAE,Southern Fiscal ssp marwitzi,,1,33.89344477738894,-10.55023499999993,Africa,Malawi,MW,,Malawi - Nyika NP,2009-09-17,
Batis capensis sola,Animalia,WATTLEEYES_BATISES_PLATYSTEIRIDAE,Cape Batis ssp sola,,1,33.89344477738894,-10.55023499999993,Africa,Malawi,MW,,Malawi - Nyika NP,2009-09-20,
Cisticola njombe,Animalia,CISTICOLAS_AND_ALLIES_CISTICOLIDAE,Churring Cisticola,,1,33.89344477738894,-10.55023499999993,Africa,Malawi,MW,,Malawi - Nyika NP,2009-09-19,
Cercotrichas barbata,Animalia,OLD_WORLD_FLYCATCHERS_MUSCICAPIDAE,Miombo Scrub Robin,,1,33.48175047,-11.00895999,Africa,Malawi,MW,,Malawi - Rumphi,2009-09-18,
Chlorocichla flaviventris,Animalia,BULBULS_PYCNONOTIDAE,Yellow-bellied Greenbul,,1,33.48295211,-11.00442162,Africa,Malawi,MW,,Malawi - Rumphi,2009-09-18,
Anthus cinnamomeus winterbottomi,Animalia,PIPITS_EN_WAGTAILS_MOTACILLIDAE,African Pipit ssp winterbottomi,,1,33.89344477738894,-10.55023499999993,Africa,Malawi,MW,,Malawi - Nyika NP,2009-09-21,
Motacilla aguimp,Animalia,PIPITS_EN_WAGTAILS_MOTACILLIDAE,African Pied Wagtail,,1,33.76442045304813,-13.259028434753418,Africa,Malawi,MW,,Malawi,2009-09-16,
Neotis denhami,Animalia,BUSTARDS_OTIDIDAE,Denham's Bustard,,1,33.89344477738894,-10.55023499999993,Africa,Malawi,MW,,Malawi - Nyika NP,2009-09-20,
Scleroptila levaillantii,Animalia,FRANCOLINS_QUAILS_PARTRIDGES_AND_PHEASANTS_PHASIANIDAE,Red-winged Francolin,,1,33.89344477738894,-10.55023499999993,Africa,Malawi,MW,,Malawi - Nyika NP,2009-09-20,
Circaetus cinereus,Animalia,HAWKS_AND_EAGLES_ACCIPITRIDAE,Brown Snake Eagle,,1,34.009472397756845,-10.8263509729,Africa,Malawi,MW,,Malawi - Rumphi,2009-09-18,
Mycteria ibis,Animalia,STORKS_CICONIIDAE,Yellow-billed Stork,,1,33.48403928,-11.00123125,Africa,Malawi,MW,,Malawi - Rumphi,2009-09-18,
Vidua funerea,Animalia,INDIGOBIRDS_AND_WHYDAHS_VIDUIDAE,Dusky Indigobird,,1,35.0803,-16.0807,Africa,Malawi,MW,,Malawi - Thyolo,2016-05-27,11:20
Vidua codringtoni,Animalia,INDIGOBIRDS_AND_WHYDAHS_VIDUIDAE,Zambezi Indigobird,,1,35.0524,-16.0825,Africa,Malawi,MW,,Malawi - Thyolo,2016-05-28,07:45
Geokichla gurneyi,Animalia,THRUSHES_TURDIDAE,Orange Ground Thrush,,1,35.0504,-16.0835,Africa,Malawi,MW,,Malawi - Thyolo,2016-05-27,16:43
Apalis flavigularis,Animalia,CISTICOLAS_AND_ALLIES_CISTICOLIDAE,Yellow-throated Apalis,,1,35.2993,-15.357,Africa,Malawi,MW,,Malawi - Zomba,2016-05-27,07:06
Cinnyris fuelleborni,Animalia,SUNBIRDS_NECTARINIIDAE,Forest Double-collared Sunbird,,1,35.3043,-15.3649,Africa,Malawi,MW,,Malawi - Zomba,2016-05-26,13:34
Apalis flavigularis,Animalia,CISTICOLAS_AND_ALLIES_CISTICOLIDAE,Yellow-throated Apalis,,1,35.3,-15.3532,Africa,Malawi,MW,,Malawi - Zomba,2016-05-26,12:14
Melaniparus pallidiventris,Animalia,TITS_PARIDAE,Cinnamon-breasted Tit,,1,35.2412,-15.1474,Africa,Malawi,MW,,Malawi - Machinga,2016-05-26,08:27
Cinnyris talatala,Animalia,SUNBIRDS_NECTARINIIDAE,White-bellied Sunbird,,1,35.3013,-14.9414,Africa,Malawi,MW,,Malawi - Liwonde NP,2016-05-26,07:17
Ephippiorhynchus senegalensis,Animalia,STORKS_CICONIIDAE,Saddle-billed Stork,,2,35.2938,-14.8374,Africa,Malawi,MW,,Malawi - Machinga,2016-05-25,16:08
Lybius melanopterus,Animalia,Lybiidae,Brown-breasted Barbet,,1,35.2885,-14.8417,Africa,Malawi,MW,,Malawi - Balaka,2016-05-25,15:50
Ploceus xanthopterus,Animalia,WEAVERS_PLOCEIDAE,Southern Brown-throated Weaver,,1,35.2942,-14.8516,Africa,Malawi,MW,,Malawi - Machinga,2016-05-25,14:34
Myrmecocichla arnotti,Animalia,OLD_WORLD_FLYCATCHERS_MUSCICAPIDAE,Arnot's Chat,,2,35.3529,-14.8035,Africa,Malawi,MW,,Malawi - Liwonde NP,2016-05-25,09:32
Coracias spatulatus,Animalia,ROLLERS_CORACIIDAE,Racket-tailed Roller,,5,35.325,-14.8289,Africa,Malawi,MW,,Malawi - Liwonde NP,2016-05-25,09:09
Tauraco porphyreolophus,Animalia,TURACOS_MUSOPHAGIDAE,Purple-crested Turaco,,1,35.2943,-14.8402,Africa,Malawi,MW,,Malawi - Machinga,2016-05-25,07:01
Falco chicquera,Animalia,CARACAS_AND_FALCONS_FALCONIDAE,Red-necked Falcon,,2,35.2942,-14.8413,Africa,Malawi,MW,,Malawi - Machinga,2016-05-25,06:30
Falco dickinsoni,Animalia,CARACAS_AND_FALCONS_FALCONIDAE,Dickinson's Kestrel,,1,35.2967,-14.851,Africa,Malawi,MW,,Malawi - Machinga,2016-05-25,06:15
Erythrocercus livingstonei,Animalia,ERYTHROCERCIDAE,Livingstone's Flycatcher,,1,35.2945,-14.8505,Africa,Malawi,MW,,Malawi - Machinga,2016-05-25,06:07
Gorsachius leuconotus,Animalia,HERONS_ARDEIDAE,White-backed Night Heron,,5,35.294,-14.8498,Africa,Malawi,MW,,Malawi - Machinga,2016-05-25,05:58
Poicephalus fuscicollis,Animalia,PARROTS_PSITTACIDAE,Brown-necked Parrot,,1,35.2942,-14.8498,Africa,Malawi,MW,,Malawi - Machinga,2016-05-25,05:58
Scotopelia peli,Animalia,OWLS_STRIGIDAE,Pel's Fishing Owl,,1,35.2969,-14.8592,Africa,Malawi,MW,,Malawi - Machinga,2016-05-24,18:32
Hystrix africaeaustralis,Animalia,OLD_WORLD_PORCUPINES_HYSTRICIDAE,Cape Porcupine,,1,35.2965,-14.8443,Africa,Malawi,MW,,Malawi - Liwonde NP,2016-05-24,18:09
Merops boehmi,Animalia,BEEEATERS_MEROPIDAE,Böhm's Bee-eater,,1,35.2999,-14.9187,Africa,Malawi,MW,,Malawi - Liwonde NP,2016-05-24,15:53
Agapornis lilianae,Animalia,PSITTACULIDAE,Lilian's Lovebird,,1,35.3084,-14.958,Africa,Malawi,MW,,Malawi - Liwonde NP,2016-05-24,15:35
Tockus rufirostris,Animalia,HORNBILLS_BUCEROTIDAE,Southern Red-billed Hornbill,,1,35.294,-15.0012,Africa,Malawi,MW,,Malawi - Liwonde NP,2016-05-24,15:10
Tragelaphus strepsiceros,Animalia,BOVIDS_BOVIDAE,Greater Kudu,,4,35.2683,-15.0083,Africa,Malawi,MW,,Malawi - Liwonde NP,2016-05-24,15:00
Cercotrichas quadrivirgata,Animalia,OLD_WORLD_FLYCATCHERS_MUSCICAPIDAE,Bearded Scrub Robin,,1,35.2539,-15.0385,Africa,Malawi,MW,,Malawi - Machinga,2016-05-24,14:33
Cichladusa arquata,Animalia,OLD_WORLD_FLYCATCHERS_MUSCICAPIDAE,Collared Palm Thrush,,1,35.2214,-15.0632,Africa,Malawi,MW,,Malawi - Machinga,2016-05-24,14:09
Pyrenestes minor,Animalia,WAXBILLS_MUNIAS_ALLIES_ESTRILDIDAE,Lesser Seedcracker,,3,33.4561,-14.2637,Africa,Malawi,MW,,Malawi - Lilongwe,2016-05-23,13:28
Pinarornis plumosus,Animalia,OLD_WORLD_FLYCATCHERS_MUSCICAPIDAE,Boulder Chat,,1,33.4681,-14.2693,Africa,Malawi,MW,,Malawi - Lilongwe,2016-05-23,11:26
Caprimulgus tristigma,Animalia,NIGHTJARS_CAPRIMULGIDAE,Freckled Nightjar,,1,33.4564,-14.2324,Africa,Malawi,MW,,Malawi - Lilongwe,2016-05-23,08:38
Chloropicus namaquus,Animalia,WOODPECKERS_PICIDAE,Bearded Woodpecker,,2,33.4596,-14.2312,Africa,Malawi,MW,,Malawi - Lilongwe,2016-05-23,08:17
Anthus nyassae,Animalia,PIPITS_EN_WAGTAILS_MOTACILLIDAE,Wood Pipit,,2,33.4596,-14.2312,Africa,Malawi,MW,,Malawi - Lilongwe,2016-05-23,08:17
Lophoceros pallidirostris,Animalia,HORNBILLS_BUCEROTIDAE,Pale-billed Hornbill,,12,33.4895,-14.299,Africa,Malawi,MW,,Malawi - Lilongwe,2016-05-22,15:20
Cercotrichas barbata,Animalia,OLD_WORLD_FLYCATCHERS_MUSCICAPIDAE,Miombo Scrub Robin,,2,33.4829,-14.2603,Africa,Malawi,MW,,Malawi - Lilongwe,2016-05-22,14:29
Dendropicos stierlingi,Animalia,WOODPECKERS_PICIDAE,Stierling's Woodpecker,,2,33.4831,-14.2591,Africa,Malawi,MW,,Malawi - Lilongwe,2016-05-22,14:03
Salpornis salvadori,Animalia,TREECREEPERS_CERTHIIDAE,African Spotted Creeper,,1,33.4724,-14.2598,Africa,Malawi,MW,,Malawi - Lilongwe,2016-05-22,12:01
Lophoceros pallidirostris,Animalia,HORNBILLS_BUCEROTIDAE,Pale-billed Hornbill,,1,33.4576,-14.2645,Africa,Malawi,MW,,Malawi - Lilongwe,2016-05-22,11:06
Vidua obtusa,Animalia,INDIGOBIRDS_AND_WHYDAHS_VIDUIDAE,Broad-tailed Paradise Whydah,,2,33.456,-14.2639,Africa,Malawi,MW,,Malawi - Lilongwe,2016-05-22,11:00
Melaniparus griseiventris,Animalia,TITS_PARIDAE,Miombo Tit,,1,33.4454,-14.2524,Africa,Malawi,MW,,Malawi - Lilongwe,2016-05-22,07:51
Monticola angolensis,Animalia,OLD_WORLD_FLYCATCHERS_MUSCICAPIDAE,Miombo Rock Thrush,,1,33.4454,-14.2525,Africa,Malawi,MW,,Malawi - Lilongwe,2016-05-22,07:51
Muscicapa caerulescens,Animalia,OLD_WORLD_FLYCATCHERS_MUSCICAPIDAE,Ashy Flycatcher,,1,33.4579,-14.2337,Africa,Malawi,MW,,Malawi - Lilongwe,2016-05-22,07:11
Cinnyris manoensis,Animalia,SUNBIRDS_NECTARINIIDAE,Eastern Miombo Sunbird,,1,33.4629,-14.2262,Africa,Malawi,MW,,Malawi - Lilongwe,2016-05-22,07:04
Passer griseus,Animalia,OLD_WORLD_SPARROWS_PASSERIDAE,Northern Grey-headed Sparrow,,1,33.4745,-14.2083,Africa,Malawi,MW,,Malawi - Lilongwe,2016-05-22,06:40
Lanius humeralis,Animalia,SHRIKES_LANIIDAE,Northern Fiscal,,1,33.4928,-14.156,Africa,Malawi,MW,,Malawi - Lilongwe,2016-05-22,07:22
Cisticola galactotes,Animalia,CISTICOLAS_AND_ALLIES_CISTICOLIDAE,Rufous-winged Cisticola,,1,34.93652344,-14.07264495,Africa,Malawi,MW,,Malawi - Mangochi,1998-08-10,
Motacilla clara,Animalia,PIPITS_EN_WAGTAILS_MOTACILLIDAE,Mountain Wagtail,,1,34.9365234375,-14.0726449544,Africa,Malawi,MW,,Malawi - Mangochi,1998-08-10,
Batis capensis,Animalia,WATTLEEYES_BATISES_PLATYSTEIRIDAE,Cape Batis,,1,35.31990767,-15.31709349,Africa,Malawi,MW,,Malawi - Zomba,1998-08-10,
Elminia albonotata subcaerulea,Animalia,Stenostiridae,White-tailed Crested Flycatcher ssp subcaerulea,,1,35.1123046875,-15.3901357153,Africa,Malawi,MW,,Malawi - Zomba,1998-08-09,
Centropus burchellii,Animalia,CUCKOOS_AND_COUCALS_CUCULIDAE,Burchell's Coucal,,1,35.2166748,-16.98591636,Africa,Malawi,MW,,Malawi - Nsanje,1998-08-05,
Cercotrichas barbata,Animalia,OLD_WORLD_FLYCATCHERS_MUSCICAPIDAE,Miombo Scrub Robin,,1,33.44379865,-14.25432417,Africa,Malawi,MW,,Malawi - Lilongwe,2015-12-02,05:36
Melaniparus griseiventris,Animalia,TITS_PARIDAE,Miombo Tit,,1,33.45442445,-14.26367486,Africa,Malawi,MW,,Malawi - Lilongwe,2015-12-02,08:17
Dendropicos stierlingi,Animalia,WOODPECKERS_PICIDAE,Stierling's Woodpecker,,2,33.48465348,-14.31082721,Africa,Malawi,MW,,Malawi - Lilongwe,2015-12-02,12:02
Porphyrio madagascariensis,Animalia,RAILS_RALLIDAE,African Swamphen,,1,35.07679101,-16.52992221,Africa,Malawi,MW,,Malawi - Nsanje,2015-11-24,08:53
Cercopithecus mitis erythrarchus,Animalia,OLD_WORLD_MONKEYS_CERCOPITHECIDAE,Stairs's White-collared Monkey,,8,35.29665409,-15.35307138,Africa,Malawi,MW,,Malawi - Zomba,2015-11-27,08:18
Apalis flavigularis,Animalia,CISTICOLAS_AND_ALLIES_CISTICOLIDAE,Yellow-throated Apalis,,1,35.29098161,-15.3507062,Africa,Malawi,MW,,Malawi - Zomba,2015-11-27,08:50
Chroicocephalus ridibundus,Animalia,GULLS_TERNS_AND_SKIMMERS_LARIDAE,Black-headed Gull,,1,34.84036759,-14.02218998,Africa,Malawi,MW,,Malawi - Mangochi,2015-11-28,12:02
Phalacrocorax lucidus,Animalia,CORMORANTS_PHALACROCORACIDAE,White-breasted Cormorant,,2,34.82797041,-14.03064952,Africa,Malawi,MW,,Malawi - Mangochi,2015-11-28,12:06
Apalis flavigularis,Animalia,CISTICOLAS_AND_ALLIES_CISTICOLIDAE,Yellow-throated Apalis,,1,35.307,-15.3541,Africa,Malawi,MW,,Malawi - Zomba,2015-09-21,07:03
Zosterops anderssoni,Animalia,WHITEEYES_ZOSTEROPIDAE,Southern Yellow White-eye,,1,35.3037,-15.3541,Africa,Malawi,MW,,Malawi - Zomba,2015-09-21,06:43
Tauraco porphyreolophus,Animalia,TURACOS_MUSOPHAGIDAE,Purple-crested Turaco,,1,34.9896,-15.7762,Africa,Malawi,MW,,Malawi - Blantyre,2015-09-17,06:41
Centropus burchellii,Animalia,CUCKOOS_AND_COUCALS_CUCULIDAE,Burchell's Coucal,,1,33.80018266,-13.94472323,Africa,Malawi,MW,,Malawi - Lilongwe,2015-11-19,05:17
Milvus aegyptius,Animalia,HAWKS_AND_EAGLES_ACCIPITRIDAE,Yellow-billed Kite,,1,34.745272966101766,-15.902736615389585,Africa,Malawi,MW,,Malawi - Chikwawa,2015-09-03,17:28
