scientificName,kingdom,family,vernacularName,previousIdentifications,individualCount,longitudeDecimal,latitudeDecimal,continent,country,countryCode,stateProvince,locality,eventDate,eventTime
Actophilornis africanus,Animalia,JACANAS_JACANIDAE,African Jacana,,1,-7.97388184816,12.6336170849,Africa,Mali,ML,,Mali - Koulikoro,2014-04-26,
Amadina fasciata,Animalia,WAXBILLS_MUNIAS_ALLIES_ESTRILDIDAE,Cut-throat Finch,,1,-5.4073333740234,13.232927260096,Africa,Mali,ML,,Mali - Ségou,2009-01-18,
Lagonosticta senegala,Animalia,WAXBILLS_MUNIAS_ALLIES_ESTRILDIDAE,Red-billed Firefinch,,1,-4.5109176635742,13.876746246499,Africa,Mali,ML,,Mali - Mopti,2009-01-18,
Egretta garzetta,Animalia,HERONS_ARDEIDAE,Little Egret,,1,-3.9736175537109,15.113889978918,Africa,Mali,ML,,Mali - Mopti,2009-01-18,
Pluvianus aegyptius,Animalia,Pluvianidae,Egyptian Plover,,2,-4.20699513796,14.5001032828,Africa,Mali,ML,,Mali - Mopti,2010-12-26,
Milvus aegyptius,Animalia,HAWKS_AND_EAGLES_ACCIPITRIDAE,Yellow-billed Kite,,10,-4.201888212,14.4946811542,Africa,Mali,ML,,Mali - Mopti,2010-12-26,
Ardeola ralloides,Animalia,HERONS_ARDEIDAE,Squacco Heron,,20,-4.1887251735,14.4773362074,Africa,Mali,ML,,Mali - Mopti,2010-12-26,01:00
Vanellus tectus,Animalia,PLOVERS_CHARADRIIDAE,Black-headed Lapwing,,2,-6.71528291705,13.0653077109,Africa,Mali,ML,,Mali - Ségou,2010-12-25,01:00
Tringa nebularia,Animalia,SANDPIPERS_AND_ALLIES_SCOLOPACIDAE,Common Greenshank,,1,-5.18280029297,13.1707791801,Africa,Mali,ML,,Mali - Ségou,2009-01-18,
Milvus aegyptius parasitus,Animalia,HAWKS_AND_EAGLES_ACCIPITRIDAE,Yellow-billed Kite ssp parasitus,,1,-2.97866821289,16.6796086122,Africa,Mali,ML,,Mali - Tombouctou,2009-01-18,
Tockus erythrorhynchus,Animalia,HORNBILLS_BUCEROTIDAE,Northern Red-billed Hornbill,,1,-5.9899520874,14.217129372,Africa,Mali,ML,,Mali - Ségou,1990-12-22,
Centropus senegalensis,Animalia,CUCKOOS_AND_COUCALS_CUCULIDAE,Senegal Coucal,,1,-5.99029541016,14.219126208,Africa,Mali,ML,,Mali - Ségou,1991-01-10,
Tockus erythrorhynchus,Animalia,HORNBILLS_BUCEROTIDAE,Northern Red-billed Hornbill,,1,-5.99029541016,14.219126208,Africa,Mali,ML,,Mali - Ségou,1991-01-10,
Laniarius barbarus,Animalia,HELMETSHRIKES_BUSHSHRIKES_MALACONOTIDAE,Yellow-crowned Gonolek,,1,-5.99029541016,14.219126208,Africa,Mali,ML,,Mali - Ségou,1991-01-10,
Phyllogomphus pseudoccidentalis,Animalia,CLUBTAILS_GOMPHIDAE,,,1,-7.9750174284,12.6698854844,Africa,Mali,ML,,Mali - Koulikoro,2006-11-03,
Oenanthe hispanica,Animalia,OLD_WORLD_FLYCATCHERS_MUSCICAPIDAE,Western Black-eared Wheatear,,1,-1.5875244140625,15.258395674289,Africa,Mali,ML,,Mali - Mopti,2009-01-18,
Falco alopex,Animalia,CARACAS_AND_FALCONS_FALCONIDAE,Fox Kestrel,,1,-1.5545654296875,15.253096084161,Africa,Mali,ML,,Mali - Mopti,2009-01-18,
Glareola pratincola,Animalia,COURSERS_AND_PRATINCOLES_GLAREOLIDAE,Collared Pratincole,,1,-3.427734375,16.161920953785,Africa,Mali,ML,,Mali - Tombouctou,2009-01-18,
Turdoides plebejus,Animalia,Leiothrichidae,Brown Babbler,,1,-5.4835510253906,13.218555949175,Africa,Mali,ML,,Mali - Ségou,2009-01-18,
Euplectes axillaris,Animalia,WEAVERS_PLOCEIDAE,Fan-tailed Widowbird,,1,-3.40576171875,16.215377864005,Africa,Mali,ML,,Mali - Tombouctou,2009-01-18,
Euplectes franciscanus,Animalia,WEAVERS_PLOCEIDAE,Northern Red Bishop,,1,-5.47668457031,13.2158821235,Africa,Mali,ML,,Mali - Ségou,2009-01-18,
Falco biarmicus,Animalia,CARACAS_AND_FALCONS_FALCONIDAE,Lanner Falcon,,1,-1.5875244140625,15.242496502931,Africa,Mali,ML,,Mali - Mopti,2009-01-18,
Spiloptila clamans,Animalia,CISTICOLAS_AND_ALLIES_CISTICOLIDAE,Cricket Warbler,,1,-1.6204833984375,15.290190405591,Africa,Mali,ML,,Mali - Mopti,2009-01-18,
Hedydipna platura,Animalia,SUNBIRDS_NECTARINIIDAE,Pygmy Sunbird,,1,-1.636962890625,15.290190405591,Africa,Mali,ML,,Mali - Mopti,2009-01-18,
Ploceus cucullatus,Animalia,WEAVERS_PLOCEIDAE,Village Weaver,,1,-5.46981811523,13.2160603767,Africa,Mali,ML,,Mali - Ségou,2009-01-18,
Lamprotornis caudatus,Animalia,STARLINGS_STURNIDAE,Long-tailed Glossy Starling,,1,-5.6483459472656,13.225418631617,Africa,Mali,ML,,Mali - Ségou,2009-01-18,
Elanus caeruleus,Animalia,HAWKS_AND_EAGLES_ACCIPITRIDAE,Black-winged Kite,,1,-4.5181274414062,13.918427524341,Africa,Mali,ML,,Mali - Mopti,2009-01-18,
Turtur abyssinicus,Animalia,PIGEONS_AND_DOVES_COLUMBIDAE,Black-billed Wood Dove,,1,-5.4890441894531,13.226755495859,Africa,Mali,ML,,Mali - Ségou,2009-01-18,
Lanius excubitor elegans,Animalia,SHRIKES_LANIIDAE,Desert Grey Shrike,,1,-1.4996337890625,15.343170902691,Africa,Mali,ML,,Mali - Mopti,2009-01-18,
Euodice cantans,Animalia,WAXBILLS_MUNIAS_ALLIES_ESTRILDIDAE,African Silverbill,,1,-1.8402099609375,15.697791540005,Africa,Mali,ML,,Mali - Tombouctou,2009-01-18,
Emberiza goslingi,Animalia,BUNTINGS_EMBERIZIDAE,Gosling's Bunting,,1,-1.6561889648438,15.287187781339,Africa,Mali,ML,,Mali - Mopti,2009-01-18,
Vanellus spinosus,Animalia,PLOVERS_CHARADRIIDAE,Spur-winged Lapwing,,1,-5.4890441894531,13.22007110135,Africa,Mali,ML,,Mali - Ségou,2009-01-18,
Cossypha albicapilla,Animalia,OLD_WORLD_FLYCATCHERS_MUSCICAPIDAE,White-crowned Robin-Chat,,1,-5.4794311523438,13.214545199617,Africa,Mali,ML,,Mali - Ségou,2009-01-18,
Tockus erythrorhynchus,Animalia,HORNBILLS_BUCEROTIDAE,Northern Red-billed Hornbill,,1,-5.482177734375,13.213208268447,Africa,Mali,ML,,Mali - Ségou,2009-01-18,
Merops bulocki,Animalia,BEEEATERS_MEROPIDAE,Red-throated Bee-eater,,1,-5.4698181152344,13.224081760045,Africa,Mali,ML,,Mali - Ségou,2009-01-18,
Hydroprogne caspia,Animalia,GULLS_TERNS_AND_SKIMMERS_LARIDAE,Caspian Tern,,1,-2.8756713867188,16.691798605226,Africa,Mali,ML,,Mali - Tombouctou,2009-01-18,
Actitis hypoleucos,Animalia,SANDPIPERS_AND_ALLIES_SCOLOPACIDAE,Common Sandpiper,,1,-5.4698181152344,13.22007110135,Africa,Mali,ML,,Mali - Ségou,2009-01-18,
Oena capensis,Animalia,PIGEONS_AND_DOVES_COLUMBIDAE,Namaqua Dove,,1,-1.724853515625,15.458974721922,Africa,Mali,ML,,Mali - Tombouctou,2009-01-18,
Estrilda caerulescens,Animalia,WAXBILLS_MUNIAS_ALLIES_ESTRILDIDAE,Lavender Waxbill,,1,-5.4808044433594,13.211871329951,Africa,Mali,ML,,Mali - Ségou,2009-01-18,
Gelochelidon nilotica,Animalia,GULLS_TERNS_AND_SKIMMERS_LARIDAE,Gull-billed Tern,,1,-2.9498291015625,16.661366009507,Africa,Mali,ML,,Mali - Tombouctou,2009-01-18,
Pluvianus aegyptius,Animalia,Pluvianidae,Egyptian Plover,,1,-5.4766845703125,13.20919743099,Africa,Mali,ML,,Mali - Ségou,2009-01-18,
Aves indet.,Animalia,unknown,Unidentified bird,,1,-4.14733886719,15.3745996535,Africa,Mali,ML,,Mali - Mopti,2009-01-18,
Lamprotornis caudatus,Animalia,STARLINGS_STURNIDAE,Long-tailed Glossy Starling,,1,-5.4684448242188,13.218734200461,Africa,Mali,ML,,Mali - Ségou,2009-01-18,
Crinifer piscator,Animalia,TURACOS_MUSOPHAGIDAE,Western Plantain-eater,,1,-5.47119140625,13.231924637992,Africa,Mali,ML,,Mali - Ségou,2009-01-18,
Pogoniulus chrysoconus,Animalia,Lybiidae,Yellow-fronted Tinkerbird,,1,-5.4876708984375,13.221586244112,Africa,Mali,ML,,Mali - Ségou,2009-01-18,
Corvinella corvina,Animalia,SHRIKES_LANIIDAE,Yellow-billed Shrike,,1,-5.4931640625,13.226755495859,Africa,Mali,ML,,Mali - Ségou,2009-01-18,
Micronisus gabar,Animalia,HAWKS_AND_EAGLES_ACCIPITRIDAE,Gabar Goshawk,,1,-1.5380859375,15.290190405591,Africa,Mali,ML,,Mali - Mopti,2009-01-18,
Lagonosticta senegala,Animalia,WAXBILLS_MUNIAS_ALLIES_ESTRILDIDAE,Red-billed Firefinch,,1,-5.4643249511719,13.223903512668,Africa,Mali,ML,,Mali - Ségou,2009-01-18,
Lamprotornis chalybaeus,Animalia,STARLINGS_STURNIDAE,Greater Blue-eared Starling,,1,-1.5216064453125,15.273587102219,Africa,Mali,ML,,Mali - Mopti,2009-01-18,
Poicephalus senegalus,Animalia,PARROTS_PSITTACIDAE,Senegal Parrot,,1,-5.4904174804688,13.20919743099,Africa,Mali,ML,,Mali - Ségou,2009-01-18,
Oenanthe oenanthe,Animalia,OLD_WORLD_FLYCATCHERS_MUSCICAPIDAE,Northern Wheatear,,1,-1.614990234375,15.332575877009,Africa,Mali,ML,,Mali - Mopti,2009-01-18,
Uraeginthus bengalus,Animalia,WAXBILLS_MUNIAS_ALLIES_ESTRILDIDAE,Red-cheeked Cordon-bleu,,1,-5.482177734375,13.229429202347,Africa,Mali,ML,,Mali - Ségou,2009-01-18,
Lamprotornis chalybaeus,Animalia,STARLINGS_STURNIDAE,Greater Blue-eared Starling,,1,-3.5540771484375,15.072830759866,Africa,Mali,ML,,Mali - Mopti,2009-01-18,
Poicephalus senegalus,Animalia,PARROTS_PSITTACIDAE,Senegal Parrot,,1,-4.7433471679688,13.499499572115,Africa,Mali,ML,,Mali - Ségou,2009-01-18,
Uraeginthus bengalus,Animalia,WAXBILLS_MUNIAS_ALLIES_ESTRILDIDAE,Red-cheeked Cordon-bleu,,1,-5.6524658203125,13.144390993121,Africa,Mali,ML,,Mali - Ségou,2009-01-18,
Spilopelia senegalensis,Animalia,PIGEONS_AND_DOVES_COLUMBIDAE,Laughing Dove,,1,-3.5243367181799,17.350369328792,Africa,Mali,ML,,Mali,2007-12-29,
Xerus erythropus,Animalia,SQUIRRELS_CHIPMUNKS_AND_PRAIRIEDOGS_SCIURIDAE,Striped Ground Squirrel,,1,-5.6881713867188,13.218912451616,Africa,Mali,ML,,Mali - Ségou,2009-01-18,
Epomophorus gambianus,Animalia,OLD_WORLD_FRUITEATING_BATS_PTEROPODIDAE,Gambian Epauletted Fruit Bat,,1,-5.2294921875,13.346865014578,Africa,Mali,ML,,Mali - Ségou,2009-01-18,
Trithemis annulata,Animalia,SKIMMERS_LIBELLULIDAE,Violet Dropwing,,1,-3.5243367181799,17.350369328792,Africa,Mali,ML,,Mali,2008-01-09,
Pandion haliaetus,Animalia,OSPREY_PANDIONIDAE,Western Osprey,,1,-4.0814208984375,15.848099391946,Africa,Mali,ML,,Mali,2009-01-18,
Melierax metabates,Animalia,HAWKS_AND_EAGLES_ACCIPITRIDAE,Dark Chanting Goshawk,,1,-3.14758300781,16.4308164125,Africa,Mali,ML,,Mali,2009-01-18,
Centropus senegalensis,Animalia,CUCKOOS_AND_COUCALS_CUCULIDAE,Senegal Coucal,,1,-4.1047668457031,15.332046119704,Africa,Mali,ML,,Mali,2009-01-18,
Burhinus senegalensis,Animalia,THICKKNEES_BURHINIDAE,Senegal Thick-knee,,1,-4.1995239257812,15.837530387636,Africa,Mali,ML,,Mali,2009-01-18,
Milvus aegyptius parasitus,Animalia,HAWKS_AND_EAGLES_ACCIPITRIDAE,Yellow-billed Kite ssp parasitus,,1,-4.251708984375,15.472563307587,Africa,Mali,ML,,Mali,2009-01-18,
Ardeola ralloides,Animalia,HERONS_ARDEIDAE,Squacco Heron,,1,-4.0773010253906,15.318801548637,Africa,Mali,ML,,Mali,2009-01-18,
Egretta garzetta,Animalia,HERONS_ARDEIDAE,Little Egret,,1,-3.9605712890625,15.111901287412,Africa,Mali,ML,,Mali,2009-01-18,
Merops nubicus,Animalia,BEEEATERS_MEROPIDAE,Northern Carmine Bee-eater,,1,-3.3892822265625,16.204476646745,Africa,Mali,ML,,Mali,2009-01-18,
Circus aeruginosus,Animalia,HAWKS_AND_EAGLES_ACCIPITRIDAE,Western Marsh Harrier,,1,-4.031982421875,15.260338834617,Africa,Mali,ML,,Mali,2009-01-18,
Ardea cinerea,Animalia,HERONS_ARDEIDAE,Grey Heron,,1,-4.2160034179688,15.784324680021,Africa,Mali,ML,,Mali,2009-01-18,
Microcarbo africanus,Animalia,CORMORANTS_PHALACROCORACIDAE,Reed Cormorant,,1,-4.0003967285156,15.256540841039,Africa,Mali,ML,,Mali,2009-01-18,
Danaus chrysippus,Animalia,BRUSHFOOTED_BUTTERFLIES_NYMPHALIDAE,African Monarch,,1,-3.5243367181799,17.350369328792,Africa,Mali,ML,,Mali,2008-01-01,
Falco alopex,Animalia,CARACAS_AND_FALCONS_FALCONIDAE,Fox Kestrel,,1,-3.5243367181799,17.350369328792,Africa,Mali,ML,,Mali,2008-01-01,
Accipiter badius,Animalia,HAWKS_AND_EAGLES_ACCIPITRIDAE,Shikra,,1,-3.5243367181799,17.350369328792,Africa,Mali,ML,,Mali,2008-01-09,
Euodice cantans,Animalia,WAXBILLS_MUNIAS_ALLIES_ESTRILDIDAE,African Silverbill,,1,-3.2327270507812,14.573305258562,Africa,Mali,ML,,Mali,2009-01-18,
Ptyonoprogne rupestris,Animalia,SWALLOWS_HIRUNDINIDAE,Eurasian Crag Martin,,1,-3.1887817382812,14.586241529992,Africa,Mali,ML,,Mali,2009-01-18,
Onychognathus neumanni neumanni,Animalia,STARLINGS_STURNIDAE,Neumann's Starling ssp neumanni,,1,-3.4455871582031,14.264383087563,Africa,Mali,ML,,Mali,2009-01-18,
Thamnolaea coronata,Animalia,OLD_WORLD_FLYCATCHERS_MUSCICAPIDAE,White-crowned Cliff Chat,,1,-3.4304809570312,14.280531380624,Africa,Mali,ML,,Mali,2009-01-18,
Ploceus melanocephalus,Animalia,WEAVERS_PLOCEIDAE,Black-headed Weaver,,1,-4.5318603515625,13.880745842026,Africa,Mali,ML,,Mali,2009-01-18,
Sporopipes frontalis,Animalia,WEAVERS_PLOCEIDAE,Speckle-fronted Weaver,,1,-3.3755493164062,14.343072899962,Africa,Mali,ML,,Mali,2009-01-18,
Mirafra rufocinnamomea,Animalia,LARKS_ALAUDIDAE,Flappet Lark,,1,-3.3576965332031,14.371011346661,Africa,Mali,ML,,Mali,2009-01-18,
Corvinella corvina,Animalia,SHRIKES_LANIIDAE,Yellow-billed Shrike,,1,-3.306884765625,14.41641495713,Africa,Mali,ML,,Mali,2009-01-18,
Phoeniculus purpureus,Animalia,WOOD_HOOPOES_PHOENICULIDAE,Green Wood Hoopoe,,1,-3.31787109375,14.403114073861,Africa,Mali,ML,,Mali,2009-01-18,
Bubalornis albirostris,Animalia,WEAVERS_PLOCEIDAE,White-billed Buffalo Weaver,,1,-3.3810424804688,14.345733854606,Africa,Mali,ML,,Mali,2009-01-18,
Falco tinnunculus,Animalia,CARACAS_AND_FALCONS_FALCONIDAE,Common Kestrel,,1,-3.31787109375,14.402759378194,Africa,Mali,ML,,Mali,2009-01-18,
Corvus albus,Animalia,CROWS_AND_JAYS_CORVIDAE,Pied Crow,,1,-3.3865356445312,14.336420375114,Africa,Mali,ML,,Mali,2009-01-18,
Emberiza goslingi,Animalia,BUNTINGS_EMBERIZIDAE,Gosling's Bunting,,1,-3.4565734863281,14.255066236628,Africa,Mali,ML,,Mali,2009-01-18,
Merops orientalis,Animalia,BEEEATERS_MEROPIDAE,Green Bee-eater,,1,-3.3755493164062,14.344580775433,Africa,Mali,ML,,Mali,2009-01-18,
Columba guinea,Animalia,PIGEONS_AND_DOVES_COLUMBIDAE,Speckled Pigeon,,1,-4.5236206054688,13.883412200715,Africa,Mali,ML,,Mali,2009-01-18,
Actophilornis africanus,Animalia,JACANAS_JACANIDAE,African Jacana,,1,-4.5208740234375,13.891411092746,Africa,Mali,ML,,Mali,2009-01-18,
Lagonosticta senegala,Animalia,WAXBILLS_MUNIAS_ALLIES_ESTRILDIDAE,Red-billed Firefinch,,1,-4.5167541503906,13.876924005053,Africa,Mali,ML,,Mali,2009-01-18,
Streptopelia decipiens,Animalia,PIGEONS_AND_DOVES_COLUMBIDAE,Mourning Collared Dove,,1,-4.5222473144531,13.876168520087,Africa,Mali,ML,,Mali,2009-01-18,
Himantopus himantopus,Animalia,STILTS_AND_AVOCETS_RECURVIROSTRIDAE,Black-winged Stilt,,1,-4.5222473144531,13.883501077453,Africa,Mali,ML,,Mali,2009-01-18,
Vidua chalybeata,Animalia,INDIGOBIRDS_AND_WHYDAHS_VIDUIDAE,Village Indigobird,,1,-4.5318603515625,13.875590792237,Africa,Mali,ML,,Mali,2009-01-18,
Vanellus spinosus,Animalia,PLOVERS_CHARADRIIDAE,Spur-winged Lapwing,,1,-4.5352935791016,13.880168125578,Africa,Mali,ML,,Mali,2009-01-18,
Corvus albus,Animalia,CROWS_AND_JAYS_CORVIDAE,Pied Crow,,1,-4.5126342773438,13.876746246499,Africa,Mali,ML,,Mali,2009-01-18,
Coracias abyssinicus,Animalia,ROLLERS_CORACIIDAE,Abyssinian Roller,,1,-3.2025146484375,14.490707939337,Africa,Mali,ML,,Mali,2009-01-18,
Tockus erythrorhynchus,Animalia,HORNBILLS_BUCEROTIDAE,Northern Red-billed Hornbill,,1,-3.2546997070312,14.438847317633,Africa,Mali,ML,,Mali,2009-01-18,
Spilopelia senegalensis,Animalia,PIGEONS_AND_DOVES_COLUMBIDAE,Laughing Dove,,1,-4.5195007324219,13.880923597513,Africa,Mali,ML,,Mali,2009-01-18,
Tringa ochropus,Animalia,SANDPIPERS_AND_ALLIES_SCOLOPACIDAE,Green Sandpiper,,1,-4.5140075683594,13.882256779669,Africa,Mali,ML,,Mali,2009-01-18,
Lamprotornis caudatus,Animalia,STARLINGS_STURNIDAE,Long-tailed Glossy Starling,,1,-4.5236206054688,13.878079452673,Africa,Mali,ML,,Mali,2009-01-18,
Passer griseus,Animalia,OLD_WORLD_SPARROWS_PASSERIDAE,Northern Grey-headed Sparrow,,1,-4.5263671875,13.879590407691,Africa,Mali,ML,,Mali,2009-01-18,
Buphagus africanus,Animalia,Buphagidae,Yellow-billed Oxpecker,,1,-3.4085083007812,14.323114733258,Africa,Mali,ML,,Mali,2009-01-18,
Ceryle rudis,Animalia,KINGFISHERS_ALCEDINIDAE,Pied Kingfisher,,1,-4.5208740234375,13.880923597513,Africa,Mali,ML,,Mali,2009-01-18,
Amadina fasciata,Animalia,WAXBILLS_MUNIAS_ALLIES_ESTRILDIDAE,Cut-throat Finch,,1,-4.5167541503906,13.876835125793,Africa,Mali,ML,,Mali,2009-01-18,
Cypsiurus parvus,Animalia,SWIFTS_APODIDAE,African Palm Swift,,1,-4.5236206054688,13.880923597513,Africa,Mali,ML,,Mali,2009-01-18,
Ardea alba,Animalia,HERONS_ARDEIDAE,Great Egret,,1,-6.2773132324219,13.441716464199,Africa,Mali,ML,,Mali,2009-01-18,
Pluvianus aegyptius,Animalia,Pluvianidae,Egyptian Plover,,1,-4.515380859375,13.874435337304,Africa,Mali,ML,,Mali,2009-01-18,
Milvus aegyptius parasitus,Animalia,HAWKS_AND_EAGLES_ACCIPITRIDAE,Yellow-billed Kite ssp parasitus,,1,-4.5133209228516,13.87045785339,Africa,Mali,ML,,Mali,2009-01-18,
Bubulcus ibis,Animalia,HERONS_ARDEIDAE,Western Cattle Egret,,1,-4.3821716308594,13.828745725363,Africa,Mali,ML,,Mali,2009-01-18,
Danaus chrysippus alcippus,Animalia,BRUSHFOOTED_BUTTERFLIES_NYMPHALIDAE,,,1,-5.52700996,13.21365948,Africa,Mali,ML,,Mali - Ségou,2009-01-30,
Papilio demodocus,Animalia,SWALLOWTAILS_PAPILIONIDAE,Christmas Butterfly,,1,-5.52700996,13.21365948,Africa,Mali,ML,,Mali - Ségou,2009-01-30,
Apis mellifera scutellata,Animalia,Apidae,African Honeybee,,1,-5.52700996,13.21365948,Africa,Mali,ML,,Mali - Ségou,2009-01-30,
Merops bulocki bulocki,Animalia,BEEEATERS_MEROPIDAE,Red-throated Bee-eater ssp bulocki,,1,-5.52700996,13.21365948,Africa,Mali,ML,,Mali - Ségou,2009-01-30,
Merops bulocki bulocki,Animalia,BEEEATERS_MEROPIDAE,Red-throated Bee-eater ssp bulocki,,1,-5.52700996,13.21365948,Africa,Mali,ML,,Mali - Ségou,2009-01-30,
Vanellus spinosus,Animalia,PLOVERS_CHARADRIIDAE,Spur-winged Lapwing,,1,-5.52700996,13.21365948,Africa,Mali,ML,,Mali - Ségou,2009-01-30,
Uraeginthus bengalus bengalus,Animalia,WAXBILLS_MUNIAS_ALLIES_ESTRILDIDAE,Red-cheeked Cordon-bleu ssp bengalus,,1,-5.52700996,13.21365948,Africa,Mali,ML,,Mali - Ségou,2009-01-30,
Corvinella corvina corvina,Animalia,SHRIKES_LANIIDAE,Yellow-billed Shrike ssp corvina,,1,-5.52700996,13.21365948,Africa,Mali,ML,,Mali - Ségou,2009-01-30,
Actitis hypoleucos,Animalia,SANDPIPERS_AND_ALLIES_SCOLOPACIDAE,Common Sandpiper,,1,-5.52700996,13.21365948,Africa,Mali,ML,,Mali - Ségou,2009-01-30,
Coracias abyssinicus,Animalia,ROLLERS_CORACIIDAE,Abyssinian Roller,,1,-5.52700996,13.21365948,Africa,Mali,ML,,Mali - Ségou,2009-01-30,
Coracias abyssinicus,Animalia,ROLLERS_CORACIIDAE,Abyssinian Roller,,1,-5.52700996,13.21365948,Africa,Mali,ML,,Mali - Ségou,2009-01-30,
Centropus senegalensis senegalensis,Animalia,CUCKOOS_AND_COUCALS_CUCULIDAE,Senegal Coucal ssp senegalensis,,1,-5.52700996,13.21365948,Africa,Mali,ML,,Mali - Ségou,2009-01-30,
Coracias abyssinicus,Animalia,ROLLERS_CORACIIDAE,Abyssinian Roller,,1,-5.52700996,13.21365948,Africa,Mali,ML,,Mali - Ségou,2009-01-30,
Centropus senegalensis senegalensis,Animalia,CUCKOOS_AND_COUCALS_CUCULIDAE,Senegal Coucal ssp senegalensis,,1,-5.52700996,13.21365948,Africa,Mali,ML,,Mali - Ségou,2009-01-30,
Crinifer piscator,Animalia,TURACOS_MUSOPHAGIDAE,Western Plantain-eater,,1,-5.52700996,13.21365948,Africa,Mali,ML,,Mali - Ségou,2009-01-30,
Crinifer piscator,Animalia,TURACOS_MUSOPHAGIDAE,Western Plantain-eater,,1,-5.52700996,13.21365948,Africa,Mali,ML,,Mali - Ségou,2009-01-30,
Crinifer piscator,Animalia,TURACOS_MUSOPHAGIDAE,Western Plantain-eater,,1,-5.52700996,13.21365948,Africa,Mali,ML,,Mali - Ségou,2009-01-30,
Tockus kempi,Animalia,HORNBILLS_BUCEROTIDAE,Western Red-billed Hornbill,,1,-5.52700996,13.21365948,Africa,Mali,ML,,Mali - Ségou,2009-01-30,
Columba guinea guinea,Animalia,PIGEONS_AND_DOVES_COLUMBIDAE,Speckled Pigeon ssp guinea,,1,-5.52700996,13.21365948,Africa,Mali,ML,,Mali - Ségou,2009-01-30,
Bubulcus ibis,Animalia,HERONS_ARDEIDAE,Western Cattle Egret,,1,-5.52700996,13.21365948,Africa,Mali,ML,,Mali - Ségou,2009-01-30,
Bubulcus ibis,Animalia,HERONS_ARDEIDAE,Western Cattle Egret,,1,-5.52700996,13.21365948,Africa,Mali,ML,,Mali - Ségou,2009-01-30,
Lagonosticta senegala senegala,Animalia,WAXBILLS_MUNIAS_ALLIES_ESTRILDIDAE,Red-billed Firefinch ssp senegala,,1,-4.19597626,14.49031183,Africa,Mali,ML,,Mali - Mopti,2009-01-29,
Euodice cantans cantans,Animalia,WAXBILLS_MUNIAS_ALLIES_ESTRILDIDAE,African Silverbill ssp cantans,,1,-2.13472367,15.13567598,Africa,Mali,ML,,Mali - Mopti,2009-01-28,
Spilopelia senegalensis senegalensis,Animalia,PIGEONS_AND_DOVES_COLUMBIDAE,Laughing Dove ssp senegalensis,,1,-2.13472367,15.13567598,Africa,Mali,ML,,Mali - Mopti,2009-01-28,
Merops orientalis viridissimus,Animalia,BEEEATERS_MEROPIDAE,Green Bee-eater ssp viridissimus,,1,-2.13472367,15.13567598,Africa,Mali,ML,,Mali - Mopti,2009-01-28,
Hydroprogne caspia,Animalia,GULLS_TERNS_AND_SKIMMERS_LARIDAE,Caspian Tern,,1,-3.00865174,16.648275,Africa,Mali,ML,,Mali - Tombouctou,2009-01-27,
Hydroprogne caspia,Animalia,GULLS_TERNS_AND_SKIMMERS_LARIDAE,Caspian Tern,,1,-3.00865174,16.648275,Africa,Mali,ML,,Mali - Tombouctou,2009-01-27,
Gelochelidon nilotica nilotica,Animalia,GULLS_TERNS_AND_SKIMMERS_LARIDAE,Gull-billed Tern ssp nilotica,,1,-3.00865174,16.648275,Africa,Mali,ML,,Mali - Tombouctou,2009-01-27,
Columba guinea guinea,Animalia,PIGEONS_AND_DOVES_COLUMBIDAE,Speckled Pigeon ssp guinea,,1,-3.00959587,16.77132143,Africa,Mali,ML,,Mali - Tombouctou,2009-01-26,
Lagonosticta senegala senegala,Animalia,WAXBILLS_MUNIAS_ALLIES_ESTRILDIDAE,Red-billed Firefinch ssp senegala,,1,-3.00959587,16.77132143,Africa,Mali,ML,,Mali - Tombouctou,2009-01-26,
Lagonosticta senegala senegala,Animalia,WAXBILLS_MUNIAS_ALLIES_ESTRILDIDAE,Red-billed Firefinch ssp senegala,,1,-3.00959587,16.77132143,Africa,Mali,ML,,Mali - Tombouctou,2009-01-26,
Lagonosticta senegala senegala,Animalia,WAXBILLS_MUNIAS_ALLIES_ESTRILDIDAE,Red-billed Firefinch ssp senegala,,1,-3.00959587,16.77132143,Africa,Mali,ML,,Mali - Tombouctou,2009-01-26,
Passer griseus griseus,Animalia,OLD_WORLD_SPARROWS_PASSERIDAE,Northern Grey-headed Sparrow ssp griseus,,1,-3.00959587,16.77132143,Africa,Mali,ML,,Mali - Tombouctou,2009-01-26,
Corvus albus,Animalia,CROWS_AND_JAYS_CORVIDAE,Pied Crow,,1,-3.46160891,16.15726036,Africa,Mali,ML,,Mali - Tombouctou,2009-01-26,
Corvus albus,Animalia,CROWS_AND_JAYS_CORVIDAE,Pied Crow,,1,-3.46160891,16.15726036,Africa,Mali,ML,,Mali - Tombouctou,2009-01-26,
Actophilornis africanus,Animalia,JACANAS_JACANIDAE,African Jacana,,1,-3.46160891,16.15726036,Africa,Mali,ML,,Mali - Tombouctou,2009-01-26,
Ardeola ralloides,Animalia,HERONS_ARDEIDAE,Squacco Heron,,1,-3.46160891,16.15726036,Africa,Mali,ML,,Mali - Tombouctou,2009-01-26,
Ceryle rudis rudis,Animalia,KINGFISHERS_ALCEDINIDAE,Pied Kingfisher ssp rudis,,1,-3.46160891,16.15726036,Africa,Mali,ML,,Mali - Tombouctou,2009-01-26,
Ceryle rudis rudis,Animalia,KINGFISHERS_ALCEDINIDAE,Pied Kingfisher ssp rudis,,1,-3.46160891,16.15726036,Africa,Mali,ML,,Mali - Tombouctou,2009-01-26,
Ceryle rudis rudis,Animalia,KINGFISHERS_ALCEDINIDAE,Pied Kingfisher ssp rudis,,1,-3.46160891,16.15726036,Africa,Mali,ML,,Mali - Tombouctou,2009-01-26,
Egretta garzetta garzetta,Animalia,HERONS_ARDEIDAE,Little Egret ssp garzetta,,1,-3.46160891,16.15726036,Africa,Mali,ML,,Mali - Tombouctou,2009-01-26,
Microcarbo africanus africanus,Animalia,CORMORANTS_PHALACROCORACIDAE,Reed Cormorant ssp africanus,,1,-3.46160891,16.15726036,Africa,Mali,ML,,Mali - Tombouctou,2009-01-26,
Bubulcus ibis,Animalia,HERONS_ARDEIDAE,Western Cattle Egret,,1,-3.46160891,16.15726036,Africa,Mali,ML,,Mali - Tombouctou,2009-01-26,
Ardea cinerea cinerea,Animalia,HERONS_ARDEIDAE,Grey Heron ssp cinerea,,1,-3.46160891,16.15726036,Africa,Mali,ML,,Mali - Tombouctou,2009-01-26,
Corvus albus,Animalia,CROWS_AND_JAYS_CORVIDAE,Pied Crow,,1,-4.17297366,15.34440696,Africa,Mali,ML,,Mali - Mopti,2009-01-25,
Centropus senegalensis senegalensis,Animalia,CUCKOOS_AND_COUCALS_CUCULIDAE,Senegal Coucal ssp senegalensis,,1,-4.17297366,15.34440696,Africa,Mali,ML,,Mali - Mopti,2009-01-25,
Merops nubicus,Animalia,BEEEATERS_MEROPIDAE,Northern Carmine Bee-eater,,1,-4.17297366,15.34440696,Africa,Mali,ML,,Mali - Mopti,2009-01-25,
Ceryle rudis rudis,Animalia,KINGFISHERS_ALCEDINIDAE,Pied Kingfisher ssp rudis,,1,-4.17297366,15.34440696,Africa,Mali,ML,,Mali - Mopti,2009-01-25,
Ceryle rudis rudis,Animalia,KINGFISHERS_ALCEDINIDAE,Pied Kingfisher ssp rudis,,1,-4.17297366,15.34440696,Africa,Mali,ML,,Mali - Mopti,2009-01-25,
Himantopus himantopus,Animalia,STILTS_AND_AVOCETS_RECURVIROSTRIDAE,Black-winged Stilt,,1,-4.17297366,15.34440696,Africa,Mali,ML,,Mali - Mopti,2009-01-25,
Microcarbo africanus africanus,Animalia,CORMORANTS_PHALACROCORACIDAE,Reed Cormorant ssp africanus,,1,-4.17297366,15.34440696,Africa,Mali,ML,,Mali - Mopti,2009-01-25,
Bubulcus ibis,Animalia,HERONS_ARDEIDAE,Western Cattle Egret,,1,-4.17297366,15.34440696,Africa,Mali,ML,,Mali - Mopti,2009-01-25,
Merops nubicus,Animalia,BEEEATERS_MEROPIDAE,Northern Carmine Bee-eater,,1,-4.09606934,14.76485676,Africa,Mali,ML,,Mali - Mopti,2009-01-24,
Ceryle rudis rudis,Animalia,KINGFISHERS_ALCEDINIDAE,Pied Kingfisher ssp rudis,,1,-4.09606934,14.76485676,Africa,Mali,ML,,Mali - Mopti,2009-01-24,
Ceryle rudis rudis,Animalia,KINGFISHERS_ALCEDINIDAE,Pied Kingfisher ssp rudis,,1,-4.09606934,14.76485676,Africa,Mali,ML,,Mali - Mopti,2009-01-24,
Himantopus himantopus,Animalia,STILTS_AND_AVOCETS_RECURVIROSTRIDAE,Black-winged Stilt,,1,-4.09606934,14.76485676,Africa,Mali,ML,,Mali - Mopti,2009-01-24,
Himantopus himantopus,Animalia,STILTS_AND_AVOCETS_RECURVIROSTRIDAE,Black-winged Stilt,,1,-4.09606934,14.76485676,Africa,Mali,ML,,Mali - Mopti,2009-01-24,
Microcarbo africanus africanus,Animalia,CORMORANTS_PHALACROCORACIDAE,Reed Cormorant ssp africanus,,1,-4.09606934,14.76485676,Africa,Mali,ML,,Mali - Mopti,2009-01-24,
Coracias abyssinicus,Animalia,ROLLERS_CORACIIDAE,Abyssinian Roller,,1,-3.29502583,14.45535427,Africa,Mali,ML,,Mali - Mopti,2009-01-23,
Coracias abyssinicus,Animalia,ROLLERS_CORACIIDAE,Abyssinian Roller,,1,-3.32566738,14.42173232,Africa,Mali,ML,,Mali - Mopti,2009-01-22,
Emberiza goslingi,Animalia,BUNTINGS_EMBERIZIDAE,Gosling's Bunting,,1,-3.32566738,14.42173232,Africa,Mali,ML,,Mali - Mopti,2009-01-22,
Merops orientalis viridissimus,Animalia,BEEEATERS_MEROPIDAE,Green Bee-eater ssp viridissimus,,1,-3.53476167,14.18185389,Africa,Mali,ML,,Mali - Mopti,2009-01-20,
Coracias abyssinicus,Animalia,ROLLERS_CORACIIDAE,Abyssinian Roller,,1,-3.53476167,14.18185389,Africa,Mali,ML,,Mali - Mopti,2009-01-19,
Buphagus africanus africanus,Animalia,Buphagidae,Yellow-billed Oxpecker ssp africanus,,1,-3.56547833,14.16164635,Africa,Mali,ML,,Mali - Mopti,2009-01-18,
Himantopus himantopus,Animalia,STILTS_AND_AVOCETS_RECURVIROSTRIDAE,Black-winged Stilt,,1,-4.54957724,13.90906323,Africa,Mali,ML,,Mali - Mopti,2009-01-16,
Ptilostomus afer,Animalia,CROWS_AND_JAYS_CORVIDAE,Piapiac,,1,-4.54957724,13.90906323,Africa,Mali,ML,,Mali - Mopti,2009-01-16,
Vanellus spinosus,Animalia,PLOVERS_CHARADRIIDAE,Spur-winged Lapwing,,1,-4.54957724,13.90906323,Africa,Mali,ML,,Mali - Mopti,2009-01-16,
Actophilornis africanus,Animalia,JACANAS_JACANIDAE,African Jacana,,1,-4.54957724,13.90906323,Africa,Mali,ML,,Mali - Mopti,2009-01-16,
Actophilornis africanus,Animalia,JACANAS_JACANIDAE,African Jacana,,1,-4.54957724,13.90906323,Africa,Mali,ML,,Mali - Mopti,2009-01-16,
Passer griseus griseus,Animalia,OLD_WORLD_SPARROWS_PASSERIDAE,Northern Grey-headed Sparrow ssp griseus,,1,-4.54957724,13.90906323,Africa,Mali,ML,,Mali - Mopti,2009-01-16,
Spilopelia senegalensis senegalensis,Animalia,PIGEONS_AND_DOVES_COLUMBIDAE,Laughing Dove ssp senegalensis,,1,-4.54957724,13.90906323,Africa,Mali,ML,,Mali - Mopti,2009-01-16,
Spilopelia senegalensis senegalensis,Animalia,PIGEONS_AND_DOVES_COLUMBIDAE,Laughing Dove ssp senegalensis,,1,-4.54957724,13.90906323,Africa,Mali,ML,,Mali - Mopti,2009-01-16,
Columba guinea guinea,Animalia,PIGEONS_AND_DOVES_COLUMBIDAE,Speckled Pigeon ssp guinea,,1,-4.54957724,13.90906323,Africa,Mali,ML,,Mali - Mopti,2009-01-16,
Columba guinea guinea,Animalia,PIGEONS_AND_DOVES_COLUMBIDAE,Speckled Pigeon ssp guinea,,1,-4.54957724,13.90906323,Africa,Mali,ML,,Mali - Mopti,2009-01-16,
Lagonosticta senegala senegala,Animalia,WAXBILLS_MUNIAS_ALLIES_ESTRILDIDAE,Red-billed Firefinch ssp senegala,,1,-4.54957724,13.90906323,Africa,Mali,ML,,Mali - Mopti,2009-01-16,
Ceryle rudis rudis,Animalia,KINGFISHERS_ALCEDINIDAE,Pied Kingfisher ssp rudis,,1,-4.54957724,13.90906323,Africa,Mali,ML,,Mali - Mopti,2009-01-16,
Pluvianus aegyptius,Animalia,Pluvianidae,Egyptian Plover,,1,-4.54957724,13.90906323,Africa,Mali,ML,,Mali - Mopti,2009-01-16,
Pluvianus aegyptius,Animalia,Pluvianidae,Egyptian Plover,,1,-4.54957724,13.90906323,Africa,Mali,ML,,Mali - Mopti,2009-01-16,
Lagonosticta senegala senegala,Animalia,WAXBILLS_MUNIAS_ALLIES_ESTRILDIDAE,Red-billed Firefinch ssp senegala,,1,-6.28460169,13.43872092,Africa,Mali,ML,,Mali - Ségou,2009-01-14,
Pluvianus aegyptius,Animalia,Pluvianidae,Egyptian Plover,,1,-6.35409594,13.39767489,Africa,Mali,ML,,Mali - Ségou,2009-01-14,
Ceryle rudis rudis,Animalia,KINGFISHERS_ALCEDINIDAE,Pied Kingfisher ssp rudis,,1,-6.35409594,13.39767489,Africa,Mali,ML,,Mali - Ségou,2009-01-14,
Spilopelia senegalensis senegalensis,Animalia,PIGEONS_AND_DOVES_COLUMBIDAE,Laughing Dove ssp senegalensis,,1,-6.35409594,13.39767489,Africa,Mali,ML,,Mali - Ségou,2009-01-14,
Dicrurus divaricatus divaricatus,Animalia,DRONGOS_DICRURIDAE,Glossy-backed Drongo ssp divaricatus,,1,-6.25250816,13.40030705,Africa,Mali,ML,,Mali - Ségou,1989-07-12,
Dicrurus divaricatus divaricatus,Animalia,DRONGOS_DICRURIDAE,Glossy-backed Drongo ssp divaricatus,,1,-6.26054707,13.42249871,Africa,Mali,ML,,Mali - Ségou,1989-03-09,
Emberiza goslingi,Animalia,BUNTINGS_EMBERIZIDAE,Gosling's Bunting,,1,-11.03668216,14.54432881,Africa,Mali,ML,,Mali - Kayes,2006-11-01,
Lamprotornis chalybaeus,Animalia,STARLINGS_STURNIDAE,Greater Blue-eared Starling,,1,-11.66015626,14.55050989,Africa,Mali,ML,,Mali - Kayes,2006-10-30,
Vidua chalybeata,Animalia,INDIGOBIRDS_AND_WHYDAHS_VIDUIDAE,Village Indigobird,,1,-11.46521866,14.45757097,Africa,Mali,ML,,Mali - Kayes,2006-10-30,
Lophoceros nasutus,Animalia,HORNBILLS_BUCEROTIDAE,African Grey Hornbill,,1,-11.64201737,14.53797033,Africa,Mali,ML,,Mali - Kayes,2006-10-30,
Centropus senegalensis,Animalia,CUCKOOS_AND_COUCALS_CUCULIDAE,Senegal Coucal,,1,-11.46530271,14.45803051,Africa,Mali,ML,,Mali - Kayes,2006-10-30,
Crinifer piscator,Animalia,TURACOS_MUSOPHAGIDAE,Western Plantain-eater,,1,-11.46530271,14.45803051,Africa,Mali,ML,,Mali - Kayes,2006-10-30,
Vanellus spinosus,Animalia,PLOVERS_CHARADRIIDAE,Spur-winged Lapwing,,1,-11.71325689,14.56355824,Africa,Mali,ML,,Mali - Kayes,2006-10-30,
Elanus caeruleus,Animalia,HAWKS_AND_EAGLES_ACCIPITRIDAE,Black-winged Kite,,1,-11.71325689,14.56355824,Africa,Mali,ML,,Mali - Kayes,2006-10-30,
Bubulcus ibis,Animalia,HERONS_ARDEIDAE,Western Cattle Egret,,1,-11.71325689,14.56355824,Africa,Mali,ML,,Mali - Kayes,2006-10-30,
Tockus kempi,Animalia,HORNBILLS_BUCEROTIDAE,Western Red-billed Hornbill,,1,-12.04559332,14.52456595,Africa,Mali,ML,,Mali - Kayes,2006-10-29,
Coracias abyssinicus,Animalia,ROLLERS_CORACIIDAE,Abyssinian Roller,,1,-12.04559332,14.52456595,Africa,Mali,ML,,Mali - Kayes,2006-10-29,
Emberiza goslingi,Animalia,BUNTINGS_EMBERIZIDAE,Gosling's Bunting,,1,-5.1928624,12.2054015,Africa,Mali,ML,,Mali - Sikasso,2015-10-07,16:54
Elanus caeruleus,Animalia,HAWKS_AND_EAGLES_ACCIPITRIDAE,Black-winged Kite,,1,-4.16931152344,14.4985081494,Africa,Mali,ML,,Mali - Mopti,2008-06-01,
Milvus aegyptius,Animalia,HAWKS_AND_EAGLES_ACCIPITRIDAE,Yellow-billed Kite,,1,-4.16931152344,14.4985081494,Africa,Mali,ML,,Mali - Mopti,2008-06-01,
Ardeola ralloides,Animalia,HERONS_ARDEIDAE,Squacco Heron,,1,-4.2008972168,14.5623177019,Africa,Mali,ML,,Mali - Mopti,2008-06-01,
