scientificName,kingdom,family,vernacularName,previousIdentifications,individualCount,longitudeDecimal,latitudeDecimal,continent,country,countryCode,stateProvince,locality,eventDate,eventTime
Zosterops mauritianus,Animalia,WHITEEYES_ZOSTEROPIDAE,Mauritius Grey White-eye,,1,57.522354126,-20.1036544579,Africa,Mauritius,MU,,Mauritius,2014-11-09,
Nesoenas picturatus,Animalia,PIGEONS_AND_DOVES_COLUMBIDAE,Malagasy Turtle Dove,,1,57.5717926025,-20.0069031468,Africa,Mauritius,MU,,Mauritius,2014-11-07,
Hypsipetes olivaceus,Animalia,BULBULS_PYCNONOTIDAE,Mauritius Bulbul,,1,57.4069976807,-20.4456722413,Africa,Mauritius,MU,,Mauritius,2014-11-03,
Herpestes auropunctatus,Animalia,MONGOOSES_HERPESTIDAE,Small Indian Mongoose,,1,57.4069976807,-20.4456722413,Africa,Mauritius,MU,,Mauritius,2014-11-03,
Butorides striata,Animalia,HERONS_ARDEIDAE,Striated Heron,,1,57.5794744492,-20.1063948755,Africa,Mauritius,MU,,Mauritius,2014-07-22,
Geopelia striata,Animalia,PIGEONS_AND_DOVES_COLUMBIDAE,Zebra Dove,,4,57.5794744492,-20.1063948755,Africa,Mauritius,MU,,Mauritius,2014-07-22,
Zosterops mauritianus,Animalia,WHITEEYES_ZOSTEROPIDAE,Mauritius Grey White-eye,,8,57.5794744492,-20.1063948755,Africa,Mauritius,MU,,Mauritius,2014-07-22,
Nesoenas picturatus,Animalia,PIGEONS_AND_DOVES_COLUMBIDAE,Malagasy Turtle Dove,,6,57.5794744492,-20.1063948755,Africa,Mauritius,MU,,Mauritius,2014-07-22,
Gallinula chloropus,Animalia,RAILS_RALLIDAE,Common Moorhen,,3,57.5794744492,-20.1063948755,Africa,Mauritius,MU,,Mauritius,2014-07-22,
Pycnonotus jocosus,Animalia,BULBULS_PYCNONOTIDAE,Red-whiskered Bulbul,,2,57.7875160205,-20.2870659272,Africa,Mauritius,MU,,Mauritius,2014-07-24,
Aves indet.,Animalia,unknown,Unidentified bird,,1,57.583768180854435,-20.252641677856445,Africa,Mauritius,MU,,Mauritius,2014-07-24,
Geopelia striata,Animalia,PIGEONS_AND_DOVES_COLUMBIDAE,Zebra Dove,,2,57.7755761147,-20.2704501313,Africa,Mauritius,MU,,Mauritius,2014-07-24,
Passer domesticus,Animalia,OLD_WORLD_SPARROWS_PASSERIDAE,House Sparrow,,20,57.7845025063,-20.2865522953,Africa,Mauritius,MU,,Mauritius,2014-07-24,
Ploceus cucullatus,Animalia,WEAVERS_PLOCEIDAE,Village Weaver,,5,57.7906823159,-20.2743148031,Africa,Mauritius,MU,,Mauritius,2014-07-24,
Phelsuma ornata,Animalia,Gekkonidae,Ornate Day Gecko,,2,57.7868199348,-20.2930128185,Africa,Mauritius,MU,,Mauritius,2014-07-19,
Geopelia striata,Animalia,PIGEONS_AND_DOVES_COLUMBIDAE,Zebra Dove,,2,57.7869486808,-20.2929323151,Africa,Mauritius,MU,,Mauritius,2014-07-19,
Acridotheres tristis,Animalia,STARLINGS_STURNIDAE,Common Myna,,2,57.7868199348,-20.2929323151,Africa,Mauritius,MU,,Mauritius,2014-07-19,
Pycnonotus jocosus,Animalia,BULBULS_PYCNONOTIDAE,Red-whiskered Bulbul,,4,57.7867341041,-20.2928518118,Africa,Mauritius,MU,,Mauritius,2014-07-19,
Passer domesticus,Animalia,OLD_WORLD_SPARROWS_PASSERIDAE,House Sparrow,,3,57.7876782417,-20.2928518118,Africa,Mauritius,MU,,Mauritius,2014-07-19,
Nesoenas mayeri,Animalia,PIGEONS_AND_DOVES_COLUMBIDAE,Pink Pigeon,,2,57.7297210694,-20.4189692596,Africa,Mauritius,MU,,Mauritius,2014-07-20,
Zosterops chloronothos,Animalia,WHITEEYES_ZOSTEROPIDAE,Mauritius Olive White-eye,,1,57.7304077149,-20.4196127595,Africa,Mauritius,MU,,Mauritius,2014-07-20,
Foudia rubra,Animalia,WEAVERS_PLOCEIDAE,Mauritius Fody,,6,57.7304077149,-20.4189692596,Africa,Mauritius,MU,,Mauritius,2014-07-20,
Acridotheres tristis,Animalia,STARLINGS_STURNIDAE,Common Myna,,2,57.4933862686,-20.418164881,Africa,Mauritius,MU,,Mauritius,2014-07-16,
Spilopelia chinensis,Animalia,PIGEONS_AND_DOVES_COLUMBIDAE,Spotted Dove,,1,57.4933862686,-20.418164881,Africa,Mauritius,MU,,Mauritius,2014-07-16,
Macaca fascicularis,Animalia,OLD_WORLD_MONKEYS_CERCOPITHECIDAE,Long-tailed Macaque,,3,57.4533462524,-20.4258867419,Africa,Mauritius,MU,,Mauritius - Black River Gorges NP,2014-07-16,
Pycnonotus jocosus,Animalia,BULBULS_PYCNONOTIDAE,Red-whiskered Bulbul,,1,57.3668289185,-20.4508192709,Africa,Mauritius,MU,,Mauritius,2014-07-16,
Pycnonotus jocosus,Animalia,BULBULS_PYCNONOTIDAE,Red-whiskered Bulbul,,1,57.7868413925,-20.2927511826,Africa,Mauritius,MU,,Mauritius,2014-07-15,
Acridotheres tristis,Animalia,STARLINGS_STURNIDAE,Common Myna,,6,57.7870130538,-20.2927914343,Africa,Mauritius,MU,,Mauritius,2014-07-15,
Passer domesticus,Animalia,OLD_WORLD_SPARROWS_PASSERIDAE,House Sparrow,,4,57.7866697311,-20.2926304275,Africa,Mauritius,MU,,Mauritius,2014-07-15,
Phelsuma ornata,Animalia,Gekkonidae,Ornate Day Gecko,,2,57.7866268158,-20.292952441,Africa,Mauritius,MU,,Mauritius,2014-07-14,
Pycnonotus jocosus,Animalia,BULBULS_PYCNONOTIDAE,Red-whiskered Bulbul,,2,57.7876138687,-20.2907989623,Africa,Mauritius,MU,,Mauritius,2014-07-14,
Acridotheres tristis,Animalia,STARLINGS_STURNIDAE,Common Myna,,6,57.7867984771,-20.2928115601,Africa,Mauritius,MU,,Mauritius,2014-07-14,
Passer domesticus,Animalia,OLD_WORLD_SPARROWS_PASSERIDAE,House Sparrow,,8,57.7864551544,-20.2922480354,Africa,Mauritius,MU,,Mauritius,2014-07-14,
Trithemis annulata,Animalia,SKIMMERS_LIBELLULIDAE,Violet Dropwing,,1,57.5802254677,-20.1093971898,Africa,Mauritius,MU,,Mauritius,2014-01-19,
Danaus chrysippus,Animalia,BRUSHFOOTED_BUTTERFLIES_NYMPHALIDAE,African Monarch,,1,57.4504709244,-20.4000250278,Africa,Mauritius,MU,,Mauritius - Gorges du Rivière Noire NP,2014-01-20,
Monetaria moneta,Animalia,CYPRAEIDAE,Nodular Money Cowry,,12,57.55255938,-20.0217523,Africa,Mauritius,MU,,Mauritius,1989-08-15,
Monetaria annulus,Animalia,CYPRAEIDAE,Ring cowrie,,10,57.549763,-20.024819,Africa,Mauritius,MU,,Mauritius,1989-08-14,
Cypraea tigris,Animalia,CYPRAEIDAE,Tiger cowrie,,1,57.549763,-20.024819,Africa,Mauritius,MU,,Mauritius,1989-08-15,
Phalanta phalantha,Animalia,BRUSHFOOTED_BUTTERFLIES_NYMPHALIDAE,Common Leopard,,1,57.581523656845,-20.018516451702,Africa,Mauritius,MU,,Mauritius,2009-04-25,
Ploceus cucullatus,Animalia,WEAVERS_PLOCEIDAE,Village Weaver,,1,57.580606341362,-20.017871290592,Africa,Mauritius,MU,,Mauritius,2009-05-02,
Spilopelia chinensis,Animalia,PIGEONS_AND_DOVES_COLUMBIDAE,Spotted Dove,,1,57.712898254395,-20.415751720008,Africa,Mauritius,MU,,Mauritius,2004-10-09,
Foudia madagascariensis,Animalia,WEAVERS_PLOCEIDAE,Red Fody,,1,57.552019357681,-20.004856616247,Africa,Mauritius,MU,,Mauritius,2012-12-16,
Junonia rhadama,Animalia,BRUSHFOOTED_BUTTERFLIES_NYMPHALIDAE,Brilliant blue,,1,57.554688155651,-20.005728663321,Africa,Mauritius,MU,,Mauritius,2012-12-16,
Eurypegasus draconis,Animalia,Seamoths,Short dragonfish,,1,57.516658,-20.015728,Africa,Mauritius,MU,,Mauritius,1989-11-30,
Zosterops mauritianus,Animalia,WHITEEYES_ZOSTEROPIDAE,Mauritius Grey White-eye,,1,57.4420955237,-20.4193348082,Africa,Mauritius,MU,,Mauritius - Black River Gorges NP,2012-10-07,
Phaethon lepturus,Animalia,TROPICBIRDS_PHAETHONTIDAE,White-tailed Tropicbird,,7,57.4313735962,-20.416716989,Africa,Mauritius,MU,,Mauritius - Black River Gorges NP,2012-10-07,
Macaca fascicularis,Animalia,OLD_WORLD_MONKEYS_CERCOPITHECIDAE,Long-tailed Macaque,,1,57.4933433533,-20.4200350548,Africa,Mauritius,MU,,Mauritius,2012-10-07,
Corvus splendens,Animalia,CROWS_AND_JAYS_CORVIDAE,House Crow,,1,57.52,-20.13,Africa,Mauritius,MU,,Mauritius,2012-10-01,
Geopelia striata,Animalia,PIGEONS_AND_DOVES_COLUMBIDAE,Zebra Dove,,1,57.650756836,-20.0352897114,Africa,Mauritius,MU,,Mauritius,2012-10-01,
Aerodramus francicus,Animalia,SWIFTS_APODIDAE,Mascarene Swiftlet,,1,57.650756836,-20.0352897114,Africa,Mauritius,MU,,Mauritius,2012-10-02,
Numenius phaeopus,Animalia,SANDPIPERS_AND_ALLIES_SCOLOPACIDAE,Eurasian Whimbrel,,5,57.650756836,-20.0352897114,Africa,Mauritius,MU,,Mauritius,2012-10-02,
Nesoenas picturatus,Animalia,PIGEONS_AND_DOVES_COLUMBIDAE,Malagasy Turtle Dove,,1,57.6578807831,-20.0063385894,Africa,Mauritius,MU,,Mauritius,2012-10-03,
Butorides striata,Animalia,HERONS_ARDEIDAE,Striated Heron,,1,57.6574516297,-20.0053707718,Africa,Mauritius,MU,,Mauritius,2012-10-03,
Pycnonotus jocosus,Animalia,BULBULS_PYCNONOTIDAE,Red-whiskered Bulbul,,1,57.6837158203,-20.0094839554,Africa,Mauritius,MU,,Mauritius,2012-10-01,12:00
Foudia madagascariensis,Animalia,WEAVERS_PLOCEIDAE,Red Fody,,1,57.6597154141,-20.0016405859,Africa,Mauritius,MU,,Mauritius,2012-10-01,12:00
Passer domesticus,Animalia,OLD_WORLD_SPARROWS_PASSERIDAE,House Sparrow,,1,57.6597154141,-20.0016405859,Africa,Mauritius,MU,,Mauritius,2012-10-01,12:00
Acridotheres tristis,Animalia,STARLINGS_STURNIDAE,Common Myna,,1,57.6597154141,-20.0016405859,Africa,Mauritius,MU,,Mauritius,2012-10-01,12:00
Ploceus cucullatus,Animalia,WEAVERS_PLOCEIDAE,Village Weaver,,1,57.6597154141,-20.0016405859,Africa,Mauritius,MU,,Mauritius,2012-10-01,12:00
Crithagra mozambica,Animalia,FINCHES_FRINGILLIDAE,Yellow-fronted Canary,,1,57.6596295834,-20.0018018931,Africa,Mauritius,MU,,Mauritius,2012-10-01,12:00
Nesoenas picturatus,Animalia,PIGEONS_AND_DOVES_COLUMBIDAE,Malagasy Turtle Dove,,1,57.5227470398,-20.4617587046,Africa,Mauritius,MU,,Mauritius,2009-05-06,
Butorides striata,Animalia,HERONS_ARDEIDAE,Striated Heron,,1,57.583768180854435,-20.252641677856445,Africa,Mauritius,MU,,Mauritius,2009-05-06,
Gallinula chloropus,Animalia,RAILS_RALLIDAE,Common Moorhen,,1,57.3750686646,-20.4855572091,Africa,Mauritius,MU,,Mauritius,2009-05-06,
Acridotheres tristis,Animalia,STARLINGS_STURNIDAE,Common Myna,,1,57.3750686646,-20.4852355976,Africa,Mauritius,MU,,Mauritius,2009-05-02,
Pycnonotus jocosus,Animalia,BULBULS_PYCNONOTIDAE,Red-whiskered Bulbul,,1,57.3747253418,-20.4823410637,Africa,Mauritius,MU,,Mauritius,2009-05-09,
Nesoenas mayeri,Animalia,PIGEONS_AND_DOVES_COLUMBIDAE,Pink Pigeon,,1,57.7314913273,-20.4196127594,Africa,Mauritius,MU,,Mauritius,2010-04-10,12:08
Ploceus cucullatus,Animalia,WEAVERS_PLOCEIDAE,Village Weaver,,1,57.5539398193,-20.004322296,Africa,Mauritius,MU,,Mauritius,2009-05-08,
Geopelia striata,Animalia,PIGEONS_AND_DOVES_COLUMBIDAE,Zebra Dove,,6,57.86847599,-20.1700678,Africa,Mauritius,MU,,Mauritius,2009-05-05,
Butorides striata,Animalia,HERONS_ARDEIDAE,Striated Heron,,1,57.584376414443,-19.997882031911,Africa,Mauritius,MU,,Mauritius,2009-05-05,
Falco punctatus,Animalia,CARACAS_AND_FALCONS_FALCONIDAE,Mauritius Kestrel,,1,57.3692321777,-20.428299744,Africa,Mauritius,MU,,Mauritius,2004-08-21,
Pseudobulweria aterrima,Animalia,PETRELS_AND_SHEARWATERS_PROCELLARIIDAE,Mascarene Petrel,,1,57.6123046875,-19.98044742,Africa,Mauritius,MU,,Mauritius,2004-09-10,
Nesoenas mayeri,Animalia,PIGEONS_AND_DOVES_COLUMBIDAE,Pink Pigeon,,1,57.7331542969,-20.4207388777,Africa,Mauritius,MU,,Mauritius,2004-09-10,
Thalassarche salvini,Animalia,ALBATROSSES_DIOMEDEIDAE,Salvin's Albatross,,1,57.3709487915,-20.4910647015,Africa,Mauritius,MU,,Mauritius,2004-09-09,
Lalage typica,Animalia,CUCKOOSHRIKES_CAMPEPHAGIDAE,Mauritius Cuckooshrike,,1,57.4808120728,-20.4265704297,Africa,Mauritius,MU,,Mauritius,2004-09-09,
Psittacula echo,Animalia,PSITTACULIDAE,Mauritius Parakeet,,1,57.4808120728,-20.4265704297,Africa,Mauritius,MU,,Mauritius,2004-09-09,
Zosterops chloronothos,Animalia,WHITEEYES_ZOSTEROPIDAE,Mauritius Olive White-eye,,1,57.4770355225,-20.4545990109,Africa,Mauritius,MU,,Mauritius,2004-09-09,
Foudia rubra,Animalia,WEAVERS_PLOCEIDAE,Mauritius Fody,,2,57.4770355225,-20.4545990109,Africa,Mauritius,MU,,Mauritius,2004-09-09,
Nesoenas mayeri,Animalia,PIGEONS_AND_DOVES_COLUMBIDAE,Pink Pigeon,,3,57.4770355225,-20.4545990109,Africa,Mauritius,MU,,Mauritius,2004-09-09,
Hypsipetes olivaceus,Animalia,BULBULS_PYCNONOTIDAE,Mauritius Bulbul,,1,57.4770355225,-20.4545990109,Africa,Mauritius,MU,,Mauritius,2004-09-09,
Falco punctatus,Animalia,CARACAS_AND_FALCONS_FALCONIDAE,Mauritius Kestrel,,1,57.70578861,-20.3624729,Africa,Mauritius,MU,,Mauritius,2019-11-10,
Falco punctatus,Animalia,CARACAS_AND_FALCONS_FALCONIDAE,Mauritius Kestrel,,1,57.70255744,-20.3407818,Africa,Mauritius,MU,,Mauritius,2019-11-10,
Phaethon lepturus,Animalia,TROPICBIRDS_PHAETHONTIDAE,White-tailed Tropicbird,,40,57.66489029,-19.88031643,Africa,Mauritius,MU,,Mauritius - Île Plate,2019-11-11,
Zanclus cornutus,Animalia,Zanclidae,Moorish idol,,20,57.5402159616351,-20.0386363999818,Africa,Mauritius,MU,,Mauritius,2019-11-06,16:02
Foudia madagascariensis,Animalia,WEAVERS_PLOCEIDAE,Red Fody,,5,57.5416564941406,-20.0416584014893,Africa,Mauritius,MU,,Mauritius,2019-11-06,18:40
Butorides striata,Animalia,HERONS_ARDEIDAE,Striated Heron,,1,57.580183558166,-20.1072676179248,Africa,Mauritius,MU,,Mauritius,2019-11-06,18:56
Nesoenas picturatus,Animalia,PIGEONS_AND_DOVES_COLUMBIDAE,Malagasy Turtle Dove,,20,57.580183558166,-20.1072676179248,Africa,Mauritius,MU,,Mauritius,2019-11-06,19:00
Geopelia striata,Animalia,PIGEONS_AND_DOVES_COLUMBIDAE,Zebra Dove,,6,57.580183558166,-20.1072676179248,Africa,Mauritius,MU,,Mauritius,2019-11-06,19:00
Acridotheres tristis,Animalia,STARLINGS_STURNIDAE,Common Myna,,40,57.580183558166,-20.1072676179248,Africa,Mauritius,MU,,Mauritius,2019-11-06,19:05
Ploceus cucullatus,Animalia,WEAVERS_PLOCEIDAE,Village Weaver,,10,57.5446811690927,-20.038164245595,Africa,Mauritius,MU,,Mauritius,2019-11-06,19:06
Foudia madagascariensis,Animalia,WEAVERS_PLOCEIDAE,Red Fody,,6,57.5446811690927,-20.038164245595,Africa,Mauritius,MU,,Mauritius,2019-11-06,19:06
Geopelia striata,Animalia,PIGEONS_AND_DOVES_COLUMBIDAE,Zebra Dove,,6,57.5446811690927,-20.038164245595,Africa,Mauritius,MU,,Mauritius,2019-11-06,19:07
Acridotheres tristis,Animalia,STARLINGS_STURNIDAE,Common Myna,,20,57.5446811690927,-20.038164245595,Africa,Mauritius,MU,,Mauritius,2019-11-06,19:07
Pycnonotus jocosus,Animalia,BULBULS_PYCNONOTIDAE,Red-whiskered Bulbul,,3,57.3799362033606,-20.3252827821931,Africa,Mauritius,MU,,Mauritius,2019-11-07,18:48
Numenius phaeopus,Animalia,SANDPIPERS_AND_ALLIES_SCOLOPACIDAE,Eurasian Whimbrel,,1,57.3683815822005,-20.404264806519,Africa,Mauritius,MU,,Mauritius,2019-11-07,18:48
Numenius phaeopus,Animalia,SANDPIPERS_AND_ALLIES_SCOLOPACIDAE,Eurasian Whimbrel,,1,57.3687312752008,-20.402263087418,Africa,Mauritius,MU,,Mauritius,2019-11-07,18:49
Charadrius leschenaultii,Animalia,PLOVERS_CHARADRIIDAE,Greater Sand Plover,,1,57.3687312752008,-20.402263087418,Africa,Mauritius,MU,,Mauritius,2019-11-07,18:50
Pycnonotus jocosus,Animalia,BULBULS_PYCNONOTIDAE,Red-whiskered Bulbul,,4,57.3860905319452,-20.4223058148033,Africa,Mauritius,MU,,Mauritius,2019-11-07,18:50
Pycnonotus jocosus,Animalia,BULBULS_PYCNONOTIDAE,Red-whiskered Bulbul,,2,57.3862343654036,-20.4224635445048,Africa,Mauritius,MU,,Mauritius,2019-11-07,18:51
Zosterops mauritianus,Animalia,WHITEEYES_ZOSTEROPIDAE,Mauritius Grey White-eye,,7,57.4234691262245,-20.4225750863276,Africa,Mauritius,MU,,Mauritius - Gorges du Rivière Noire NP,2019-11-07,18:56
Psittacula krameri,Animalia,PSITTACULIDAE,Rose-ringed Parakeet,,1,57.4234691262245,-20.4225750863276,Africa,Mauritius,MU,,Mauritius - Gorges du Rivière Noire NP,2019-11-07,18:56
Pycnonotus jocosus,Animalia,BULBULS_PYCNONOTIDAE,Red-whiskered Bulbul,,10,57.4234691262245,-20.4225750863276,Africa,Mauritius,MU,,Mauritius - Gorges du Rivière Noire NP,2019-11-07,18:57
Pycnonotus jocosus,Animalia,BULBULS_PYCNONOTIDAE,Red-whiskered Bulbul,,10,57.4297092854977,-20.4230460747102,Africa,Mauritius,MU,,Mauritius - Gorges du Rivière Noire NP,2019-11-07,18:58
Zosterops mauritianus,Animalia,WHITEEYES_ZOSTEROPIDAE,Mauritius Grey White-eye,,6,57.4297092854977,-20.4230460747102,Africa,Mauritius,MU,,Mauritius - Gorges du Rivière Noire NP,2019-11-07,18:58
Psittacula krameri,Animalia,PSITTACULIDAE,Rose-ringed Parakeet,,1,57.4301816895604,-20.4214920275198,Africa,Mauritius,MU,,Mauritius - Gorges du Rivière Noire NP,2019-11-07,18:59
Psittacula krameri,Animalia,PSITTACULIDAE,Rose-ringed Parakeet,,1,57.4302390217781,-20.421572463829,Africa,Mauritius,MU,,Mauritius - Gorges du Rivière Noire NP,2019-11-07,19:01
Phaethon lepturus,Animalia,TROPICBIRDS_PHAETHONTIDAE,White-tailed Tropicbird,,1,57.4302390217781,-20.421572463829,Africa,Mauritius,MU,,Mauritius - Gorges du Rivière Noire NP,2019-11-07,19:01
Foudia madagascariensis,Animalia,WEAVERS_PLOCEIDAE,Red Fody,,2,57.4564723670483,-20.4320498762316,Africa,Mauritius,MU,,Mauritius - Gorges du Rivière Noire NP,2019-11-07,19:02
Spilopelia chinensis,Animalia,PIGEONS_AND_DOVES_COLUMBIDAE,Spotted Dove,,2,57.4564723670483,-20.4320498762316,Africa,Mauritius,MU,,Mauritius - Gorges du Rivière Noire NP,2019-11-07,19:03
Hypsipetes olivaceus,Animalia,BULBULS_PYCNONOTIDAE,Mauritius Bulbul,,2,57.4573239684105,-20.4341319519046,Africa,Mauritius,MU,,Mauritius - Gorges du Rivière Noire NP,2019-11-07,19:05
Zosterops mauritianus,Animalia,WHITEEYES_ZOSTEROPIDAE,Mauritius Grey White-eye,,6,57.4573239684105,-20.4341319519046,Africa,Mauritius,MU,,Mauritius - Gorges du Rivière Noire NP,2019-11-07,19:05
Nesoenas mayeri,Animalia,PIGEONS_AND_DOVES_COLUMBIDAE,Pink Pigeon,,1,57.472386918962,-20.4080767996325,Africa,Mauritius,MU,,Mauritius,2019-11-07,19:06
Phedina borbonica,Animalia,SWALLOWS_HIRUNDINIDAE,Mascarene Martin,,6,57.3701441287995,-20.3860698893248,Africa,Mauritius,MU,,Mauritius,2019-11-07,19:08
Macaca fascicularis,Animalia,OLD_WORLD_MONKEYS_CERCOPITHECIDAE,Long-tailed Macaque,,10,57.4587737023831,-20.4294741836364,Africa,Mauritius,MU,,Mauritius - Gorges du Rivière Noire NP,2019-11-07,19:09
Francolinus pondicerianus,Animalia,FRANCOLINS_QUAILS_PARTRIDGES_AND_PHEASANTS_PHASIANIDAE,Grey Francolin,,1,57.3689052835107,-20.3855503890983,Africa,Mauritius,MU,,Mauritius,2019-11-07,19:18
Pycnonotus jocosus,Animalia,BULBULS_PYCNONOTIDAE,Red-whiskered Bulbul,,7,57.4208978936076,-20.3831043460577,Africa,Mauritius,MU,,Mauritius - Gorges du Rivière Noire NP,2019-11-08,18:58
Nesoenas mayeri,Animalia,PIGEONS_AND_DOVES_COLUMBIDAE,Pink Pigeon,,1,57.4208978936076,-20.3831043460577,Africa,Mauritius,MU,,Mauritius - Gorges du Rivière Noire NP,2019-11-08,18:59
Zosterops mauritianus,Animalia,WHITEEYES_ZOSTEROPIDAE,Mauritius Grey White-eye,,10,57.4208978936076,-20.3831043460577,Africa,Mauritius,MU,,Mauritius - Gorges du Rivière Noire NP,2019-11-08,18:59
Acridotheres tristis,Animalia,STARLINGS_STURNIDAE,Common Myna,,10,57.4208978936076,-20.3831043460577,Africa,Mauritius,MU,,Mauritius - Gorges du Rivière Noire NP,2019-11-08,19:00
Psittacula eques,Animalia,PSITTACULIDAE,Echo Parakeet,,5,57.4406379461288,-20.3934860120221,Africa,Mauritius,MU,,Mauritius - Gorges du Rivière Noire NP,2019-11-08,19:02
Pycnonotus jocosus,Animalia,BULBULS_PYCNONOTIDAE,Red-whiskered Bulbul,,7,57.4406379461288,-20.3934860120221,Africa,Mauritius,MU,,Mauritius - Gorges du Rivière Noire NP,2019-11-08,19:03
Zosterops mauritianus,Animalia,WHITEEYES_ZOSTEROPIDAE,Mauritius Grey White-eye,,6,57.4406379461288,-20.3934860120221,Africa,Mauritius,MU,,Mauritius - Gorges du Rivière Noire NP,2019-11-08,19:03
Phaethon lepturus,Animalia,TROPICBIRDS_PHAETHONTIDAE,White-tailed Tropicbird,,7,57.4406379461288,-20.3934860120221,Africa,Mauritius,MU,,Mauritius - Gorges du Rivière Noire NP,2019-11-08,19:04
Psittacula eques,Animalia,PSITTACULIDAE,Echo Parakeet,,1,57.4318486824632,-20.3903364504878,Africa,Mauritius,MU,,Mauritius - Gorges du Rivière Noire NP,2019-11-08,19:05
Psittacula krameri,Animalia,PSITTACULIDAE,Rose-ringed Parakeet,,2,57.4244437739253,-20.3868439508435,Africa,Mauritius,MU,,Mauritius - Gorges du Rivière Noire NP,2019-11-08,19:05
Geopelia striata,Animalia,PIGEONS_AND_DOVES_COLUMBIDAE,Zebra Dove,,2,57.4208268150687,-20.3830477751569,Africa,Mauritius,MU,,Mauritius - Gorges du Rivière Noire NP,2019-11-08,19:06
Crithagra mozambica,Animalia,FINCHES_FRINGILLIDAE,Yellow-fronted Canary,,3,57.3538064584136,-20.4825499267039,Africa,Mauritius,MU,,Mauritius,2019-11-08,19:08
Phedina borbonica,Animalia,SWALLOWS_HIRUNDINIDAE,Mascarene Martin,,5,57.392398416996,-20.499705563475,Africa,Mauritius,MU,,Mauritius,2019-11-08,19:09
Butorides striata,Animalia,HERONS_ARDEIDAE,Striated Heron,,1,57.5660727918148,-20.165452993408,Africa,Mauritius,MU,,Mauritius,2019-11-08,19:12
Zanclus cornutus,Animalia,Zanclidae,Moorish idol,,9,57.5411611050367,-20.0387447527563,Africa,Mauritius,MU,,Mauritius,2019-11-09,22:11
Foudia rubra,Animalia,WEAVERS_PLOCEIDAE,Mauritius Fody,,1,57.45693362708106,-20.43308016496061,Africa,Mauritius,MU,,Mauritius - Gorges du Rivière Noire NP,2019-11-09,11:11
Falco punctatus,Animalia,CARACAS_AND_FALCONS_FALCONIDAE,Mauritius Kestrel,,2,57.70304182311354,-20.34106529983069,Africa,Mauritius,MU,,Mauritius,2019-11-06,12:13
Nesoenas mayeri,Animalia,PIGEONS_AND_DOVES_COLUMBIDAE,Pink Pigeon,,1,57.42141603426097,-20.383232806465536,Africa,Mauritius,MU,,Mauritius - Gorges du Rivière Noire NP,2019-11-05,14:12
Phedina borbonica,Animalia,SWALLOWS_HIRUNDINIDAE,Mascarene Martin,,6,57.383864801852816,-20.44373199780447,Africa,Mauritius,MU,,Mauritius,2019-11-04,15:23
Psittacula eques,Animalia,PSITTACULIDAE,Echo Parakeet,,1,57.4422431046923,-20.39467701455597,Africa,Mauritius,MU,,Mauritius - Gorges du Rivière Noire NP,2019-11-04,10:48
Psittacula eques,Animalia,PSITTACULIDAE,Echo Parakeet,,4,57.44224416659096,-20.394681545218592,Africa,Mauritius,MU,,Mauritius - Gorges du Rivière Noire NP,2019-11-04,10:48
Hypsipetes olivaceus,Animalia,BULBULS_PYCNONOTIDAE,Mauritius Bulbul,,2,57.44055039366821,-20.393341650336083,Africa,Mauritius,MU,,Mauritius - Gorges du Rivière Noire NP,2019-11-04,10:34
Lalage typica,Animalia,CUCKOOSHRIKES_CAMPEPHAGIDAE,Mauritius Cuckooshrike,,1,57.44034570380441,-20.393446731951965,Africa,Mauritius,MU,,Mauritius - Gorges du Rivière Noire NP,2019-11-04,10:29
Psittacula krameri,Animalia,PSITTACULIDAE,Rose-ringed Parakeet,,1,57.440480146123775,-20.39358622095619,Africa,Mauritius,MU,,Mauritius - Gorges du Rivière Noire NP,2019-11-04,10:16
Phaethon lepturus,Animalia,TROPICBIRDS_PHAETHONTIDAE,White-tailed Tropicbird,,4,57.44735158945922,-20.398060194922426,Africa,Mauritius,MU,,Mauritius - Gorges du Rivière Noire NP,2019-11-04,09:45
Lalage typica,Animalia,CUCKOOSHRIKES_CAMPEPHAGIDAE,Mauritius Cuckooshrike,,1,57.456081819055086,-20.3994668624273,Africa,Mauritius,MU,,Mauritius - Gorges du Rivière Noire NP,2019-11-04,09:12
Hypsipetes olivaceus,Animalia,BULBULS_PYCNONOTIDAE,Mauritius Bulbul,,1,57.457234906338044,-20.399388800461686,Africa,Mauritius,MU,,Mauritius - Gorges du Rivière Noire NP,2019-11-04,09:02
Nesoenas mayeri,Animalia,PIGEONS_AND_DOVES_COLUMBIDAE,Pink Pigeon,,3,57.47193041486077,-20.408990073734113,Africa,Mauritius,MU,,Mauritius - Gorges du Rivière Noire NP,2019-11-04,07:38
Foudia rubra,Animalia,WEAVERS_PLOCEIDAE,Mauritius Fody,,1,57.4736622959393,-20.428322452082174,Africa,Mauritius,MU,,Mauritius,2019-11-04,07:08
Zosterops mauritianus,Animalia,WHITEEYES_ZOSTEROPIDAE,Mauritius Grey White-eye,,5,57.477703564411215,-20.452789817421593,Africa,Mauritius,MU,,Mauritius,2019-11-04,06:24
Hypsipetes olivaceus,Animalia,BULBULS_PYCNONOTIDAE,Mauritius Bulbul,,2,57.51835742118736,-20.480391251489,Africa,Mauritius,MU,,Mauritius - Gorges du Rivière Noire NP,2019-11-03,18:03
Foudia madagascariensis,Animalia,WEAVERS_PLOCEIDAE,Red Fody,,10,63.438021496218866,-19.690965541879102,Africa,Mauritius,MU,,Mauritius,2019-10-30,17:49
Acrocephalus rodericanus,Animalia,Acrocephalidae,Rodrigues Warbler,,2,63.43812516187129,-19.691137041927163,Africa,Mauritius,MU,,Mauritius,2019-10-30,17:48
Foudia flavicans,Animalia,WEAVERS_PLOCEIDAE,Rodrigues Fody,,3,63.43314092175734,-19.689996121711697,Africa,Mauritius,MU,,Mauritius,2019-10-30,17:12
Estrilda astrild,Animalia,WAXBILLS_MUNIAS_ALLIES_ESTRILDIDAE,Common Waxbill,,10,57.36551257,-20.2802839,Africa,Mauritius,MU,,Mauritius,2019-10-16,
Passer domesticus,Animalia,OLD_WORLD_SPARROWS_PASSERIDAE,House Sparrow,,16,57.36551257,-20.2802839,Africa,Mauritius,MU,,Mauritius,2019-10-16,
Geopelia striata,Animalia,PIGEONS_AND_DOVES_COLUMBIDAE,Zebra Dove,,12,57.36551257,-20.2802839,Africa,Mauritius,MU,,Mauritius,2019-10-16,
Acridotheres tristis,Animalia,STARLINGS_STURNIDAE,Common Myna,,9,57.36551257,-20.2802839,Africa,Mauritius,MU,,Mauritius,2019-10-16,
Columba livia domestica,Animalia,PIGEONS_AND_DOVES_COLUMBIDAE,Feral Pigeon,,30,57.36551257,-20.2802839,Africa,Mauritius,MU,,Mauritius,2019-10-16,
Foudia madagascariensis,Animalia,WEAVERS_PLOCEIDAE,Red Fody,,1,57.36299439,-20.29627141,Africa,Mauritius,MU,,Mauritius,2019-10-14,
Phedina borbonica,Animalia,SWALLOWS_HIRUNDINIDAE,Mascarene Martin,,7,57.36297613,-20.29527745,Africa,Mauritius,MU,,Mauritius,2019-10-14,
Geopelia striata,Animalia,PIGEONS_AND_DOVES_COLUMBIDAE,Zebra Dove,,12,57.36536296,-20.28390566,Africa,Mauritius,MU,,Mauritius,2019-10-12,
Foudia madagascariensis,Animalia,WEAVERS_PLOCEIDAE,Red Fody,,1,57.36536296,-20.28390566,Africa,Mauritius,MU,,Mauritius,2019-10-12,
Pycnonotus jocosus,Animalia,BULBULS_PYCNONOTIDAE,Red-whiskered Bulbul,,7,57.36536296,-20.28390566,Africa,Mauritius,MU,,Mauritius,2019-10-12,
Ploceus velatus,Animalia,WEAVERS_PLOCEIDAE,Southern Masked Weaver,,5,57.36536296,-20.28390566,Africa,Mauritius,MU,,Mauritius,2019-10-12,
Phaethon lepturus,Animalia,TROPICBIRDS_PHAETHONTIDAE,White-tailed Tropicbird,,6,57.42924742,-20.41964047,Africa,Mauritius,MU,,Mauritius - Gorges du Rivière Noire NP,2019-10-09,
Foudia madagascariensis,Animalia,WEAVERS_PLOCEIDAE,Red Fody,,2,57.55327332,-20.02171482,Africa,Mauritius,MU,,Mauritius,2019-10-03,
Butorides striata,Animalia,HERONS_ARDEIDAE,Striated Heron,,1,57.57947712,-20.10557647,Africa,Mauritius,MU,,Mauritius,2019-10-03,
Chelonia mydas,Animalia,Cheloniidae,Green Turtle,,1,57.5356788635254,-20.0322399139404,Africa,Mauritius,MU,,Mauritius,2019-07-23,12:08
Acridotheres tristis,Animalia,STARLINGS_STURNIDAE,Common Myna,,1,57.313648223877,-20.4523239135742,Africa,Mauritius,MU,,Mauritius,2019-07-27,12:59
Passer domesticus,Animalia,OLD_WORLD_SPARROWS_PASSERIDAE,House Sparrow,,1,57.3136367797852,-20.4522914886475,Africa,Mauritius,MU,,Mauritius,2019-07-27,12:59
Foudia madagascariensis,Animalia,WEAVERS_PLOCEIDAE,Red Fody,,1,57.3136253356934,-20.4522552490234,Africa,Mauritius,MU,,Mauritius,2019-07-27,13:00
Geopelia striata,Animalia,PIGEONS_AND_DOVES_COLUMBIDAE,Zebra Dove,,1,57.3136253356934,-20.4522552490234,Africa,Mauritius,MU,,Mauritius,2019-07-27,13:00
Ploceus cucullatus,Animalia,WEAVERS_PLOCEIDAE,Village Weaver,,1,57.3135795593262,-20.4521961212158,Africa,Mauritius,MU,,Mauritius,2019-07-27,13:00
Crithagra mozambica,Animalia,FINCHES_FRINGILLIDAE,Yellow-fronted Canary,,1,57.3134841918945,-20.4521102905273,Africa,Mauritius,MU,,Mauritius,2019-07-27,13:02
Crithagra mozambica,Animalia,FINCHES_FRINGILLIDAE,Yellow-fronted Canary,,1,57.3134841918945,-20.452112197876,Africa,Mauritius,MU,,Mauritius,2019-07-27,13:03
Nesoenas mayeri,Animalia,PIGEONS_AND_DOVES_COLUMBIDAE,Pink Pigeon,,2,57.469425201416,-20.4086475372314,Africa,Mauritius,MU,,Mauritius - Black River Gorges NP,2019-07-18,10:00
Pycnonotus jocosus,Animalia,BULBULS_PYCNONOTIDAE,Red-whiskered Bulbul,,2,57.4694557189941,-20.4086112976074,Africa,Mauritius,MU,,Mauritius - Black River Gorges NP,2019-07-18,10:00
Hypsipetes olivaceus,Animalia,BULBULS_PYCNONOTIDAE,Mauritius Bulbul,,1,57.4651184082031,-20.4056243896484,Africa,Mauritius,MU,,Mauritius - Black River Gorges NP,2019-07-18,10:31
Zosterops mauritianus,Animalia,WHITEEYES_ZOSTEROPIDAE,Mauritius Grey White-eye,,10,57.4651870727539,-20.4057788848877,Africa,Mauritius,MU,,Mauritius - Black River Gorges NP,2019-07-18,10:32
Phaethon lepturus,Animalia,TROPICBIRDS_PHAETHONTIDAE,White-tailed Tropicbird,,1,57.4606323242188,-20.4019947052002,Africa,Mauritius,MU,,Mauritius - Black River Gorges NP,2019-07-18,11:15
Hypsipetes olivaceus,Animalia,BULBULS_PYCNONOTIDAE,Mauritius Bulbul,,3,57.4563789367676,-20.3992919921875,Africa,Mauritius,MU,,Mauritius - Black River Gorges NP,2019-07-18,11:42
Psittacula eques,Animalia,PSITTACULIDAE,Echo Parakeet,,3,57.455924987793,-20.3994255065918,Africa,Mauritius,MU,,Mauritius - Black River Gorges NP,2019-07-18,11:54
Hypsipetes olivaceus,Animalia,BULBULS_PYCNONOTIDAE,Mauritius Bulbul,,2,57.4504776000977,-20.4000949859619,Africa,Mauritius,MU,,Mauritius - Black River Gorges NP,2019-07-18,12:40
Phaethon lepturus,Animalia,TROPICBIRDS_PHAETHONTIDAE,White-tailed Tropicbird,,5,57.4504661560059,-20.4000511169434,Africa,Mauritius,MU,,Mauritius - Black River Gorges NP,2019-07-18,12:41
Foudia rubra,Animalia,WEAVERS_PLOCEIDAE,Mauritius Fody,,1,57.4432678222656,-20.3956680297852,Africa,Mauritius,MU,,Mauritius - Black River Gorges NP,2019-07-18,13:10
Spilopelia chinensis,Animalia,PIGEONS_AND_DOVES_COLUMBIDAE,Spotted Dove,,1,57.4569091796875,-20.3978061676025,Africa,Mauritius,MU,,Mauritius - Black River Gorges NP,2019-07-18,17:24
Geopelia striata,Animalia,PIGEONS_AND_DOVES_COLUMBIDAE,Zebra Dove,,1,57.4569358825684,-20.3978786468506,Africa,Mauritius,MU,,Mauritius - Black River Gorges NP,2019-07-18,17:24
Pycnonotus jocosus,Animalia,BULBULS_PYCNONOTIDAE,Red-whiskered Bulbul,,1,57.4711837768555,-20.3876914978027,Africa,Mauritius,MU,,Mauritius,2019-07-19,13:53
Passer domesticus,Animalia,OLD_WORLD_SPARROWS_PASSERIDAE,House Sparrow,,1,57.4711685180664,-20.3876266479492,Africa,Mauritius,MU,,Mauritius,2019-07-19,13:54
Numenius phaeopus,Animalia,SANDPIPERS_AND_ALLIES_SCOLOPACIDAE,Eurasian Whimbrel,,1,57.3786201477051,-20.4927062988281,Africa,Mauritius,MU,,Mauritius,2019-07-19,15:10
Gallinula chloropus,Animalia,RAILS_RALLIDAE,Common Moorhen,,1,57.3786315917969,-20.4927349090576,Africa,Mauritius,MU,,Mauritius,2019-07-19,15:14
Estrilda astrild,Animalia,WAXBILLS_MUNIAS_ALLIES_ESTRILDIDAE,Common Waxbill,,20,57.3788681030273,-20.493839263916,Africa,Mauritius,MU,,Mauritius,2019-07-19,15:28
Acridotheres tristis,Animalia,STARLINGS_STURNIDAE,Common Myna,,1,57.3788757324219,-20.493839263916,Africa,Mauritius,MU,,Mauritius,2019-07-19,15:29
Phedina borbonica,Animalia,SWALLOWS_HIRUNDINIDAE,Mascarene Martin,,4,57.3785400390625,-20.4932861328125,Africa,Mauritius,MU,,Mauritius,2019-07-19,15:36
Macaca fascicularis,Animalia,OLD_WORLD_MONKEYS_CERCOPITHECIDAE,Long-tailed Macaque,,1,57.3955688476563,-20.4665412902832,Africa,Mauritius,MU,,Mauritius,2019-07-19,16:21
Crithagra mozambica,Animalia,FINCHES_FRINGILLIDAE,Yellow-fronted Canary,,1,57.3955726623535,-20.4665603637695,Africa,Mauritius,MU,,Mauritius,2019-07-19,16:21
Geopelia striata,Animalia,PIGEONS_AND_DOVES_COLUMBIDAE,Zebra Dove,,1,57.5805892944336,-20.104959487915,Africa,Mauritius,MU,,Mauritius,2019-07-20,13:30
Acridotheres tristis,Animalia,STARLINGS_STURNIDAE,Common Myna,,1,57.5811386108398,-20.1060676574707,Africa,Mauritius,MU,,Mauritius,2019-07-20,13:34
Nesoenas picturatus,Animalia,PIGEONS_AND_DOVES_COLUMBIDAE,Malagasy Turtle Dove,,1,57.5811653137207,-20.1064109802246,Africa,Mauritius,MU,,Mauritius,2019-07-20,13:35
Butorides striata,Animalia,HERONS_ARDEIDAE,Striated Heron,,1,57.5795936584473,-20.1064224243164,Africa,Mauritius,MU,,Mauritius,2019-07-20,13:52
Corvus splendens,Animalia,CROWS_AND_JAYS_CORVIDAE,House Crow,,1,57.54,-20.04,Africa,Mauritius,MU,,Mauritius,2019-07-20,15:33
Butorides striata,Animalia,HERONS_ARDEIDAE,Striated Heron,,1,57.6226615905762,-19.9859733581543,Africa,Mauritius,MU,,Mauritius,2019-07-20,16:46
Butorides striata,Animalia,HERONS_ARDEIDAE,Striated Heron,,15,57.5020980834961,-20.1414051055908,Africa,Mauritius,MU,,Mauritius,2019-07-22,13:23
Crithagra mozambica,Animalia,FINCHES_FRINGILLIDAE,Yellow-fronted Canary,,1,57.5021057128906,-20.1413173675537,Africa,Mauritius,MU,,Mauritius,2019-07-22,14:45
Nesoenas picturatus,Animalia,PIGEONS_AND_DOVES_COLUMBIDAE,Malagasy Turtle Dove,,1,57.5021057128906,-20.1413230895996,Africa,Mauritius,MU,,Mauritius,2019-07-22,14:46
Geopelia striata,Animalia,PIGEONS_AND_DOVES_COLUMBIDAE,Zebra Dove,,1,57.5021057128906,-20.1413135528564,Africa,Mauritius,MU,,Mauritius,2019-07-22,14:46
Spilopelia chinensis,Animalia,PIGEONS_AND_DOVES_COLUMBIDAE,Spotted Dove,,1,57.4702644348145,-20.3420448303223,Africa,Mauritius,MU,,Mauritius,2019-07-17,07:04
Pycnonotus jocosus,Animalia,BULBULS_PYCNONOTIDAE,Red-whiskered Bulbul,,1,57.4702339172363,-20.3420562744141,Africa,Mauritius,MU,,Mauritius,2019-07-17,07:05
Passer domesticus,Animalia,OLD_WORLD_SPARROWS_PASSERIDAE,House Sparrow,,1,57.4702377319336,-20.3420543670654,Africa,Mauritius,MU,,Mauritius,2019-07-17,07:05
Spilopelia chinensis,Animalia,PIGEONS_AND_DOVES_COLUMBIDAE,Spotted Dove,,1,57.4833793640137,-20.3871631622314,Africa,Mauritius,MU,,Mauritius,2019-07-17,15:59
Phaethon lepturus,Animalia,TROPICBIRDS_PHAETHONTIDAE,White-tailed Tropicbird,,1,57.4644279479981,-20.3498783111572,Africa,Mauritius,MU,,Mauritius,2019-07-17,10:53
Macaca fascicularis,Animalia,OLD_WORLD_MONKEYS_CERCOPITHECIDAE,Long-tailed Macaque,,10,57.46460724,-20.34992981,Africa,Mauritius,MU,,Mauritius,2019-07-17,11:11
Spilopelia chinensis,Animalia,PIGEONS_AND_DOVES_COLUMBIDAE,Spotted Dove,,1,57.7094497680664,-20.4206943511963,Africa,Mauritius,MU,,Mauritius,2019-07-15,09:39
Foudia rubra,Animalia,WEAVERS_PLOCEIDAE,Mauritius Fody,,1,57.7098197937012,-20.4194469451904,Africa,Mauritius,MU,,Mauritius,2019-07-15,10:49
Butorides striata,Animalia,HERONS_ARDEIDAE,Striated Heron,,1,57.720775604248,-20.4227714538574,Africa,Mauritius,MU,,Mauritius,2019-07-15,11:18
Butorides striata,Animalia,HERONS_ARDEIDAE,Striated Heron,,1,57.7169456481934,-20.4453811645508,Africa,Mauritius,MU,,Mauritius,2019-07-15,17:11
Spilopelia chinensis,Animalia,PIGEONS_AND_DOVES_COLUMBIDAE,Spotted Dove,,1,57.7095222473145,-20.4229068756104,Africa,Mauritius,MU,,Mauritius,2019-07-16,10:42
Butorides striata,Animalia,HERONS_ARDEIDAE,Striated Heron,,1,57.6988143920898,-20.457218170166,Africa,Mauritius,MU,,Mauritius,2019-07-16,12:41
Spilopelia chinensis,Animalia,PIGEONS_AND_DOVES_COLUMBIDAE,Spotted Dove,,1,57.6899032592773,-20.4607372283936,Africa,Mauritius,MU,,Mauritius,2019-07-16,13:34
Foudia rubra,Animalia,WEAVERS_PLOCEIDAE,Mauritius Fody,,2,57.730541229248,-20.4198303222656,Africa,Mauritius,MU,,Mauritius,2019-07-14,10:57
Zosterops chloronothos,Animalia,WHITEEYES_ZOSTEROPIDAE,Mauritius Olive White-eye,,1,57.7310066223145,-20.4203300476074,Africa,Mauritius,MU,,Mauritius,2019-07-14,11:10
Zosterops chloronothos,Animalia,WHITEEYES_ZOSTEROPIDAE,Mauritius Olive White-eye,,1,57.7312049865723,-20.4196701049805,Africa,Mauritius,MU,,Mauritius,2019-07-14,12:05
Phelsuma ornata,Animalia,Gekkonidae,Ornate Day Gecko,,5,57.7304763793945,-20.4195652008057,Africa,Mauritius,MU,,Mauritius,2019-07-14,12:11
Butorides striata,Animalia,HERONS_ARDEIDAE,Striated Heron,,1,57.7243576,-20.42531586,Africa,Mauritius,MU,,Mauritius,2019-07-14,14:41
Monetaria annulus,Animalia,CYPRAEIDAE,Ring cowrie,,20,57.67986059,-20.00875407,Africa,Mauritius,MU,,Mauritius,2019-04-19,10:51
Passer domesticus,Animalia,OLD_WORLD_SPARROWS_PASSERIDAE,House Sparrow,,1,57.42058754,-20.38309928,Africa,Mauritius,MU,,Mauritius - Black River Gorges NP,2019-04-18,10:40
Phaethon lepturus,Animalia,TROPICBIRDS_PHAETHONTIDAE,White-tailed Tropicbird,,1,57.42301,-20.386006,Africa,Mauritius,MU,,Mauritius - Black River Gorges NP,2019-04-18,11:27
Pomacanthus imperator,Animalia,Angelfishes,Emperor angelfish,,1,57.62083333,-19.94444444,Africa,Mauritius,MU,,Mauritius,2019-04-15,11:17
Macaca fascicularis,Animalia,OLD_WORLD_MONKEYS_CERCOPITHECIDAE,Long-tailed Macaque,,10,57.423,-20.386,Africa,Mauritius,MU,,Mauritius - Black River Gorges NP,2019-04-18,10:13
Pycnonotus jocosus,Animalia,BULBULS_PYCNONOTIDAE,Red-whiskered Bulbul,,3,57.42048562,-20.38313615,Africa,Mauritius,MU,,Mauritius - Black River Gorges NP,2019-04-18,10:43
Zanclus cornutus,Animalia,Zanclidae,Moorish idol,,3,57.53638889,-20.0375001,Africa,Mauritius,MU,,Mauritius,2019-04-13,12:11
Ruspolia differens,Animalia,KATYDIDS_TETTIGONIIDAE,,,1,57.55241811,-20.02521757,Africa,Mauritius,MU,,Mauritius,2019-04-18,08:20
Polistes olivaceus,Animalia,Vespidae,Yellow Oriental Paper Wasp,,1,57.60354667,-19.98667832,Africa,Mauritius,MU,,Mauritius,2019-04-12,17:02
Monetaria annulus,Animalia,CYPRAEIDAE,Ring cowrie,,10,57.52199167,-20.05279333,Africa,Mauritius,MU,,Mauritius,2019-04-19,17:31
Zosterops mauritianus,Animalia,WHITEEYES_ZOSTEROPIDAE,Mauritius Grey White-eye,,1,57.42048562,-20.38313615,Africa,Mauritius,MU,,Mauritius - Black River Gorges NP,2019-04-18,10:48
Chelonia mydas,Animalia,Cheloniidae,Green Turtle,,1,57.53555417,-20.04048244,Africa,Mauritius,MU,,Mauritius,2019-04-17,10:03
Foudia madagascariensis,Animalia,WEAVERS_PLOCEIDAE,Red Fody,,1,57.57904172,-20.10672332,Africa,Mauritius,MU,,Mauritius,2019-04-14,10:24
Crithagra mozambica,Animalia,FINCHES_FRINGILLIDAE,Yellow-fronted Canary,,1,57.57904172,-20.10672332,Africa,Mauritius,MU,,Mauritius,2019-04-14,10:24
Nesoenas picturatus,Animalia,PIGEONS_AND_DOVES_COLUMBIDAE,Malagasy Turtle Dove,,1,57.5812304,-20.10635558,Africa,Mauritius,MU,,Mauritius,2019-04-14,11:31
Geopelia striata,Animalia,PIGEONS_AND_DOVES_COLUMBIDAE,Zebra Dove,,3,57.52206833,-20.05414501,Africa,Mauritius,MU,,Mauritius,2019-04-12,10:28
Numenius phaeopus,Animalia,SANDPIPERS_AND_ALLIES_SCOLOPACIDAE,Eurasian Whimbrel,,1,57.70374835,-20.44711752,Africa,Mauritius,MU,,Mauritius,2019-04-10,11:06
Spilopelia chinensis,Animalia,PIGEONS_AND_DOVES_COLUMBIDAE,Spotted Dove,,1,57.69877553,-20.45383101,Africa,Mauritius,MU,,Mauritius,2019-04-10,11:13
Acridotheres tristis,Animalia,STARLINGS_STURNIDAE,Common Myna,,1,57.55248249,-20.02531333,Africa,Mauritius,MU,,Mauritius,2019-04-09,07:40
Geopelia striata,Animalia,PIGEONS_AND_DOVES_COLUMBIDAE,Zebra Dove,,1,57.55166709,-20.02595678,Africa,Mauritius,MU,,Mauritius,2019-04-08,08:51
Euphorbia hirta,Plantae,EUPHORBIACEAE,Pill-bearing spurge,,1,57.5525016784668,-20.0252780914307,Africa,Mauritius,MU,,Mauritius,2019-04-08,08:45
Phaethon rubricauda,Animalia,TROPICBIRDS_PHAETHONTIDAE,Red-tailed Tropicbird,,1,57.78991714,-19.85703399,Africa,Mauritius,MU,,Mauritius - Round Island,1985-10-12,
Phaethon lepturus,Animalia,TROPICBIRDS_PHAETHONTIDAE,White-tailed Tropicbird,,1,57.3838081359863,-20.4437808990478,Africa,Mauritius,MU,,Mauritius,2019-03-25,12:23
Ploceus cucullatus,Animalia,WEAVERS_PLOCEIDAE,Village Weaver,,1,57.3132400512695,-20.4523601531982,Africa,Mauritius,MU,,Mauritius,2019-03-25,16:18
Butorides striata,Animalia,HERONS_ARDEIDAE,Striated Heron,,1,57.4153327941895,-20.5054912567139,Africa,Mauritius,MU,,Mauritius,2019-03-25,16:44
Foudia rubra,Animalia,WEAVERS_PLOCEIDAE,Mauritius Fody,,1,57.47114724,-20.40842159,Africa,Mauritius,MU,,Mauritius - Black River Gorges NP,2018-10-25,14:05
Nesoenas mayeri,Animalia,PIGEONS_AND_DOVES_COLUMBIDAE,Pink Pigeon,,8,57.47150037,-20.40862517,Africa,Mauritius,MU,,Mauritius - Black River Gorges NP,2018-10-25,12:20
Macaca fascicularis,Animalia,OLD_WORLD_MONKEYS_CERCOPITHECIDAE,Long-tailed Macaque,,6,57.49236887,-20.41622438,Africa,Mauritius,MU,,Mauritius,2018-10-24,14:05
Herpestes auropunctatus,Animalia,MONGOOSES_HERPESTIDAE,Small Indian Mongoose,,1,57.66016783,-20.29243925,Africa,Mauritius,MU,,Mauritius,2018-10-23,14:05
Ploceus cucullatus,Animalia,WEAVERS_PLOCEIDAE,Village Weaver,,1,57.47020218,-20.51204517,Africa,Mauritius,MU,,Mauritius,2018-10-23,09:00
Gallinula chloropus,Animalia,RAILS_RALLIDAE,Common Moorhen,,1,57.47027191,-20.51198236,Africa,Mauritius,MU,,Mauritius,2018-10-23,09:00
Herpestes auropunctatus,Animalia,MONGOOSES_HERPESTIDAE,Small Indian Mongoose,,1,57.47038457,-20.51192207,Africa,Mauritius,MU,,Mauritius,2018-10-23,08:55
Psittacula krameri,Animalia,PSITTACULIDAE,Rose-ringed Parakeet,,1,57.47036847,-20.51181405,Africa,Mauritius,MU,,Mauritius,2018-10-23,08:50
Cairina moschata,Animalia,DUCKS_GEESE_AND_SWANS_ANATIDAE,Muscovy Duck,,2,57.47016731,-20.51164322,Africa,Mauritius,MU,,Mauritius,2018-10-23,08:45
Butorides striata,Animalia,HERONS_ARDEIDAE,Striated Heron,,1,57.47091657,-20.51559484,Africa,Mauritius,MU,,Mauritius,2018-10-23,08:10
Macaca fascicularis,Animalia,OLD_WORLD_MONKEYS_CERCOPITHECIDAE,Long-tailed Macaque,,1,57.40051524,-20.46187175,Africa,Mauritius,MU,,Mauritius,2018-10-22,16:20
Geopelia striata,Animalia,PIGEONS_AND_DOVES_COLUMBIDAE,Zebra Dove,,1,57.37375484,-20.43976855,Africa,Mauritius,MU,,Mauritius,2018-10-22,14:55
Butorides striata,Animalia,HERONS_ARDEIDAE,Striated Heron,,1,57.47116241,-20.51267823,Africa,Mauritius,MU,,Mauritius,2018-10-22,08:45
Herpestes auropunctatus,Animalia,MONGOOSES_HERPESTIDAE,Small Indian Mongoose,,1,57.47090047,-20.51291692,Africa,Mauritius,MU,,Mauritius,2018-10-22,08:40
Gallinula chloropus,Animalia,RAILS_RALLIDAE,Common Moorhen,,2,57.47090047,-20.51291692,Africa,Mauritius,MU,,Mauritius,2018-10-22,08:30
Acridotheres tristis,Animalia,STARLINGS_STURNIDAE,Common Myna,,1,57.47185718,-20.51331392,Africa,Mauritius,MU,,Mauritius,2018-10-21,08:45
Butorides striata,Animalia,HERONS_ARDEIDAE,Striated Heron,,1,57.47075211,-20.51582603,Africa,Mauritius,MU,,Mauritius,2018-10-21,08:15
Numenius phaeopus,Animalia,SANDPIPERS_AND_ALLIES_SCOLOPACIDAE,Eurasian Whimbrel,,1,57.47154605,-20.51497192,Africa,Mauritius,MU,,Mauritius,2018-10-20,17:45
Spilopelia chinensis,Animalia,PIGEONS_AND_DOVES_COLUMBIDAE,Spotted Dove,,10,57.47065367,-20.5133791,Africa,Mauritius,MU,,Mauritius,2018-10-20,08:30
Ploceus cucullatus,Animalia,WEAVERS_PLOCEIDAE,Village Weaver,,5,57.47065367,-20.5133791,Africa,Mauritius,MU,,Mauritius,2018-10-20,
Acridotheres tristis,Animalia,STARLINGS_STURNIDAE,Common Myna,,5,57.47231668,-20.51445434,Africa,Mauritius,MU,,Mauritius,2018-10-20,
Pycnonotus jocosus,Animalia,BULBULS_PYCNONOTIDAE,Red-whiskered Bulbul,,10,57.47232112,-20.51440909,Africa,Mauritius,MU,,Mauritius,2018-10-20,
Pycnonotus jocosus,Animalia,BULBULS_PYCNONOTIDAE,Red-whiskered Bulbul,,10,57.47232112,-20.51440909,Africa,Mauritius,MU,,Mauritius,2018-10-19,
Zosterops mauritianus,Animalia,WHITEEYES_ZOSTEROPIDAE,Mauritius Grey White-eye,,5,57.37357648,-20.44058161,Africa,Mauritius,MU,,Mauritius,2018-10-22,
Francolinus pondicerianus,Animalia,FRANCOLINS_QUAILS_PARTRIDGES_AND_PHEASANTS_PHASIANIDAE,Grey Francolin,,2,57.38523256,-20.43917805,Africa,Mauritius,MU,,Mauritius,2018-10-22,
Phedina borbonica,Animalia,SWALLOWS_HIRUNDINIDAE,Mascarene Martin,,3,57.38630544,-20.42020614,Africa,Mauritius,MU,,Mauritius,2018-10-22,
Foudia rubra,Animalia,WEAVERS_PLOCEIDAE,Mauritius Fody,,15,57.73036968,-20.41928972,Africa,Mauritius,MU,,Mauritius,2018-12-26,14:45
Butorides striata,Animalia,HERONS_ARDEIDAE,Striated Heron,,1,57.72487172204759,-20.42563816611937,Africa,Mauritius,MU,,Mauritius,2018-12-26,12:59
Falco punctatus,Animalia,CARACAS_AND_FALCONS_FALCONIDAE,Mauritius Kestrel,,1,57.70161624,-20.34260969,Africa,Mauritius,MU,,Mauritius,2018-12-26,11:58
Psittacula eques,Animalia,PSITTACULIDAE,Echo Parakeet,,1,57.47208738,-20.40889292,Africa,Mauritius,MU,,Mauritius,2018-12-24,17:12
Nesoenas mayeri,Animalia,PIGEONS_AND_DOVES_COLUMBIDAE,Pink Pigeon,,7,57.47213466,-20.4088914,Africa,Mauritius,MU,,Mauritius,2018-12-24,17:11
Psittacula eques,Animalia,PSITTACULIDAE,Echo Parakeet,,1,57.37571387,-20.44289484,Africa,Mauritius,MU,,Mauritius,2018-12-24,16:13
Zosterops mauritianus,Animalia,WHITEEYES_ZOSTEROPIDAE,Mauritius Grey White-eye,,1,57.37529557,-20.44265356,Africa,Mauritius,MU,,Mauritius,2018-12-24,16:13
Phedina borbonica,Animalia,SWALLOWS_HIRUNDINIDAE,Mascarene Martin,,5,57.32514018606541,-20.454261626060507,Africa,Mauritius,MU,,Mauritius,2018-12-24,10:49
Phedina borbonica,Animalia,SWALLOWS_HIRUNDINIDAE,Mascarene Martin,,1,57.325245234621605,-20.45447055992424,Africa,Mauritius,MU,,Mauritius,2018-12-24,10:18
Geopelia striata,Animalia,PIGEONS_AND_DOVES_COLUMBIDAE,Zebra Dove,,1,57.57972737707833,-20.105530228965034,Africa,Mauritius,MU,,Mauritius,2018-12-22,12:11
Butorides striata,Animalia,HERONS_ARDEIDAE,Striated Heron,,1,57.57997815225807,-20.105757683502976,Africa,Mauritius,MU,,Mauritius,2018-12-22,12:04
Foudia madagascariensis,Animalia,WEAVERS_PLOCEIDAE,Red Fody,,1,57.580224688016074,-20.10589775944863,Africa,Mauritius,MU,,Mauritius,2018-12-22,12:03
Butorides striata,Animalia,HERONS_ARDEIDAE,Striated Heron,,1,57.62211743487681,-19.98651504385503,Africa,Mauritius,MU,,Mauritius,2018-12-22,11:19
Corvus splendens,Animalia,CROWS_AND_JAYS_CORVIDAE,House Crow,,2,57.58,-20.02,Africa,Mauritius,MU,,Mauritius,2018-12-18,09:52
Macaca fascicularis,Animalia,OLD_WORLD_MONKEYS_CERCOPITHECIDAE,Long-tailed Macaque,,7,57.42,-20.43,Africa,Mauritius,MU,,Mauritius - Black River Gorges NP,2018-12-15,
Hypsipetes olivaceus,Animalia,BULBULS_PYCNONOTIDAE,Mauritius Bulbul,,2,57.44,-20.4,Africa,Mauritius,MU,,Mauritius - Black River Gorges NP,2018-12-15,
Psittacula eques,Animalia,PSITTACULIDAE,Echo Parakeet,,1,57.44,-20.4,Africa,Mauritius,MU,,Mauritius - Black River Gorges NP,2018-12-15,
Psittacula eques,Animalia,PSITTACULIDAE,Echo Parakeet,,5,57.45,-20.41,Africa,Mauritius,MU,,Mauritius - Black River Gorges NP,2018-12-15,
Phaethon lepturus,Animalia,TROPICBIRDS_PHAETHONTIDAE,White-tailed Tropicbird,,4,57.46,-20.41,Africa,Mauritius,MU,,Mauritius - Black River Gorges NP,2018-12-15,
Passer domesticus,Animalia,OLD_WORLD_SPARROWS_PASSERIDAE,House Sparrow,,10,57.47,-20.41,Africa,Mauritius,MU,,Mauritius - Black River Gorges NP,2018-12-15,
Spilopelia chinensis,Animalia,PIGEONS_AND_DOVES_COLUMBIDAE,Spotted Dove,,1,57.47,-20.41,Africa,Mauritius,MU,,Mauritius - Black River Gorges NP,2018-12-15,
Crithagra mozambica,Animalia,FINCHES_FRINGILLIDAE,Yellow-fronted Canary,,5,57.47,-20.41,Africa,Mauritius,MU,,Mauritius - Black River Gorges NP,2018-12-15,
Nesoenas mayeri,Animalia,PIGEONS_AND_DOVES_COLUMBIDAE,Pink Pigeon,,8,57.47,-20.41,Africa,Mauritius,MU,,Mauritius - Black River Gorges NP,2018-12-15,
Sclerophrys gutturalis,Animalia,Bufonidae,Guttural Toad,,1,57.42,-20.39,Africa,Mauritius,MU,,Mauritius - Black River Gorges NP,2018-12-14,
Nesoenas picturatus,Animalia,PIGEONS_AND_DOVES_COLUMBIDAE,Malagasy Turtle Dove,,2,57.42,-20.39,Africa,Mauritius,MU,,Mauritius - Black River Gorges NP,2018-12-14,
Acridotheres tristis,Animalia,STARLINGS_STURNIDAE,Common Myna,,3,57.43,-20.4,Africa,Mauritius,MU,,Mauritius - Black River Gorges NP,2018-12-14,
Pycnonotus jocosus,Animalia,BULBULS_PYCNONOTIDAE,Red-whiskered Bulbul,,100,57.43,-20.4,Africa,Mauritius,MU,,Mauritius - Black River Gorges NP,2018-12-14,
Phaethon lepturus,Animalia,TROPICBIRDS_PHAETHONTIDAE,White-tailed Tropicbird,,4,57.43,-20.4,Africa,Mauritius,MU,,Mauritius - Black River Gorges NP,2018-12-14,
Pycnonotus jocosus,Animalia,BULBULS_PYCNONOTIDAE,Red-whiskered Bulbul,,1,57.42,-20.39,Africa,Mauritius,MU,,Mauritius - Black River Gorges NP,2018-12-14,
Acridotheres tristis,Animalia,STARLINGS_STURNIDAE,Common Myna,,10,57.42,-20.39,Africa,Mauritius,MU,,Mauritius - Black River Gorges NP,2018-12-14,
Geopelia striata,Animalia,PIGEONS_AND_DOVES_COLUMBIDAE,Zebra Dove,,10,57.42121741,-20.38307983,Africa,Mauritius,MU,,Mauritius - Black River Gorges NP,2018-12-14,
Nesoenas mayeri,Animalia,PIGEONS_AND_DOVES_COLUMBIDAE,Pink Pigeon,,4,57.42,-20.39,Africa,Mauritius,MU,,Mauritius - Black River Gorges NP,2018-12-14,
Numenius phaeopus,Animalia,SANDPIPERS_AND_ALLIES_SCOLOPACIDAE,Eurasian Whimbrel,,1,57.36,-20.38,Africa,Mauritius,MU,,Mauritius,2018-12-12,
Geopelia striata,Animalia,PIGEONS_AND_DOVES_COLUMBIDAE,Zebra Dove,,10,57.36,-20.36,Africa,Mauritius,MU,,Mauritius,2018-12-12,
Passer domesticus,Animalia,OLD_WORLD_SPARROWS_PASSERIDAE,House Sparrow,,15,57.36,-20.36,Africa,Mauritius,MU,,Mauritius,2018-12-12,
Spilopelia chinensis,Animalia,PIGEONS_AND_DOVES_COLUMBIDAE,Spotted Dove,,1,57.36,-20.36,Africa,Mauritius,MU,,Mauritius,2018-12-12,
Francolinus pondicerianus,Animalia,FRANCOLINS_QUAILS_PARTRIDGES_AND_PHEASANTS_PHASIANIDAE,Grey Francolin,,6,57.32,-20.46,Africa,Mauritius,MU,,Mauritius,2018-12-12,
Francolinus pondicerianus,Animalia,FRANCOLINS_QUAILS_PARTRIDGES_AND_PHEASANTS_PHASIANIDAE,Grey Francolin,,4,57.32,-20.47,Africa,Mauritius,MU,,Mauritius,2018-12-12,
Nesoenas picturatus,Animalia,PIGEONS_AND_DOVES_COLUMBIDAE,Malagasy Turtle Dove,,1,57.32,-20.47,Africa,Mauritius,MU,,Mauritius,2018-12-12,
Acridotheres tristis,Animalia,STARLINGS_STURNIDAE,Common Myna,,15,57.33,-20.46,Africa,Mauritius,MU,,Mauritius,2018-12-12,
Pycnonotus jocosus,Animalia,BULBULS_PYCNONOTIDAE,Red-whiskered Bulbul,,25,57.33,-20.46,Africa,Mauritius,MU,,Mauritius,2018-12-12,
Ploceus cucullatus,Animalia,WEAVERS_PLOCEIDAE,Village Weaver,,1,57.33,-20.46,Africa,Mauritius,MU,,Mauritius,2018-12-12,
Arenaria interpres,Animalia,SANDPIPERS_AND_ALLIES_SCOLOPACIDAE,Ruddy Turnstone,,12,57.33,-20.47,Africa,Mauritius,MU,,Mauritius,2018-12-12,
Pluvialis squatarola,Animalia,PLOVERS_CHARADRIIDAE,Grey Plover,,1,57.32,-20.47,Africa,Mauritius,MU,,Mauritius,2018-12-12,
Charadrius leschenaultii,Animalia,PLOVERS_CHARADRIIDAE,Greater Sand Plover,,1,57.32,-20.47,Africa,Mauritius,MU,,Mauritius,2018-12-12,
Numenius phaeopus,Animalia,SANDPIPERS_AND_ALLIES_SCOLOPACIDAE,Eurasian Whimbrel,,15,57.32,-20.47,Africa,Mauritius,MU,,Mauritius,2018-12-12,
Calidris ferruginea,Animalia,SANDPIPERS_AND_ALLIES_SCOLOPACIDAE,Curlew Sandpiper,,2,57.32,-20.47,Africa,Mauritius,MU,,Mauritius,2018-12-12,
Butorides striata,Animalia,HERONS_ARDEIDAE,Striated Heron,,1,57.34,-20.43,Africa,Mauritius,MU,,Mauritius,2018-12-10,
Stenella longirostris,Animalia,DOLPHINS_DELPHINIDAE,Spinner Dolphin,,45,57.26,-20.48,Africa,Mauritius,MU,,Mauritius,2018-12-10,
Tridax procumbens,Plantae,Asteraceae,Coatbuttons,,1,57.32,-20.46,Africa,Mauritius,MU,,Mauritius,2018-12-09,
Lantana camara,Plantae,VERBENACEAE,Largeleaf lantana,,1,57.32,-20.46,Africa,Mauritius,MU,,Mauritius,2018-12-09,
Catharanthus roseus,Plantae,APOCYNACEAE,Madagascar rosy periwinkle,,1,57.32,-20.46,Africa,Mauritius,MU,,Mauritius,2018-12-09,
Phelsuma ornata,Animalia,Gekkonidae,Ornate Day Gecko,,1,57.32,-20.46,Africa,Mauritius,MU,,Mauritius,2018-12-09,
Numenius phaeopus,Animalia,SANDPIPERS_AND_ALLIES_SCOLOPACIDAE,Eurasian Whimbrel,,2,57.32,-20.47,Africa,Mauritius,MU,,Mauritius,2018-12-09,
Tringa nebularia,Animalia,SANDPIPERS_AND_ALLIES_SCOLOPACIDAE,Common Greenshank,,1,57.32,-20.47,Africa,Mauritius,MU,,Mauritius,2018-12-09,
Butorides striata,Animalia,HERONS_ARDEIDAE,Striated Heron,,2,57.32,-20.47,Africa,Mauritius,MU,,Mauritius,2018-12-09,
Passer domesticus,Animalia,OLD_WORLD_SPARROWS_PASSERIDAE,House Sparrow,,3,57.35,-20.44,Africa,Mauritius,MU,,Mauritius,2018-12-08,
Phedina borbonica,Animalia,SWALLOWS_HIRUNDINIDAE,Mascarene Martin,,15,57.35,-20.44,Africa,Mauritius,MU,,Mauritius,2018-12-08,
Numenius phaeopus,Animalia,SANDPIPERS_AND_ALLIES_SCOLOPACIDAE,Eurasian Whimbrel,,1,57.35,-20.44,Africa,Mauritius,MU,,Mauritius,2018-12-08,
Danaus chrysippus,Animalia,BRUSHFOOTED_BUTTERFLIES_NYMPHALIDAE,African Monarch,,1,57.35,-20.44,Africa,Mauritius,MU,,Mauritius,2018-12-08,
Foudia madagascariensis,Animalia,WEAVERS_PLOCEIDAE,Red Fody,,10,57.35,-20.44,Africa,Mauritius,MU,,Mauritius,2018-12-08,
Pycnonotus jocosus,Animalia,BULBULS_PYCNONOTIDAE,Red-whiskered Bulbul,,40,57.35,-20.44,Africa,Mauritius,MU,,Mauritius,2018-12-08,
Zosterops borbonicus,Animalia,WHITEEYES_ZOSTEROPIDAE,Reunion Grey White-eye,,100,57.35,-20.44,Africa,Mauritius,MU,,Mauritius,2018-12-08,
Geopelia striata,Animalia,PIGEONS_AND_DOVES_COLUMBIDAE,Zebra Dove,,15,57.35,-20.44,Africa,Mauritius,MU,,Mauritius,2018-12-08,
Phaethon lepturus,Animalia,TROPICBIRDS_PHAETHONTIDAE,White-tailed Tropicbird,,3,57.35,-20.44,Africa,Mauritius,MU,,Mauritius,2018-12-08,
Aerodramus francicus,Animalia,SWIFTS_APODIDAE,Mascarene Swiftlet,,5,57.35,-20.44,Africa,Mauritius,MU,,Mauritius,2018-12-08,
Acridotheres tristis,Animalia,STARLINGS_STURNIDAE,Common Myna,,10,57.35,-20.44,Africa,Mauritius,MU,,Mauritius,2018-12-08,
Nesoenas picturatus,Animalia,PIGEONS_AND_DOVES_COLUMBIDAE,Malagasy Turtle Dove,,1,57.35,-20.44,Africa,Mauritius,MU,,Mauritius,2018-12-08,
Psittacula krameri,Animalia,PSITTACULIDAE,Rose-ringed Parakeet,,15,57.35,-20.44,Africa,Mauritius,MU,,Mauritius,2018-12-08,
Pycnonotus jocosus,Animalia,BULBULS_PYCNONOTIDAE,Red-whiskered Bulbul,,10,57.35,-20.44,Africa,Mauritius,MU,,Mauritius,2018-12-07,
Crithagra mozambica,Animalia,FINCHES_FRINGILLIDAE,Yellow-fronted Canary,,1,57.35,-20.44,Africa,Mauritius,MU,,Mauritius,2018-12-07,
Zosterops borbonicus,Animalia,WHITEEYES_ZOSTEROPIDAE,Reunion Grey White-eye,,150,57.35,-20.44,Africa,Mauritius,MU,,Mauritius,2018-12-07,
Acridotheres tristis,Animalia,STARLINGS_STURNIDAE,Common Myna,,2,57.35,-20.44,Africa,Mauritius,MU,,Mauritius,2018-12-07,
Nesoenas picturatus,Animalia,PIGEONS_AND_DOVES_COLUMBIDAE,Malagasy Turtle Dove,,1,57.35,-20.44,Africa,Mauritius,MU,,Mauritius,2018-12-07,
Geopelia striata,Animalia,PIGEONS_AND_DOVES_COLUMBIDAE,Zebra Dove,,1,57.35,-20.44,Africa,Mauritius,MU,,Mauritius,2018-12-07,
Estrilda astrild,Animalia,WAXBILLS_MUNIAS_ALLIES_ESTRILDIDAE,Common Waxbill,,15,57.35,-20.44,Africa,Mauritius,MU,,Mauritius,2018-12-07,
Phedina borbonica,Animalia,SWALLOWS_HIRUNDINIDAE,Mascarene Martin,,20,57.37,-20.44,Africa,Mauritius,MU,,Mauritius,2018-12-07,
Acridotheres tristis,Animalia,STARLINGS_STURNIDAE,Common Myna,,15,57.37,-20.44,Africa,Mauritius,MU,,Mauritius,2018-12-07,
Pycnonotus jocosus,Animalia,BULBULS_PYCNONOTIDAE,Red-whiskered Bulbul,,15,57.37,-20.44,Africa,Mauritius,MU,,Mauritius,2018-12-07,
Foudia madagascariensis,Animalia,WEAVERS_PLOCEIDAE,Red Fody,,1,57.37,-20.44,Africa,Mauritius,MU,,Mauritius,2018-12-07,
Geopelia striata,Animalia,PIGEONS_AND_DOVES_COLUMBIDAE,Zebra Dove,,40,57.37,-20.44,Africa,Mauritius,MU,,Mauritius,2018-12-07,
Ploceus cucullatus,Animalia,WEAVERS_PLOCEIDAE,Village Weaver,,30,57.38,-20.45,Africa,Mauritius,MU,,Mauritius,2018-12-07,
Pycnonotus jocosus,Animalia,BULBULS_PYCNONOTIDAE,Red-whiskered Bulbul,,5,57.35,-20.44,Africa,Mauritius,MU,,Mauritius,2018-12-06,
Foudia madagascariensis,Animalia,WEAVERS_PLOCEIDAE,Red Fody,,2,57.31,-20.46,Africa,Mauritius,MU,,Mauritius,2018-12-06,
Passer domesticus,Animalia,OLD_WORLD_SPARROWS_PASSERIDAE,House Sparrow,,30,57.31,-20.46,Africa,Mauritius,MU,,Mauritius,2018-12-06,
Ploceus cucullatus,Animalia,WEAVERS_PLOCEIDAE,Village Weaver,,10,57.31,-20.46,Africa,Mauritius,MU,,Mauritius,2018-12-06,
Geopelia striata,Animalia,PIGEONS_AND_DOVES_COLUMBIDAE,Zebra Dove,,15,57.31,-20.46,Africa,Mauritius,MU,,Mauritius,2018-12-06,
Acridotheres tristis,Animalia,STARLINGS_STURNIDAE,Common Myna,,50,57.31,-20.46,Africa,Mauritius,MU,,Mauritius,2018-12-06,
Estrilda astrild,Animalia,WAXBILLS_MUNIAS_ALLIES_ESTRILDIDAE,Common Waxbill,,2,57.35,-20.44,Africa,Mauritius,MU,,Mauritius,2018-12-06,
Foudia madagascariensis,Animalia,WEAVERS_PLOCEIDAE,Red Fody,,2,57.35,-20.44,Africa,Mauritius,MU,,Mauritius,2018-12-05,
Acridotheres tristis,Animalia,STARLINGS_STURNIDAE,Common Myna,,15,57.35,-20.44,Africa,Mauritius,MU,,Mauritius,2018-12-05,
Pycnonotus jocosus,Animalia,BULBULS_PYCNONOTIDAE,Red-whiskered Bulbul,,5,57.35,-20.44,Africa,Mauritius,MU,,Mauritius,2018-12-05,
Numenius phaeopus,Animalia,SANDPIPERS_AND_ALLIES_SCOLOPACIDAE,Eurasian Whimbrel,,1,57.4712805077434,-20.514973014681,Africa,Mauritius,MU,,Mauritius,2018-10-21,12:00
Passer domesticus,Animalia,OLD_WORLD_SPARROWS_PASSERIDAE,House Sparrow,,2,57.47223938,-20.51453442,Africa,Mauritius,MU,,Mauritius,2018-10-19,12:00
Passer domesticus,Animalia,OLD_WORLD_SPARROWS_PASSERIDAE,House Sparrow,,2,57.47227478,-20.51457977,Africa,Mauritius,MU,,Mauritius,2018-10-18,17:21
Acridotheres tristis,Animalia,STARLINGS_STURNIDAE,Common Myna,,25,57.4722023010254,-20.5144824981689,Africa,Mauritius,MU,,Mauritius,2018-10-19,10:45
Butorides striata,Animalia,HERONS_ARDEIDAE,Striated Heron,,1,57.4702924489975,-20.5159285536506,Africa,Mauritius,MU,,Mauritius,2018-10-19,11:00
Nesoenas picturatus,Animalia,PIGEONS_AND_DOVES_COLUMBIDAE,Malagasy Turtle Dove,,2,57.47064114,-20.51338724,Africa,Mauritius,MU,,Mauritius,2018-10-20,08:30
Foudia madagascariensis,Animalia,WEAVERS_PLOCEIDAE,Red Fody,,5,57.470647841692,-20.5134001148403,Africa,Mauritius,MU,,Mauritius,2018-10-20,08:30
Geopelia striata,Animalia,PIGEONS_AND_DOVES_COLUMBIDAE,Zebra Dove,,1,57.4723433330655,-20.5141986563473,Africa,Mauritius,MU,,Mauritius,2018-10-20,09:00
Phaethon lepturus,Animalia,TROPICBIRDS_PHAETHONTIDAE,White-tailed Tropicbird,,1,57.4722480773926,-20.5145092010498,Africa,Mauritius,MU,,Mauritius,2018-10-20,12:10
Columba livia domestica,Animalia,PIGEONS_AND_DOVES_COLUMBIDAE,Feral Pigeon,,1,57.41672134,-20.51115227,Africa,Mauritius,MU,,Mauritius,2018-09-23,16:46
Nesoenas mayeri,Animalia,PIGEONS_AND_DOVES_COLUMBIDAE,Pink Pigeon,,1,57.4165878295898,-20.5106296539307,Africa,Mauritius,MU,,Mauritius,2018-09-22,12:04
Spilopelia chinensis,Animalia,PIGEONS_AND_DOVES_COLUMBIDAE,Spotted Dove,,1,57.4564781188965,-20.4322147369385,Africa,Mauritius,MU,,Mauritius - Black River Gorges NP,2018-09-22,12:47
Foudia rubra,Animalia,WEAVERS_PLOCEIDAE,Mauritius Fody,,1,57.456859588623,-20.4333324432373,Africa,Mauritius,MU,,Mauritius - Black River Gorges NP,2018-09-22,13:12
Hypsipetes olivaceus,Animalia,BULBULS_PYCNONOTIDAE,Mauritius Bulbul,,1,57.4567108154297,-20.4330711364746,Africa,Mauritius,MU,,Mauritius - Black River Gorges NP,2018-09-22,13:17
Butorides striata,Animalia,HERONS_ARDEIDAE,Striated Heron,,1,57.5520362854004,-20.0008811950684,Africa,Mauritius,MU,,Mauritius,2018-09-16,16:33
Ploceus cucullatus,Animalia,WEAVERS_PLOCEIDAE,Village Weaver,,1,57.5533981323242,-20.0020275115967,Africa,Mauritius,MU,,Mauritius,2018-09-17,11:53
Crithagra mozambica,Animalia,FINCHES_FRINGILLIDAE,Yellow-fronted Canary,,1,57.4164619445801,-20.5106925964355,Africa,Mauritius,MU,,Mauritius,2018-09-20,13:19
Pycnonotus jocosus,Animalia,BULBULS_PYCNONOTIDAE,Red-whiskered Bulbul,,1,57.4166717529297,-20.5105285644531,Africa,Mauritius,MU,,Mauritius,2018-09-17,16:56
Passer domesticus,Animalia,OLD_WORLD_SPARROWS_PASSERIDAE,House Sparrow,,1,57.416561126709,-20.5106887817383,Africa,Mauritius,MU,,Mauritius,2018-09-18,15:49
Crithagra mozambica,Animalia,FINCHES_FRINGILLIDAE,Yellow-fronted Canary,,1,57.4165573120117,-20.5106906890869,Africa,Mauritius,MU,,Mauritius,2018-09-18,15:51
Foudia madagascariensis,Animalia,WEAVERS_PLOCEIDAE,Red Fody,,1,57.4165534973145,-20.5106906890869,Africa,Mauritius,MU,,Mauritius,2018-09-18,15:51
Acridotheres tristis,Animalia,STARLINGS_STURNIDAE,Common Myna,,1,57.4165496826172,-20.5106925964355,Africa,Mauritius,MU,,Mauritius,2018-09-18,15:52
Geopelia striata,Animalia,PIGEONS_AND_DOVES_COLUMBIDAE,Zebra Dove,,1,57.4165458679199,-20.5106945037842,Africa,Mauritius,MU,,Mauritius,2018-09-18,15:56
Numenius phaeopus,Animalia,SANDPIPERS_AND_ALLIES_SCOLOPACIDAE,Eurasian Whimbrel,,1,57.415515370667,-20.51207213392,Africa,Mauritius,MU,,Mauritius,2018-09-18,15:58
Estrilda astrild,Animalia,WAXBILLS_MUNIAS_ALLIES_ESTRILDIDAE,Common Waxbill,,1,57.4168663024902,-20.5109424591064,Africa,Mauritius,MU,,Mauritius,2018-09-18,16:37
Estrilda astrild,Animalia,WAXBILLS_MUNIAS_ALLIES_ESTRILDIDAE,Common Waxbill,,1,57.4160568416119,-20.5107403732225,Africa,Mauritius,MU,,Mauritius,2018-09-17,15:36
Passer domesticus,Animalia,OLD_WORLD_SPARROWS_PASSERIDAE,House Sparrow,,1,57.5634053350031,-20.499615976606,Africa,Mauritius,MU,,Mauritius,2018-09-05,16:21
Pycnonotus jocosus,Animalia,BULBULS_PYCNONOTIDAE,Red-whiskered Bulbul,,1,57.4295095447986,-20.4232535278615,Africa,Mauritius,MU,,Mauritius - Black River Gorges NP,2018-09-04,11:24
Foudia madagascariensis,Animalia,WEAVERS_PLOCEIDAE,Red Fody,,3,57.4563886318891,-20.4320307634961,Africa,Mauritius,MU,,Mauritius - Black River Gorges NP,2018-05-05,12:40
Pycnonotus jocosus,Animalia,BULBULS_PYCNONOTIDAE,Red-whiskered Bulbul,,1,57.4565294478624,-20.4320737626594,Africa,Mauritius,MU,,Mauritius - Black River Gorges NP,2018-05-05,12:40
Zosterops mauritianus,Animalia,WHITEEYES_ZOSTEROPIDAE,Mauritius Grey White-eye,,2,57.4571276642917,-20.4341093497541,Africa,Mauritius,MU,,Mauritius - Black River Gorges NP,2018-05-05,12:40
Estrilda astrild,Animalia,WAXBILLS_MUNIAS_ALLIES_ESTRILDIDAE,Common Waxbill,,10,57.4571713340072,-20.4340792168122,Africa,Mauritius,MU,,Mauritius - Black River Gorges NP,2018-05-05,12:40
Foudia rubra,Animalia,WEAVERS_PLOCEIDAE,Mauritius Fody,,2,57.7332222741635,-20.4197979206409,Africa,Mauritius,MU,,Mauritius,2018-05-05,12:40
Foudia rubra,Animalia,WEAVERS_PLOCEIDAE,Mauritius Fody,,1,57.7318343986363,-20.4206831334349,Africa,Mauritius,MU,,Mauritius,2018-05-05,12:40
Foudia rubra,Animalia,WEAVERS_PLOCEIDAE,Mauritius Fody,,1,57.7310206834765,-20.4199799755778,Africa,Mauritius,MU,,Mauritius,2018-05-05,12:40
Zosterops chloronothos,Animalia,WHITEEYES_ZOSTEROPIDAE,Mauritius Olive White-eye,,1,57.7306667995245,-20.4204654135,Africa,Mauritius,MU,,Mauritius,2018-05-05,12:40
Butorides striata,Animalia,HERONS_ARDEIDAE,Striated Heron,,3,57.7205562964619,-20.4226302495416,Africa,Mauritius,MU,,Mauritius,2018-05-05,12:01
Foudia madagascariensis,Animalia,WEAVERS_PLOCEIDAE,Red Fody,,3,57.3711378872929,-20.2732778527031,Africa,Mauritius,MU,,Mauritius,2018-05-02,17:26
Estrilda astrild,Animalia,WAXBILLS_MUNIAS_ALLIES_ESTRILDIDAE,Common Waxbill,,3,57.3699412867961,-20.2809590287695,Africa,Mauritius,MU,,Mauritius,2018-05-01,16:15
Pycnonotus jocosus,Animalia,BULBULS_PYCNONOTIDAE,Red-whiskered Bulbul,,1,57.3700435590033,-20.2796650067833,Africa,Mauritius,MU,,Mauritius,2018-05-01,16:12
Pycnonotus jocosus,Animalia,BULBULS_PYCNONOTIDAE,Red-whiskered Bulbul,,1,57.3758111335871,-20.2683027740757,Africa,Mauritius,MU,,Mauritius,2018-04-29,16:38
Estrilda astrild,Animalia,WAXBILLS_MUNIAS_ALLIES_ESTRILDIDAE,Common Waxbill,,9,57.3742370121715,-20.2715944312702,Africa,Mauritius,MU,,Mauritius,2018-04-29,16:25
Pycnonotus jocosus,Animalia,BULBULS_PYCNONOTIDAE,Red-whiskered Bulbul,,1,57.3719053639405,-20.2713481596612,Africa,Mauritius,MU,,Mauritius,2018-04-29,16:18
Geopelia striata,Animalia,PIGEONS_AND_DOVES_COLUMBIDAE,Zebra Dove,,2,57.3731145076988,-20.2703052526529,Africa,Mauritius,MU,,Mauritius,2018-04-29,16:18
Passer domesticus,Animalia,OLD_WORLD_SPARROWS_PASSERIDAE,House Sparrow,,100,57.3707520682899,-20.2716479916314,Africa,Mauritius,MU,,Mauritius,2018-04-29,16:10
Acridotheres tristis,Animalia,STARLINGS_STURNIDAE,Common Myna,,1,57.3709218856482,-20.2720126882384,Africa,Mauritius,MU,,Mauritius,2018-04-29,16:08
Pycnonotus jocosus,Animalia,BULBULS_PYCNONOTIDAE,Red-whiskered Bulbul,,1,57.3708701693056,-20.2731674630384,Africa,Mauritius,MU,,Mauritius,2018-04-29,16:04
Foudia madagascariensis,Animalia,WEAVERS_PLOCEIDAE,Red Fody,,1,57.3708701693056,-20.2731674630384,Africa,Mauritius,MU,,Mauritius,2018-04-29,16:04
Foudia madagascariensis,Animalia,WEAVERS_PLOCEIDAE,Red Fody,,4,57.4480440281867,-20.2839167090322,Africa,Mauritius,MU,,Mauritius,2018-04-29,10:21
Acridotheres tristis,Animalia,STARLINGS_STURNIDAE,Common Myna,,1,57.417371962273,-20.2599715814183,Africa,Mauritius,MU,,Mauritius,2018-04-29,10:04
Pycnonotus jocosus,Animalia,BULBULS_PYCNONOTIDAE,Red-whiskered Bulbul,,1,57.4175316345055,-20.2595882203273,Africa,Mauritius,MU,,Mauritius,2018-04-29,10:03
Foudia madagascariensis,Animalia,WEAVERS_PLOCEIDAE,Red Fody,,1,57.4076286578992,-20.2603561755972,Africa,Mauritius,MU,,Mauritius,2018-04-29,09:55
Phedina borbonica,Animalia,SWALLOWS_HIRUNDINIDAE,Mascarene Martin,,1,57.3636236784213,-20.2914072801766,Africa,Mauritius,MU,,Mauritius,2018-04-28,10:32
Foudia madagascariensis,Animalia,WEAVERS_PLOCEIDAE,Red Fody,,5,57.3691537355687,-20.2760854423154,Africa,Mauritius,MU,,Mauritius,2018-04-28,10:06
Estrilda astrild,Animalia,WAXBILLS_MUNIAS_ALLIES_ESTRILDIDAE,Common Waxbill,,3,57.3652150689021,-20.2814433980171,Africa,Mauritius,MU,,Mauritius,2018-04-28,09:53
Pycnonotus jocosus,Animalia,BULBULS_PYCNONOTIDAE,Red-whiskered Bulbul,,2,57.3690792620681,-20.2761674636566,Africa,Mauritius,MU,,Mauritius,2018-04-28,09:44
Pycnonotus jocosus,Animalia,BULBULS_PYCNONOTIDAE,Red-whiskered Bulbul,,1,57.3691537355687,-20.2760854423154,Africa,Mauritius,MU,,Mauritius,2018-04-28,08:12
Acridotheres tristis,Animalia,STARLINGS_STURNIDAE,Common Myna,,1,57.3690172582879,-20.2755365146695,Africa,Mauritius,MU,,Mauritius,2018-04-27,12:12
Geopelia striata,Animalia,PIGEONS_AND_DOVES_COLUMBIDAE,Zebra Dove,,1,57.3677657867724,-20.2790236551915,Africa,Mauritius,MU,,Mauritius,2018-04-27,11:35
Geopelia striata,Animalia,PIGEONS_AND_DOVES_COLUMBIDAE,Zebra Dove,,2,57.3669671360938,-20.2806879999305,Africa,Mauritius,MU,,Mauritius,2018-04-27,11:27
Foudia madagascariensis,Animalia,WEAVERS_PLOCEIDAE,Red Fody,,2,57.3676513860541,-20.2806970816883,Africa,Mauritius,MU,,Mauritius,2018-04-27,11:24
Passer domesticus,Animalia,OLD_WORLD_SPARROWS_PASSERIDAE,House Sparrow,,1,57.3693699762759,-20.2763050189431,Africa,Mauritius,MU,,Mauritius,2018-04-27,11:09
Foudia madagascariensis,Animalia,WEAVERS_PLOCEIDAE,Red Fody,,3,57.369425548294,-20.2762225829254,Africa,Mauritius,MU,,Mauritius,2018-04-27,11:08
Phedina borbonica,Animalia,SWALLOWS_HIRUNDINIDAE,Mascarene Martin,,3,57.3677876405952,-20.2766825817714,Africa,Mauritius,MU,,Mauritius,2018-04-27,10:12
Acridotheres tristis,Animalia,STARLINGS_STURNIDAE,Common Myna,,2,57.3689971492229,-20.2757327864135,Africa,Mauritius,MU,,Mauritius,2018-04-26,13:50
Passer domesticus,Animalia,OLD_WORLD_SPARROWS_PASSERIDAE,House Sparrow,,10,57.3690297548262,-20.2755869412984,Africa,Mauritius,MU,,Mauritius,2018-04-26,13:45
Foudia madagascariensis,Animalia,WEAVERS_PLOCEIDAE,Red Fody,,2,57.3684801869596,-20.2759056559291,Africa,Mauritius,MU,,Mauritius,2018-04-26,13:44
Corvus splendens,Animalia,CROWS_AND_JAYS_CORVIDAE,House Crow,,1,57.62,-20.05,Africa,Mauritius,MU,,Mauritius,2018-09-16,14:51
Phaethon lepturus,Animalia,TROPICBIRDS_PHAETHONTIDAE,White-tailed Tropicbird,,1,57.6697082519531,-19.8839778900146,Africa,Mauritius,MU,,Mauritius - Flat Island ,2018-09-13,16:21
Acridotheres tristis,Animalia,STARLINGS_STURNIDAE,Common Myna,,1,57.5537452697754,-20.0009708404541,Africa,Mauritius,MU,,Mauritius,2018-09-11,15:02
Geopelia striata,Animalia,PIGEONS_AND_DOVES_COLUMBIDAE,Zebra Dove,,1,57.5537452697754,-20.0009708404541,Africa,Mauritius,MU,,Mauritius,2018-09-11,15:24
Foudia madagascariensis,Animalia,WEAVERS_PLOCEIDAE,Red Fody,,1,57.5537452697754,-20.0009708404541,Africa,Mauritius,MU,,Mauritius,2018-09-11,17:26
Ploceus cucullatus,Animalia,WEAVERS_PLOCEIDAE,Village Weaver,,1,57.5537452697754,-20.0009708404541,Africa,Mauritius,MU,,Mauritius,2018-09-11,17:26
Butorides striata,Animalia,HERONS_ARDEIDAE,Striated Heron,,1,57.5537452697754,-20.0009708404541,Africa,Mauritius,MU,,Mauritius,2018-09-11,17:28
Psittacula krameri,Animalia,PSITTACULIDAE,Rose-ringed Parakeet,,1,57.42492416,-20.38744703,Africa,Mauritius,MU,,Mauritius - Black River Gorges NP,2018-05-06,15:57
Nesoenas picturatus,Animalia,PIGEONS_AND_DOVES_COLUMBIDAE,Malagasy Turtle Dove,,2,57.42748775,-20.39369114,Africa,Mauritius,MU,,Mauritius - Black River Gorges NP,2018-05-06,16:15
Lalage typica,Animalia,CUCKOOSHRIKES_CAMPEPHAGIDAE,Mauritius Cuckooshrike,,1,57.42742054,-20.39375658,Africa,Mauritius,MU,,Mauritius - Black River Gorges NP,2018-05-06,16:25
Foudia rubra,Animalia,WEAVERS_PLOCEIDAE,Mauritius Fody,,2,57.73283243,-20.42069897,Africa,Mauritius,MU,,Mauritius,2018-03-12,
Phelsuma cepediana,Animalia,Gekkonidae,Bluetail Day Gecko,,1,57.73283243,-20.42069897,Africa,Mauritius,MU,,Mauritius,2018-03-12,
Crithagra mozambica,Animalia,FINCHES_FRINGILLIDAE,Yellow-fronted Canary,,1,57.52557278,-20.52298843,Africa,Mauritius,MU,,Mauritius,2017-10-06,
Zosterops mauritianus,Animalia,WHITEEYES_ZOSTEROPIDAE,Mauritius Grey White-eye,,1,57.49484288,-20.41823046,Africa,Mauritius,MU,,Mauritius,2017-12-03,13:42
Nesoenas mayeri,Animalia,PIGEONS_AND_DOVES_COLUMBIDAE,Pink Pigeon,,1,57.47230128,-20.40820897,Africa,Mauritius,MU,,Mauritius,2017-12-03,13:54
Psittacula eques,Animalia,PSITTACULIDAE,Echo Parakeet,,1,57.47159594,-20.40854843,Africa,Mauritius,MU,,Mauritius - Gorges du Rivière Noire NP,2017-12-03,14:07
Foudia rubra,Animalia,WEAVERS_PLOCEIDAE,Mauritius Fody,,1,57.47159195,-20.40854605,Africa,Mauritius,MU,,Mauritius - Gorges du Rivière Noire NP,2017-12-03,14:07
Hypsipetes olivaceus,Animalia,BULBULS_PYCNONOTIDAE,Mauritius Bulbul,,2,57.47747561,-20.45344708,Africa,Mauritius,MU,,Mauritius,2017-12-03,14:39
Zosterops mauritianus,Animalia,WHITEEYES_ZOSTEROPIDAE,Mauritius Grey White-eye,,2,57.47748331,-20.45343165,Africa,Mauritius,MU,,Mauritius,2017-12-03,15:30
Psittacula eques,Animalia,PSITTACULIDAE,Echo Parakeet,,1,57.46091035,-20.4020477,Africa,Mauritius,MU,,Mauritius - Gorges du Rivière Noire NP,2017-12-04,06:06
Hypsipetes olivaceus,Animalia,BULBULS_PYCNONOTIDAE,Mauritius Bulbul,,1,57.4609199,-20.40210471,Africa,Mauritius,MU,,Mauritius - Gorges du Rivière Noire NP,2017-12-04,06:07
Psittacula eques,Animalia,PSITTACULIDAE,Echo Parakeet,,1,57.45944273,-20.40164716,Africa,Mauritius,MU,,Mauritius - Gorges du Rivière Noire NP,2017-12-04,06:15
Zosterops mauritianus,Animalia,WHITEEYES_ZOSTEROPIDAE,Mauritius Grey White-eye,,2,57.45853678,-20.40045797,Africa,Mauritius,MU,,Mauritius - Gorges du Rivière Noire NP,2017-12-04,06:17
Psittacula eques,Animalia,PSITTACULIDAE,Echo Parakeet,,2,57.45559363,-20.39968499,Africa,Mauritius,MU,,Mauritius - Gorges du Rivière Noire NP,2017-12-04,06:26
Lalage typica,Animalia,CUCKOOSHRIKES_CAMPEPHAGIDAE,Mauritius Cuckooshrike,,1,57.44839622,-20.39796258,Africa,Mauritius,MU,,Mauritius - Gorges du Rivière Noire NP,2017-12-04,06:54
Lalage typica,Animalia,CUCKOOSHRIKES_CAMPEPHAGIDAE,Mauritius Cuckooshrike,,1,57.45505069,-20.39994345,Africa,Mauritius,MU,,Mauritius - Gorges du Rivière Noire NP,2017-12-04,07:14
Falco punctatus,Animalia,CARACAS_AND_FALCONS_FALCONIDAE,Mauritius Kestrel,,1,57.70277397,-20.34114098,Africa,Mauritius,MU,,Mauritius,2017-12-04,12:10
Polistes olivaceus,Animalia,Vespidae,Yellow Oriental Paper Wasp,,1,63.37939524,-19.70688979,Africa,Mauritius,MU,,Mauritius,2017-10-04,
Leptotes pirithous,Animalia,GOSSAMERWINGED_BUTTERFLIES_LYCAENIDAE,Lang’s Short-tailed Blue,,1,57.4802,-20.4388,Africa,Mauritius,MU,,Mauritius,2017-10-25,08:13
Heteropsis narcissus narcissus,Animalia,BRUSHFOOTED_BUTTERFLIES_NYMPHALIDAE,,,10,57.4802,-20.4388,Africa,Mauritius,MU,,Mauritius,2017-10-25,08:13
Phalanta phalantha aethiopica,Animalia,BRUSHFOOTED_BUTTERFLIES_NYMPHALIDAE,,,1,57.456,-20.3993,Africa,Mauritius,MU,,Mauritius - Gorges du Rivière Noire NP,2017-10-26,08:48
Phelsuma ornata,Animalia,Gekkonidae,Ornate Day Gecko,,1,57.7327,-20.4201,Africa,Mauritius,MU,,Mauritius,2017-10-26,16:09
Foudia flavicans,Animalia,WEAVERS_PLOCEIDAE,Rodrigues Fody,,1,63.47123408,-19.70284956,Africa,Mauritius,MU,,Mauritius,2017-10-04,13:00
Heteropsis narcissus,Animalia,BRUSHFOOTED_BUTTERFLIES_NYMPHALIDAE,,,1,57.69773787,-20.36797994,Africa,Mauritius,MU,,Mauritius,2017-10-03,13:43
Foudia madagascariensis,Animalia,WEAVERS_PLOCEIDAE,Red Fody,,5,63.4633,-19.7064,Africa,Mauritius,MU,,Mauritius,2017-10-28,06:13
Acrocephalus rodericanus,Animalia,Acrocephalidae,Rodrigues Warbler,,6,63.4633,-19.7064,Africa,Mauritius,MU,,Mauritius,2017-10-28,07:31
Foudia flavicans,Animalia,WEAVERS_PLOCEIDAE,Rodrigues Fody,,2,63.4633,-19.7064,Africa,Mauritius,MU,,Mauritius,2017-10-28,06:13
Foudia flavicans,Animalia,WEAVERS_PLOCEIDAE,Rodrigues Fody,,2,63.435,-19.6918,Africa,Mauritius,MU,,Mauritius,2017-10-27,16:31
Crithagra mozambica,Animalia,FINCHES_FRINGILLIDAE,Yellow-fronted Canary,,2,63.435,-19.6918,Africa,Mauritius,MU,,Mauritius,2017-10-27,16:26
Acrocephalus rodericanus,Animalia,Acrocephalidae,Rodrigues Warbler,,2,63.4357,-19.6917,Africa,Mauritius,MU,,Mauritius,2017-10-27,15:58
Lalage typica,Animalia,CUCKOOSHRIKES_CAMPEPHAGIDAE,Mauritius Cuckooshrike,,1,57.457,-20.3992,Africa,Mauritius,MU,,Mauritius - Gorges du Rivière Noire NP,2017-10-27,09:09
Zosterops chloronothos,Animalia,WHITEEYES_ZOSTEROPIDAE,Mauritius Olive White-eye,,10,57.7327,-20.4201,Africa,Mauritius,MU,,Mauritius,2017-10-26,16:09
Falco punctatus,Animalia,CARACAS_AND_FALCONS_FALCONIDAE,Mauritius Kestrel,,2,57.7026,-20.3409,Africa,Mauritius,MU,,Mauritius,2017-10-26,12:02
Hypsipetes olivaceus,Animalia,BULBULS_PYCNONOTIDAE,Mauritius Bulbul,,1,57.4505,-20.4001,Africa,Mauritius,MU,,Mauritius - Gorges du Rivière Noire NP,2017-10-26,09:24
Psittacula eques,Animalia,PSITTACULIDAE,Echo Parakeet,,4,57.456,-20.3993,Africa,Mauritius,MU,,Mauritius - Gorges du Rivière Noire NP,2017-10-26,08:48
Phedina borbonica borbonica,Animalia,SWALLOWS_HIRUNDINIDAE,Mascarene Martin ssp borbonica,,4,57.4931,-20.4202,Africa,Mauritius,MU,,Mauritius,2017-10-26,07:26
Nesoenas mayeri,Animalia,PIGEONS_AND_DOVES_COLUMBIDAE,Pink Pigeon,,6,57.4824,-20.4394,Africa,Mauritius,MU,,Mauritius,2017-10-25,08:24
Zosterops mauritianus,Animalia,WHITEEYES_ZOSTEROPIDAE,Mauritius Grey White-eye,,5,57.4802,-20.4388,Africa,Mauritius,MU,,Mauritius,2017-10-25,08:13
Foudia rubra,Animalia,WEAVERS_PLOCEIDAE,Mauritius Fody,,1,57.4695,-20.4086,Africa,Mauritius,MU,,Mauritius - Gorges du Rivière Noire NP,2017-10-24,17:48
Lalage typica,Animalia,CUCKOOSHRIKES_CAMPEPHAGIDAE,Mauritius Cuckooshrike,,1,57.4611,-20.402,Africa,Mauritius,MU,,Mauritius - Gorges du Rivière Noire NP,2017-10-24,17:03
Nesoenas mayeri,Animalia,PIGEONS_AND_DOVES_COLUMBIDAE,Pink Pigeon,,1,57.4729,-20.4086,Africa,Mauritius,MU,,Mauritius,2017-10-24,15:49
Phelsuma ornata,Animalia,Gekkonidae,Ornate Day Gecko,,1,57.72404765,-20.41144816,Africa,Mauritius,MU,,Mauritius,2017-10-07,
Phelsuma ornata,Animalia,Gekkonidae,Ornate Day Gecko,,1,57.73200631,-20.42115327,Africa,Mauritius,MU,,Mauritius,2017-10-07,08:00
Foudia rubra,Animalia,WEAVERS_PLOCEIDAE,Mauritius Fody,,5,57.43570804,-20.39529866,Africa,Mauritius,MU,,Mauritius - Gorges du Rivière Noire NP,2017-10-06,
Passer domesticus,Animalia,OLD_WORLD_SPARROWS_PASSERIDAE,House Sparrow,,1,57.43570804,-20.39529866,Africa,Mauritius,MU,,Mauritius - Gorges du Rivière Noire NP,2017-10-06,
Hypsipetes olivaceus,Animalia,BULBULS_PYCNONOTIDAE,Mauritius Bulbul,,3,57.43570804,-20.39529866,Africa,Mauritius,MU,,Mauritius - Gorges du Rivière Noire NP,2017-10-06,
Lalage typica,Animalia,CUCKOOSHRIKES_CAMPEPHAGIDAE,Mauritius Cuckooshrike,,2,57.43570804,-20.39529866,Africa,Mauritius,MU,,Mauritius - Gorges du Rivière Noire NP,2017-10-06,
Psittacula eques,Animalia,PSITTACULIDAE,Echo Parakeet,,2,57.43570804,-20.39529866,Africa,Mauritius,MU,,Mauritius - Gorges du Rivière Noire NP,2017-10-06,
Nesoenas mayeri,Animalia,PIGEONS_AND_DOVES_COLUMBIDAE,Pink Pigeon,,1,57.43570804,-20.39529866,Africa,Mauritius,MU,,Mauritius - Gorges du Rivière Noire NP,2017-10-06,
Alectoris rufa,Animalia,FRANCOLINS_QUAILS_PARTRIDGES_AND_PHEASANTS_PHASIANIDAE,Red-legged Partridge,,2,57.48227117,-20.46994104,Africa,Mauritius,MU,,Mauritius,2017-10-05,
Nesoenas mayeri,Animalia,PIGEONS_AND_DOVES_COLUMBIDAE,Pink Pigeon,,1,57.43351934,-20.45045737,Africa,Mauritius,MU,,Mauritius - Gorges du Rivière Noire NP,2017-10-05,
Phelsuma cepediana,Animalia,Gekkonidae,Bluetail Day Gecko,,1,57.70006656,-20.36256352,Africa,Mauritius,MU,,Mauritius,2017-10-03,
Nesoenas mayeri,Animalia,PIGEONS_AND_DOVES_COLUMBIDAE,Pink Pigeon,,3,57.70006656,-20.36256352,Africa,Mauritius,MU,,Mauritius,2017-10-03,
Falco punctatus,Animalia,CARACAS_AND_FALCONS_FALCONIDAE,Mauritius Kestrel,,2,57.69686937,-20.36755097,Africa,Mauritius,MU,,Mauritius,2017-10-03,
Hibiscus hispidissimus,Plantae,MALVACEAE,,,1,57.58576155,-20.00562281,Africa,Mauritius,MU,,Mauritius,2009-05-08,
Passiflora foetida,Plantae,PASSIFLORACEAE,,,1,57.5850749,-20.00755843,Africa,Mauritius,MU,,Mauritius,2009-04-25,
Ploceus cucullatus,Animalia,WEAVERS_PLOCEIDAE,Village Weaver,,10,57.58401614,-20.01082876,Africa,Mauritius,MU,,Mauritius,2017-08-13,14:19
Geopelia striata,Animalia,PIGEONS_AND_DOVES_COLUMBIDAE,Zebra Dove,,1,57.58322741,-20.01010132,Africa,Mauritius,MU,,Mauritius,2017-08-13,14:22
Ploceus cucullatus,Animalia,WEAVERS_PLOCEIDAE,Village Weaver,,20,57.57780281,-20.0082212,Africa,Mauritius,MU,,Mauritius,2017-08-13,14:36
Geopelia striata,Animalia,PIGEONS_AND_DOVES_COLUMBIDAE,Zebra Dove,,2,57.57780281,-20.0082212,Africa,Mauritius,MU,,Mauritius,2017-08-13,14:36
Foudia madagascariensis,Animalia,WEAVERS_PLOCEIDAE,Red Fody,,1,57.57885462,-20.00746329,Africa,Mauritius,MU,,Mauritius,2017-08-13,14:42
Foudia madagascariensis,Animalia,WEAVERS_PLOCEIDAE,Red Fody,,1,57.58434689,-20.01261362,Africa,Mauritius,MU,,Mauritius,2017-08-13,16:01
Mocis frugalis,Animalia,Noctuidae,,,1,57.58564353,-20.00690819,Africa,Mauritius,MU,,Mauritius,2009-05-12,17:30
Ploceus cucullatus,Animalia,WEAVERS_PLOCEIDAE,Village Weaver,,1,57.78751731,-20.23353465,Africa,Mauritius,MU,,Mauritius,2016-04-10,
Nesoenas mayeri,Animalia,PIGEONS_AND_DOVES_COLUMBIDAE,Pink Pigeon,,1,57.4721,-20.4084,Africa,Mauritius,MU,,Mauritius,2016-10-13,13:17
Zosterops mauritianus,Animalia,WHITEEYES_ZOSTEROPIDAE,Mauritius Grey White-eye,,3,57.4563,-20.4319,Africa,Mauritius,MU,,Mauritius - Gorges du Rivière Noire NP,2016-10-13,12:42
Hypsipetes olivaceus,Animalia,BULBULS_PYCNONOTIDAE,Mauritius Bulbul,,1,57.4563,-20.4319,Africa,Mauritius,MU,,Mauritius - Gorges du Rivière Noire NP,2016-10-13,12:42
Foudia rubra,Animalia,WEAVERS_PLOCEIDAE,Mauritius Fody,,1,57.4563,-20.4319,Africa,Mauritius,MU,,Mauritius - Gorges du Rivière Noire NP,2016-10-13,12:41
Phaethon lepturus,Animalia,TROPICBIRDS_PHAETHONTIDAE,White-tailed Tropicbird,,4,57.4297,-20.4234,Africa,Mauritius,MU,,Mauritius - Gorges du Rivière Noire NP,2016-10-13,11:44
Hypsipetes olivaceus,Animalia,BULBULS_PYCNONOTIDAE,Mauritius Bulbul,,1,57.4296,-20.4233,Africa,Mauritius,MU,,Mauritius - Gorges du Rivière Noire NP,2016-10-13,11:43
Phedina borbonica,Animalia,SWALLOWS_HIRUNDINIDAE,Mascarene Martin,,10,57.3204,-20.4353,Africa,Mauritius,MU,,Mauritius,2016-10-11,17:00
Pluvialis squatarola,Animalia,PLOVERS_CHARADRIIDAE,Grey Plover,,1,57.3226,-20.4411,Africa,Mauritius,MU,,Mauritius,2016-10-11,17:00
Numenius phaeopus,Animalia,SANDPIPERS_AND_ALLIES_SCOLOPACIDAE,Eurasian Whimbrel,,2,57.3226,-20.4411,Africa,Mauritius,MU,,Mauritius,2016-10-11,17:00
Charadrius leschenaultii,Animalia,PLOVERS_CHARADRIIDAE,Greater Sand Plover,,1,57.3226,-20.4411,Africa,Mauritius,MU,,Mauritius,2016-10-11,17:00
Numenius phaeopus,Animalia,SANDPIPERS_AND_ALLIES_SCOLOPACIDAE,Eurasian Whimbrel,,1,57.7091,-20.4046,Africa,Mauritius,MU,,Mauritius,2016-10-08,16:54
Foudia madagascariensis,Animalia,WEAVERS_PLOCEIDAE,Red Fody,,2,57.514836899936,-20.088259024527,Africa,Mauritius,MU,,Mauritius,2016-07-27,
Crithagra mozambica,Animalia,FINCHES_FRINGILLIDAE,Yellow-fronted Canary,,4,57.514836899936,-20.088259024527,Africa,Mauritius,MU,,Mauritius,2016-07-27,
Acridotheres tristis,Animalia,STARLINGS_STURNIDAE,Common Myna,,20,57.514836899936,-20.088259024527,Africa,Mauritius,MU,,Mauritius,2016-07-27,
Geopelia striata,Animalia,PIGEONS_AND_DOVES_COLUMBIDAE,Zebra Dove,,25,57.514836899936,-20.088259024527,Africa,Mauritius,MU,,Mauritius,2016-07-27,
Phedina borbonica borbonica,Animalia,SWALLOWS_HIRUNDINIDAE,Mascarene Martin ssp borbonica,,2,57.493379227817,-20.420698816429,Africa,Mauritius,MU,,Mauritius,2016-07-23,
Ploceus cucullatus,Animalia,WEAVERS_PLOCEIDAE,Village Weaver,,1,57.474314086139,-20.428832767264,Africa,Mauritius,MU,,Mauritius,2016-07-23,
Zosterops mauritianus,Animalia,WHITEEYES_ZOSTEROPIDAE,Mauritius Grey White-eye,,5,57.474314086139,-20.428832767264,Africa,Mauritius,MU,,Mauritius,2016-07-23,
Hypsipetes olivaceus,Animalia,BULBULS_PYCNONOTIDAE,Mauritius Bulbul,,2,57.474314086139,-20.428832767264,Africa,Mauritius,MU,,Mauritius,2016-07-23,
Lalage typica,Animalia,CUCKOOSHRIKES_CAMPEPHAGIDAE,Mauritius Cuckooshrike,,1,57.474314086139,-20.428832767264,Africa,Mauritius,MU,,Mauritius,2016-07-23,
Psittacula eques,Animalia,PSITTACULIDAE,Echo Parakeet,,4,57.474314086139,-20.428832767264,Africa,Mauritius,MU,,Mauritius,2016-07-23,
Psittacula krameri,Animalia,PSITTACULIDAE,Rose-ringed Parakeet,,2,57.474314086139,-20.428832767264,Africa,Mauritius,MU,,Mauritius,2016-07-22,
Foudia rubra,Animalia,WEAVERS_PLOCEIDAE,Mauritius Fody,,4,57.730436548591,-20.419251105315,Africa,Mauritius,MU,,Mauritius,2016-07-22,
Zosterops chloronothos,Animalia,WHITEEYES_ZOSTEROPIDAE,Mauritius Olive White-eye,,3,57.72708915174,-20.421382684344,Africa,Mauritius,MU,,Mauritius,2016-07-22,
Nesoenas mayeri,Animalia,PIGEONS_AND_DOVES_COLUMBIDAE,Pink Pigeon,,5,57.730422466993,-20.419090544437,Africa,Mauritius,MU,,Mauritius,2016-07-22,
Phelsuma ornata,Animalia,Gekkonidae,Ornate Day Gecko,,1,57.365303663537,-20.352666872768,Africa,Mauritius,MU,,Mauritius,2016-07-23,
Pycnonotus jocosus,Animalia,BULBULS_PYCNONOTIDAE,Red-whiskered Bulbul,,2,57.365030078217,-20.3527699778,Africa,Mauritius,MU,,Mauritius,2016-07-19,09:00
Nesoenas picturatus,Animalia,PIGEONS_AND_DOVES_COLUMBIDAE,Malagasy Turtle Dove,,1,57.502294890583,-20.155804986659,Africa,Mauritius,MU,,Mauritius,2016-02-13,
Junonia rhadama,Animalia,BRUSHFOOTED_BUTTERFLIES_NYMPHALIDAE,Brilliant blue,,1,57.3527938407,-20.4377930708,Africa,Mauritius,MU,,Mauritius,2016-01-25,
Junonia rhadama,Animalia,BRUSHFOOTED_BUTTERFLIES_NYMPHALIDAE,Brilliant blue,,2,57.3527938407,-20.4377930708,Africa,Mauritius,MU,,Mauritius,2016-01-23,
Lampides boeticus,Animalia,GOSSAMERWINGED_BUTTERFLIES_LYCAENIDAE,Long-tailed Blue,,2,57.3528126162,-20.437808151,Africa,Mauritius,MU,,Mauritius,2016-01-22,
Nesoenas mayeri,Animalia,PIGEONS_AND_DOVES_COLUMBIDAE,Pink Pigeon,,1,57.7328612655,-20.4208196286,Africa,Mauritius,MU,,Mauritius,2015-10-15,
Zosterops chloronothos,Animalia,WHITEEYES_ZOSTEROPIDAE,Mauritius Olive White-eye,,20,57.7328612655,-20.4208196286,Africa,Mauritius,MU,,Mauritius,2015-10-15,
Foudia rubra,Animalia,WEAVERS_PLOCEIDAE,Mauritius Fody,,2,57.7328612655,-20.4208196286,Africa,Mauritius,MU,,Mauritius,2015-10-15,
