scientificName,kingdom,family,vernacularName,previousIdentifications,individualCount,longitudeDecimal,latitudeDecimal,continent,country,countryCode,stateProvince,locality,eventDate,eventTime
Thalasseus sandvicensis,Animalia,GULLS_TERNS_AND_SKIMMERS_LARIDAE,Sandwich Tern,,3,7.48910039663,43.749706223,Europe,Monaco,MC,,Monaco,2015-03-04,
Phalacrocorax carbo,Animalia,CORMORANTS_PHALACROCORACIDAE,Great Cormorant,,3,7.48910039663,43.749706223,Europe,Monaco,MC,,Monaco,2015-03-04,
Phalacrocorax aristotelis desmarestii,Animalia,CORMORANTS_PHALACROCORACIDAE,European Shag ssp desmarestii,,2,7.48910039663,43.749706223,Europe,Monaco,MC,,Monaco,2015-03-04,
Burhinus oedicnemus,Animalia,THICKKNEES_BURHINIDAE,Eurasian Stone-curlew,,1,7.48704046011,43.7493342141,Europe,Monaco,MC,,Monaco,2015-03-04,
Corvus cornix,Animalia,CROWS_AND_JAYS_CORVIDAE,Hooded Crow,,1,7.48655498028,43.7499532589,Europe,Monaco,MC,,Monaco,2015-02-27,
Phalacrocorax aristotelis desmarestii,Animalia,CORMORANTS_PHALACROCORACIDAE,European Shag ssp desmarestii,,3,7.48689830303,43.7479071895,Europe,Monaco,MC,,Monaco,2015-02-27,
Larus michahellis,Animalia,GULLS_TERNS_AND_SKIMMERS_LARIDAE,Yellow-legged Gull,,3,7.42488026619,43.7371816189,Europe,Monaco,MC,,Monaco,2014-09-25,10:30
Falco tinnunculus,Animalia,CARACAS_AND_FALCONS_FALCONIDAE,Common Kestrel,,1,7.42681984,43.73765721,Europe,Monaco,MC,,Monaco,2014-08-19,14:14
Larus michahellis,Animalia,GULLS_TERNS_AND_SKIMMERS_LARIDAE,Yellow-legged Gull,,50,7.42691239,43.73768771,Europe,Monaco,MC,,Monaco,2014-08-19,14:14
Larus michahellis,Animalia,GULLS_TERNS_AND_SKIMMERS_LARIDAE,Yellow-legged Gull,,6,7.42756003274458,43.7313664506048,Europe,Monaco,MC,,Monaco,2014-04-14,09:38
Larus michahellis,Animalia,GULLS_TERNS_AND_SKIMMERS_LARIDAE,Yellow-legged Gull,,5,7.43465423584,43.7468550641,Europe,Monaco,MC,,Monaco,2013-09-25,
Larus michahellis,Animalia,GULLS_TERNS_AND_SKIMMERS_LARIDAE,Yellow-legged Gull,,1,7.422265,43.735198,Europe,Monaco,MC,,Monaco,2013-07-23,12:49
Chromis chromis,Animalia,POMACENTRIDAE_DAMSELFISHES,Damselfish,,10,7.4221622942787,43.735560698934,Europe,Monaco,MC,,Monaco,2013-07-09,
Ischnura elegans,Animalia,POND_DAMSELS_COENAGRIONIDAE,Common Bluetail,,6,7.4309492110115,43.74241177763,Europe,Monaco,MC,,Monaco,2013-07-09,
Orthetrum cancellatum,Animalia,SKIMMERS_LIBELLULIDAE,Black-tailed Skimmer,,2,7.4309492110115,43.74241177763,Europe,Monaco,MC,,Monaco,2013-07-09,
Sylvia atricapilla,Animalia,OLD_WORLD_WARBLERS_SYLVIIDAE,Eurasian Blackcap,,1,7.4272871008725,43.731986664418,Europe,Monaco,MC,,Monaco,2013-07-09,
Larus michahellis,Animalia,GULLS_TERNS_AND_SKIMMERS_LARIDAE,Yellow-legged Gull,,55,7.4223518362851,43.737847234875,Europe,Monaco,MC,,Monaco,2013-07-09,
Passer italiae,Animalia,OLD_WORLD_SPARROWS_PASSERIDAE,Italian Sparrow,,2,7.4223518362851,43.737847234875,Europe,Monaco,MC,,Monaco,2013-07-09,
Larus michahellis,Animalia,GULLS_TERNS_AND_SKIMMERS_LARIDAE,Yellow-legged Gull,,63,7.4333810797543,43.745329739595,Europe,Monaco,MC,,Monaco,2013-07-01,
Iphiclides podalirius,Animalia,SWALLOWTAILS_PAPILIONIDAE,Scarce Swallowtail,,1,7.4,43.7,Europe,Monaco,MC,,Monaco,2012-07-26,
Larus michahellis,Animalia,GULLS_TERNS_AND_SKIMMERS_LARIDAE,Yellow-legged Gull,,10,7.44259828301,43.746198578,Europe,Monaco,MC,,Monaco,2012-07-23,
Corvus cornix,Animalia,CROWS_AND_JAYS_CORVIDAE,Hooded Crow,,1,7.44259828301,43.746198578,Europe,Monaco,MC,,Monaco,2012-07-23,
Sylvia atricapilla,Animalia,OLD_WORLD_WARBLERS_SYLVIIDAE,Eurasian Blackcap,,1,7.42641448975,43.7424526002,Europe,Monaco,MC,,Monaco,2012-06-15,
Larus michahellis,Animalia,GULLS_TERNS_AND_SKIMMERS_LARIDAE,Yellow-legged Gull,,1,7.42363572121,43.7328172054,Europe,Monaco,MC,,Monaco,2009-07-16,
Phalacrocorax aristotelis,Animalia,CORMORANTS_PHALACROCORACIDAE,European Shag,,1,7.43185400963,43.7420340392,Europe,Monaco,MC,,Monaco,2009-07-16,
Streptopelia decaocto,Animalia,PIGEONS_AND_DOVES_COLUMBIDAE,Eurasian Collared Dove,,1,7.43098497391,43.7424758534,Europe,Monaco,MC,,Monaco,2009-07-16,
Ischnura elegans,Animalia,POND_DAMSELS_COENAGRIONIDAE,Common Bluetail,,1,7.43098497391,43.7424758534,Europe,Monaco,MC,,Monaco,2009-07-16,
Chroicocephalus ridibundus,Animalia,GULLS_TERNS_AND_SKIMMERS_LARIDAE,Black-headed Gull,,1,7.46804237366,43.7569919011,Europe,Monaco,MC,,Monaco,2009-07-16,
Hyles livornica,Animalia,Sphingidae,Striped Hawk-moth,,1,7.47084259987,43.7574413541,Europe,Monaco,MC,,Monaco,2009-07-14,
Phalacrocorax aristotelis,Animalia,CORMORANTS_PHALACROCORACIDAE,European Shag,,2,7.47456550598,43.7511952045,Europe,Monaco,MC,,Monaco,2009-07-14,
Larus michahellis,Animalia,GULLS_TERNS_AND_SKIMMERS_LARIDAE,Yellow-legged Gull,,1,7.4267873,43.731014,Europe,Monaco,MC,,Monaco,2012-06-16,15:42
Apus pallidus,Animalia,SWIFTS_APODIDAE,Pallid Swift,,5,7.42415237426758,43.7297096252441,Europe,Monaco,MC,,Monaco,2019-08-15,16:17
Apus pallidus,Animalia,SWIFTS_APODIDAE,Pallid Swift,,2,7.423664319606521,43.737189570674765,Europe,Monaco,MC,,Monaco,2019-09-21,14:23
Macroglossum stellatarum,Animalia,Sphingidae,Humming-bird Hawk Moth,,1,7.4237564369008116,43.73724704927878,Europe,Monaco,MC,,Monaco,2019-09-21,14:11
Streptopelia decaocto,Animalia,PIGEONS_AND_DOVES_COLUMBIDAE,Eurasian Collared Dove,,1,7.423981149968667,43.737170049265984,Europe,Monaco,MC,,Monaco,2019-09-21,14:10
Apus pallidus,Animalia,SWIFTS_APODIDAE,Pallid Swift,,10,7.42059278488159,43.7383155822754,Europe,Monaco,MC,,Monaco,2019-08-15,14:09
Sympetrum fonscolombii,Animalia,SKIMMERS_LIBELLULIDAE,Red-veined Darter,,1,7.42146348953247,43.7357025146484,Europe,Monaco,MC,,Monaco,2019-08-15,14:19
Anax ephippiger,Animalia,DARNERS_AESHNIDAE,Vagrant Emperor,,2,7.42146348953247,43.7357025146484,Europe,Monaco,MC,,Monaco,2019-08-15,14:19
Sympetrum fonscolombii,Animalia,SKIMMERS_LIBELLULIDAE,Red-veined Darter,,3,7.41879272460938,43.7328262329102,Europe,Monaco,MC,,Monaco,2019-08-15,14:56
Cacyreus marshalli,Animalia,GOSSAMERWINGED_BUTTERFLIES_LYCAENIDAE,Geranium Bronze,,5,7.41879272460938,43.7328262329102,Europe,Monaco,MC,,Monaco,2019-08-15,14:57
Sympetrum fonscolombii,Animalia,SKIMMERS_LIBELLULIDAE,Red-veined Darter,,6,7.4202561378479,43.7306022644043,Europe,Monaco,MC,,Monaco,2019-08-15,15:21
Macroglossum stellatarum,Animalia,Sphingidae,Humming-bird Hawk Moth,,1,7.42194509506226,43.7298889160156,Europe,Monaco,MC,,Monaco,2019-08-15,16:28
Macroglossum stellatarum,Animalia,Sphingidae,Humming-bird Hawk Moth,,1,7.42557811737061,43.7306442260742,Europe,Monaco,MC,,Monaco,2019-08-15,18:56
Apis mellifera,Animalia,Apidae,Western Honey Bee,,2,7.42557811737061,43.7306442260742,Europe,Monaco,MC,,Monaco,2019-08-15,18:57
Streptopelia decaocto,Animalia,PIGEONS_AND_DOVES_COLUMBIDAE,Eurasian Collared Dove,,1,7.429900523964232,43.74058281342496,Europe,Monaco,MC,,Monaco,2019-08-05,14:39
Apus pallidus,Animalia,SWIFTS_APODIDAE,Pallid Swift,,50,7.428916406373141,43.74118797144469,Europe,Monaco,MC,,Monaco,2019-08-05,14:17
Streptopelia decaocto,Animalia,PIGEONS_AND_DOVES_COLUMBIDAE,Eurasian Collared Dove,,1,7.429900523964232,43.74058281342496,Europe,Monaco,MC,,Monaco,2019-08-05,14:39
Apus pallidus,Animalia,SWIFTS_APODIDAE,Pallid Swift,,50,7.428916406373141,43.74118797144469,Europe,Monaco,MC,,Monaco,2019-08-05,14:17
Streptopelia decaocto,Animalia,PIGEONS_AND_DOVES_COLUMBIDAE,Eurasian Collared Dove,,1,7.42982156575418,43.738708351779486,Europe,Monaco,MC,,Monaco,2019-08-02,13:30
Streptopelia decaocto,Animalia,PIGEONS_AND_DOVES_COLUMBIDAE,Eurasian Collared Dove,,2,7.429688779908327,43.73876336827697,Europe,Monaco,MC,,Monaco,2019-07-10,17:20
Larus michahellis,Animalia,GULLS_TERNS_AND_SKIMMERS_LARIDAE,Yellow-legged Gull,,1,7.42267465591431,43.7325553894043,Europe,Monaco,MC,,Monaco,2019-06-01,13:34
Apus pallidus,Animalia,SWIFTS_APODIDAE,Pallid Swift,,40,7.42159509658814,43.7353057861328,Europe,Monaco,MC,,Monaco,2018-08-16,12:47
Tachymarptis melba,Animalia,SWIFTS_APODIDAE,Alpine Swift,,2,7.42161226272583,43.7351837158203,Europe,Monaco,MC,,Monaco,2018-08-16,12:47
Larus michahellis,Animalia,GULLS_TERNS_AND_SKIMMERS_LARIDAE,Yellow-legged Gull,,5,7.42162704467773,43.7350921630859,Europe,Monaco,MC,,Monaco,2018-08-16,12:47
Streptopelia decaocto,Animalia,PIGEONS_AND_DOVES_COLUMBIDAE,Eurasian Collared Dove,,3,7.41989612579346,43.7322006225586,Europe,Monaco,MC,,Monaco,2018-08-16,13:11
Larus michahellis,Animalia,GULLS_TERNS_AND_SKIMMERS_LARIDAE,Yellow-legged Gull,,5,7.42176847578175,43.7271483201852,Europe,Monaco,MC,,Monaco,2018-08-06,16:44
Larus michahellis,Animalia,GULLS_TERNS_AND_SKIMMERS_LARIDAE,Yellow-legged Gull,,1,7.42088943475145,43.7307805622729,Europe,Monaco,MC,,Monaco,2018-08-06,13:41
Ptyonoprogne rupestris,Animalia,SWALLOWS_HIRUNDINIDAE,Eurasian Crag Martin,,6,7.42225978698757,43.7298622341866,Europe,Monaco,MC,,Monaco,2018-08-06,12:53
Tachymarptis melba,Animalia,SWIFTS_APODIDAE,Alpine Swift,,4,7.42379749193788,43.7318761367351,Europe,Monaco,MC,,Monaco,2018-08-05,15:22
Apus pallidus,Animalia,SWIFTS_APODIDAE,Pallid Swift,,12,7.42637836374342,43.7317488994449,Europe,Monaco,MC,,Monaco,2018-08-05,15:22
Sylvia melanocephala,Animalia,OLD_WORLD_WARBLERS_SYLVIIDAE,Sardinian Warbler,,1,7.421004557989,43.7301701680233,Europe,Monaco,MC,,Monaco,2018-05-17,13:53
Larus michahellis,Animalia,GULLS_TERNS_AND_SKIMMERS_LARIDAE,Yellow-legged Gull,,1,7.4240884,43.72969248,Europe,Monaco,MC,,Monaco,2018-04-14,15:44
Sylvia melanocephala,Animalia,OLD_WORLD_WARBLERS_SYLVIIDAE,Sardinian Warbler,,1,7.42384095,43.72975571,Europe,Monaco,MC,,Monaco,2018-04-14,15:45
Ptyonoprogne rupestris,Animalia,SWALLOWS_HIRUNDINIDAE,Eurasian Crag Martin,,1,7.43,43.7389,Europe,Monaco,MC,,Monaco,2018-02-11,15:30
Apis mellifera,Animalia,Apidae,Western Honey Bee,,1,7.42416667938232,43.7294425964355,Europe,Monaco,MC,,Monaco,2017-11-19,13:38
Larus michahellis,Animalia,GULLS_TERNS_AND_SKIMMERS_LARIDAE,Yellow-legged Gull,,4,7.42352848,43.72973849,Europe,Monaco,MC,,Monaco,2017-08-13,10:32
Sylvia melanocephala,Animalia,OLD_WORLD_WARBLERS_SYLVIIDAE,Sardinian Warbler,,2,7.4278873577714,43.732132087628,Europe,Monaco,MC,,Monaco,2017-08-13,10:56
Apus pallidus,Animalia,SWIFTS_APODIDAE,Pallid Swift,,15,7.42747530341148,43.73895723566,Europe,Monaco,MC,,Monaco,2017-08-13,12:31
Iphiclides podalirius,Animalia,SWALLOWTAILS_PAPILIONIDAE,Scarce Swallowtail,,2,7.4,43.7,Europe,Monaco,MC,,Monaco,2017-08-13,12:39
Streptopelia decaocto,Animalia,PIGEONS_AND_DOVES_COLUMBIDAE,Eurasian Collared Dove,,1,7.42612705063091,43.7404848800947,Europe,Monaco,MC,,Monaco,2017-08-08,10:39
Larus michahellis,Animalia,GULLS_TERNS_AND_SKIMMERS_LARIDAE,Yellow-legged Gull,,1,7.42223618674702,43.7352568901392,Europe,Monaco,MC,,Monaco,2017-08-08,11:15
Ptyonoprogne rupestris,Animalia,SWALLOWS_HIRUNDINIDAE,Eurasian Crag Martin,,2,7.4273199,43.7312885,Europe,Monaco,MC,,Monaco,2017-04-22,15:48
Ptyonoprogne rupestris,Animalia,SWALLOWS_HIRUNDINIDAE,Eurasian Crag Martin,,5,7.427455,43.7316833333333,Europe,Monaco,MC,,Monaco,2017-04-16,10:39
Regulus ignicapilla,Animalia,KINGLETS_REGULIDAE,Common Firecrest,,1,7.42368166666667,43.7298566666667,Europe,Monaco,MC,,Monaco,2017-04-16,11:14
Gonepteryx rhamni,Animalia,WHITES_PIERIDAE,Brimstone,,1,7.42134335970209,43.7313449878771,Europe,Monaco,MC,,Monaco,2017-04-04,11:58
Cacyreus marshalli,Animalia,GOSSAMERWINGED_BUTTERFLIES_LYCAENIDAE,Geranium Bronze,,1,7.4217317998955,43.736735695872,Europe,Monaco,MC,,Monaco,2016-10-30,
Pieris brassicae,Animalia,WHITES_PIERIDAE,Large White,,1,7.4312120675768,43.742273549375,Europe,Monaco,MC,,Monaco,2016-11-02,
Sympetrum fonscolombii,Animalia,SKIMMERS_LIBELLULIDAE,Red-veined Darter,,1,7.4276500939231,43.738133013711,Europe,Monaco,MC,,Monaco,2016-11-02,
Phalacrocorax carbo,Animalia,CORMORANTS_PHALACROCORACIDAE,Great Cormorant,,1,7.430590270087123,43.741361601278186,Europe,Monaco,MC,,Monaco,2016-11-02,14:51
Pica pica,Animalia,CROWS_AND_JAYS_CORVIDAE,Eurasian Magpie,,1,7.4298694264143705,43.74178488738835,Europe,Monaco,MC,,Monaco,2016-11-02,13:08
Regulus regulus,Animalia,KINGLETS_REGULIDAE,Goldcrest,,1,7.4246370790206,43.732210968655,Europe,Monaco,MC,,Monaco,2016-11-01,11:56
Corvus cornix,Animalia,CROWS_AND_JAYS_CORVIDAE,Hooded Crow,,2,7.4305790661674,43.741183214558,Europe,Monaco,MC,,Monaco,2016-10-31,
Erithacus rubecula,Animalia,OLD_WORLD_FLYCATCHERS_MUSCICAPIDAE,European Robin,,1,7.431128891184926,43.74245745129883,Europe,Monaco,MC,,Monaco,2016-10-30,12:51
Chalcolestes viridis,Animalia,SPREADWINGS_LESTIDAE,Western Willow Spreadwing,,2,7.430841140449047,43.74210289679468,Europe,Monaco,MC,,Monaco,2016-10-30,12:47
Pararge aegeria,Animalia,BRUSHFOOTED_BUTTERFLIES_NYMPHALIDAE,Speckled Wood,,1,7.4213446956128,43.737442055717,Europe,Monaco,MC,,Monaco,2016-10-30,12:16
Cacyreus marshalli,Animalia,GOSSAMERWINGED_BUTTERFLIES_LYCAENIDAE,Geranium Bronze,,1,7.421355424448848,43.737436439841986,Europe,Monaco,MC,,Monaco,2016-10-30,12:16
Vanessa atalanta,Animalia,BRUSHFOOTED_BUTTERFLIES_NYMPHALIDAE,Red Admiral,,2,7.421395489946008,43.73744658194482,Europe,Monaco,MC,,Monaco,2016-10-30,12:16
Leptotes pirithous,Animalia,GOSSAMERWINGED_BUTTERFLIES_LYCAENIDAE,Langâ€™s Short-tailed Blue,,2,7.421727078035474,43.73673755675554,Europe,Monaco,MC,,Monaco,2016-10-30,12:08
Lasiommata megera,Animalia,BRUSHFOOTED_BUTTERFLIES_NYMPHALIDAE,Wall Brown,,1,7.4292165039878,43.739361639314,Europe,Monaco,MC,,Monaco,2016-10-30,
Phoenicurus ochruros,Animalia,OLD_WORLD_FLYCATCHERS_MUSCICAPIDAE,Black Redstart,,1,7.427862547338009,43.73941272497177,Europe,Monaco,MC,,Monaco,2016-10-29,16:00
Sylvia melanocephala,Animalia,OLD_WORLD_WARBLERS_SYLVIIDAE,Sardinian Warbler,,1,7.429413869977,43.739334437996,Europe,Monaco,MC,,Monaco,2016-10-29,13:05
Erithacus rubecula,Animalia,OLD_WORLD_FLYCATCHERS_MUSCICAPIDAE,European Robin,,1,7.4240791797092,43.737202548718,Europe,Monaco,MC,,Monaco,2016-10-29,11:58
Vanessa atalanta,Animalia,BRUSHFOOTED_BUTTERFLIES_NYMPHALIDAE,Red Admiral,,1,7.430253904312849,43.740903697907925,Europe,Monaco,MC,,Monaco,2016-10-29,10:40
Larus michahellis,Animalia,GULLS_TERNS_AND_SKIMMERS_LARIDAE,Yellow-legged Gull,,2,7.430253904312849,43.740903697907925,Europe,Monaco,MC,,Monaco,2016-10-29,10:34
Ptyonoprogne rupestris,Animalia,SWALLOWS_HIRUNDINIDAE,Eurasian Crag Martin,,2,7.42612143,43.73118894,Europe,Monaco,MC,,Monaco,2016-09-29,12:30
Pararge aegeria,Animalia,BRUSHFOOTED_BUTTERFLIES_NYMPHALIDAE,Speckled Wood,,1,7.42383593,43.73010375,Europe,Monaco,MC,,Monaco,2016-09-29,12:47
Podarcis muralis,Animalia,Lacertidae,Common Wall Lizard,,1,7.4,43.7,Europe,Monaco,MC,,Monaco,2016-09-29,12:48
Podarcis muralis,Animalia,Lacertidae,Common Wall Lizard,,1,7.4,43.7,Europe,Monaco,MC,,Monaco,2016-09-29,13:13
Podarcis muralis,Animalia,Lacertidae,Common Wall Lizard,,1,7.4,43.7,Europe,Monaco,MC,,Monaco,2016-09-29,13:32
Larus michahellis,Animalia,GULLS_TERNS_AND_SKIMMERS_LARIDAE,Yellow-legged Gull,,1,7.42256575,43.73076987,Europe,Monaco,MC,,Monaco,2016-07-27,17:13
Erithacus rubecula,Animalia,OLD_WORLD_FLYCATCHERS_MUSCICAPIDAE,European Robin,,1,7.4218,43.7313,Europe,Monaco,MC,,Monaco,2016-08-12,15:01
Larus michahellis,Animalia,GULLS_TERNS_AND_SKIMMERS_LARIDAE,Yellow-legged Gull,,4,7.4244,43.7374,Europe,Monaco,MC,,Monaco,2016-08-12,14:26
Larus michahellis,Animalia,GULLS_TERNS_AND_SKIMMERS_LARIDAE,Yellow-legged Gull,,1,7.4259996405453,43.730591205962,Europe,Monaco,MC,,Monaco,2016-08-02,
Iphiclides podalirius,Animalia,SWALLOWTAILS_PAPILIONIDAE,Scarce Swallowtail,,1,7.4,43.7,Europe,Monaco,MC,,Monaco,2016-07-31,13:12
Phalacrocorax carbo,Animalia,CORMORANTS_PHALACROCORACIDAE,Great Cormorant,,1,7.4278,43.7324,Europe,Monaco,MC,,Monaco,2016-07-31,13:11
Ptyonoprogne rupestris,Animalia,SWALLOWS_HIRUNDINIDAE,Eurasian Crag Martin,,11,7.4187,43.7324,Europe,Monaco,MC,,Monaco,2016-07-31,11:32
Larus michahellis,Animalia,GULLS_TERNS_AND_SKIMMERS_LARIDAE,Yellow-legged Gull,,1,7.4218994095053,43.7366333598013,Europe,Monaco,MC,,Monaco,2016-08-01,11:58
Thalasseus sandvicensis,Animalia,GULLS_TERNS_AND_SKIMMERS_LARIDAE,Sandwich Tern,,2,7.48475074746,43.7543217191,Europe,Monaco,MC,,Monaco,2015-12-29,
Phalacrocorax aristotelis desmarestii,Animalia,CORMORANTS_PHALACROCORACIDAE,European Shag ssp desmarestii,,3,7.48475074746,43.7543217191,Europe,Monaco,MC,,Monaco,2015-12-29,
Regulus regulus,Animalia,KINGLETS_REGULIDAE,Goldcrest,,1,7.4203,43.7306,Europe,Monaco,MC,,Monaco,2015-06-27,12:22
Ptyonoprogne rupestris,Animalia,SWALLOWS_HIRUNDINIDAE,Eurasian Crag Martin,,2,7.4195,43.7387,Europe,Monaco,MC,,Monaco,2015-06-27,11:00
Larus michahellis,Animalia,GULLS_TERNS_AND_SKIMMERS_LARIDAE,Yellow-legged Gull,,10,7.4216,43.7336,Europe,Monaco,MC,,Monaco,2015-05-01,14:45
