scientificName,kingdom,family,vernacularName,previousIdentifications,individualCount,longitudeDecimal,latitudeDecimal,continent,country,countryCode,stateProvince,locality,eventDate,eventTime
Dosinia hepatica,Animalia,VENERIDAE,,,1,32.6144170761,-25.9515234889,Africa,Mozambique,MZ,,Mozambique,2013-05-30,
Eidolon helvum,Animalia,OLD_WORLD_FRUITEATING_BATS_PTEROPODIDAE,African Straw-coloured Fruit Bat,,1,32.5734758377,-25.9715971626,Africa,Mozambique,MZ,,Mozambique - Maputo,2013-05-30,
Camaroptera brachyura,Animalia,CISTICOLAS_AND_ALLIES_CISTICOLIDAE,Green-backed Camaroptera,,1,32.5923156738,-25.9821197624,Africa,Mozambique,MZ,,Mozambique - Maputo,2014-09-29,
Coracias caudatus,Animalia,ROLLERS_CORACIIDAE,Lilac-breasted Roller,,1,35.2276611328,-24.4371478616,Africa,Mozambique,MZ,,Mozambique - Inhambane,2014-09-21,
Microcarbo africanus,Animalia,CORMORANTS_PHALACROCORACIDAE,Reed Cormorant,,1,35.2276611328,-24.4371478616,Africa,Mozambique,MZ,,Mozambique - Inhambane,2014-09-20,
Hydroprogne caspia,Animalia,GULLS_TERNS_AND_SKIMMERS_LARIDAE,Caspian Tern,,1,40.3724116087,-22.3437275109,Africa,Mozambique,MZ,,Mozambique,2014-04-14,
Phaethon lepturus,Animalia,TROPICBIRDS_PHAETHONTIDAE,White-tailed Tropicbird,,1,40.3724116087,-22.3437275109,Africa,Mozambique,MZ,,Mozambique,2014-04-14,
Sula sula,Animalia,GANNETS_AND_BOOBIES_SULIDAE,Red-footed Booby,,1,40.3724116087,-22.3437275109,Africa,Mozambique,MZ,,Mozambique,2014-04-14,
Numenius arquata,Animalia,SANDPIPERS_AND_ALLIES_SCOLOPACIDAE,Eurasian Curlew,,1,40.3724116087,-22.3437275109,Africa,Mozambique,MZ,,Mozambique,2014-04-14,
Egretta dimorpha,Animalia,HERONS_ARDEIDAE,Dimorphic Egret,,1,40.3727549314,-22.3507133485,Africa,Mozambique,MZ,,Mozambique,2014-04-14,
Chelonia mydas,Animalia,Cheloniidae,Green Turtle,,1,40.357992053,-22.3449976892,Africa,Mozambique,MZ,,Mozambique,2014-04-13,
Ardea cinerea,Animalia,HERONS_ARDEIDAE,Grey Heron,,1,40.3727549314,-22.3475380112,Africa,Mozambique,MZ,,Mozambique,2014-04-13,
Fregata ariel,Animalia,FRIGATEBIRDS_FREGATTIDAE,Lesser Frigatebird,,1,40.3676050901,-22.3597626629,Africa,Mozambique,MZ,,Mozambique,2014-04-13,
Fregata minor,Animalia,FRIGATEBIRDS_FREGATTIDAE,Great Frigatebird,,1,40.3676050901,-22.3597626629,Africa,Mozambique,MZ,,Mozambique,2014-04-13,
Accipiter tachiro,Animalia,HAWKS_AND_EAGLES_ACCIPITRIDAE,African Goshawk,,1,35.17248631,-24.49419915,Africa,Mozambique,MZ,,Mozambique - Inhambane,2013-06-13,06:57
Phoenicopterus roseus,Animalia,FLAMINGOS_PHOENICOPTERIDAE,Greater Flamingo,,30,35.379467009625,-23.86776781394,Africa,Mozambique,MZ,,Mozambique - Inhambane,2013-06-14,10:40
Dicrurus adsimilis,Animalia,DRONGOS_DICRURIDAE,Fork-tailed Drongo,,1,35.130014423,-24.5492727789,Africa,Mozambique,MZ,,Mozambique - Inhambane,2013-06-12,15:20
Corvus albus,Animalia,CROWS_AND_JAYS_CORVIDAE,Pied Crow,,1,35.182313918849,-24.499119741977,Africa,Mozambique,MZ,,Mozambique - Inhambane,2013-06-11,06:35
Dryoscopus cubla,Animalia,HELMETSHRIKES_BUSHSHRIKES_MALACONOTIDAE,Black-backed Puffback,,1,35.182313918849,-24.499119741977,Africa,Mozambique,MZ,,Mozambique - Inhambane,2013-06-11,06:37
Cinnyris talatala talatala,Animalia,SUNBIRDS_NECTARINIIDAE,,,1,35.145192145428,-24.565919219523,Africa,Mozambique,MZ,,Mozambique - Inhambane,2013-06-11,06:53
Cinnyris bifasciatus,Animalia,SUNBIRDS_NECTARINIIDAE,Purple-banded Sunbird,,1,35.145192145428,-24.565919219523,Africa,Mozambique,MZ,,Mozambique - Inhambane,2013-06-13,06:36
Vanellus armatus,Animalia,PLOVERS_CHARADRIIDAE,Blacksmith Lapwing,,1,35.144913195691,-24.566451339413,Africa,Mozambique,MZ,,Mozambique - Inhambane,2013-06-12,16:00
Burhinus vermiculatus,Animalia,THICKKNEES_BURHINIDAE,Water Thick-knee,,1,35.144205092511,-24.566822129891,Africa,Mozambique,MZ,,Mozambique - Inhambane,2013-06-12,16:00
Charadrius tricollaris,Animalia,PLOVERS_CHARADRIIDAE,Three-banded Plover,,1,35.144205092511,-24.566822129891,Africa,Mozambique,MZ,,Mozambique - Inhambane,2013-06-12,16:00
Aviceda cuculoides batesi,Animalia,HAWKS_AND_EAGLES_ACCIPITRIDAE,African Cuckoo-Hawk ssp batesi,,1,35.143475531659,-24.566314732118,Africa,Mozambique,MZ,,Mozambique - Inhambane,2013-06-12,16:00
Coracias caudatus,Animalia,ROLLERS_CORACIIDAE,Lilac-breasted Roller,,1,35.180275439343,-24.501898882447,Africa,Mozambique,MZ,,Mozambique - Inhambane,2013-06-12,07:30
Colius striatus,Animalia,MOUSEBIRDS_COLIIDAE,Speckled Mousebird,,2,35.18368720921,-24.498130432323,Africa,Mozambique,MZ,,Mozambique - Inhambane,2013-06-12,07:30
Kaupifalco monogrammicus meridionalis,Animalia,HAWKS_AND_EAGLES_ACCIPITRIDAE,Lizard Buzzard ssp meridionalis,,1,35.172014235577,-24.501566950962,Africa,Mozambique,MZ,,Mozambique - Inhambane,2013-06-12,07:00
Pycnonotus tricolor layardi,Animalia,BULBULS_PYCNONOTIDAE,Dark-capped Bulbul ssp layardi,,6,35.1709842673,-24.4975056007,Africa,Mozambique,MZ,,Mozambique - Inhambane,2013-06-09,14:00
Lophoceros alboterminatus alboterminatus,Animalia,HORNBILLS_BUCEROTIDAE,,,4,35.170984267315,-24.49750560066,Africa,Mozambique,MZ,,Mozambique - Inhambane,2013-06-09,14:00
Ceryle rudis,Animalia,KINGFISHERS_ALCEDINIDAE,Pied Kingfisher,,2,35.1599979392,-24.5168739381,Africa,Mozambique,MZ,,Mozambique - Inhambane,2013-06-12,14:00
Scopus umbretta,Animalia,HAMERKOP_SCOPIDAE,Hamerkop,,2,35.15999793919,-24.516873938086,Africa,Mozambique,MZ,,Mozambique - Inhambane,2013-06-12,14:00
Junonia oenone,Animalia,BRUSHFOOTED_BUTTERFLIES_NYMPHALIDAE,Dark Blue Pansy,,1,32.573733329773,-25.971587517265,Africa,Mozambique,MZ,,Mozambique - Maputo,2013-05-30,
Euphaedra neophron,Animalia,BRUSHFOOTED_BUTTERFLIES_NYMPHALIDAE,Gold Banded Forester,,1,32.961044311523,-26.019148735233,Africa,Mozambique,MZ,,Mozambique - Maputo,2013-05-30,
Phalacrocorax lucidus,Animalia,CORMORANTS_PHALACROCORACIDAE,White-breasted Cormorant,,1,32.600727081299,-25.998629954697,Africa,Mozambique,MZ,,Mozambique - Maputo,2013-05-30,
Pycnonotus tricolor,Animalia,BULBULS_PYCNONOTIDAE,Dark-capped Bulbul,,1,32.573733329773,-25.971587517265,Africa,Mozambique,MZ,,Mozambique - Maputo,2013-05-30,
Phoenicopterus roseus,Animalia,FLAMINGOS_PHOENICOPTERIDAE,Greater Flamingo,,30,32.643857002258,-25.920494682835,Africa,Mozambique,MZ,,Mozambique,2013-05-30,
Pycnonotus tricolor,Animalia,BULBULS_PYCNONOTIDAE,Dark-capped Bulbul,,3,32.580782175064,-25.973699828868,Africa,Mozambique,MZ,,Mozambique - Maputo,2013-05-30,
Oriolus chlorocephalus speculifer,Animalia,ORIOLES_AND_FIG_BIRDS_ORIOLIDAE,Green-headed Oriole ssp speculifer,,3,34.04724633298897,-18.489076729725028,Africa,Mozambique,MZ,,Mozambique - Sofala,2013-05-20,11:06
Thalasseus bengalensis,Animalia,GULLS_TERNS_AND_SKIMMERS_LARIDAE,Lesser Crested Tern,,3,34.89995988815329,-19.842347451327292,Africa,Mozambique,MZ,,Mozambique - Sofala,2013-05-17,09:00
Hydroprogne caspia,Animalia,GULLS_TERNS_AND_SKIMMERS_LARIDAE,Caspian Tern,,1,34.89995988815329,-19.842347451327292,Africa,Mozambique,MZ,,Mozambique - Sofala,2013-05-17,09:00
Hydroprogne caspia,Animalia,GULLS_TERNS_AND_SKIMMERS_LARIDAE,Caspian Tern,,1,34.86111208824363,-19.852492736116456,Africa,Mozambique,MZ,,Mozambique,2013-05-16,13:04
Sterna hirundo,Animalia,GULLS_TERNS_AND_SKIMMERS_LARIDAE,Common Tern,,100,34.86111208824363,-19.852492736116456,Africa,Mozambique,MZ,,Mozambique,2013-05-16,13:04
Thalasseus bengalensis,Animalia,GULLS_TERNS_AND_SKIMMERS_LARIDAE,Lesser Crested Tern,,2,34.85800641098424,-19.849210861936758,Africa,Mozambique,MZ,,Mozambique - Sofala,2013-05-12,16:02
Larus fuscus fuscus,Animalia,GULLS_TERNS_AND_SKIMMERS_LARIDAE,Baltic Gull,,3,34.858006410984,-19.849210861937,Africa,Mozambique,MZ,,Mozambique - Sofala,2013-05-12,16:02
Hydroprogne caspia,Animalia,GULLS_TERNS_AND_SKIMMERS_LARIDAE,Caspian Tern,,1,34.85800641098424,-19.849210861936758,Africa,Mozambique,MZ,,Mozambique - Sofala,2013-05-12,16:02
Sterna hirundo,Animalia,GULLS_TERNS_AND_SKIMMERS_LARIDAE,Common Tern,,30,34.85800641098424,-19.849210861936758,Africa,Mozambique,MZ,,Mozambique - Sofala,2013-05-12,16:02
Turdoides jardineii,Animalia,Leiothrichidae,Arrow-marked Babbler,,1,35.3073120117,-21.9990818584,Africa,Mozambique,MZ,,Mozambique - Inhambane,2010-04-20,
Lophotis ruficrista,Animalia,BUSTARDS_OTIDIDAE,Red-crested Korhaan,,1,31.709520255,-23.6444440603,Africa,Mozambique,MZ,,Mozambique - Limpopo National Park,2009-07-03,
Aepyceros melampus melampus,Animalia,BOVIDS_BOVIDAE,Common Impala,,1,32.010167,-23.842,Africa,Mozambique,MZ,,Mozambique - Limpopo National Park,2009-07-04,
Charadrius pecuarius,Animalia,PLOVERS_CHARADRIIDAE,Kittlitz's Plover,,1,35.5402447638,-23.8441482551,Africa,Mozambique,MZ,,Mozambique - Inhambane,2009-07-07,
Tursiops truncatus,Animalia,DOLPHINS_DELPHINIDAE,Common Bottlenose Dolphin,,1,35.5402447638,-23.8441482551,Africa,Mozambique,MZ,,Mozambique - Inhambane,2009-07-07,
Charadrius pecuarius,Animalia,PLOVERS_CHARADRIIDAE,Kittlitz's Plover,,1,33.252629,-25.32058,Africa,Mozambique,MZ,,Mozambique - Maputo,2009-07-09,
Rhincodon typus,Animalia,Rhincodontidae,Whale Shark,,1,35.57,-23.87,Africa,Mozambique,MZ,,Mozambique - Inhambane,2009-07-08,
Chiroptera spec.,Animalia,UNKNOWN,Bat unknown,,1,33.274319613,-25.2750903177,Africa,Mozambique,MZ,,Mozambique - Gaza,2009-07-09,
Ardea melanocephala,Animalia,HERONS_ARDEIDAE,Black-headed Heron,,1,33.274319613,-25.2750903177,Africa,Mozambique,MZ,,Mozambique - Gaza,2009-07-09,
Phoeniconaias minor,Animalia,FLAMINGOS_PHOENICOPTERIDAE,Lesser Flamingo,,1,33.26,-25.29,Africa,Mozambique,MZ,,Mozambique,2009-07-09,
Vanellus coronatus,Animalia,PLOVERS_CHARADRIIDAE,Crowned Lapwing,,1,31.709520255,-23.6444440603,Africa,Mozambique,MZ,,Mozambique - Limpopo National Park,2009-07-03,
Terathopius ecaudatus,Animalia,HAWKS_AND_EAGLES_ACCIPITRIDAE,Bateleur,,1,32.13,-24.65,Africa,Mozambique,MZ,,Mozambique - Maputo,2009-07-04,
Turtur chalcospilos,Animalia,PIGEONS_AND_DOVES_COLUMBIDAE,Emerald-spotted Wood Dove,,1,32.0075231975,-23.8563958788,Africa,Mozambique,MZ,,Mozambique - Limpopo National Park,2009-07-04,
Epomophorus spec.,Animalia,OLD_WORLD_FRUITEATING_BATS_PTEROPODIDAE,Fruit Bat (Epomophorus) unknown,,1,32.5821204986,-25.9164315363,Africa,Mozambique,MZ,,Mozambique - Maputo,2009-06-28,
Caprimulgus fossii,Animalia,NIGHTJARS_CAPRIMULGIDAE,Square-tailed Nightjar,,1,32.0082114871,-23.8583003333,Africa,Mozambique,MZ,,Mozambique - Limpopo National Park,2009-07-03,
Vanellus albiceps,Animalia,PLOVERS_CHARADRIIDAE,White-crowned Lapwing,,1,31.30873203,-22.42392993,Africa,Mozambique,MZ,,Mozambique - Gaza,2000-09-04,
Mycteria ibis,Animalia,STORKS_CICONIIDAE,Yellow-billed Stork,,1,32.80609582,-26.50729922,Africa,Mozambique,MZ,,Mozambique - Maputo,2009-09-16,
Macronyx croceus,Animalia,PIPITS_EN_WAGTAILS_MOTACILLIDAE,Yellow-throated Longclaw,,1,32.93972998,-26.26103976,Africa,Mozambique,MZ,,Mozambique - Maputo,2009-09-17,
Chalcomitra senegalensis,Animalia,SUNBIRDS_NECTARINIIDAE,Scarlet-chested Sunbird,,1,32.93972998,-26.26103976,Africa,Mozambique,MZ,,Mozambique - Maputo,2009-09-17,
Cecropis abyssinica,Animalia,SWALLOWS_HIRUNDINIDAE,Lesser Striped Swallow,,1,32.93972998,-26.26103976,Africa,Mozambique,MZ,,Mozambique - Maputo,2009-09-17,
Charadrius marginatus,Animalia,PLOVERS_CHARADRIIDAE,White-fronted Plover,,2,32.9424491,-26.26098819,Africa,Mozambique,MZ,,Mozambique - Maputo,2009-09-16,
Daption capense,Animalia,PETRELS_AND_SHEARWATERS_PROCELLARIIDAE,Cape Petrel,,1,32.9424491,-26.26098819,Africa,Mozambique,MZ,,Mozambique - Maputo,2009-09-16,
Haliaeetus vocifer,Animalia,HAWKS_AND_EAGLES_ACCIPITRIDAE,African Fish Eagle,,1,32.94116077,-26.26326345,Africa,Mozambique,MZ,,Mozambique - Maputo,2009-09-16,
Ciconia episcopus,Animalia,STORKS_CICONIIDAE,Woolly-necked Stork,,1,32.80976248,-26.50484132,Africa,Mozambique,MZ,,Mozambique - Maputo,2009-09-16,
Microcarbo africanus,Animalia,CORMORANTS_PHALACROCORACIDAE,Reed Cormorant,,1,35.18410921,-24.48942416,Africa,Mozambique,MZ,,Mozambique - Inhambane,2013-06-13,14:00
Numenius phaeopus phaeopus,Animalia,SANDPIPERS_AND_ALLIES_SCOLOPACIDAE,Eurasian Whimbrel ssp phaeopus,,1,35.5511713,-23.86221056,Africa,Mozambique,MZ,,Mozambique - Inhambane,2018-04-26,
Calidris alba,Animalia,SANDPIPERS_AND_ALLIES_SCOLOPACIDAE,Sanderling,,1,35.5511713,-23.86221056,Africa,Mozambique,MZ,,Mozambique - Inhambane,2018-04-26,
Milvus aegyptius,Animalia,HAWKS_AND_EAGLES_ACCIPITRIDAE,Yellow-billed Kite,,1,32.92237243,-26.2078762,Africa,Mozambique,MZ,,Mozambique - Maputo,2009-09-16,
Turdus libonyana,Animalia,THRUSHES_TURDIDAE,Kurrichane Thrush,,1,32.92237243,-26.2078762,Africa,Mozambique,MZ,,Mozambique - Maputo,2009-09-16,
Scopus umbretta,Animalia,HAMERKOP_SCOPIDAE,Hamerkop,,1,35.52157282,-23.78506826,Africa,Mozambique,MZ,,Mozambique - Inhambane,2009-09-13,
Calidris alba,Animalia,SANDPIPERS_AND_ALLIES_SCOLOPACIDAE,Sanderling,,1,35.52157282,-23.78506826,Africa,Mozambique,MZ,,Mozambique - Inhambane,2009-09-13,
Numenius phaeopus,Animalia,SANDPIPERS_AND_ALLIES_SCOLOPACIDAE,Eurasian Whimbrel,,8,35.52157282,-23.78506826,Africa,Mozambique,MZ,,Mozambique - Inhambane,2009-09-13,
Ceryle rudis,Animalia,KINGFISHERS_ALCEDINIDAE,Pied Kingfisher,,2,35.52157282,-23.78506826,Africa,Mozambique,MZ,,Mozambique - Inhambane,2009-09-13,
Corvus albus,Animalia,CROWS_AND_JAYS_CORVIDAE,Pied Crow,,2,35.52157282,-23.78506826,Africa,Mozambique,MZ,,Mozambique - Inhambane,2009-09-13,
Motacilla capensis,Animalia,PIPITS_EN_WAGTAILS_MOTACILLIDAE,Cape Wagtail,,1,35.52157282,-23.78506826,Africa,Mozambique,MZ,,Mozambique - Inhambane,2009-09-13,
Charadrius marginatus,Animalia,PLOVERS_CHARADRIIDAE,White-fronted Plover,,3,35.52157282,-23.78506826,Africa,Mozambique,MZ,,Mozambique - Inhambane,2009-09-13,
Megaptera novaeangliae,Animalia,RORQUAL_WHALES_BALAENOPTERIDAE,Humpback Whale,,2,34.59699933217121,-22.91083327357159,Africa,Mozambique,MZ,,Mozambique - Inhambane,2009-09-12,
Streptopelia decipiens,Animalia,PIGEONS_AND_DOVES_COLUMBIDAE,Mourning Collared Dove,,1,34.59699933217121,-22.91083327357159,Africa,Mozambique,MZ,,Mozambique - Inhambane,2009-09-12,
Lagonosticta senegala,Animalia,WAXBILLS_MUNIAS_ALLIES_ESTRILDIDAE,Red-billed Firefinch,,1,34.59699933217121,-22.91083327357159,Africa,Mozambique,MZ,,Mozambique - Inhambane,2009-09-12,
Quelea quelea,Animalia,WEAVERS_PLOCEIDAE,Red-billed Quelea,,10,34.59699933217121,-22.91083327357159,Africa,Mozambique,MZ,,Mozambique - Inhambane,2009-09-11,
Pycnonotus tricolor,Animalia,BULBULS_PYCNONOTIDAE,Dark-capped Bulbul,,1,34.59699933217121,-22.91083327357159,Africa,Mozambique,MZ,,Mozambique - Inhambane,2009-09-11,
Ploceus velatus,Animalia,WEAVERS_PLOCEIDAE,Southern Masked Weaver,,1,34.59699933217121,-22.91083327357159,Africa,Mozambique,MZ,,Mozambique - Inhambane,2009-09-11,
Egretta garzetta,Animalia,HERONS_ARDEIDAE,Little Egret,,1,34.59699933217121,-22.91083327357159,Africa,Mozambique,MZ,,Mozambique - Inhambane,2009-09-11,
Centropus burchellii,Animalia,CUCKOOS_AND_COUCALS_CUCULIDAE,Burchell's Coucal,,1,34.59699933217121,-22.91083327357159,Africa,Mozambique,MZ,,Mozambique - Inhambane,2009-09-11,
Halcyon chelicuti,Animalia,KINGFISHERS_ALCEDINIDAE,Striped Kingfisher,,1,34.59699933217121,-22.91083327357159,Africa,Mozambique,MZ,,Mozambique - Inhambane,2009-09-09,
Cinnyris talatala,Animalia,SUNBIRDS_NECTARINIIDAE,White-bellied Sunbird,,1,34.59699933217121,-22.91083327357159,Africa,Mozambique,MZ,,Mozambique - Inhambane,2009-09-09,
Lissotis melanogaster,Animalia,BUSTARDS_OTIDIDAE,Black-bellied Bustard,,1,32.711511181021756,-23.346129951397415,Africa,Mozambique,MZ,,Mozambique - Gaza,2009-09-07,
Uraeginthus angolensis,Animalia,WAXBILLS_MUNIAS_ALLIES_ESTRILDIDAE,Blue Waxbill,,3,32.711511181021756,-23.346129951397415,Africa,Mozambique,MZ,,Mozambique - Gaza,2009-09-07,
Oriolus larvatus,Animalia,ORIOLES_AND_FIG_BIRDS_ORIOLIDAE,Black-headed Oriole,,1,32.711511181021756,-23.346129951397415,Africa,Mozambique,MZ,,Mozambique - Gaza,2009-09-07,
Uraeginthus granatinus,Animalia,WAXBILLS_MUNIAS_ALLIES_ESTRILDIDAE,Violet-eared Waxbill,,1,32.711511181021756,-23.346129951397415,Africa,Mozambique,MZ,,Mozambique - Gaza,2009-09-07,
Uraeginthus angolensis,Animalia,WAXBILLS_MUNIAS_ALLIES_ESTRILDIDAE,Blue Waxbill,,1,32.711511181021756,-23.346129951397415,Africa,Mozambique,MZ,,Mozambique - Gaza,2009-09-07,
Prionops plumatus,Animalia,VANGAS_VANGIDAE,White-crested Helmetshrike,,6,32.711511181021756,-23.346129951397415,Africa,Mozambique,MZ,,Mozambique - Gaza,2009-09-07,
Sylvicapra grimmia,Animalia,BOVIDS_BOVIDAE,Common Duiker,,1,32.711511181021756,-23.346129951397415,Africa,Mozambique,MZ,,Mozambique - Gaza,2009-09-07,
Crocothemis erythraea,Animalia,SKIMMERS_LIBELLULIDAE,Broad Scarlet,,1,35.19547162,-24.32587817,Africa,Mozambique,MZ,,Mozambique - Inhambane,2017-09-30,10:11
Hirundo smithii,Animalia,SWALLOWS_HIRUNDINIDAE,Wire-tailed Swallow,,1,35.34226409,-23.87300153,Africa,Mozambique,MZ,,Mozambique - Inhambane,2017-09-29,07:21
Lamprotornis chalybaeus,Animalia,STARLINGS_STURNIDAE,Greater Blue-eared Starling,,2,35.38409343,-23.96713878,Africa,Mozambique,MZ,,Mozambique - Inhambane,2017-09-29,12:13
Calidris alba,Animalia,SANDPIPERS_AND_ALLIES_SCOLOPACIDAE,Sanderling,,2,35.20039525,-24.50526637,Africa,Mozambique,MZ,,Mozambique - Inhambane,2017-09-30,05:33
Nicator gularis,Animalia,Nicatoridae,Eastern Nicator,,1,35.19791778,-24.50475285,Africa,Mozambique,MZ,,Mozambique - Inhambane,2017-09-30,05:47
Pycnonotus tricolor,Animalia,BULBULS_PYCNONOTIDAE,Dark-capped Bulbul,,1,35.1980021,-24.50472588,Africa,Mozambique,MZ,,Mozambique - Inhambane,2017-09-30,05:47
Passer diffusus,Animalia,OLD_WORLD_SPARROWS_PASSERIDAE,Southern Grey-headed Sparrow,,2,35.19870174,-24.50442458,Africa,Mozambique,MZ,,Mozambique - Inhambane,2017-09-30,06:04
Turtur chalcospilos,Animalia,PIGEONS_AND_DOVES_COLUMBIDAE,Emerald-spotted Wood Dove,,1,35.19779499,-24.50483746,Africa,Mozambique,MZ,,Mozambique - Inhambane,2017-09-30,06:10
Andropadus importunus,Animalia,BULBULS_PYCNONOTIDAE,Sombre Greenbul,,1,35.19780922,-24.50483367,Africa,Mozambique,MZ,,Mozambique - Inhambane,2017-09-30,06:15
Calidris alba,Animalia,SANDPIPERS_AND_ALLIES_SCOLOPACIDAE,Sanderling,,7,35.19985465,-24.50595232,Africa,Mozambique,MZ,,Mozambique - Inhambane,2017-09-30,16:54
Dendropicos fuscescens,Animalia,WOODPECKERS_PICIDAE,Cardinal Woodpecker,,1,35.19782277,-24.50485489,Africa,Mozambique,MZ,,Mozambique - Inhambane,2017-09-30,17:15
Calidris alba,Animalia,SANDPIPERS_AND_ALLIES_SCOLOPACIDAE,Sanderling,,7,35.20049188,-24.50551511,Africa,Mozambique,MZ,,Mozambique - Inhambane,2017-09-30,17:41
Andropadus importunus,Animalia,BULBULS_PYCNONOTIDAE,Sombre Greenbul,,1,35.19782907,-24.50477208,Africa,Mozambique,MZ,,Mozambique - Inhambane,2017-10-01,05:55
Turtur chalcospilos,Animalia,PIGEONS_AND_DOVES_COLUMBIDAE,Emerald-spotted Wood Dove,,1,35.19788522,-24.50476174,Africa,Mozambique,MZ,,Mozambique - Inhambane,2017-10-01,05:59
Ploceus subaureus,Animalia,WEAVERS_PLOCEIDAE,Eastern Golden Weaver,,100,35.19784283,-24.50481421,Africa,Mozambique,MZ,,Mozambique - Inhambane,2017-10-01,06:18
Nicator gularis,Animalia,Nicatoridae,Eastern Nicator,,1,35.19782235,-24.5049289,Africa,Mozambique,MZ,,Mozambique - Inhambane,2017-10-01,06:31
Quelea quelea,Animalia,WEAVERS_PLOCEIDAE,Red-billed Quelea,,2,35.19647739,-24.50326595,Africa,Mozambique,MZ,,Mozambique - Inhambane,2017-10-01,07:26
Crithagra sulphurata,Animalia,FINCHES_FRINGILLIDAE,Brimstone Canary,,1,35.19565176,-24.50399437,Africa,Mozambique,MZ,,Mozambique - Inhambane,2017-10-01,07:34
Hypolimnas misippus,Animalia,BRUSHFOOTED_BUTTERFLIES_NYMPHALIDAE,Danaid Eggfly,,1,35.2136143,-24.33022982,Africa,Mozambique,MZ,,Mozambique - Inhambane,2017-02-10,
Belenois gidica,Animalia,WHITES_PIERIDAE,African Veined White,,1,35.19888511,-24.5042585,Africa,Mozambique,MZ,,Mozambique - Inhambane,2017-02-09,
Junonia oenone,Animalia,BRUSHFOOTED_BUTTERFLIES_NYMPHALIDAE,Dark Blue Pansy,,2,35.19906739,-24.50577729,Africa,Mozambique,MZ,,Mozambique - Inhambane,2017-02-10,
Junonia oenone,Animalia,BRUSHFOOTED_BUTTERFLIES_NYMPHALIDAE,Dark Blue Pansy,,1,35.19906739,-24.50577729,Africa,Mozambique,MZ,,Mozambique - Inhambane,2017-02-08,
Calidris alba,Animalia,SANDPIPERS_AND_ALLIES_SCOLOPACIDAE,Sanderling,,52,35.20054759,-24.5049644,Africa,Mozambique,MZ,,Mozambique - Inhambane,2017-02-08,05:40
Pycnonotus tricolor,Animalia,BULBULS_PYCNONOTIDAE,Dark-capped Bulbul,,1,35.19899224,-24.50570286,Africa,Mozambique,MZ,,Mozambique - Inhambane,2017-02-08,05:53
Turtur chalcospilos,Animalia,PIGEONS_AND_DOVES_COLUMBIDAE,Emerald-spotted Wood Dove,,1,35.19903179,-24.50484789,Africa,Mozambique,MZ,,Mozambique - Inhambane,2017-02-08,05:58
Andropadus importunus,Animalia,BULBULS_PYCNONOTIDAE,Sombre Greenbul,,1,35.1979758,-24.504765,Africa,Mozambique,MZ,,Mozambique - Inhambane,2017-02-08,06:10
