scientificName,kingdom,family,vernacularName,previousIdentifications,individualCount,longitudeDecimal,latitudeDecimal,continent,country,countryCode,stateProvince,locality,eventDate,eventTime
Eresia clio,Animalia,BRUSHFOOTED_BUTTERFLIES_NYMPHALIDAE,Clio Crescent,,1,-84.7749094393,11.1336840006,North America,Nicaragua,NI,,Nicaragua,2010-02-09,
Calocitta formosa,Animalia,CROWS_AND_JAYS_CORVIDAE,White-throated Magpie-Jay,,1,-85.8792980275,11.2636381,North America,Nicaragua,NI,,Nicaragua,2015-01-09,16:39
Fregata magnificens,Animalia,FRIGATEBIRDS_FREGATTIDAE,Magnificent Frigatebird,,1,-85.880095,11.262493,North America,Nicaragua,NI,,Nicaragua,2015-01-09,16:37
Cathartes aura,Animalia,NEW_WORLD_VULTURES_CATHARTIDAE,Turkey Vulture,,20,-85.83588928,11.20431004,North America,Nicaragua,NI,,Nicaragua,2015-01-08,13:03
Leptotes cassius,Animalia,GOSSAMERWINGED_BUTTERFLIES_LYCAENIDAE,,,1,-86.05401903,11.93353211,North America,Nicaragua,NI,,Nicaragua,2015-01-05,07:35
Eumomota superciliosa,Animalia,MOTMOTS_MOMOTIDAE,Turquoise-browed Motmot,,5,-86.054019034,11.9335321092,North America,Nicaragua,NI,,Nicaragua,2015-01-04,07:38
Melanerpes santacruzi santacruzi,Animalia,WOODPECKERS_PICIDAE,Velasquez's Woodpecker ssp santacruzi,,1,-86.054019034,11.9335321092,North America,Nicaragua,NI,,Nicaragua,2015-01-04,07:36
Campylorhynchus capistratus,Animalia,WRENS_TROGLODYTIDAE,Rufous-backed Wren,,1,-86.05401903,11.93353211,North America,Nicaragua,NI,,Nicaragua,2015-01-04,07:35
Actitis macularius,Animalia,SANDPIPERS_AND_ALLIES_SCOLOPACIDAE,Spotted Sandpiper,,1,-86.054019034,11.9335321092,North America,Nicaragua,NI,,Nicaragua,2015-01-03,15:51
Fregata magnificens,Animalia,FRIGATEBIRDS_FREGATTIDAE,Magnificent Frigatebird,,1,-86.054019034,11.9335321092,North America,Nicaragua,NI,,Nicaragua,2015-01-03,14:37
Pandion haliaetus,Animalia,OSPREY_PANDIONIDAE,Western Osprey,,4,-86.054019034,11.9335321092,North America,Nicaragua,NI,,Nicaragua,2015-01-03,07:36
Ardea alba egretta,Animalia,HERONS_ARDEIDAE,American Great Egret,,1,-86.054019034,11.9335321092,North America,Nicaragua,NI,,Nicaragua,2015-01-03,07:45
Calocitta formosa,Animalia,CROWS_AND_JAYS_CORVIDAE,White-throated Magpie-Jay,,1,-85.5285644531,11.4800246486,North America,Nicaragua,NI,,Nicaragua,2013-08-10,
Megaceryle torquata,Animalia,KINGFISHERS_ALCEDINIDAE,Ringed Kingfisher,,2,-86.0540380556,11.9334881,North America,Nicaragua,NI,,Nicaragua,2015-01-03,06:44
Ctenosaura similis,Animalia,Iguanidae,Black Iguana,,1,-86.2543665245,11.9784339794,North America,Nicaragua,NI,,Nicaragua,2014-03-06,14:23
Coragyps atratus,Animalia,NEW_WORLD_VULTURES_CATHARTIDAE,Black Vulture,,1,-86.2684960663,11.9755997621,North America,Nicaragua,NI,,Nicaragua,2014-03-06,11:07
Argemone mexicana,Plantae,PAPAVERACEAE,Mexican Poppy,,1,-86.2527320534,11.9780349966,North America,Nicaragua,NI,,Nicaragua,2014-03-06,
Alouatta palliata,Animalia,SPIDER_MONKEYS_ATELIDAE,Mantled Howler Monkey,,5,-86.2641187012,11.9777827828,North America,Nicaragua,NI,,Nicaragua,2014-03-06,10:25
Cairina moschata,Animalia,DUCKS_GEESE_AND_SWANS_ANATIDAE,Muscovy Duck,,1,-85.6360745432,11.4791779039,North America,Nicaragua,NI,,Nicaragua,2014-10-19,17:07
Chaetura pelagica,Animalia,SWIFTS_APODIDAE,Chimney Swift,,1,-85.6357741358,11.4796195011,North America,Nicaragua,NI,,Nicaragua,2014-10-19,16:22
Sciurus variegatoides dorsalis,Animalia,SQUIRRELS_CHIPMUNKS_AND_PRAIRIEDOGS_SCIURIDAE,Variegated Squirrel ssp dorsalis,,1,-85.55411339,11.5105394,North America,Nicaragua,NI,,Nicaragua,2014-10-19,14:14
Egretta tricolor,Animalia,HERONS_ARDEIDAE,Tricolored Heron,,1,-87.010724545,12.3537063834,North America,Nicaragua,NI,,Nicaragua,2014-10-23,10:40
Fregata magnificens,Animalia,FRIGATEBIRDS_FREGATTIDAE,Magnificent Frigatebird,,18,-87.017223988206,12.3595089588613,North America,Nicaragua,NI,,Nicaragua,2014-10-23,09:41
Coragyps atratus,Animalia,NEW_WORLD_VULTURES_CATHARTIDAE,Black Vulture,,80,-87.017223988206,12.3595089588613,North America,Nicaragua,NI,,Nicaragua,2014-10-23,09:41
Egretta thula,Animalia,HERONS_ARDEIDAE,Snowy Egret,,50,-87.017223988206,12.3595089588613,North America,Nicaragua,NI,,Nicaragua,2014-10-23,09:42
Numenius hudsonicus hudsonicus,Animalia,SANDPIPERS_AND_ALLIES_SCOLOPACIDAE,Hudsonian Whimbrel ssp hudsonicus,,10,-87.0131946903,12.3549060125,North America,Nicaragua,NI,,Nicaragua,2014-10-23,10:36
Procyon lotor,Animalia,COATIS_RACCOONS_AND_RINGTAILS_PROCYONIDAE,Northern Raccoon,,1,-86.9942048914,12.3453236832,North America,Nicaragua,NI,,Nicaragua,2014-10-23,11:10
Pelecanus occidentalis,Animalia,PELICANS_PELECANIDAE,Brown Pelican,,6,-87.0188943804844,12.3597136954412,North America,Nicaragua,NI,,Nicaragua,2014-10-23,13:50
Calidris alba,Animalia,SANDPIPERS_AND_ALLIES_SCOLOPACIDAE,Sanderling,,100,-87.0188943804844,12.3597136954412,North America,Nicaragua,NI,,Nicaragua,2014-10-23,13:51
Charadrius semipalmatus,Animalia,PLOVERS_CHARADRIIDAE,Semipalmated Plover,,1,-87.0189024063778,12.3598963030805,North America,Nicaragua,NI,,Nicaragua,2014-10-23,13:52
Butorides virescens,Animalia,HERONS_ARDEIDAE,Green Heron,,4,-87.0189226918908,12.3598457709621,North America,Nicaragua,NI,,Nicaragua,2014-10-23,13:53
Nycticorax nycticorax,Animalia,HERONS_ARDEIDAE,Black-crowned Night Heron,,2,-87.0189226918908,12.3598457709621,North America,Nicaragua,NI,,Nicaragua,2014-10-23,13:53
Pandion haliaetus,Animalia,OSPREY_PANDIONIDAE,Western Osprey,,1,-85.9511674295127,11.9299663377323,North America,Nicaragua,NI,,Nicaragua,2014-10-20,15:02
Pandion haliaetus,Animalia,OSPREY_PANDIONIDAE,Western Osprey,,1,-85.9171275645905,11.9176344631403,North America,Nicaragua,NI,,Nicaragua,2014-10-21,10:09
Pandion haliaetus,Animalia,OSPREY_PANDIONIDAE,Western Osprey,,2,-85.9095681175246,11.9140994469643,North America,Nicaragua,NI,,Nicaragua,2014-10-21,10:22
Megaceryle torquata,Animalia,KINGFISHERS_ALCEDINIDAE,Ringed Kingfisher,,1,-85.909274551,11.9138118495,North America,Nicaragua,NI,,Nicaragua,2014-10-21,10:22
Ctenosaura similis,Animalia,Iguanidae,Black Iguana,,1,-85.8945317621762,11.9018436878843,North America,Nicaragua,NI,,Nicaragua,2014-10-21,11:23
Alouatta palliata,Animalia,SPIDER_MONKEYS_ATELIDAE,Mantled Howler Monkey,,15,-85.6352239810383,11.4799509666987,North America,Nicaragua,NI,,Nicaragua,2014-10-19,10:38
Caracara cheriway,Animalia,CARACAS_AND_FALCONS_FALCONIDAE,Northern Crested Caracara,,1,-85.5540467219826,11.5108959559535,North America,Nicaragua,NI,,Nicaragua,2014-10-19,14:14
Bubulcus ibis,Animalia,HERONS_ARDEIDAE,Western Cattle Egret,,100,-85.6362549962,11.4787726434,North America,Nicaragua,NI,,Nicaragua,2014-10-19,17:04
Calocitta formosa,Animalia,CROWS_AND_JAYS_CORVIDAE,White-throated Magpie-Jay,,1,-85.6350201363405,11.4793661164462,North America,Nicaragua,NI,,Nicaragua,2014-10-19,08:48
Pelecanus occidentalis,Animalia,PELICANS_PELECANIDAE,Brown Pelican,,6,-87.0233184098,12.3585117841,North America,Nicaragua,NI,,Nicaragua,2014-03-20,06:29
Passer domesticus,Animalia,OLD_WORLD_SPARROWS_PASSERIDAE,House Sparrow,,1,-87.0222777127,12.3596803262,North America,Nicaragua,NI,,Nicaragua,2014-03-20,07:56
Egretta thula,Animalia,HERONS_ARDEIDAE,Snowy Egret,,25,-87.0186567302,12.3573626252,North America,Nicaragua,NI,,Nicaragua,2014-03-20,06:35
Coragyps atratus,Animalia,NEW_WORLD_VULTURES_CATHARTIDAE,Black Vulture,,15,-87.0186567302,12.3573626252,North America,Nicaragua,NI,,Nicaragua,2014-03-20,06:34
Charadrius semipalmatus,Animalia,PLOVERS_CHARADRIIDAE,Semipalmated Plover,,2,-87.0231413837,12.3589346608,North America,Nicaragua,NI,,Nicaragua,2014-03-20,06:39
Tringa flavipes,Animalia,SANDPIPERS_AND_ALLIES_SCOLOPACIDAE,Lesser Yellowlegs,,1,-87.0101487639,12.3530656799,North America,Nicaragua,NI,,Nicaragua,2014-03-19,10:48
Pelecanus occidentalis,Animalia,PELICANS_PELECANIDAE,Brown Pelican,,2,-86.9966948035,12.3410338576,North America,Nicaragua,NI,,Nicaragua,2014-03-19,12:53
Pandion haliaetus,Animalia,OSPREY_PANDIONIDAE,Western Osprey,,1,-86.9965410237,12.345755121,North America,Nicaragua,NI,,Nicaragua,2014-03-19,12:15
Numenius hudsonicus,Animalia,SANDPIPERS_AND_ALLIES_SCOLOPACIDAE,Hudsonian Whimbrel,,1,-87.0184600354,12.3596029476,North America,Nicaragua,NI,,Nicaragua,2014-03-19,09:57
Coragyps atratus,Animalia,NEW_WORLD_VULTURES_CATHARTIDAE,Black Vulture,,12,-87.0187711717,12.3576169463,North America,Nicaragua,NI,,Nicaragua,2014-03-19,07:17
Cochlearius cochlearius,Animalia,HERONS_ARDEIDAE,Boat-billed Heron,,1,-86.9976782803,12.347432033,North America,Nicaragua,NI,,Nicaragua,2014-03-19,11:20
Chloroceryle aenea,Animalia,KINGFISHERS_ALCEDINIDAE,American Pygmy Kingfisher,,1,-86.9997811322,12.3489202833,North America,Nicaragua,NI,,Nicaragua,2014-03-19,11:20
Arenaria interpres,Animalia,SANDPIPERS_AND_ALLIES_SCOLOPACIDAE,Ruddy Turnstone,,1,-87.023497224,12.3590405107,North America,Nicaragua,NI,,Nicaragua,2014-03-19,
Eumomota superciliosa,Animalia,MOTMOTS_MOMOTIDAE,Turquoise-browed Motmot,,2,-86.8736582992,12.4334201231,North America,Nicaragua,NI,,Nicaragua,2014-03-18,10:41
Bubulcus ibis,Animalia,HERONS_ARDEIDAE,Western Cattle Egret,,5,-85.9404730799,11.9271650123,North America,Nicaragua,NI,,Nicaragua,2014-03-17,09:46
Jacana spinosa,Animalia,JACANAS_JACANIDAE,Northern Jacana,,20,-85.940397978,11.9272070012,North America,Nicaragua,NI,,Nicaragua,2014-03-17,09:50
Coragyps atratus,Animalia,NEW_WORLD_VULTURES_CATHARTIDAE,Black Vulture,,15,-85.3723186256,12.1156021805,North America,Nicaragua,NI,,Nicaragua,2014-03-16,09:15
Thraupis episcopus,Animalia,TANAGERS_AND_ALLIES_THRAUPIDAE,Blue-grey Tanager,,1,-84.8998939991,11.4023889053,North America,Nicaragua,NI,,Nicaragua,2014-03-16,
Passer domesticus,Animalia,OLD_WORLD_SPARROWS_PASSERIDAE,House Sparrow,,1,-84.8996713758,11.4024467493,North America,Nicaragua,NI,,Nicaragua,2014-03-16,06:38
Ardea alba,Animalia,HERONS_ARDEIDAE,Great Egret,,1,-84.9091815966,11.4562867994,North America,Nicaragua,NI,,Nicaragua,2014-03-15,16:24
Egretta thula,Animalia,HERONS_ARDEIDAE,Snowy Egret,,1,-84.9075508135,11.4485195551,North America,Nicaragua,NI,,Nicaragua,2014-03-15,16:13
Iguana iguana,Animalia,Iguanidae,Common Green Iguana,,1,-84.9066925066,11.4474259545,North America,Nicaragua,NI,,Nicaragua,2014-03-15,17:24
Iguana iguana,Animalia,Iguanidae,Common Green Iguana,,1,-84.9130439776,11.4636612812,North America,Nicaragua,NI,,Nicaragua,2014-03-15,16:43
Tachycineta albilinea,Animalia,SWALLOWS_HIRUNDINIDAE,Mangrove Swallow,,1,-84.977068305,11.1677578016,North America,Nicaragua,NI,,Nicaragua,2014-03-15,08:54
Pandion haliaetus,Animalia,OSPREY_PANDIONIDAE,Western Osprey,,1,-84.9781894701,11.1675788657,North America,Nicaragua,NI,,Nicaragua,2014-03-15,07:34
Himantopus mexicanus,Animalia,STILTS_AND_AVOCETS_RECURVIROSTRIDAE,Black-necked Stilt,,1,-84.9061131478,11.4403370766,North America,Nicaragua,NI,,Nicaragua,2014-03-15,15:57
Eudocimus albus,Animalia,IBISSES_AND_SPOONBILLS_THRESKIORNITHIDAE,American White Ibis,,3,-84.9061131478,11.4403370766,North America,Nicaragua,NI,,Nicaragua,2014-03-15,15:47
Coragyps atratus,Animalia,NEW_WORLD_VULTURES_CATHARTIDAE,Black Vulture,,1,-84.9082589151,11.4538318692,North America,Nicaragua,NI,,Nicaragua,2014-03-15,16:41
Cathartes burrovianus,Animalia,NEW_WORLD_VULTURES_CATHARTIDAE,Lesser Yellow-headed Vulture,,1,-84.905319214,11.444872801,North America,Nicaragua,NI,,Nicaragua,2014-03-15,16:07
Botaurus pinnatus,Animalia,HERONS_ARDEIDAE,Pinnated Bittern,,1,-84.9046754838,11.4443680563,North America,Nicaragua,NI,,Nicaragua,2014-03-15,16:01
Lepidochelys olivacea,Animalia,Cheloniidae,Olive Ridley Sea Turtle,,1,-87.0190000536,12.3572962501,North America,Nicaragua,NI,,Nicaragua,2014-03-19,18:05
Pandion haliaetus,Animalia,OSPREY_PANDIONIDAE,Western Osprey,,1,-84.9717521685,11.1606739345,North America,Nicaragua,NI,,Nicaragua,2014-03-13,08:53
Pandion haliaetus,Animalia,OSPREY_PANDIONIDAE,Western Osprey,,1,-84.9686622637,11.1621054581,North America,Nicaragua,NI,,Nicaragua,2014-03-13,09:07
Pandion haliaetus,Animalia,OSPREY_PANDIONIDAE,Western Osprey,,1,-84.8854923266,11.0873199764,North America,Nicaragua,NI,,Nicaragua,2014-03-14,09:53
Tigrisoma fasciatum,Animalia,HERONS_ARDEIDAE,Fasciated Tiger Heron,,1,-84.8854923266,11.0835577386,North America,Nicaragua,NI,,Nicaragua,2014-03-14,09:28
Nycticorax nycticorax,Animalia,HERONS_ARDEIDAE,Black-crowned Night Heron,,1,-84.8854923266,11.0835577386,North America,Nicaragua,NI,,Nicaragua,2014-03-14,09:27
Mycteria americana,Animalia,STORKS_CICONIIDAE,Wood Stork,,300,-84.8857498186,11.0822942895,North America,Nicaragua,NI,,Nicaragua,2014-03-14,09:02
Thraupis episcopus,Animalia,TANAGERS_AND_ALLIES_THRAUPIDAE,Blue-grey Tanager,,1,-84.9021255971,11.4028358809,North America,Nicaragua,NI,,Nicaragua,2014-03-15,13:06
Platalea ajaja,Animalia,IBISSES_AND_SPOONBILLS_THRESKIORNITHIDAE,Roseate Spoonbill,,2,-84.9048900622,11.4419859286,North America,Nicaragua,NI,,Nicaragua,2014-03-15,15:54
Eudocimus albus,Animalia,IBISSES_AND_SPOONBILLS_THRESKIORNITHIDAE,American White Ibis,,1,-84.8879814165,11.0806658349,North America,Nicaragua,NI,,Nicaragua,2014-03-14,09:11
Coragyps atratus,Animalia,NEW_WORLD_VULTURES_CATHARTIDAE,Black Vulture,,20,-84.8909854906,11.0849615638,North America,Nicaragua,NI,,Nicaragua,2014-03-14,08:51
Ardea herodias,Animalia,HERONS_ARDEIDAE,Great Blue Heron,,1,-84.8912429827,11.0850738705,North America,Nicaragua,NI,,Nicaragua,2014-03-14,08:29
Platalea ajaja,Animalia,IBISSES_AND_SPOONBILLS_THRESKIORNITHIDAE,Roseate Spoonbill,,150,-84.8885822314,11.0834735089,North America,Nicaragua,NI,,Nicaragua,2014-03-14,09:22
Eudocimus albus,Animalia,IBISSES_AND_SPOONBILLS_THRESKIORNITHIDAE,American White Ibis,,1,-84.9769824744,11.1676630705,North America,Nicaragua,NI,,Nicaragua,2014-03-14,11:18
Platalea ajaja,Animalia,IBISSES_AND_SPOONBILLS_THRESKIORNITHIDAE,Roseate Spoonbill,,1,-84.9500370043,11.1538530473,North America,Nicaragua,NI,,Nicaragua,2014-03-14,10:40
Tachycineta albilinea,Animalia,SWALLOWS_HIRUNDINIDAE,Mangrove Swallow,,2,-85.0014710431,11.1738836816,North America,Nicaragua,NI,,Nicaragua,2014-03-13,15:23
Pandion haliaetus,Animalia,OSPREY_PANDIONIDAE,Western Osprey,,1,-84.9630832742,11.1694313803,North America,Nicaragua,NI,,Nicaragua,2014-03-13,11:41
Psarocolius montezuma,Animalia,ICTERIDS_ICTERIDAE,Montezuma Oropendola,,150,-84.976955652,11.1680525204,North America,Nicaragua,NI,,Nicaragua,2014-03-13,17:36
Psarocolius montezuma,Animalia,ICTERIDS_ICTERIDAE,Montezuma Oropendola,,1,-85.0022470953,11.1746429171,North America,Nicaragua,NI,,Nicaragua,2014-03-13,16:27
Eudocimus albus,Animalia,IBISSES_AND_SPOONBILLS_THRESKIORNITHIDAE,American White Ibis,,1,-84.9770772458,11.16791288,North America,Nicaragua,NI,,Nicaragua,2014-03-13,06:02
Peropteryx spec.,Animalia,SACWINGED_BATS_EMBALLONURIDAE,,,100,-84.941468239,11.1514895597,North America,Nicaragua,NI,,Nicaragua,2014-03-13,09:55
Alouatta palliata,Animalia,SPIDER_MONKEYS_ATELIDAE,Mantled Howler Monkey,,2,-84.9924373631,11.1724543213,North America,Nicaragua,NI,,Nicaragua,2014-03-13,11:58
Trogon massena,Animalia,TROGONS_TROGONIDAE,Slaty-tailed Trogon,,1,-85.0521469151,11.0360314509,North America,Nicaragua,NI,,Nicaragua,2014-03-12,08:32
Phalacrocorax brasilianus,Animalia,CORMORANTS_PHALACROCORACIDAE,Neotropic Cormorant,,2,-85.0507164019,11.0393056938,North America,Nicaragua,NI,,Nicaragua,2014-03-12,09:04
Jacana spinosa,Animalia,JACANAS_JACANIDAE,Northern Jacana,,200,-85.0515747088,11.0376489199,North America,Nicaragua,NI,,Nicaragua,2014-03-12,09:04
Ardea alba,Animalia,HERONS_ARDEIDAE,Great Egret,,1,-85.0515747088,11.0376489199,North America,Nicaragua,NI,,Nicaragua,2014-03-12,16:09
Cebus capucinus,Animalia,NEW_WORLD_MONKEYS_CEBIDAE,White-faced Capuchin,,8,-85.051331521,11.0347228662,North America,Nicaragua,NI,,Nicaragua,2014-03-12,06:22
Caiman crocodilus,Animalia,ALLIGATORIDAE,Spectacled Caiman,,2,-85.051331521,11.0347228662,North America,Nicaragua,NI,,Nicaragua,2014-03-12,12:44
Caiman crocodilus,Animalia,ALLIGATORIDAE,Spectacled Caiman,,1,-85.051331521,11.0347228662,North America,Nicaragua,NI,,Nicaragua,2014-03-12,11:29
Alouatta palliata,Animalia,SPIDER_MONKEYS_ATELIDAE,Mantled Howler Monkey,,4,-85.051331521,11.0347228662,North America,Nicaragua,NI,,Nicaragua,2014-03-12,07:03
Pandion haliaetus,Animalia,OSPREY_PANDIONIDAE,Western Osprey,,1,-85.0502586295,11.0533850828,North America,Nicaragua,NI,,Nicaragua,2014-03-11,10:14
Ardea alba,Animalia,HERONS_ARDEIDAE,Great Egret,,4,-85.0469970633,11.0607418127,North America,Nicaragua,NI,,Nicaragua,2014-03-11,10:12
Coragyps atratus,Animalia,NEW_WORLD_VULTURES_CATHARTIDAE,Black Vulture,,1,-85.0494003226,11.065290539,North America,Nicaragua,NI,,Nicaragua,2014-03-11,10:16
Cochlearius cochlearius,Animalia,HERONS_ARDEIDAE,Boat-billed Heron,,1,-85.0514602591,11.0305836574,North America,Nicaragua,NI,,Nicaragua,2014-03-11,19:51
Chloroceryle aenea,Animalia,KINGFISHERS_ALCEDINIDAE,American Pygmy Kingfisher,,1,-85.0514602591,11.0305836574,North America,Nicaragua,NI,,Nicaragua,2014-03-11,19:39
Megaceryle torquata,Animalia,KINGFISHERS_ALCEDINIDAE,Ringed Kingfisher,,1,-85.0514602591,11.0305836574,North America,Nicaragua,NI,,Nicaragua,2014-03-11,16:09
Cebus capucinus,Animalia,NEW_WORLD_MONKEYS_CEBIDAE,White-faced Capuchin,,1,-85.0514602591,11.0305836574,North America,Nicaragua,NI,,Nicaragua,2014-03-11,16:18
Caiman crocodilus,Animalia,ALLIGATORIDAE,Spectacled Caiman,,1,-85.0514602591,11.0305836574,North America,Nicaragua,NI,,Nicaragua,2014-03-11,20:34
Caiman crocodilus,Animalia,ALLIGATORIDAE,Spectacled Caiman,,1,-85.0514602591,11.0305836574,North America,Nicaragua,NI,,Nicaragua,2014-03-11,19:58
Caiman crocodilus,Animalia,ALLIGATORIDAE,Spectacled Caiman,,1,-85.0514602591,11.0305836574,North America,Nicaragua,NI,,Nicaragua,2014-03-11,19:46
Anartia fatima,Animalia,BRUSHFOOTED_BUTTERFLIES_NYMPHALIDAE,Banded Peacock,,1,-85.0514602591,11.0305836574,North America,Nicaragua,NI,,Nicaragua,2014-03-11,12:59
Alouatta palliata,Animalia,SPIDER_MONKEYS_ATELIDAE,Mantled Howler Monkey,,8,-85.0514602591,11.0305836574,North America,Nicaragua,NI,,Nicaragua,2014-03-11,16:02
Tachycineta albilinea,Animalia,SWALLOWS_HIRUNDINIDAE,Mangrove Swallow,,2,-84.3937397012,11.0158235669,North America,Nicaragua,NI,,Nicaragua,2014-03-10,17:19
Tachycineta albilinea,Animalia,SWALLOWS_HIRUNDINIDAE,Mangrove Swallow,,1,-84.3939971933,11.0158797334,North America,Nicaragua,NI,,Nicaragua,2014-03-10,08:08
Tachycineta albilinea,Animalia,SWALLOWS_HIRUNDINIDAE,Mangrove Swallow,,1,-84.393832684,11.0157926756,North America,Nicaragua,NI,,Nicaragua,2014-03-10,07:47
Mesembrinibis cayennensis,Animalia,IBISSES_AND_SPOONBILLS_THRESKIORNITHIDAE,Green Ibis,,1,-84.4134235386,11.0175984108,North America,Nicaragua,NI,,Nicaragua,2014-03-10,08:43
Jacana spinosa,Animalia,JACANAS_JACANIDAE,Northern Jacana,,6,-84.4127082833,11.0198478436,North America,Nicaragua,NI,,Nicaragua,2014-03-10,08:55
Ardea alba,Animalia,HERONS_ARDEIDAE,Great Egret,,1,-84.391851426,11.0156354105,North America,Nicaragua,NI,,Nicaragua,2014-03-10,08:20
Caiman crocodilus,Animalia,ALLIGATORIDAE,Spectacled Caiman,,1,-84.4132232675,11.0178118427,North America,Nicaragua,NI,,Nicaragua,2014-03-10,20:12
Basiliscus plumifrons,Animalia,Corytophanidae,Green Basilisk,,1,-84.411420823,11.0189491971,North America,Nicaragua,NI,,Nicaragua,2014-03-10,19:47
Anartia fatima,Animalia,BRUSHFOOTED_BUTTERFLIES_NYMPHALIDAE,Banded Peacock,,1,-84.3936967858,11.0156691097,North America,Nicaragua,NI,,Nicaragua,2014-03-10,15:13
Sciurus variegatoides,Animalia,SQUIRRELS_CHIPMUNKS_AND_PRAIRIEDOGS_SCIURIDAE,Variegated Squirrel,,1,-84.3335151637,10.9623822584,North America,Nicaragua,NI,,Nicaragua,2014-03-09,09:49
Pandion haliaetus,Animalia,OSPREY_PANDIONIDAE,Western Osprey,,1,-84.3627834338,11.0015064701,North America,Nicaragua,NI,,Nicaragua,2014-03-09,08:49
Ardea alba,Animalia,HERONS_ARDEIDAE,Great Egret,,1,-84.3429565434,10.9791784975,North America,Nicaragua,NI,,Nicaragua,2014-03-09,11:43
Choloepus hoffmanni,Animalia,TWOTOED_SLOTHS_MEGALONYCHIDAE,Hoffmann's Two-toed Sloth,,1,-84.4098329546,11.0381487611,North America,Nicaragua,NI,,Nicaragua,2014-03-09,16:06
Megaceryle torquata,Animalia,KINGFISHERS_ALCEDINIDAE,Ringed Kingfisher,,1,-84.3931388864,11.0157814429,North America,Nicaragua,NI,,Nicaragua,2014-03-09,05:51
Thraupis episcopus,Animalia,TANAGERS_AND_ALLIES_THRAUPIDAE,Blue-grey Tanager,,1,-84.3939971933,11.0159078161,North America,Nicaragua,NI,,Nicaragua,2014-03-08,16:17
Tachycineta albilinea,Animalia,SWALLOWS_HIRUNDINIDAE,Mangrove Swallow,,1,-84.3945407885,11.0162223472,North America,Nicaragua,NI,,Nicaragua,2014-03-08,12:52
Passer domesticus,Animalia,OLD_WORLD_SPARROWS_PASSERIDAE,House Sparrow,,1,-84.7778749475,11.1218039698,North America,Nicaragua,NI,,Nicaragua,2014-03-08,07:14
Pandion haliaetus,Animalia,OSPREY_PANDIONIDAE,Western Osprey,,1,-84.3916225451,11.0156326029,North America,Nicaragua,NI,,Nicaragua,2014-03-08,08:28
Egretta tricolor,Animalia,HERONS_ARDEIDAE,Tricolored Heron,,1,-84.3938255312,11.016343103,North America,Nicaragua,NI,,Nicaragua,2014-03-08,16:29
Bubulcus ibis,Animalia,HERONS_ARDEIDAE,Western Cattle Egret,,1,-84.3939542773,11.0158376082,North America,Nicaragua,NI,,Nicaragua,2014-03-08,11:18
Bubulcus ibis,Animalia,HERONS_ARDEIDAE,Western Cattle Egret,,9,-84.406185151,11.0235069963,North America,Nicaragua,NI,,Nicaragua,2014-03-08,10:36
Ardea herodias,Animalia,HERONS_ARDEIDAE,Great Blue Heron,,1,-84.4079017648,11.0213165658,North America,Nicaragua,NI,,Nicaragua,2014-03-08,10:31
Ardea alba,Animalia,HERONS_ARDEIDAE,Great Egret,,1,-84.7532272409,11.1230925305,North America,Nicaragua,NI,,Nicaragua,2014-03-08,07:58
Cathartes aura,Animalia,NEW_WORLD_VULTURES_CATHARTIDAE,Turkey Vulture,,4,-84.7264480661,11.1145582649,North America,Nicaragua,NI,,Nicaragua,2014-03-08,08:25
Anhinga anhinga,Animalia,ANHINGAS_ANHINGIDAE,Anhinga,,1,-84.6773529123,11.1334231189,North America,Nicaragua,NI,,Nicaragua,2014-03-08,09:00
Ardea alba,Animalia,HERONS_ARDEIDAE,Great Egret,,1,-84.7783899316,11.1214895533,North America,Nicaragua,NI,,Nicaragua,2014-03-07,17:32
Egretta thula,Animalia,HERONS_ARDEIDAE,Snowy Egret,,1,-84.7797632226,11.1213211156,North America,Nicaragua,NI,,Nicaragua,2014-03-07,17:27
Campylorhynchus capistratus capistratus,Animalia,WRENS_TROGLODYTIDAE,Rufous-backed Wren ssp capistratus,,2,-86.2347194553,12.0749199183,North America,Nicaragua,NI,,Nicaragua,2014-03-06,07:34
Coragyps atratus,Animalia,NEW_WORLD_VULTURES_CATHARTIDAE,Black Vulture,,30,-86.1608505266,11.9852111751,North America,Nicaragua,NI,,Nicaragua - Volcán  Masaya NP,2014-03-05,10:30
Coragyps atratus,Animalia,NEW_WORLD_VULTURES_CATHARTIDAE,Black Vulture,,2,-86.1680173875,11.9871684775,North America,Nicaragua,NI,,Nicaragua - Volcán  Masaya NP,2014-03-05,09:32
Tyrannus melancholicus,Animalia,TYRANT_FLYCATCHERS_TYRANNIDAE,Tropical Kingbird,,1,-86.2347140909,12.0749382784,North America,Nicaragua,NI,,Nicaragua,2014-03-04,17:22
Cathartes aura,Animalia,NEW_WORLD_VULTURES_CATHARTIDAE,Turkey Vulture,,3,-86.2348106504,12.0749374041,North America,Nicaragua,NI,,Nicaragua,2014-03-03,17:17
Cathartes aura,Animalia,NEW_WORLD_VULTURES_CATHARTIDAE,Turkey Vulture,,1,-86.2348106504,12.0749374041,North America,Nicaragua,NI,,Nicaragua,2014-03-03,09:39
Campylorhynchus capistratus capistratus,Animalia,WRENS_TROGLODYTIDAE,Rufous-backed Wren ssp capistratus,,1,-86.2348294259,12.0749277869,North America,Nicaragua,NI,,Nicaragua,2014-03-02,13:53
Tyrannus forficatus,Animalia,TYRANT_FLYCATCHERS_TYRANNIDAE,Scissor-tailed Flycatcher,,50,-86.8481791019,12.5687892688,North America,Nicaragua,NI,,Nicaragua,2014-02-17,
Eupsittula canicularis,Animalia,PARROTS_PSITTACIDAE,Orange-fronted Parakeet,,1,-86.8481791019,12.5687892688,North America,Nicaragua,NI,,Nicaragua,2014-02-17,
Piaya cayana,Animalia,CUCKOOS_AND_COUCALS_CUCULIDAE,Squirrel Cuckoo,,1,-86.8481791019,12.5687892688,North America,Nicaragua,NI,,Nicaragua,2014-02-17,
Eumomota superciliosa,Animalia,MOTMOTS_MOMOTIDAE,Turquoise-browed Motmot,,4,-86.8382817507,12.5702976835,North America,Nicaragua,NI,,Nicaragua,2014-02-17,
Bubulcus ibis,Animalia,HERONS_ARDEIDAE,Western Cattle Egret,,1,-82.9833117127,12.2989892361,North America,Nicaragua,NI,,Nicaragua,2014-02-15,
Patagioenas leucocephala,Animalia,PIGEONS_AND_DOVES_COLUMBIDAE,White-crowned Pigeon,,10,-82.980221808,12.2986690399,North America,Nicaragua,NI,,Nicaragua,2014-02-15,
Leucophaeus atricilla,Animalia,GULLS_TERNS_AND_SKIMMERS_LARIDAE,Laughing Gull,,1,-85.7883417187,11.4635369467,North America,Nicaragua,NI,,Nicaragua,2014-02-09,
Calocitta formosa,Animalia,CROWS_AND_JAYS_CORVIDAE,White-throated Magpie-Jay,,1,-85.5398793519,11.4890015979,North America,Nicaragua,NI,,Nicaragua,2014-02-09,
Aythya affinis,Animalia,DUCKS_GEESE_AND_SWANS_ANATIDAE,Lesser Scaup,,1,-85.5394072831,11.4955239401,North America,Nicaragua,NI,,Nicaragua,2014-02-08,
Thalasseus acuflavidus,Animalia,GULLS_TERNS_AND_SKIMMERS_LARIDAE,Cabot's Tern,,1,-85.8735461533,11.2539405214,North America,Nicaragua,NI,,Nicaragua,2014-02-06,
Leucophaeus pipixcan,Animalia,GULLS_TERNS_AND_SKIMMERS_LARIDAE,Franklin's Gull,,1,-85.8735461533,11.2539405214,North America,Nicaragua,NI,,Nicaragua,2014-02-06,
Leucophaeus atricilla,Animalia,GULLS_TERNS_AND_SKIMMERS_LARIDAE,Laughing Gull,,50,-85.8735461533,11.2539405214,North America,Nicaragua,NI,,Nicaragua,2014-02-06,
Fregata magnificens,Animalia,FRIGATEBIRDS_FREGATTIDAE,Magnificent Frigatebird,,50,-85.8735461533,11.2539405214,North America,Nicaragua,NI,,Nicaragua,2014-02-06,
Tyrannus melancholicus,Animalia,TYRANT_FLYCATCHERS_TYRANNIDAE,Tropical Kingbird,,1,-86.2377807498,12.0974892436,North America,Nicaragua,NI,,Nicaragua,2014-02-20,
Fregata magnificens,Animalia,FRIGATEBIRDS_FREGATTIDAE,Magnificent Frigatebird,,50,-85.872099,11.252945,North America,Nicaragua,NI,,Nicaragua,2014-02-07,06:27
Leucophaeus atricilla,Animalia,GULLS_TERNS_AND_SKIMMERS_LARIDAE,Laughing Gull,,100,-85.872099,11.252945,North America,Nicaragua,NI,,Nicaragua,2014-02-07,06:27
Pelecanus occidentalis,Animalia,PELICANS_PELECANIDAE,Brown Pelican,,30,-85.872099,11.252945,North America,Nicaragua,NI,,Nicaragua,2014-02-07,06:28
Thalasseus acuflavidus,Animalia,GULLS_TERNS_AND_SKIMMERS_LARIDAE,Cabot's Tern,,1,-85.872099,11.252945,North America,Nicaragua,NI,,Nicaragua,2014-02-07,06:39
Egretta thula,Animalia,HERONS_ARDEIDAE,Snowy Egret,,1,-85.872099,11.252945,North America,Nicaragua,NI,,Nicaragua,2014-02-07,06:39
Leucophaeus atricilla,Animalia,GULLS_TERNS_AND_SKIMMERS_LARIDAE,Laughing Gull,,1,-85.780406,11.470192,North America,Nicaragua,NI,,Nicaragua,2014-02-07,10:58
Calocitta formosa,Animalia,CROWS_AND_JAYS_CORVIDAE,White-throated Magpie-Jay,,10,-85.527152,11.490114,North America,Nicaragua,NI,,Nicaragua,2014-02-08,07:14
Aythya affinis,Animalia,DUCKS_GEESE_AND_SWANS_ANATIDAE,Lesser Scaup,,1,-85.540655,11.491709,North America,Nicaragua,NI,,Nicaragua,2014-02-08,16:56
Egretta thula,Animalia,HERONS_ARDEIDAE,Snowy Egret,,2,-85.540655,11.491709,North America,Nicaragua,NI,,Nicaragua,2014-02-08,17:25
Dircenna klugii,Animalia,BRUSHFOOTED_BUTTERFLIES_NYMPHALIDAE,Klug's Clearwing,,1,-85.91398708,12.95431047,North America,Nicaragua,NI,,Nicaragua,2010-02-02,
Siproeta stelenes,Animalia,BRUSHFOOTED_BUTTERFLIES_NYMPHALIDAE,Malachite,,1,-85.6036233902,11.4819783726,North America,Nicaragua,NI,,Nicaragua,2010-01-26,
Agalychnis callidryas,Animalia,Hylidae,Red-eyed Treefrog,,1,-85.754211,13.182401,North America,Nicaragua,NI,,Nicaragua,2012-12-03,
Caligo telamonius memnon,Animalia,BRUSHFOOTED_BUTTERFLIES_NYMPHALIDAE,,,1,-85.507108,11.473604,North America,Nicaragua,NI,,Nicaragua,2012-11-28,
Saccopteryx leptura,Animalia,SACWINGED_BATS_EMBALLONURIDAE,Lesser Sac-winged Bat,,5,-87.585168,12.836247,North America,Nicaragua,NI,,Nicaragua,2012-11-24,
Trachemys scripta,Animalia,Emydidae,Pond Slider,,1,-87.585168,12.836247,North America,Nicaragua,NI,,Nicaragua,2012-11-23,
Ramphastos sulfuratus,Animalia,TOUCANS_BARBETS_RAMPHASTIDAE,Keel-billed Toucan,,6,-85.752766,13.185237,North America,Nicaragua,NI,,Nicaragua,2012-12-04,06:52
Momotus lessonii,Animalia,MOTMOTS_MOMOTIDAE,Lesson's Motmot,,1,-85.711348,13.26962086896,North America,Nicaragua,NI,,Nicaragua,2012-12-03,19:20
Pionus senilis,Animalia,PARROTS_PSITTACIDAE,White-crowned Parrot,,5,-85.752684,13.185256,North America,Nicaragua,NI,,Nicaragua,2012-12-03,07:07
Tachybaptus dominicus,Animalia,GREBES_PODICIPEDIDAE,Least Grebe,,2,-85.755285,13.180439,North America,Nicaragua,NI,,Nicaragua,2012-12-02,09:28
Trogon caligatus,Animalia,TROGONS_TROGONIDAE,Gartered Trogon,,1,-85.75428,13.182685,North America,Nicaragua,NI,,Nicaragua,2012-12-01,20:34
Ramphocelus sanguinolentus,Animalia,TANAGERS_AND_ALLIES_THRAUPIDAE,Crimson-collared Tanager,,1,-85.754285,13.18236,North America,Nicaragua,NI,,Nicaragua,2012-12-01,15:37
Momotus lessonii,Animalia,MOTMOTS_MOMOTIDAE,Lesson's Motmot,,1,-86.273352,12.050057,North America,Nicaragua,NI,,Nicaragua,2012-11-30,11:23
Campylorhynchus capistratus capistratus,Animalia,WRENS_TROGLODYTIDAE,Rufous-backed Wren ssp capistratus,,1,-86.270575,12.056221,North America,Nicaragua,NI,,Nicaragua,2012-11-30,07:32
Alouatta palliata,Animalia,SPIDER_MONKEYS_ATELIDAE,Mantled Howler Monkey,,10,-85.515931,11.482773,North America,Nicaragua,NI,,Nicaragua,2012-11-28,20:16
Alouatta palliata,Animalia,SPIDER_MONKEYS_ATELIDAE,Mantled Howler Monkey,,10,-85.507169,11.47641707,North America,Nicaragua,NI,,Nicaragua,2012-11-28,20:14
Alouatta palliata,Animalia,SPIDER_MONKEYS_ATELIDAE,Mantled Howler Monkey,,7,-85.521904,11.480417,North America,Nicaragua,NI,,Nicaragua,2012-11-28,20:13
Alouatta palliata,Animalia,SPIDER_MONKEYS_ATELIDAE,Mantled Howler Monkey,,10,-85.519028,11.476754,North America,Nicaragua,NI,,Nicaragua,2012-11-28,20:12
Alouatta palliata,Animalia,SPIDER_MONKEYS_ATELIDAE,Mantled Howler Monkey,,1,-85.522398,11.480024,North America,Nicaragua,NI,,Nicaragua,2012-11-26,16:32
Egretta thula,Animalia,HERONS_ARDEIDAE,Snowy Egret,,20,-85.543112,11.493308,North America,Nicaragua,NI,,Nicaragua,2012-11-27,12:59
Egretta tricolor,Animalia,HERONS_ARDEIDAE,Tricolored Heron,,1,-85.543281,11.493308,North America,Nicaragua,NI,,Nicaragua,2012-11-27,12:40
Calocitta formosa,Animalia,CROWS_AND_JAYS_CORVIDAE,White-throated Magpie-Jay,,5,-85.522475,11.479968,North America,Nicaragua,NI,,Nicaragua,2012-11-26,16:28
Calocitta formosa,Animalia,CROWS_AND_JAYS_CORVIDAE,White-throated Magpie-Jay,,5,-85.554511,11.512303,North America,Nicaragua,NI,,Nicaragua,2012-11-26,13:56
Calocitta formosa,Animalia,CROWS_AND_JAYS_CORVIDAE,White-throated Magpie-Jay,,3,-86.27,12.057,North America,Nicaragua,NI,,Nicaragua,2012-11-26,06:58
Coragyps atratus,Animalia,NEW_WORLD_VULTURES_CATHARTIDAE,Black Vulture,,1,-86.269999,12.056434,North America,Nicaragua,NI,,Nicaragua,2012-11-21,16:09
Tyrannus melancholicus,Animalia,TYRANT_FLYCATCHERS_TYRANNIDAE,Tropical Kingbird,,1,-86.270098,12.056377,North America,Nicaragua,NI,,Nicaragua,2012-11-21,16:06
Tyto furcata,Animalia,BARN_OWLS_TYTONIDAE,American Barn Owl,,2,-87.632698,12.865031,North America,Nicaragua,NI,,Nicaragua,2012-11-24,11:35
Tyrannus melancholicus,Animalia,TYRANT_FLYCATCHERS_TYRANNIDAE,Tropical Kingbird,,1,-86.27,12.057,North America,Nicaragua,NI,,Nicaragua,2012-11-22,17:03
Campylorhynchus capistratus capistratus,Animalia,WRENS_TROGLODYTIDAE,Rufous-backed Wren ssp capistratus,,3,-86.27,12.057,North America,Nicaragua,NI,,Nicaragua,2012-11-22,07:41
Cathartes aura,Animalia,NEW_WORLD_VULTURES_CATHARTIDAE,Turkey Vulture,,10,-85.9570465088,11.9358446812,North America,Nicaragua,NI,,Nicaragua,2012-02-06,
Alouatta palliata,Animalia,SPIDER_MONKEYS_ATELIDAE,Mantled Howler Monkey,,20,-85.6137237549,11.5324680965,North America,Nicaragua,NI,,Nicaragua,2012-02-04,
Calocitta formosa,Animalia,CROWS_AND_JAYS_CORVIDAE,White-throated Magpie-Jay,,30,-85.4928741455,11.4409547096,North America,Nicaragua,NI,,Nicaragua,2012-02-04,
Ardea herodias,Animalia,HERONS_ARDEIDAE,Great Blue Heron,,10,-84.8872528076,11.0833675323,North America,Nicaragua,NI,,Nicaragua,2012-02-03,
Eudocimus albus,Animalia,IBISSES_AND_SPOONBILLS_THRESKIORNITHIDAE,American White Ibis,,30,-84.8872528076,11.0833675323,North America,Nicaragua,NI,,Nicaragua,2012-02-03,
Coragyps atratus,Animalia,NEW_WORLD_VULTURES_CATHARTIDAE,Black Vulture,,50,-84.8872528076,11.0833675323,North America,Nicaragua,NI,,Nicaragua,2012-02-03,
Platalea ajaja,Animalia,IBISSES_AND_SPOONBILLS_THRESKIORNITHIDAE,Roseate Spoonbill,,50,-84.8872528076,11.0833675323,North America,Nicaragua,NI,,Nicaragua,2012-02-03,
Eudocimus albus,Animalia,IBISSES_AND_SPOONBILLS_THRESKIORNITHIDAE,American White Ibis,,1,-85.010848999,11.1729742936,North America,Nicaragua,NI,,Nicaragua,2012-02-03,
Eudocimus albus,Animalia,IBISSES_AND_SPOONBILLS_THRESKIORNITHIDAE,American White Ibis,,3,-84.989906311,11.1722796105,North America,Nicaragua,NI,,Nicaragua,2012-02-02,
Cathartes aura,Animalia,NEW_WORLD_VULTURES_CATHARTIDAE,Turkey Vulture,,10,-84.7736129761,11.1234581747,North America,Nicaragua,NI,,Nicaragua,2012-02-02,
Butorides virescens,Animalia,HERONS_ARDEIDAE,Green Heron,,1,-84.7736129761,11.1234581747,North America,Nicaragua,NI,,Nicaragua,2012-02-02,
Tachycineta albilinea,Animalia,SWALLOWS_HIRUNDINIDAE,Mangrove Swallow,,100,-84.7698364258,11.1130149244,North America,Nicaragua,NI,,Nicaragua,2012-02-02,
Sporophila corvina,Animalia,TANAGERS_AND_ALLIES_THRAUPIDAE,Variable Seedeater,,10,-84.5099411011,11.0446192525,North America,Nicaragua,NI,,Nicaragua,2012-02-01,
Aramides albiventris plumbeicollis,Animalia,RAILS_RALLIDAE,Rufous-naped Wood Rail ssp plumbeicollis,,2,-84.5099411011,11.0446192525,North America,Nicaragua,NI,,Nicaragua,2012-02-01,
Thraupis episcopus,Animalia,TANAGERS_AND_ALLIES_THRAUPIDAE,Blue-grey Tanager,,10,-84.462562561,11.0294554886,North America,Nicaragua,NI,,Nicaragua,2012-01-31,
Tachycineta albilinea,Animalia,SWALLOWS_HIRUNDINIDAE,Mangrove Swallow,,100,-84.462562561,11.0294554886,North America,Nicaragua,NI,,Nicaragua,2012-01-31,
Megaceryle torquata,Animalia,KINGFISHERS_ALCEDINIDAE,Ringed Kingfisher,,2,-84.462562561,11.0294554886,North America,Nicaragua,NI,,Nicaragua,2012-01-31,
Jacana spinosa,Animalia,JACANAS_JACANIDAE,Northern Jacana,,10,-84.462562561,11.0294554886,North America,Nicaragua,NI,,Nicaragua,2012-01-31,
Bubulcus ibis,Animalia,HERONS_ARDEIDAE,Western Cattle Egret,,100,-84.462562561,11.0294554886,North America,Nicaragua,NI,,Nicaragua,2012-01-31,
Cathartes aura,Animalia,NEW_WORLD_VULTURES_CATHARTIDAE,Turkey Vulture,,100,-84.7760162353,11.1113304941,North America,Nicaragua,NI,,Nicaragua,2012-01-31,
Bubulcus ibis,Animalia,HERONS_ARDEIDAE,Western Cattle Egret,,1,-84.7526702881,11.0786506245,North America,Nicaragua,NI,,Nicaragua,2012-01-31,
Jacana spinosa,Animalia,JACANAS_JACANIDAE,Northern Jacana,,1,-84.7526702881,11.0786506245,North America,Nicaragua,NI,,Nicaragua,2012-01-31,
Ardea alba egretta,Animalia,HERONS_ARDEIDAE,American Great Egret,,10,-84.7526702881,11.0786506245,North America,Nicaragua,NI,,Nicaragua,2012-01-31,
Actitis macularius,Animalia,SANDPIPERS_AND_ALLIES_SCOLOPACIDAE,Spotted Sandpiper,,1,-84.7526702881,11.0786506245,North America,Nicaragua,NI,,Nicaragua,2012-01-31,
Alouatta palliata,Animalia,SPIDER_MONKEYS_ATELIDAE,Mantled Howler Monkey,,18,-84.7526702881,11.0786506245,North America,Nicaragua,NI,,Nicaragua,2012-01-31,
Tachycineta albilinea,Animalia,SWALLOWS_HIRUNDINIDAE,Mangrove Swallow,,10,-84.7526702881,11.0786506245,North America,Nicaragua,NI,,Nicaragua,2012-01-31,
Anhinga anhinga,Animalia,ANHINGAS_ANHINGIDAE,Anhinga,,3,-84.7526702881,11.0786506245,North America,Nicaragua,NI,,Nicaragua,2012-01-31,
Chloroceryle amazona,Animalia,KINGFISHERS_ALCEDINIDAE,Amazon Kingfisher,,1,-84.7526702881,11.0786506245,North America,Nicaragua,NI,,Nicaragua,2012-01-31,
Chloroceryle americana,Animalia,KINGFISHERS_ALCEDINIDAE,Green Kingfisher,,1,-84.7526702881,11.0786506245,North America,Nicaragua,NI,,Nicaragua,2012-01-31,
Pelecanus occidentalis,Animalia,PELICANS_PELECANIDAE,Brown Pelican,,1,-87.6444778442,12.9777565999,North America,Nicaragua,NI,,Nicaragua,2011-11-11,
Thalasseus maximus,Animalia,GULLS_TERNS_AND_SKIMMERS_LARIDAE,Royal Tern,,1,-87.6444778442,12.9777565999,North America,Nicaragua,NI,,Nicaragua,2011-11-11,
Tyrannus forficatus,Animalia,TYRANT_FLYCATCHERS_TYRANNIDAE,Scissor-tailed Flycatcher,,1,-87.6444778442,12.9777565999,North America,Nicaragua,NI,,Nicaragua,2011-11-11,
Lepidochelys olivacea,Animalia,Cheloniidae,Olive Ridley Sea Turtle,,3,-86.9664154053,12.3205100235,North America,Nicaragua,NI,,Nicaragua,2011-11-10,
Crocodylus acutus,Animalia,Crocodylidae,American Crocodile,,1,-86.9664154053,12.3205100235,North America,Nicaragua,NI,,Nicaragua,2011-11-10,
Coragyps atratus,Animalia,NEW_WORLD_VULTURES_CATHARTIDAE,Black Vulture,,1,-86.9664154053,12.3205100235,North America,Nicaragua,NI,,Nicaragua,2011-11-10,
Chloroceryle aenea,Animalia,KINGFISHERS_ALCEDINIDAE,American Pygmy Kingfisher,,1,-86.9664154053,12.3205100235,North America,Nicaragua,NI,,Nicaragua,2011-11-10,
Egretta tricolor,Animalia,HERONS_ARDEIDAE,Tricolored Heron,,1,-86.9664154053,12.3205100235,North America,Nicaragua,NI,,Nicaragua,2011-11-10,
Egretta tricolor,Animalia,HERONS_ARDEIDAE,Tricolored Heron,,1,-86.9664154053,12.3205100235,North America,Nicaragua,NI,,Nicaragua,2011-11-10,
Egretta tricolor,Animalia,HERONS_ARDEIDAE,Tricolored Heron,,1,-86.9664154053,12.3205100235,North America,Nicaragua,NI,,Nicaragua,2011-11-10,
Numenius hudsonicus hudsonicus,Animalia,SANDPIPERS_AND_ALLIES_SCOLOPACIDAE,Hudsonian Whimbrel ssp hudsonicus,,1,-86.9664154053,12.3205100235,North America,Nicaragua,NI,,Nicaragua,2011-11-10,
Cathartes aura,Animalia,NEW_WORLD_VULTURES_CATHARTIDAE,Turkey Vulture,,1,-86.9664154053,12.3205100235,North America,Nicaragua,NI,,Nicaragua,2011-11-10,
Fregata magnificens,Animalia,FRIGATEBIRDS_FREGATTIDAE,Magnificent Frigatebird,,25,-86.9664154053,12.3205100235,North America,Nicaragua,NI,,Nicaragua,2011-11-10,
Egretta thula,Animalia,HERONS_ARDEIDAE,Snowy Egret,,1,-86.9664154053,12.3205100235,North America,Nicaragua,NI,,Nicaragua,2011-11-10,
Quiscalus mexicanus,Animalia,ICTERIDS_ICTERIDAE,Great-tailed Grackle,,1,-86.9513092041,12.3117890684,North America,Nicaragua,NI,,Nicaragua,2011-11-10,
Calocitta formosa,Animalia,CROWS_AND_JAYS_CORVIDAE,White-throated Magpie-Jay,,1,-86.1479768753,11.9904229344,North America,Nicaragua,NI,,Nicaragua - Volcán  Masaya NP,2011-11-09,
Rhynchonycteris naso,Animalia,SACWINGED_BATS_EMBALLONURIDAE,Proboscis Bat,,1,-85.923787117,11.9155219671,North America,Nicaragua,NI,,Nicaragua,2011-11-08,
Quiscalus mexicanus,Animalia,ICTERIDS_ICTERIDAE,Great-tailed Grackle,,1,-85.923787117,11.9155219671,North America,Nicaragua,NI,,Nicaragua,2011-11-08,
Egretta thula,Animalia,HERONS_ARDEIDAE,Snowy Egret,,1,-85.923787117,11.9155219671,North America,Nicaragua,NI,,Nicaragua,2011-11-08,
Ardea herodias,Animalia,HERONS_ARDEIDAE,Great Blue Heron,,1,-85.923787117,11.9155219671,North America,Nicaragua,NI,,Nicaragua,2011-11-08,
Egretta caerulea,Animalia,HERONS_ARDEIDAE,Little Blue Heron,,1,-85.923787117,11.9155219671,North America,Nicaragua,NI,,Nicaragua,2011-11-08,
Cathartes aura,Animalia,NEW_WORLD_VULTURES_CATHARTIDAE,Turkey Vulture,,1,-85.923787117,11.9155219671,North America,Nicaragua,NI,,Nicaragua,2011-11-08,
Fregata magnificens,Animalia,FRIGATEBIRDS_FREGATTIDAE,Magnificent Frigatebird,,2,-85.923787117,11.9155219671,North America,Nicaragua,NI,,Nicaragua,2011-11-08,
Pandion haliaetus,Animalia,OSPREY_PANDIONIDAE,Western Osprey,,1,-85.923787117,11.9155219671,North America,Nicaragua,NI,,Nicaragua,2011-11-08,
Nycticorax nycticorax,Animalia,HERONS_ARDEIDAE,Black-crowned Night Heron,,1,-85.923787117,11.9155219671,North America,Nicaragua,NI,,Nicaragua,2011-11-08,
Butorides virescens,Animalia,HERONS_ARDEIDAE,Green Heron,,1,-85.923787117,11.9155219671,North America,Nicaragua,NI,,Nicaragua,2011-11-08,
Phalacrocorax brasilianus,Animalia,CORMORANTS_PHALACROCORACIDAE,Neotropic Cormorant,,1,-85.923787117,11.9155219671,North America,Nicaragua,NI,,Nicaragua,2011-11-08,
Ardea alba,Animalia,HERONS_ARDEIDAE,Great Egret,,1,-85.923787117,11.9155219671,North America,Nicaragua,NI,,Nicaragua,2011-11-08,
Jacana spinosa,Animalia,JACANAS_JACANIDAE,Northern Jacana,,1,-85.923787117,11.9155219671,North America,Nicaragua,NI,,Nicaragua,2011-11-08,
Aythya affinis,Animalia,DUCKS_GEESE_AND_SWANS_ANATIDAE,Lesser Scaup,,2,-84.7674331665,11.1259847113,North America,Nicaragua,NI,,Nicaragua,2011-11-06,
Bubulcus ibis,Animalia,HERONS_ARDEIDAE,Western Cattle Egret,,1,-84.733959198,11.1184050358,North America,Nicaragua,NI,,Nicaragua,2011-11-06,
Pandion haliaetus,Animalia,OSPREY_PANDIONIDAE,Western Osprey,,1,-84.733959198,11.1184050358,North America,Nicaragua,NI,,Nicaragua,2011-11-06,
Argia sp.,Animalia,POND_DAMSELS_COENAGRIONIDAE,,,1,-84.733959198,11.1184050358,North America,Nicaragua,NI,,Nicaragua,2011-11-05,
Hetaerina titia,Animalia,BROADWINGED_DAMSELS_CALOPTERYGIDAE,Smoky Rubyspot,,1,-84.733959198,11.1184050358,North America,Nicaragua,NI,,Nicaragua,2011-11-05,
Neoneura amelia,Animalia,POND_DAMSELS_COENAGRIONIDAE,Amelia's Threadtail,,1,-84.733959198,11.1184050358,North America,Nicaragua,NI,,Nicaragua,2011-11-05,
Perithemis spec,Animalia,SKIMMERS_LIBELLULIDAE,,,1,-84.733959198,11.1184050358,North America,Nicaragua,NI,,Nicaragua,2011-11-05,
Butorides virescens,Animalia,HERONS_ARDEIDAE,Green Heron,,1,-84.733959198,11.1184050358,North America,Nicaragua,NI,,Nicaragua,2011-11-05,
Tachycineta albilinea,Animalia,SWALLOWS_HIRUNDINIDAE,Mangrove Swallow,,1,-84.733959198,11.1184050358,North America,Nicaragua,NI,,Nicaragua,2011-11-05,
Ardea alba,Animalia,HERONS_ARDEIDAE,Great Egret,,1,-84.733959198,11.1184050358,North America,Nicaragua,NI,,Nicaragua,2011-11-05,
Actitis macularius,Animalia,SANDPIPERS_AND_ALLIES_SCOLOPACIDAE,Spotted Sandpiper,,1,-84.733959198,11.1184050358,North America,Nicaragua,NI,,Nicaragua,2011-11-05,
Caiman crocodilus,Animalia,ALLIGATORIDAE,Spectacled Caiman,,2,-84.733959198,11.1184050358,North America,Nicaragua,NI,,Nicaragua,2011-11-05,
Basiliscus plumifrons,Animalia,Corytophanidae,Green Basilisk,,3,-84.733959198,11.1184050358,North America,Nicaragua,NI,,Nicaragua,2011-11-05,
Alouatta palliata,Animalia,SPIDER_MONKEYS_ATELIDAE,Mantled Howler Monkey,,1,-84.733295705,11.1174562229,North America,Nicaragua,NI,,Nicaragua,2011-11-04,
Bubulcus ibis,Animalia,HERONS_ARDEIDAE,Western Cattle Egret,,50,-84.733295705,11.1174562229,North America,Nicaragua,NI,,Nicaragua,2011-11-04,
Pandion haliaetus,Animalia,OSPREY_PANDIONIDAE,Western Osprey,,1,-84.733295705,11.1174562229,North America,Nicaragua,NI,,Nicaragua,2011-11-04,
Anhinga anhinga,Animalia,ANHINGAS_ANHINGIDAE,Anhinga,,1,-84.733295705,11.1174562229,North America,Nicaragua,NI,,Nicaragua,2011-11-04,
Jacana spinosa,Animalia,JACANAS_JACANIDAE,Northern Jacana,,1,-84.733295705,11.1174562229,North America,Nicaragua,NI,,Nicaragua,2011-11-04,
Siproeta epaphus epaphus,Animalia,BRUSHFOOTED_BUTTERFLIES_NYMPHALIDAE,Rusty-tipped Page,,1,-85.9439849854,11.8223252509,North America,Nicaragua,NI,,Nicaragua,2011-03-06,
Psittacara rubritorquis,Animalia,PARROTS_PSITTACIDAE,Red-throated Parakeet,,7,-85.1623249054,12.2202400201,North America,Nicaragua,NI,,Nicaragua,2011-07-25,
Psittacara rubritorquis,Animalia,PARROTS_PSITTACIDAE,Red-throated Parakeet,,11,-85.1623249054,12.2202400201,North America,Nicaragua,NI,,Nicaragua,2011-07-26,
Psittacara rubritorquis,Animalia,PARROTS_PSITTACIDAE,Red-throated Parakeet,,3,-85.1623249054,12.2202400201,North America,Nicaragua,NI,,Nicaragua,2011-07-27,
Tramea calverti,Animalia,SKIMMERS_LIBELLULIDAE,Striped Saddlebags,,1,-85.95355,11.70864,North America,Nicaragua,NI,,Nicaragua,2009-03-12,
Tramea binotata,Animalia,SKIMMERS_LIBELLULIDAE,Sooty Saddlebags,,1,-84.339,10.9728,North America,Nicaragua,NI,,Nicaragua,2002-08-05,
Tramea abdominalis,Animalia,SKIMMERS_LIBELLULIDAE,Vermilion Saddlebags,,1,-85.80302,13.58302,North America,Nicaragua,NI,,Nicaragua,2001-08-01,
Telebasis salva,Animalia,POND_DAMSELS_COENAGRIONIDAE,Desert Firetail,,1,-85.80302,13.58302,North America,Nicaragua,NI,,Nicaragua,2001-08-01,
Telebasis salva,Animalia,POND_DAMSELS_COENAGRIONIDAE,Desert Firetail,,1,-85.80864,13.5918,North America,Nicaragua,NI,,Nicaragua,2001-08-01,
Rhionaeschna psilus,Animalia,DARNERS_AESHNIDAE,Turquoise-tipped Darner,,1,-85.78003,12.93978,North America,Nicaragua,NI,,Nicaragua,2009-03-08,
Rhionaeschna psilus,Animalia,DARNERS_AESHNIDAE,Turquoise-tipped Darner,,1,-85.91049,12.99869,North America,Nicaragua,NI,,Nicaragua,2001-08-03,
Remartinia luteipennis,Animalia,DARNERS_AESHNIDAE,Malachite Darner,,1,-85.91049,12.99869,North America,Nicaragua,NI,,Nicaragua,2001-08-03,
Protoneura cara,Animalia,POND_DAMSELS_COENAGRIONIDAE,Orange-striped Threadtail,,1,-85.9522,11.7013,North America,Nicaragua,NI,,Nicaragua,2009-03-14,
Pantala hymenaea,Animalia,SKIMMERS_LIBELLULIDAE,Spot-winged Glider,,1,-85.73621,13.6355,North America,Nicaragua,NI,,Nicaragua,2001-07-31,
Paltothemis lineatipes,Animalia,SKIMMERS_LIBELLULIDAE,Red Rock Skimmer,,1,-85.78003,12.93978,North America,Nicaragua,NI,,Nicaragua,2009-03-04,
Orthemis ferruginea,Animalia,SKIMMERS_LIBELLULIDAE,Roseate Skimmer,,1,-85.95355,11.70864,North America,Nicaragua,NI,,Nicaragua,2009-03-13,
Orthemis ferruginea,Animalia,SKIMMERS_LIBELLULIDAE,Roseate Skimmer,,1,-85.95355,11.70864,North America,Nicaragua,NI,,Nicaragua,2009-03-12,
Orthemis ferruginea,Animalia,SKIMMERS_LIBELLULIDAE,Roseate Skimmer,,1,-85.80864,13.5918,North America,Nicaragua,NI,,Nicaragua,2001-08-01,
Orthemis discolor,Animalia,SKIMMERS_LIBELLULIDAE,Carmine Skimmer,,1,-85.788,12.8971,North America,Nicaragua,NI,,Nicaragua,2009-03-09,
Orthemis discolor,Animalia,SKIMMERS_LIBELLULIDAE,Carmine Skimmer,,1,-85.79217,13.56409,North America,Nicaragua,NI,,Nicaragua,2001-08-01,
Orthemis discolor,Animalia,SKIMMERS_LIBELLULIDAE,Carmine Skimmer,,1,-85.80302,13.58302,North America,Nicaragua,NI,,Nicaragua,2001-08-01,
Orthemis discolor,Animalia,SKIMMERS_LIBELLULIDAE,Carmine Skimmer,,1,-85.80864,13.5918,North America,Nicaragua,NI,,Nicaragua,2001-08-01,
Neoneura amelia,Animalia,POND_DAMSELS_COENAGRIONIDAE,Amelia's Threadtail,,1,-85.95355,11.70864,North America,Nicaragua,NI,,Nicaragua,2009-03-13,
Neoneura amelia,Animalia,POND_DAMSELS_COENAGRIONIDAE,Amelia's Threadtail,,1,-85.9522,11.7013,North America,Nicaragua,NI,,Nicaragua,2009-03-14,
Neoneura amelia,Animalia,POND_DAMSELS_COENAGRIONIDAE,Amelia's Threadtail,,1,-84.339,10.9728,North America,Nicaragua,NI,,Nicaragua,2002-08-05,
Neoerythromma cultellatum,Animalia,POND_DAMSELS_COENAGRIONIDAE,Caribbean Yellowface,,1,-85.9522,11.7013,North America,Nicaragua,NI,,Nicaragua,2009-03-14,
Neoerythromma cultellatum,Animalia,POND_DAMSELS_COENAGRIONIDAE,Caribbean Yellowface,,1,-85.91049,12.99869,North America,Nicaragua,NI,,Nicaragua,2001-08-03,
Micrathyria hagenii,Animalia,SKIMMERS_LIBELLULIDAE,Thornbush Dasher,,1,-85.80302,13.58302,North America,Nicaragua,NI,,Nicaragua,2001-08-01,
Micrathyria aequalis,Animalia,SKIMMERS_LIBELLULIDAE,Spot-tailed Dasher,,1,-85.95355,11.70864,North America,Nicaragua,NI,,Nicaragua,2009-03-13,
Miathyria marcella,Animalia,SKIMMERS_LIBELLULIDAE,Hyacinth Glider,,1,-85.95355,11.70864,North America,Nicaragua,NI,,Nicaragua,2009-03-13,
Miathyria marcella,Animalia,SKIMMERS_LIBELLULIDAE,Hyacinth Glider,,1,-85.95355,11.70864,North America,Nicaragua,NI,,Nicaragua,2009-03-12,
Miathyria marcella,Animalia,SKIMMERS_LIBELLULIDAE,Hyacinth Glider,,1,-85.80302,13.58302,North America,Nicaragua,NI,,Nicaragua,2001-08-01,
Miathyria marcella,Animalia,SKIMMERS_LIBELLULIDAE,Hyacinth Glider,,1,-84.339,10.9728,North America,Nicaragua,NI,,Nicaragua,2002-08-05,
Macrothemis inacuta,Animalia,SKIMMERS_LIBELLULIDAE,Straw-colored Sylph,,1,-85.80864,13.5918,North America,Nicaragua,NI,,Nicaragua,2001-08-01,
Leptobasis vacillans,Animalia,POND_DAMSELS_COENAGRIONIDAE,,,1,-84.339,10.9728,North America,Nicaragua,NI,,Nicaragua,2002-08-05,
Ischnura ramburii,Animalia,POND_DAMSELS_COENAGRIONIDAE,Rambur's Forktail,,1,-85.91049,12.99869,North America,Nicaragua,NI,,Nicaragua,2001-08-03,
Hetaerina titia,Animalia,BROADWINGED_DAMSELS_CALOPTERYGIDAE,Smoky Rubyspot,,1,-84.339,10.9728,North America,Nicaragua,NI,,Nicaragua,2002-08-05,
Gynacantha mexicana,Animalia,DARNERS_AESHNIDAE,Bar-sided Darner,,1,-85.9552,11.9298,North America,Nicaragua,NI,,Nicaragua,2009-03-11,
Erythrodiplax umbrata,Animalia,SKIMMERS_LIBELLULIDAE,Band-winged Dragonlet,,1,-85.95355,11.70864,North America,Nicaragua,NI,,Nicaragua,2009-03-12,
Erythrodiplax umbrata,Animalia,SKIMMERS_LIBELLULIDAE,Band-winged Dragonlet,,1,-85.80302,13.58302,North America,Nicaragua,NI,,Nicaragua,2001-08-01,
Erythrodiplax fusca,Animalia,SKIMMERS_LIBELLULIDAE,Red-faced Dragonlet,,1,-85.92837,13.15214,North America,Nicaragua,NI,,Nicaragua,2001-08-02,
Erythrodiplax fusca,Animalia,SKIMMERS_LIBELLULIDAE,Red-faced Dragonlet,,1,-85.90359,13.24285,North America,Nicaragua,NI,,Nicaragua,2001-08-02,
Erythrodiplax fusca,Animalia,SKIMMERS_LIBELLULIDAE,Red-faced Dragonlet,,1,-84.339,10.9728,North America,Nicaragua,NI,,Nicaragua,2002-08-05,
Erythrodiplax funerea,Animalia,SKIMMERS_LIBELLULIDAE,Black-winged Dragonlet,,1,-85.9558,11.7097,North America,Nicaragua,NI,,Nicaragua,2009-03-14,
Erythrodiplax funerea,Animalia,SKIMMERS_LIBELLULIDAE,Black-winged Dragonlet,,1,-85.9558,11.7097,North America,Nicaragua,NI,,Nicaragua,2009-03-13,
Erythrodiplax funerea,Animalia,SKIMMERS_LIBELLULIDAE,Black-winged Dragonlet,,1,-85.80302,13.58302,North America,Nicaragua,NI,,Nicaragua,2001-08-01,
Erythrodiplax funerea,Animalia,SKIMMERS_LIBELLULIDAE,Black-winged Dragonlet,,1,-84.339,10.9728,North America,Nicaragua,NI,,Nicaragua,2002-08-05,
Erythemis vesiculosa,Animalia,SKIMMERS_LIBELLULIDAE,Great Pondhawk,,1,-85.95355,11.70864,North America,Nicaragua,NI,,Nicaragua,2009-03-12,
Erythemis plebeja,Animalia,SKIMMERS_LIBELLULIDAE,Pin-tailed Pondhawk,,1,-85.9558,11.7097,North America,Nicaragua,NI,,Nicaragua,2009-03-12,
Erythemis mithroides,Animalia,SKIMMERS_LIBELLULIDAE,Claret Pondhawk,,1,-85.80302,13.58302,North America,Nicaragua,NI,,Nicaragua,2001-08-01,
Enallagma novaehispaniae,Animalia,POND_DAMSELS_COENAGRIONIDAE,Neotropical Bluet,,1,-85.92837,13.15214,North America,Nicaragua,NI,,Nicaragua,2001-08-02,
Enallagma novaehispaniae,Animalia,POND_DAMSELS_COENAGRIONIDAE,Neotropical Bluet,,1,-85.79217,13.56409,North America,Nicaragua,NI,,Nicaragua,2001-08-01,
Enallagma novaehispaniae,Animalia,POND_DAMSELS_COENAGRIONIDAE,Neotropical Bluet,,1,-85.80864,13.5918,North America,Nicaragua,NI,,Nicaragua,2001-08-01,
Enallagma civile,Animalia,POND_DAMSELS_COENAGRIONIDAE,Familiar Bluet,,1,-85.91049,12.99869,North America,Nicaragua,NI,,Nicaragua,2001-08-03,
Brechmorhoga pertinax,Animalia,SKIMMERS_LIBELLULIDAE,Masked Clubskimmer,,1,-85.91049,12.99869,North America,Nicaragua,NI,,Nicaragua,2001-08-03,
Brechmorhoga pertinax,Animalia,SKIMMERS_LIBELLULIDAE,Masked Clubskimmer,,1,-85.92837,13.15214,North America,Nicaragua,NI,,Nicaragua,2001-08-02,
Brechmorhoga pertinax,Animalia,SKIMMERS_LIBELLULIDAE,Masked Clubskimmer,,1,-85.79217,13.56409,North America,Nicaragua,NI,,Nicaragua,2001-08-01,
Brechmorhoga pertinax,Animalia,SKIMMERS_LIBELLULIDAE,Masked Clubskimmer,,1,-85.73621,13.6355,North America,Nicaragua,NI,,Nicaragua,2001-07-31,
Brechmorhoga pertinax,Animalia,SKIMMERS_LIBELLULIDAE,Masked Clubskimmer,,1,-85.71,13.58667,North America,Nicaragua,NI,,Nicaragua,2001-07-29,
Argia translata,Animalia,POND_DAMSELS_COENAGRIONIDAE,Dusky Dancer,,1,-85.9558,11.7097,North America,Nicaragua,NI,,Nicaragua,2009-03-12,
Argia translata,Animalia,POND_DAMSELS_COENAGRIONIDAE,Dusky Dancer,,1,-85.79217,13.56409,North America,Nicaragua,NI,,Nicaragua,2001-08-01,
Argia translata,Animalia,POND_DAMSELS_COENAGRIONIDAE,Dusky Dancer,,1,-85.80864,13.5918,North America,Nicaragua,NI,,Nicaragua,2001-08-01,
Argia translata,Animalia,POND_DAMSELS_COENAGRIONIDAE,Dusky Dancer,,1,-84.339,10.9728,North America,Nicaragua,NI,,Nicaragua,2002-08-05,
Argia oenea,Animalia,POND_DAMSELS_COENAGRIONIDAE,Fiery-eyed Dancer,,1,-85.9558,11.7097,North America,Nicaragua,NI,,Nicaragua,2009-03-13,
Argia oenea,Animalia,POND_DAMSELS_COENAGRIONIDAE,Fiery-eyed Dancer,,1,-85.9522,11.7013,North America,Nicaragua,NI,,Nicaragua,2009-03-12,
Argia oenea,Animalia,POND_DAMSELS_COENAGRIONIDAE,Fiery-eyed Dancer,,1,-85.788,12.8971,North America,Nicaragua,NI,,Nicaragua,2009-03-09,
Argia oenea,Animalia,POND_DAMSELS_COENAGRIONIDAE,Fiery-eyed Dancer,,1,-85.9558,11.7097,North America,Nicaragua,NI,,Nicaragua,2009-03-12,
Argia oenea,Animalia,POND_DAMSELS_COENAGRIONIDAE,Fiery-eyed Dancer,,1,-85.92837,13.15214,North America,Nicaragua,NI,,Nicaragua,2001-08-02,
Argia oenea,Animalia,POND_DAMSELS_COENAGRIONIDAE,Fiery-eyed Dancer,,1,-85.79217,13.56409,North America,Nicaragua,NI,,Nicaragua,2001-08-01,
Argia oenea,Animalia,POND_DAMSELS_COENAGRIONIDAE,Fiery-eyed Dancer,,1,-85.80864,13.5918,North America,Nicaragua,NI,,Nicaragua,2001-08-01,
Argia extranea,Animalia,POND_DAMSELS_COENAGRIONIDAE,Spine-tipped Dancer,,1,-85.7814,12.9382,North America,Nicaragua,NI,,Nicaragua,2009-03-07,
Argia extranea,Animalia,POND_DAMSELS_COENAGRIONIDAE,Spine-tipped Dancer,,1,-85.78003,12.93978,North America,Nicaragua,NI,,Nicaragua,2009-03-04,
Archilestes grandis,Animalia,SPREADWINGS_LESTIDAE,Great Spreadwing,,1,-85.788,12.8971,North America,Nicaragua,NI,,Nicaragua,2009-03-09,
Acanthagrion quadratum,Animalia,POND_DAMSELS_COENAGRIONIDAE,Mexican Wedgetail,,1,-85.92837,13.15214,North America,Nicaragua,NI,,Nicaragua,2001-08-02,
Acanthagrion quadratum,Animalia,POND_DAMSELS_COENAGRIONIDAE,Mexican Wedgetail,,1,-85.79217,13.56409,North America,Nicaragua,NI,,Nicaragua,2001-08-01,
Acanthagrion quadratum,Animalia,POND_DAMSELS_COENAGRIONIDAE,Mexican Wedgetail,,1,-85.80302,13.58302,North America,Nicaragua,NI,,Nicaragua,2001-08-01,
Acanthagrion quadratum,Animalia,POND_DAMSELS_COENAGRIONIDAE,Mexican Wedgetail,,1,-85.80864,13.5918,North America,Nicaragua,NI,,Nicaragua,2001-08-01,
Pantala flavescens,Animalia,SKIMMERS_LIBELLULIDAE,Wandering Glider,,1,-85.95355,11.70864,North America,Nicaragua,NI,,Nicaragua,2009-03-12,
Tyrannus forficatus,Animalia,TYRANT_FLYCATCHERS_TYRANNIDAE,Scissor-tailed Flycatcher,,1,-85.9554157257,11.928622734,North America,Nicaragua,NI,,Nicaragua,2010-11-16,
Sphiggurus mexicanus,Animalia,NEW_WORLD_PORCUPINES_ERETHIZONTIDAE,,,1,-85.1631832123,12.2184053223,North America,Nicaragua,NI,,Nicaragua,2011-03-04,
Psittacara rubritorquis,Animalia,PARROTS_PSITTACIDAE,Red-throated Parakeet,,6,-85.955329895,11.9345010777,North America,Nicaragua,NI,,Nicaragua,2011-03-09,
Cathartes aura,Animalia,NEW_WORLD_VULTURES_CATHARTIDAE,Turkey Vulture,,2,-85.9422836304,11.9294625052,North America,Nicaragua,NI,,Nicaragua,2011-03-09,
Jacana spinosa,Animalia,JACANAS_JACANIDAE,Northern Jacana,,3,-85.9422836304,11.9294625052,North America,Nicaragua,NI,,Nicaragua,2011-03-09,
Bubulcus ibis,Animalia,HERONS_ARDEIDAE,Western Cattle Egret,,9,-85.9422836304,11.9294625052,North America,Nicaragua,NI,,Nicaragua,2011-03-09,
Egretta tricolor,Animalia,HERONS_ARDEIDAE,Tricolored Heron,,1,-85.9422836304,11.9294625052,North America,Nicaragua,NI,,Nicaragua,2011-03-09,
Egretta thula,Animalia,HERONS_ARDEIDAE,Snowy Egret,,2,-85.9422836304,11.9294625052,North America,Nicaragua,NI,,Nicaragua,2011-03-09,
Ardea alba egretta,Animalia,HERONS_ARDEIDAE,American Great Egret,,1,-85.9422836304,11.9294625052,North America,Nicaragua,NI,,Nicaragua,2011-03-09,
Psittacara rubritorquis,Animalia,PARROTS_PSITTACIDAE,Red-throated Parakeet,,2,-85.9546432495,11.937188278,North America,Nicaragua,NI,,Nicaragua,2011-03-08,
Jacana spinosa,Animalia,JACANAS_JACANIDAE,Northern Jacana,,5,-85.9390068054,11.9214498819,North America,Nicaragua,NI,,Nicaragua,2011-03-08,
Egretta caerulea,Animalia,HERONS_ARDEIDAE,Little Blue Heron,,1,-85.9390068054,11.9214498819,North America,Nicaragua,NI,,Nicaragua,2011-03-08,
Egretta tricolor,Animalia,HERONS_ARDEIDAE,Tricolored Heron,,1,-85.9390068054,11.9214498819,North America,Nicaragua,NI,,Nicaragua,2011-03-08,
Bubulcus ibis,Animalia,HERONS_ARDEIDAE,Western Cattle Egret,,9,-85.9390068054,11.9214498819,North America,Nicaragua,NI,,Nicaragua,2011-03-08,
Egretta thula,Animalia,HERONS_ARDEIDAE,Snowy Egret,,2,-85.9390068054,11.9214498819,North America,Nicaragua,NI,,Nicaragua,2011-03-08,
Ardea alba egretta,Animalia,HERONS_ARDEIDAE,American Great Egret,,1,-85.9390068054,11.9214498819,North America,Nicaragua,NI,,Nicaragua,2011-03-08,
Psittacara rubritorquis,Animalia,PARROTS_PSITTACIDAE,Red-throated Parakeet,,6,-86.1616668701,11.9761496862,North America,Nicaragua,NI,,Nicaragua,2011-03-07,
Psittacara rubritorquis,Animalia,PARROTS_PSITTACIDAE,Red-throated Parakeet,,6,-85.9518814087,11.9335426558,North America,Nicaragua,NI,,Nicaragua,2011-03-07,
Psittacara rubritorquis,Animalia,PARROTS_PSITTACIDAE,Red-throated Parakeet,,2,-85.9513602257,11.9351098988,North America,Nicaragua,NI,,Nicaragua,2011-03-05,
Cyanocorax melanocyaneus,Animalia,CROWS_AND_JAYS_CORVIDAE,Bushy-crested Jay,,1,-83.8009796142,12.2956880827,North America,Nicaragua,NI,,Nicaragua,2005-05-09,13:15
Tyrannus forficatus,Animalia,TYRANT_FLYCATCHERS_TYRANNIDAE,Scissor-tailed Flycatcher,,1,-85.888381958,11.8014514797,North America,Nicaragua,NI,,Nicaragua,2010-11-15,
Pandion haliaetus,Animalia,OSPREY_PANDIONIDAE,Western Osprey,,1,-85.7565460205,11.6938894392,North America,Nicaragua,NI,,Nicaragua,2010-11-16,
Eumomota superciliosa,Animalia,MOTMOTS_MOMOTIDAE,Turquoise-browed Motmot,,2,-85.9460601807,11.8256471396,North America,Nicaragua,NI,,Nicaragua,2010-11-16,
Hemidactylus garnotii,Animalia,Gekkonidae,Indo-Pacific Gecko,,1,-85.976272583,11.758431704,North America,Nicaragua,NI,,Nicaragua,2010-11-15,
Ardea alba egretta,Animalia,HERONS_ARDEIDAE,American Great Egret,,1,-85.9158325195,11.9103535558,North America,Nicaragua,NI,,Nicaragua,2010-02-21,
Calocitta formosa,Animalia,CROWS_AND_JAYS_CORVIDAE,White-throated Magpie-Jay,,1,-85.9391784668,11.9271496163,North America,Nicaragua,NI,,Nicaragua,2010-02-20,
Psarocolius montezuma,Animalia,ICTERIDS_ICTERIDAE,Montezuma Oropendola,,10,-85.9391784668,11.9271496163,North America,Nicaragua,NI,,Nicaragua,2010-02-20,
Quiscalus mexicanus,Animalia,ICTERIDS_ICTERIDAE,Great-tailed Grackle,,8,-85.9391784668,11.9271496163,North America,Nicaragua,NI,,Nicaragua,2010-02-20,
Pandion haliaetus,Animalia,OSPREY_PANDIONIDAE,Western Osprey,,2,-85.9391784668,11.9271496163,North America,Nicaragua,NI,,Nicaragua,2010-02-20,
Himantopus mexicanus,Animalia,STILTS_AND_AVOCETS_RECURVIROSTRIDAE,Black-necked Stilt,,7,-85.9391784668,11.9271496163,North America,Nicaragua,NI,,Nicaragua,2010-02-21,
Himantopus mexicanus,Animalia,STILTS_AND_AVOCETS_RECURVIROSTRIDAE,Black-necked Stilt,,7,-85.9391784668,11.9271496163,North America,Nicaragua,NI,,Nicaragua,2010-02-20,
Butorides virescens,Animalia,HERONS_ARDEIDAE,Green Heron,,1,-85.9391784668,11.9271496163,North America,Nicaragua,NI,,Nicaragua,2010-02-21,
Egretta tricolor,Animalia,HERONS_ARDEIDAE,Tricolored Heron,,2,-85.9391784668,11.9271496163,North America,Nicaragua,NI,,Nicaragua,2010-02-20,
Bubulcus ibis,Animalia,HERONS_ARDEIDAE,Western Cattle Egret,,2,-85.9391784668,11.9271496163,North America,Nicaragua,NI,,Nicaragua,2010-02-20,
Egretta thula,Animalia,HERONS_ARDEIDAE,Snowy Egret,,3,-85.9391784668,11.9271496163,North America,Nicaragua,NI,,Nicaragua,2010-02-21,
Egretta thula,Animalia,HERONS_ARDEIDAE,Snowy Egret,,1,-85.9391784668,11.9271496163,North America,Nicaragua,NI,,Nicaragua,2010-02-20,
Ardea alba egretta,Animalia,HERONS_ARDEIDAE,American Great Egret,,8,-85.9391784668,11.9271496163,North America,Nicaragua,NI,,Nicaragua,2010-02-20,
Jacana spinosa,Animalia,JACANAS_JACANIDAE,Northern Jacana,,48,-85.9391784668,11.9271496163,North America,Nicaragua,NI,,Nicaragua,2010-02-21,
Jacana spinosa,Animalia,JACANAS_JACANIDAE,Northern Jacana,,60,-85.9391784668,11.9271496163,North America,Nicaragua,NI,,Nicaragua,2010-02-20,
Psarocolius montezuma,Animalia,ICTERIDS_ICTERIDAE,Montezuma Oropendola,,25,-85.1644706726,12.2186461839,North America,Nicaragua,NI,,Nicaragua,2010-02-14,
Bubulcus ibis,Animalia,HERONS_ARDEIDAE,Western Cattle Egret,,7,-85.1644706726,12.2186461839,North America,Nicaragua,NI,,Nicaragua,2010-02-14,
Alouatta palliata,Animalia,SPIDER_MONKEYS_ATELIDAE,Mantled Howler Monkey,,1,-85.64849859,11.54318123,North America,Nicaragua,NI,,Nicaragua,2003-08-28,
Sciurus variegatoides dorsalis,Animalia,SQUIRRELS_CHIPMUNKS_AND_PRAIRIEDOGS_SCIURIDAE,Variegated Squirrel ssp dorsalis,,1,-85.61050418,11.51070761,North America,Nicaragua,NI,,Nicaragua,2003-08-28,
Thraupis episcopus,Animalia,TANAGERS_AND_ALLIES_THRAUPIDAE,Blue-grey Tanager,,1,-84.7791711,11.1213949,North America,Nicaragua,NI,,Nicaragua,2018-02-22,14:02
Piranga hepatica,Animalia,GROSBEAKS_SALTATORS_ALLIES_CARDINALIDAE,Hepatic Tanager,,1,-85.9081507,13.000885,North America,Nicaragua,NI,,Nicaragua,2018-02-11,08:30
Melanerpes santacruzi,Animalia,WOODPECKERS_PICIDAE,Velasquez's Woodpecker,,1,-85.9081507,13.000885,North America,Nicaragua,NI,,Nicaragua,2018-02-11,08:30
Campylorhynchus capistratus capistratus,Animalia,WRENS_TROGLODYTIDAE,Rufous-backed Wren ssp capistratus,,1,-86.0683295,11.9077973,North America,Nicaragua,NI,,Nicaragua,2018-01-27,11:00
Campylorhynchus capistratus capistratus,Animalia,WRENS_TROGLODYTIDAE,Rufous-backed Wren ssp capistratus,,2,-86.271566,12.123893,North America,Nicaragua,NI,,Nicaragua,2018-02-07,08:45
Thalasseus acuflavidus,Animalia,GULLS_TERNS_AND_SKIMMERS_LARIDAE,Cabot's Tern,,1,-84.804,11.1196,North America,Nicaragua,NI,,Nicaragua,2018-05-20,10:43
Sporophila morelleti,Animalia,TANAGERS_AND_ALLIES_THRAUPIDAE,Morelet's Seedeater,,1,-84.7776,11.1239,North America,Nicaragua,NI,,Nicaragua,2018-05-17,11:25
Thraupis episcopus,Animalia,TANAGERS_AND_ALLIES_THRAUPIDAE,Blue-grey Tanager,,1,-84.7774,11.1237,North America,Nicaragua,NI,,Nicaragua,2018-05-17,11:19
Dendrocygna autumnalis,Animalia,DUCKS_GEESE_AND_SWANS_ANATIDAE,Black-bellied Whistling Duck,,14,-84.7178,11.1134,North America,Nicaragua,NI,,Nicaragua,2018-05-17,09:48
Actitis macularius,Animalia,SANDPIPERS_AND_ALLIES_SCOLOPACIDAE,Spotted Sandpiper,,2,-84.5482,11.0735,North America,Nicaragua,NI,,Nicaragua,2018-05-17,08:32
Actitis macularius,Animalia,SANDPIPERS_AND_ALLIES_SCOLOPACIDAE,Spotted Sandpiper,,1,-84.4882,11.0335,North America,Nicaragua,NI,,Nicaragua,2018-05-17,08:01
Actitis macularius,Animalia,SANDPIPERS_AND_ALLIES_SCOLOPACIDAE,Spotted Sandpiper,,1,-84.4408,10.9969,North America,Nicaragua,NI,,Nicaragua,2018-05-17,07:23
Actitis macularius,Animalia,SANDPIPERS_AND_ALLIES_SCOLOPACIDAE,Spotted Sandpiper,,2,-84.4184,11.016,North America,Nicaragua,NI,,Nicaragua,2018-05-17,07:02
Anhinga anhinga,Animalia,ANHINGAS_ANHINGIDAE,Anhinga,,1,-84.4115,11.0208,North America,Nicaragua,NI,,Nicaragua,2018-05-17,07:00
Chloroceryle amazona,Animalia,KINGFISHERS_ALCEDINIDAE,Amazon Kingfisher,,1,-84.4076,11.0237,North America,Nicaragua,NI,,Nicaragua,2018-05-17,06:58
Tachycineta albilinea,Animalia,SWALLOWS_HIRUNDINIDAE,Mangrove Swallow,,1,-84.3976,11.0201,North America,Nicaragua,NI,,Nicaragua,2018-05-15,14:26
Anhinga anhinga,Animalia,ANHINGAS_ANHINGIDAE,Anhinga,,2,-84.4737,11.0384,North America,Nicaragua,NI,,Nicaragua,2018-05-15,12:08
Dendrocygna autumnalis,Animalia,DUCKS_GEESE_AND_SWANS_ANATIDAE,Black-bellied Whistling Duck,,3,-84.7132,11.1147,North America,Nicaragua,NI,,Nicaragua,2018-05-15,10:43
Pandion haliaetus,Animalia,OSPREY_PANDIONIDAE,Western Osprey,,1,-84.712,11.1146,North America,Nicaragua,NI,,Nicaragua,2018-05-15,10:43
Jacana spinosa,Animalia,JACANAS_JACANIDAE,Northern Jacana,,1,-84.7757,11.1165,North America,Nicaragua,NI,,Nicaragua,2018-05-15,07:07
Pandion haliaetus,Animalia,OSPREY_PANDIONIDAE,Western Osprey,,1,-84.7758,11.1165,North America,Nicaragua,NI,,Nicaragua,2018-05-15,06:51
Sporophila morelleti,Animalia,TANAGERS_AND_ALLIES_THRAUPIDAE,Morelet's Seedeater,,1,-84.7758,11.1162,North America,Nicaragua,NI,,Nicaragua,2018-05-15,06:23
Sporophila morelleti,Animalia,TANAGERS_AND_ALLIES_THRAUPIDAE,Morelet's Seedeater,,1,-84.7775,11.124,North America,Nicaragua,NI,,Nicaragua,2018-05-14,12:54
Thraupis episcopus,Animalia,TANAGERS_AND_ALLIES_THRAUPIDAE,Blue-grey Tanager,,1,-84.7773,11.1236,North America,Nicaragua,NI,,Nicaragua,2018-05-14,12:54
Thalasseus acuflavidus,Animalia,GULLS_TERNS_AND_SKIMMERS_LARIDAE,Cabot's Tern,,1,-84.7797,11.1214,North America,Nicaragua,NI,,Nicaragua,2018-05-14,11:56
Cathartes aura,Animalia,NEW_WORLD_VULTURES_CATHARTIDAE,Turkey Vulture,,2,-84.7593,11.0995,North America,Nicaragua,NI,,Nicaragua,2018-05-14,10:45
Mycteria americana,Animalia,STORKS_CICONIIDAE,Wood Stork,,1,-84.757,11.106,North America,Nicaragua,NI,,Nicaragua,2018-05-14,10:17
Anhinga anhinga,Animalia,ANHINGAS_ANHINGIDAE,Anhinga,,1,-84.7573,11.1066,North America,Nicaragua,NI,,Nicaragua,2018-05-14,10:14
Jacana spinosa,Animalia,JACANAS_JACANIDAE,Northern Jacana,,1,-84.7589,11.1085,North America,Nicaragua,NI,,Nicaragua,2018-05-14,10:04
Chloroceryle amazona,Animalia,KINGFISHERS_ALCEDINIDAE,Amazon Kingfisher,,1,-84.7694,11.1155,North America,Nicaragua,NI,,Nicaragua,2018-05-14,09:15
Pandion haliaetus,Animalia,OSPREY_PANDIONIDAE,Western Osprey,,2,-84.7757,11.1164,North America,Nicaragua,NI,,Nicaragua,2018-05-14,07:02
Jacana spinosa,Animalia,JACANAS_JACANIDAE,Northern Jacana,,1,-84.7761,11.116,North America,Nicaragua,NI,,Nicaragua,2018-05-13,15:55
Thraupis episcopus,Animalia,TANAGERS_AND_ALLIES_THRAUPIDAE,Blue-grey Tanager,,1,-84.7756,11.1163,North America,Nicaragua,NI,,Nicaragua,2018-05-13,15:28
Phaethornis striigularis saturatus,Animalia,HUMMINGBIRDS_TROCHILIDAE,Stripe-throated Hermit ssp saturatus,,5,-85.911026,12.91112625,North America,Nicaragua,NI,,Nicaragua,1993-12-01,
Trogon caligatus,Animalia,TROGONS_TROGONIDAE,Gartered Trogon,,2,-85.63173294,11.50811718,North America,Nicaragua,NI,,Nicaragua,1993-11-09,
Amazona guatemalae virenticeps,Animalia,PARROTS_PSITTACIDAE,Northern Mealy Amazon ssp virenticeps,,2,-85.63173294,11.50811718,North America,Nicaragua,NI,,Nicaragua,1993-11-09,
Campylorhynchus capistratus capistratus,Animalia,WRENS_TROGLODYTIDAE,Rufous-backed Wren ssp capistratus,,10,-85.92883587,11.91257909,North America,Nicaragua,NI,,Nicaragua,1993-11-06,
Campylorhynchus capistratus capistratus,Animalia,WRENS_TROGLODYTIDAE,Rufous-backed Wren ssp capistratus,,1,-86.08260155,11.98550783,North America,Nicaragua,NI,,Nicaragua,1993-11-05,
Tigrisoma mexicanum,Animalia,HERONS_ARDEIDAE,Bare-throated Tiger Heron,,1,-85.94351468,11.97000396,North America,Nicaragua,NI,,Nicaragua,2018-02-14,
Gallinula galeata,Animalia,RAILS_RALLIDAE,Common Gallinule,,1,-85.94351468,11.97000396,North America,Nicaragua,NI,,Nicaragua,2018-02-14,
Megaceryle torquata,Animalia,KINGFISHERS_ALCEDINIDAE,Ringed Kingfisher,,1,-85.91860537,11.91705856,North America,Nicaragua,NI,,Nicaragua,2018-02-11,
Amazona guatemalae virenticeps,Animalia,PARROTS_PSITTACIDAE,Northern Mealy Amazon ssp virenticeps,,1,-84.79248047,11.14168733,North America,Nicaragua,NI,,Nicaragua,2018-02-12,16:00
Pachyramphus aglaiae,Animalia,Tityridae,Rose-throated Becard,,1,-84.89959717,11.40784599,North America,Nicaragua,NI,,Nicaragua,2018-02-10,16:30
Rupornis magnirostris,Animalia,HAWKS_AND_EAGLES_ACCIPITRIDAE,Roadside Hawk,,1,-84.89959717,11.40784599,North America,Nicaragua,NI,,Nicaragua,2018-02-10,08:30
Psilorhinus morio,Animalia,CROWS_AND_JAYS_CORVIDAE,Brown Jay,,1,-84.89959717,11.40784599,North America,Nicaragua,NI,,Nicaragua,2018-02-10,08:30
Mycteria americana,Animalia,STORKS_CICONIIDAE,Wood Stork,,1,-84.89959717,11.40784599,North America,Nicaragua,NI,,Nicaragua,2018-02-10,08:30
Choloepus hoffmanni,Animalia,TWOTOED_SLOTHS_MEGALONYCHIDAE,Hoffmann's Two-toed Sloth,,1,-84.89959717,11.40784599,North America,Nicaragua,NI,,Nicaragua,2018-02-10,08:30
Aramus guarauna,Animalia,LIMPKIN_ARAMIDAE,Limpkin,,1,-84.89959717,11.40784599,North America,Nicaragua,NI,,Nicaragua,2018-02-10,08:30
Jacana spinosa,Animalia,JACANAS_JACANIDAE,Northern Jacana,,1,-84.89959717,11.40784599,North America,Nicaragua,NI,,Nicaragua,2018-02-10,08:30
Leucophaeus atricilla,Animalia,GULLS_TERNS_AND_SKIMMERS_LARIDAE,Laughing Gull,,1,-84.89959717,11.40784599,North America,Nicaragua,NI,,Nicaragua,2018-02-10,08:30
Leucophaeus atricilla,Animalia,GULLS_TERNS_AND_SKIMMERS_LARIDAE,Laughing Gull,,1,-84.89959717,11.40784599,North America,Nicaragua,NI,,Nicaragua,2018-02-10,08:30
Himantopus mexicanus,Animalia,STILTS_AND_AVOCETS_RECURVIROSTRIDAE,Black-necked Stilt,,1,-84.89959717,11.40784599,North America,Nicaragua,NI,,Nicaragua,2018-02-10,08:30
Platalea ajaja,Animalia,IBISSES_AND_SPOONBILLS_THRESKIORNITHIDAE,Roseate Spoonbill,,1,-84.89959717,11.40784599,North America,Nicaragua,NI,,Nicaragua,2018-02-10,08:30
Porphyrio martinica,Animalia,RAILS_RALLIDAE,Purple Gallinule,,1,-84.89959717,11.40784599,North America,Nicaragua,NI,,Nicaragua,2018-02-09,07:30
Jacana spinosa,Animalia,JACANAS_JACANIDAE,Northern Jacana,,1,-84.89959717,11.40784599,North America,Nicaragua,NI,,Nicaragua,2018-02-09,07:30
Himantopus mexicanus,Animalia,STILTS_AND_AVOCETS_RECURVIROSTRIDAE,Black-necked Stilt,,1,-84.89959717,11.40784599,North America,Nicaragua,NI,,Nicaragua,2018-02-09,07:30
Leucophaeus atricilla,Animalia,GULLS_TERNS_AND_SKIMMERS_LARIDAE,Laughing Gull,,1,-84.89959717,11.40784599,North America,Nicaragua,NI,,Nicaragua,2018-02-08,15:00
Thraupis episcopus,Animalia,TANAGERS_AND_ALLIES_THRAUPIDAE,Blue-grey Tanager,,1,-84.7869873,11.20096722,North America,Nicaragua,NI,,Nicaragua,2018-02-08,08:30
Passer domesticus,Animalia,OLD_WORLD_SPARROWS_PASSERIDAE,House Sparrow,,1,-84.7869873,11.20096722,North America,Nicaragua,NI,,Nicaragua,2018-02-08,08:30
Egretta thula,Animalia,HERONS_ARDEIDAE,Snowy Egret,,1,-84.7869873,11.20096722,North America,Nicaragua,NI,,Nicaragua,2018-02-08,08:30
Pandion haliaetus,Animalia,OSPREY_PANDIONIDAE,Western Osprey,,1,-84.7869873,11.20096722,North America,Nicaragua,NI,,Nicaragua,2018-02-08,08:30
Momotus lessonii,Animalia,MOTMOTS_MOMOTIDAE,Lesson's Motmot,,1,-85.81014215,12.93480267,North America,Nicaragua,NI,,Nicaragua,2018-02-08,
Sporophila morelleti,Animalia,TANAGERS_AND_ALLIES_THRAUPIDAE,Morelet's Seedeater,,1,-86.18615043,12.1523067,North America,Nicaragua,NI,,Nicaragua,2018-02-02,
Campylorhynchus capistratus capistratus,Animalia,WRENS_TROGLODYTIDAE,Rufous-backed Wren ssp capistratus,,1,-86.18615043,12.1523067,North America,Nicaragua,NI,,Nicaragua,2018-02-02,
Ardea herodias,Animalia,HERONS_ARDEIDAE,Great Blue Heron,,1,-85.9519726,11.93000476,North America,Nicaragua,NI,,Nicaragua,2018-02-10,
Thalasseus maximus,Animalia,GULLS_TERNS_AND_SKIMMERS_LARIDAE,Royal Tern,,1,-85.9519726,11.93000476,North America,Nicaragua,NI,,Nicaragua,2018-02-10,
Thalasseus acuflavidus,Animalia,GULLS_TERNS_AND_SKIMMERS_LARIDAE,Cabot's Tern,,1,-85.9519726,11.93000476,North America,Nicaragua,NI,,Nicaragua,2018-02-10,
Egretta thula,Animalia,HERONS_ARDEIDAE,Snowy Egret,,1,-85.9519726,11.93000476,North America,Nicaragua,NI,,Nicaragua,2018-02-10,
Sporophila morelleti,Animalia,TANAGERS_AND_ALLIES_THRAUPIDAE,Morelet's Seedeater,,1,-84.79357917,11.21282164,North America,Nicaragua,NI,,Nicaragua,2018-02-07,08:30
Mycteria americana,Animalia,STORKS_CICONIIDAE,Wood Stork,,2,-84.79357917,11.21282164,North America,Nicaragua,NI,,Nicaragua,2018-02-07,08:30
Passer domesticus,Animalia,OLD_WORLD_SPARROWS_PASSERIDAE,House Sparrow,,1,-84.79357917,11.21282164,North America,Nicaragua,NI,,Nicaragua,2018-02-07,08:30
Egretta thula,Animalia,HERONS_ARDEIDAE,Snowy Egret,,1,-84.79357917,11.21282164,North America,Nicaragua,NI,,Nicaragua,2018-02-07,08:30
Porphyrio martinica,Animalia,RAILS_RALLIDAE,Purple Gallinule,,1,-84.79357917,11.21282164,North America,Nicaragua,NI,,Nicaragua,2018-02-07,08:30
Pandion haliaetus,Animalia,OSPREY_PANDIONIDAE,Western Osprey,,1,-84.79357917,11.21282164,North America,Nicaragua,NI,,Nicaragua,2018-02-07,08:30
Egretta thula,Animalia,HERONS_ARDEIDAE,Snowy Egret,,1,-84.79357917,11.21282164,North America,Nicaragua,NI,,Nicaragua,2018-02-06,16:00
Passer domesticus,Animalia,OLD_WORLD_SPARROWS_PASSERIDAE,House Sparrow,,1,-84.79357917,11.21282164,North America,Nicaragua,NI,,Nicaragua,2018-02-06,16:00
Pandion haliaetus,Animalia,OSPREY_PANDIONIDAE,Western Osprey,,1,-84.79357917,11.21282164,North America,Nicaragua,NI,,Nicaragua,2018-02-06,16:00
Agalychnis callidryas,Animalia,Hylidae,Red-eyed Treefrog,,1,-85.9800911,11.83367932,North America,Nicaragua,NI,,Nicaragua,2009-12-28,
Megaceryle torquata,Animalia,KINGFISHERS_ALCEDINIDAE,Ringed Kingfisher,,1,-85.9230423,11.89221264,North America,Nicaragua,NI,,Nicaragua,2017-12-03,
Megaceryle alcyon,Animalia,KINGFISHERS_ALCEDINIDAE,Belted Kingfisher,,1,-85.922953333333,11.874868333333,North America,Nicaragua,NI,,Nicaragua,2017-12-03,22:33
Tachycineta albilinea,Animalia,SWALLOWS_HIRUNDINIDAE,Mangrove Swallow,,1,-84.472685,11.038376666667,North America,Nicaragua,NI,,Nicaragua,2017-12-07,06:32
Chloroceryle amazona,Animalia,KINGFISHERS_ALCEDINIDAE,Amazon Kingfisher,,1,-84.468558333333,11.03587,North America,Nicaragua,NI,,Nicaragua,2017-12-07,06:24
Tachycineta albilinea,Animalia,SWALLOWS_HIRUNDINIDAE,Mangrove Swallow,,3,-84.46825504,11.03562484,North America,Nicaragua,NI,,Nicaragua,2017-12-06,
Anhinga anhinga,Animalia,ANHINGAS_ANHINGIDAE,Anhinga,,1,-84.467966666667,11.035395,North America,Nicaragua,NI,,Nicaragua,2017-12-06,14:50
Actitis macularius,Animalia,SANDPIPERS_AND_ALLIES_SCOLOPACIDAE,Spotted Sandpiper,,1,-84.468,11.035441666667,North America,Nicaragua,NI,,Nicaragua,2017-12-06,14:50
Elanus leucurus majusculus,Animalia,HAWKS_AND_EAGLES_ACCIPITRIDAE,White-tailed Kite ssp majusculus,,1,-84.50598,11.044928333333,North America,Nicaragua,NI,,Nicaragua,2017-12-06,13:40
Pandion haliaetus,Animalia,OSPREY_PANDIONIDAE,Western Osprey,,1,-84.66293,11.124888333333,North America,Nicaragua,NI,,Nicaragua,2017-12-06,12:34
Cathartes burrovianus burrovianus,Animalia,NEW_WORLD_VULTURES_CATHARTIDAE,Lesser Yellow-headed Vulture ssp burrovianus,,1,-84.719785,11.113345,North America,Nicaragua,NI,,Nicaragua,2017-12-06,12:17
Coragyps atratus,Animalia,NEW_WORLD_VULTURES_CATHARTIDAE,Black Vulture,,1,-84.779661666667,11.12142,North America,Nicaragua,NI,,Nicaragua,2017-12-06,09:42
Thraupis episcopus cana,Animalia,TANAGERS_AND_ALLIES_THRAUPIDAE,Blue-grey Tanager ssp cana,,1,-84.77617264,11.12308186,North America,Nicaragua,NI,,Nicaragua,2017-12-06,
Pelecanus occidentalis carolinensis,Animalia,PELICANS_PELECANIDAE,Brown Pelican ssp carolinensis,,1,-84.779791666667,11.121551666667,North America,Nicaragua,NI,,Nicaragua,2017-12-06,08:33
Thraupis palmarum atripennis,Animalia,TANAGERS_AND_ALLIES_THRAUPIDAE,Palm Tanager ssp atripennis,,1,-84.77971852,11.12363362,North America,Nicaragua,NI,,Nicaragua,2017-12-06,
Thraupis abbas,Animalia,TANAGERS_AND_ALLIES_THRAUPIDAE,Yellow-winged Tanager,,1,-84.77971852,11.12363362,North America,Nicaragua,NI,,Nicaragua,2017-12-06,
Cathartes aura,Animalia,NEW_WORLD_VULTURES_CATHARTIDAE,Turkey Vulture,,1,-85.923441666667,11.876618333333,North America,Nicaragua,NI,,Nicaragua,2017-12-03,23:47
Falco peregrinus tundrius,Animalia,CARACAS_AND_FALCONS_FALCONIDAE,Peregrine Falcon ssp tundrius,,1,-85.92311,11.874918333333,North America,Nicaragua,NI,,Nicaragua,2017-12-03,23:31
Alouatta palliata,Animalia,SPIDER_MONKEYS_ATELIDAE,Mantled Howler Monkey,,1,-85.923568333333,11.875835,North America,Nicaragua,NI,,Nicaragua,2017-12-03,22:27
Ardea herodias,Animalia,HERONS_ARDEIDAE,Great Blue Heron,,1,-85.912153333333,11.88459,North America,Nicaragua,NI,,Nicaragua,2017-12-03,22:09
Pandion haliaetus carolinensis,Animalia,OSPREY_PANDIONIDAE,American Osprey,,1,-85.911096666667,11.889896666667,North America,Nicaragua,NI,,Nicaragua,2017-12-03,22:01
Tigrisoma mexicanum,Animalia,HERONS_ARDEIDAE,Bare-throated Tiger Heron,,1,-85.911193333333,11.889966666667,North America,Nicaragua,NI,,Nicaragua,2017-12-03,22:01
Caracara cheriway,Animalia,CARACAS_AND_FALCONS_FALCONIDAE,Northern Crested Caracara,,1,-85.912681666667,11.890675,North America,Nicaragua,NI,,Nicaragua,2017-12-03,21:59
Egretta thula,Animalia,HERONS_ARDEIDAE,Snowy Egret,,1,-85.913335,11.89108,North America,Nicaragua,NI,,Nicaragua,2017-12-03,21:58
Cathartes aura,Animalia,NEW_WORLD_VULTURES_CATHARTIDAE,Turkey Vulture,,1,-85.913781666667,11.891281666667,North America,Nicaragua,NI,,Nicaragua,2017-12-03,21:58
Ardea alba egretta,Animalia,HERONS_ARDEIDAE,American Great Egret,,1,-85.913998333333,11.89125,North America,Nicaragua,NI,,Nicaragua,2017-12-03,21:57
Nycticorax nycticorax,Animalia,HERONS_ARDEIDAE,Black-crowned Night Heron,,1,-85.922361666667,11.891775,North America,Nicaragua,NI,,Nicaragua,2017-12-03,21:45
Phalacrocorax brasilianus,Animalia,CORMORANTS_PHALACROCORACIDAE,Neotropic Cormorant,,1,-85.929186666667,11.898721666667,North America,Nicaragua,NI,,Nicaragua,2017-12-03,21:25
Lepidochelys olivacea,Animalia,Cheloniidae,Olive Ridley Sea Turtle,,70,-86.99606143,12.34188377,North America,Nicaragua,NI,,Nicaragua,2017-12-17,09:58
Trogon massena,Animalia,TROGONS_TROGONIDAE,Slaty-tailed Trogon,,1,-84.53207,11.05111159,North America,Nicaragua,NI,,Nicaragua,2017-12-07,09:51
Egretta thula,Animalia,HERONS_ARDEIDAE,Snowy Egret,,1,-85.59799813,11.55430389,North America,Nicaragua,NI,,Nicaragua,2011-07-05,
Calocitta formosa,Animalia,CROWS_AND_JAYS_CORVIDAE,White-throated Magpie-Jay,,1,-85.59799813,11.55430389,North America,Nicaragua,NI,,Nicaragua,2011-07-05,
Egretta tricolor,Animalia,HERONS_ARDEIDAE,Tricolored Heron,,1,-85.91671145,11.91992071,North America,Nicaragua,NI,,Nicaragua,2011-07-05,
Jacana spinosa,Animalia,JACANAS_JACANIDAE,Northern Jacana,,1,-85.91671145,11.91992071,North America,Nicaragua,NI,,Nicaragua,2011-07-05,
Ardea alba egretta,Animalia,HERONS_ARDEIDAE,American Great Egret,,1,-85.91671145,11.91992071,North America,Nicaragua,NI,,Nicaragua,2011-07-05,
Campylorhynchus capistratus nicaraguae,Animalia,WRENS_TROGLODYTIDAE,Rufous-backed Wren ssp nicaraguae,,1,-85.9915,12.9206,North America,Nicaragua,NI,,Nicaragua,2017-09-29,08:21
Ithomia patilla,Animalia,BRUSHFOOTED_BUTTERFLIES_NYMPHALIDAE,,,1,-85.97495556,11.83832029,North America,Nicaragua,NI,,Nicaragua,2009-12-28,
Alouatta palliata,Animalia,SPIDER_MONKEYS_ATELIDAE,Mantled Howler Monkey,,1,-85.58166507,11.51070761,North America,Nicaragua,NI,,Nicaragua,2010-08-17,
Campylorhynchus capistratus,Animalia,WRENS_TROGLODYTIDAE,Rufous-backed Wren,,1,-86.06848061,11.91228236,North America,Nicaragua,NI,,Nicaragua,2017-05-07,
Campylorhynchus capistratus capistratus,Animalia,WRENS_TROGLODYTIDAE,Rufous-backed Wren ssp capistratus,,1,-87.4568,12.75,North America,Nicaragua,NI,,Nicaragua,2017-02-09,06:38
Tyto furcata,Animalia,BARN_OWLS_TYTONIDAE,American Barn Owl,,1,-86.87876701,12.43498402,North America,Nicaragua,NI,,Nicaragua,2017-02-03,21:35
Aramides albiventris plumbeicollis,Animalia,RAILS_RALLIDAE,Rufous-naped Wood Rail ssp plumbeicollis,,1,-85.0522,11.0355,North America,Nicaragua,NI,,Nicaragua,2017-02-01,10:06
Sporophila morelleti,Animalia,TANAGERS_AND_ALLIES_THRAUPIDAE,Morelet's Seedeater,,5,-84.5557,11.0969,North America,Nicaragua,NI,,Nicaragua,2017-01-25,15:40
Anhinga anhinga,Animalia,ANHINGAS_ANHINGIDAE,Anhinga,,5,-84.4451,11.0006,North America,Nicaragua,NI,,Nicaragua,2017-01-25,11:17
Amazona guatemalae virenticeps,Animalia,PARROTS_PSITTACIDAE,Northern Mealy Amazon ssp virenticeps,,2,-84.3095,10.986,North America,Nicaragua,NI,,Nicaragua,2017-01-25,07:24
Amazona guatemalae virenticeps,Animalia,PARROTS_PSITTACIDAE,Northern Mealy Amazon ssp virenticeps,,2,-84.3096,10.9859,North America,Nicaragua,NI,,Nicaragua,2017-01-24,06:12
Amazona guatemalae virenticeps,Animalia,PARROTS_PSITTACIDAE,Northern Mealy Amazon ssp virenticeps,,2,-84.3096,10.986,North America,Nicaragua,NI,,Nicaragua,2017-01-23,17:03
Chloroceryle amazona,Animalia,KINGFISHERS_ALCEDINIDAE,Amazon Kingfisher,,1,-84.3945,11.0162,North America,Nicaragua,NI,,Nicaragua,2017-01-23,06:52
Sporophila morelleti,Animalia,TANAGERS_AND_ALLIES_THRAUPIDAE,Morelet's Seedeater,,1,-84.3952,11.0159,North America,Nicaragua,NI,,Nicaragua,2017-01-22,06:17
Tachycineta albilinea,Animalia,SWALLOWS_HIRUNDINIDAE,Mangrove Swallow,,6,-84.3959,11.0179,North America,Nicaragua,NI,,Nicaragua,2017-01-21,10:49
Chloroceryle amazona,Animalia,KINGFISHERS_ALCEDINIDAE,Amazon Kingfisher,,1,-84.3962,11.0179,North America,Nicaragua,NI,,Nicaragua,2017-01-21,09:40
Megaceryle torquata,Animalia,KINGFISHERS_ALCEDINIDAE,Ringed Kingfisher,,1,-85.9307,11.9127,North America,Nicaragua,NI,,Nicaragua,2017-01-18,16:19
Pandion haliaetus,Animalia,OSPREY_PANDIONIDAE,Western Osprey,,2,-85.938,11.9195,North America,Nicaragua,NI,,Nicaragua,2017-01-18,14:35
Campylorhynchus capistratus capistratus,Animalia,WRENS_TROGLODYTIDAE,Rufous-backed Wren ssp capistratus,,2,-86.053,11.9376,North America,Nicaragua,NI,,Nicaragua,2017-01-11,09:28
Megaceryle torquata,Animalia,KINGFISHERS_ALCEDINIDAE,Ringed Kingfisher,,1,-86.0527,11.9353,North America,Nicaragua,NI,,Nicaragua,2017-01-09,06:26
Pandion haliaetus,Animalia,OSPREY_PANDIONIDAE,Western Osprey,,1,-86.0519,11.9365,North America,Nicaragua,NI,,Nicaragua,2017-01-09,06:18
Fregata magnificens,Animalia,FRIGATEBIRDS_FREGATTIDAE,Magnificent Frigatebird,,1,-86.0349,11.9471,North America,Nicaragua,NI,,Nicaragua,2017-01-08,16:03
Actitis macularius,Animalia,SANDPIPERS_AND_ALLIES_SCOLOPACIDAE,Spotted Sandpiper,,1,-86.0493,11.9388,North America,Nicaragua,NI,,Nicaragua,2017-01-08,06:36
Campylorhynchus capistratus capistratus,Animalia,WRENS_TROGLODYTIDAE,Rufous-backed Wren ssp capistratus,,3,-86.0493,11.9388,North America,Nicaragua,NI,,Nicaragua,2017-01-08,06:36
Aramides albiventris pacificus,Animalia,RAILS_RALLIDAE,Rufous-naped Wood Rail ssp pacificus,,1,-86.26026034,13.24290104,North America,Nicaragua,NI,,Nicaragua,2017-01-01,14:04
Sporophila morelleti,Animalia,TANAGERS_AND_ALLIES_THRAUPIDAE,Morelet's Seedeater,,1,-86.256,13.2416,North America,Nicaragua,NI,,Nicaragua,2016-12-31,11:44
Sporophila morelleti,Animalia,TANAGERS_AND_ALLIES_THRAUPIDAE,Morelet's Seedeater,,1,-84.5444116666667,11.084015,North America,Nicaragua,NI,,Nicaragua,2016-12-20,06:19
Tachycineta albilinea,Animalia,SWALLOWS_HIRUNDINIDAE,Mangrove Swallow,,1,-84.54735,11.0840933333333,North America,Nicaragua,NI,,Nicaragua,2016-12-20,07:01
Aramides albiventris plumbeicollis,Animalia,RAILS_RALLIDAE,Rufous-naped Wood Rail ssp plumbeicollis,,1,-84.5413833333333,11.08362,North America,Nicaragua,NI,,Nicaragua,2016-12-21,10:29
Thraupis episcopus,Animalia,TANAGERS_AND_ALLIES_THRAUPIDAE,Blue-grey Tanager,,2,-84.7792816666667,11.1218283333333,North America,Nicaragua,NI,,Nicaragua,2016-12-21,15:37
Campylorhynchus capistratus nicaraguae,Animalia,WRENS_TROGLODYTIDAE,Rufous-backed Wren ssp nicaraguae,,4,-86.5551,13.0811,North America,Nicaragua,NI,,Nicaragua,2016-12-20,15:21
Campylorhynchus capistratus nicaraguae,Animalia,WRENS_TROGLODYTIDAE,Rufous-backed Wren ssp nicaraguae,,2,-86.5579,13.0808,North America,Nicaragua,NI,,Nicaragua,2016-12-19,06:02
Campylorhynchus capistratus nicaraguae,Animalia,WRENS_TROGLODYTIDAE,Rufous-backed Wren ssp nicaraguae,,4,-86.5579,13.0837,North America,Nicaragua,NI,,Nicaragua,2016-12-18,15:45
Campylorhynchus capistratus capistratus,Animalia,WRENS_TROGLODYTIDAE,Rufous-backed Wren ssp capistratus,,3,-86.9419,12.4446,North America,Nicaragua,NI,,Nicaragua,2016-12-17,12:12
Calocitta formosa,Animalia,CROWS_AND_JAYS_CORVIDAE,White-throated Magpie-Jay,,3,-85.6338285,11.47678163,North America,Nicaragua,NI,,Nicaragua,2016-08-26,
Bubulcus ibis,Animalia,HERONS_ARDEIDAE,Western Cattle Egret,,1,-85.6338285,11.47678163,North America,Nicaragua,NI,,Nicaragua,2016-08-26,
Calocitta formosa,Animalia,CROWS_AND_JAYS_CORVIDAE,White-throated Magpie-Jay,,1,-85.52741947,11.42574768,North America,Nicaragua,NI,,Nicaragua,2016-08-25,
Lepidochelys olivacea,Animalia,Cheloniidae,Olive Ridley Sea Turtle,,1,-85.79389544,11.14124311,North America,Nicaragua,NI,,Nicaragua,2016-08-23,
Fregata magnificens,Animalia,FRIGATEBIRDS_FREGATTIDAE,Magnificent Frigatebird,,3,-85.91448755,11.29657462,North America,Nicaragua,NI,,Nicaragua,2016-08-23,
Tyto furcata,Animalia,BARN_OWLS_TYTONIDAE,American Barn Owl,,1,-85.05000086,11.06489393,North America,Nicaragua,NI,,Nicaragua,2016-08-21,
Megaceryle torquata,Animalia,KINGFISHERS_ALCEDINIDAE,Ringed Kingfisher,,1,-85.05000086,11.06489393,North America,Nicaragua,NI,,Nicaragua,2016-08-21,
Aramides albiventris plumbeicollis,Animalia,RAILS_RALLIDAE,Rufous-naped Wood Rail ssp plumbeicollis,,1,-85.05000086,11.06489393,North America,Nicaragua,NI,,Nicaragua,2016-08-21,
Coragyps atratus,Animalia,NEW_WORLD_VULTURES_CATHARTIDAE,Black Vulture,,26,-85.05000086,11.06489393,North America,Nicaragua,NI,,Nicaragua,2016-08-21,
Ardea alba,Animalia,HERONS_ARDEIDAE,Great Egret,,1,-85.05000086,11.06489393,North America,Nicaragua,NI,,Nicaragua,2016-08-21,
Megaceryle torquata,Animalia,KINGFISHERS_ALCEDINIDAE,Ringed Kingfisher,,1,-85.04783385,11.05854096,North America,Nicaragua,NI,,Nicaragua,2016-08-21,
Alouatta palliata,Animalia,SPIDER_MONKEYS_ATELIDAE,Mantled Howler Monkey,,10,-85.04783385,11.05854096,North America,Nicaragua,NI,,Nicaragua,2016-08-21,
Megaceryle torquata,Animalia,KINGFISHERS_ALCEDINIDAE,Ringed Kingfisher,,1,-85.04783385,11.05854096,North America,Nicaragua,NI,,Nicaragua,2016-08-20,
Chloroceryle aenea,Animalia,KINGFISHERS_ALCEDINIDAE,American Pygmy Kingfisher,,1,-85.04783385,11.05854096,North America,Nicaragua,NI,,Nicaragua,2016-08-20,
Aramides albiventris plumbeicollis,Animalia,RAILS_RALLIDAE,Rufous-naped Wood Rail ssp plumbeicollis,,1,-85.04783385,11.05854096,North America,Nicaragua,NI,,Nicaragua,2016-08-20,
Bubulcus ibis,Animalia,HERONS_ARDEIDAE,Western Cattle Egret,,1,-85.04783385,11.05854096,North America,Nicaragua,NI,,Nicaragua,2016-08-20,
Basiliscus plumifrons,Animalia,Corytophanidae,Green Basilisk,,1,-84.46798296,11.03563466,North America,Nicaragua,NI,,Nicaragua,2016-08-18,
Actitis macularius,Animalia,SANDPIPERS_AND_ALLIES_SCOLOPACIDAE,Spotted Sandpiper,,1,-84.46798296,11.03563466,North America,Nicaragua,NI,,Nicaragua,2016-08-18,
Chloroceryle amazona,Animalia,KINGFISHERS_ALCEDINIDAE,Amazon Kingfisher,,1,-84.46798296,11.03563466,North America,Nicaragua,NI,,Nicaragua,2016-08-18,
Thraupis episcopus,Animalia,TANAGERS_AND_ALLIES_THRAUPIDAE,Blue-grey Tanager,,1,-84.46798296,11.03563466,North America,Nicaragua,NI,,Nicaragua,2016-08-18,
Ardea alba,Animalia,HERONS_ARDEIDAE,Great Egret,,1,-84.46798296,11.03563466,North America,Nicaragua,NI,,Nicaragua,2016-08-18,
Anhinga anhinga,Animalia,ANHINGAS_ANHINGIDAE,Anhinga,,1,-84.46798296,11.03563466,North America,Nicaragua,NI,,Nicaragua,2016-08-18,
Actitis macularius,Animalia,SANDPIPERS_AND_ALLIES_SCOLOPACIDAE,Spotted Sandpiper,,1,-84.39494104,11.0167496,North America,Nicaragua,NI,,Nicaragua,2016-08-16,
Thraupis episcopus,Animalia,TANAGERS_AND_ALLIES_THRAUPIDAE,Blue-grey Tanager,,1,-84.39494104,11.0167496,North America,Nicaragua,NI,,Nicaragua,2016-08-16,
Tachycineta albilinea,Animalia,SWALLOWS_HIRUNDINIDAE,Mangrove Swallow,,1,-84.39494104,11.0167496,North America,Nicaragua,NI,,Nicaragua,2016-08-16,
Chlorothraupis carmioli carmioli,Animalia,GROSBEAKS_SALTATORS_ALLIES_CARDINALIDAE,Carmiol's Tanager ssp carmioli,,1,-84.31033859,10.984261,North America,Nicaragua,NI,,Nicaragua,2016-08-15,
Megaceryle torquata,Animalia,KINGFISHERS_ALCEDINIDAE,Ringed Kingfisher,,1,-84.31033859,10.984261,North America,Nicaragua,NI,,Nicaragua,2016-08-15,
Thraupis episcopus,Animalia,TANAGERS_AND_ALLIES_THRAUPIDAE,Blue-grey Tanager,,1,-84.31033859,10.984261,North America,Nicaragua,NI,,Nicaragua,2016-08-15,
Dendrobates auratus,Animalia,Dendrobatidae,Green Poison Frog,,1,-84.31033859,10.984261,North America,Nicaragua,NI,,Nicaragua,2016-08-14,
Amazona guatemalae virenticeps,Animalia,PARROTS_PSITTACIDAE,Northern Mealy Amazon ssp virenticeps,,2,-84.31308518,10.98358693,North America,Nicaragua,NI,,Nicaragua,2016-08-14,
Thraupis episcopus,Animalia,TANAGERS_AND_ALLIES_THRAUPIDAE,Blue-grey Tanager,,1,-84.31194191,10.98244439,North America,Nicaragua,NI,,Nicaragua,2016-08-14,
Megaceryle torquata,Animalia,KINGFISHERS_ALCEDINIDAE,Ringed Kingfisher,,1,-84.31194191,10.98244439,North America,Nicaragua,NI,,Nicaragua,2016-08-14,
Ardea alba,Animalia,HERONS_ARDEIDAE,Great Egret,,1,-84.39547062,11.01744676,North America,Nicaragua,NI,,Nicaragua,2016-08-13,
Tachycineta albilinea,Animalia,SWALLOWS_HIRUNDINIDAE,Mangrove Swallow,,1,-84.39547062,11.01744676,North America,Nicaragua,NI,,Nicaragua,2016-08-13,
Anhinga anhinga,Animalia,ANHINGAS_ANHINGIDAE,Anhinga,,1,-84.39547062,11.01744676,North America,Nicaragua,NI,,Nicaragua,2016-08-13,
Megaceryle torquata,Animalia,KINGFISHERS_ALCEDINIDAE,Ringed Kingfisher,,1,-84.39547062,11.01744676,North America,Nicaragua,NI,,Nicaragua,2016-08-13,
Fregata magnificens,Animalia,FRIGATEBIRDS_FREGATTIDAE,Magnificent Frigatebird,,2,-86.01974259,11.90994372,North America,Nicaragua,NI,,Nicaragua,2016-08-12,
Megaceryle torquata,Animalia,KINGFISHERS_ALCEDINIDAE,Ringed Kingfisher,,1,-86.01974259,11.90994372,North America,Nicaragua,NI,,Nicaragua,2016-08-12,
Campylorhynchus capistratus capistratus,Animalia,WRENS_TROGLODYTIDAE,Rufous-backed Wren ssp capistratus,,1,-85.94101653,11.92865659,North America,Nicaragua,NI,,Nicaragua,2016-08-11,
Pandion haliaetus,Animalia,OSPREY_PANDIONIDAE,Western Osprey,,1,-85.94101653,11.92865659,North America,Nicaragua,NI,,Nicaragua,2016-08-11,
Ardea herodias,Animalia,HERONS_ARDEIDAE,Great Blue Heron,,1,-85.94101653,11.92865659,North America,Nicaragua,NI,,Nicaragua,2016-08-11,
Egretta thula,Animalia,HERONS_ARDEIDAE,Snowy Egret,,1,-85.94101653,11.92865659,North America,Nicaragua,NI,,Nicaragua,2016-08-11,
Calocitta formosa,Animalia,CROWS_AND_JAYS_CORVIDAE,White-throated Magpie-Jay,,2,-86.263754939719,12.085808730378,North America,Nicaragua,NI,,Nicaragua,2016-11-06,15:00
Campylorhynchus capistratus capistratus,Animalia,WRENS_TROGLODYTIDAE,Rufous-backed Wren ssp capistratus,,4,-86.237946724905,12.097495747775,North America,Nicaragua,NI,,Nicaragua,2016-11-06,
Tyrannus melancholicus,Animalia,TYRANT_FLYCATCHERS_TYRANNIDAE,Tropical Kingbird,,2,-86.237946724905,12.097495747775,North America,Nicaragua,NI,,Nicaragua,2016-11-06,
Butorides virescens,Animalia,HERONS_ARDEIDAE,Green Heron,,1,-85.632905967068,11.478312923944,North America,Nicaragua,NI,,Nicaragua,2003-08-29,
Melanerpes santacruzi,Animalia,WOODPECKERS_PICIDAE,Velasquez's Woodpecker,,1,-85.632905967068,11.478312923944,North America,Nicaragua,NI,,Nicaragua,2003-08-29,
Phalacrocorax brasilianus,Animalia,CORMORANTS_PHALACROCORACIDAE,Neotropic Cormorant,,1,-85.632905967068,11.478312923944,North America,Nicaragua,NI,,Nicaragua,2003-08-29,
Cathartes aura,Animalia,NEW_WORLD_VULTURES_CATHARTIDAE,Turkey Vulture,,1,-85.586814866401,11.529922002633,North America,Nicaragua,NI,,Nicaragua,2003-08-29,
Calocitta formosa,Animalia,CROWS_AND_JAYS_CORVIDAE,White-throated Magpie-Jay,,1,-85.556259141304,11.510858964848,North America,Nicaragua,NI,,Nicaragua,2003-08-29,
Ardea alba,Animalia,HERONS_ARDEIDAE,Great Egret,,1,-85.884819016792,11.77605422367,North America,Nicaragua,NI,,Nicaragua - Archipiélago  de Zapatera NP,2003-08-27,
Butorides virescens,Animalia,HERONS_ARDEIDAE,Green Heron,,1,-85.884819016792,11.77605422367,North America,Nicaragua,NI,,Nicaragua - Archipiélago  de Zapatera NP,2003-08-27,
Tigrisoma mexicanum,Animalia,HERONS_ARDEIDAE,Bare-throated Tiger Heron,,1,-85.889039037866,11.784377400337,North America,Nicaragua,NI,,Nicaragua,2003-08-27,
Phalacrocorax brasilianus,Animalia,CORMORANTS_PHALACROCORACIDAE,Neotropic Cormorant,,1,-85.889039037866,11.784377400337,North America,Nicaragua,NI,,Nicaragua,2003-08-27,
Ardea alba,Animalia,HERONS_ARDEIDAE,Great Egret,,1,-85.889039037866,11.784377400337,North America,Nicaragua,NI,,Nicaragua,2003-08-27,
Coragyps atratus,Animalia,NEW_WORLD_VULTURES_CATHARTIDAE,Black Vulture,,1,-86.166057579685,11.99605574644,North America,Nicaragua,NI,,Nicaragua - Volcán  Masaya NP,2003-08-26,
Boa constrictor,Animalia,Boidae,Boa Constrictor,,2,-85.517977774143,11.188252063841,North America,Nicaragua,NI,,Nicaragua,2014-06-29,15:00
Calocitta formosa,Animalia,CROWS_AND_JAYS_CORVIDAE,White-throated Magpie-Jay,,1,-85.5091,11.4826,North America,Nicaragua,NI,,Nicaragua,2016-01-15,10:06
Calocitta formosa,Animalia,CROWS_AND_JAYS_CORVIDAE,White-throated Magpie-Jay,,4,-85.6388,11.4808,North America,Nicaragua,NI,,Nicaragua,2016-01-15,06:10
Egretta thula,Animalia,HERONS_ARDEIDAE,Snowy Egret,,1,-85.942,11.9294,North America,Nicaragua,NI,,Nicaragua,2016-01-14,11:05
Bubulcus ibis,Animalia,HERONS_ARDEIDAE,Western Cattle Egret,,10,-85.9205,11.9206,North America,Nicaragua,NI,,Nicaragua,2016-01-13,17:45
Bubulcus ibis,Animalia,HERONS_ARDEIDAE,Western Cattle Egret,,1,-85.4976511004,11.4694878247,North America,Nicaragua,NI,,Nicaragua,2004-12-31,
Ananas comosus,Plantae,BROMELIACEAE,Pineapple,,1,-85.4976511004,11.4694878247,North America,Nicaragua,NI,,Nicaragua,2004-12-31,
Hibiscus rosa-sinensis,Plantae,MALVACEAE,China-rose,,1,-85.4976511004,11.4694878247,North America,Nicaragua,NI,,Nicaragua,2004-12-31,
Alouatta palliata,Animalia,SPIDER_MONKEYS_ATELIDAE,Mantled Howler Monkey,,1,-85.4976511004,11.4694878247,North America,Nicaragua,NI,,Nicaragua,2004-12-31,
Astraptes egregius egregius,Animalia,SKIPPERS_HESPERIIDAE,Small-spotted Flasher,,1,-85.9718513506,11.8281890862,North America,Nicaragua,NI,,Nicaragua,2004-12-30,
Pareuptychia ocirrhoe,Animalia,BRUSHFOOTED_BUTTERFLIES_NYMPHALIDAE,,,1,-85.9718513506,11.8281890862,North America,Nicaragua,NI,,Nicaragua,2004-12-30,
Morpho helenor,Animalia,BRUSHFOOTED_BUTTERFLIES_NYMPHALIDAE,Helenor Morpho,,1,-85.9718513506,11.8281890862,North America,Nicaragua,NI,,Nicaragua,2004-12-30,
Begonia spec.,Plantae,BEGONIACEAE,,,1,-85.9718513506,11.8281890862,North America,Nicaragua,NI,,Nicaragua,2004-12-30,
Tyrannus forficatus,Animalia,TYRANT_FLYCATCHERS_TYRANNIDAE,Scissor-tailed Flycatcher,,1,-86.6067552569,12.1135073458,North America,Nicaragua,NI,,Nicaragua,2004-12-28,
Nycticorax nycticorax hoactli,Animalia,HERONS_ARDEIDAE,Black-crowned Night Heron ssp hoactli,,1,-86.9927215594,12.3395658259,North America,Nicaragua,NI,,Nicaragua,2004-12-27,
Himantopus mexicanus mexicanus,Animalia,STILTS_AND_AVOCETS_RECURVIROSTRIDAE,Black-necked Stilt ssp mexicanus,,1,-86.9927215594,12.3395658259,North America,Nicaragua,NI,,Nicaragua,2004-12-27,
Tachycineta albilinea,Animalia,SWALLOWS_HIRUNDINIDAE,Mangrove Swallow,,1,-86.9927215594,12.3395658259,North America,Nicaragua,NI,,Nicaragua,2004-12-27,
Ctenosaura similis,Animalia,Iguanidae,Black Iguana,,1,-86.8984794608,12.4422019729,North America,Nicaragua,NI,,Nicaragua,2004-12-27,
Quiscalus mexicanus mexicanus,Animalia,ICTERIDS_ICTERIDAE,Great-tailed Grackle ssp mexicanus,,1,-86.3629388814,13.0902587761,North America,Nicaragua,NI,,Nicaragua,2004-12-26,
Cathartes aura,Animalia,NEW_WORLD_VULTURES_CATHARTIDAE,Turkey Vulture,,1,-85.6226348877,11.4874265458,North America,Nicaragua,NI,,Nicaragua,2003-12-20,
Coragyps atratus,Animalia,NEW_WORLD_VULTURES_CATHARTIDAE,Black Vulture,,1,-86.1672735214,11.9846262547,North America,Nicaragua,NI,,Nicaragua - Volcán  Masaya NP,2003-12-18,
Gallinula galeata,Animalia,RAILS_RALLIDAE,Common Gallinule,,10,-86.2827221533,12.1636571558,North America,Nicaragua,NI,,Nicaragua,2015-03-22,
Tyrannus melancholicus,Animalia,TYRANT_FLYCATCHERS_TYRANNIDAE,Tropical Kingbird,,1,-86.2364164968,12.0970578276,North America,Nicaragua,NI,,Nicaragua,2015-03-21,
