scientificName,kingdom,family,vernacularName,previousIdentifications,individualCount,longitudeDecimal,latitudeDecimal,continent,country,countryCode,stateProvince,locality,eventDate,eventTime
Aquila chrysaetos,Animalia,HAWKS_AND_EAGLES_ACCIPITRIDAE,Golden Eagle,,1,74.86393,36.443761666667,Asia,Pakistan,PK,,Pakistan - Northern Areas,2018-02-02,13:48
Eremophila alpestris,Animalia,LARKS_ALAUDIDAE,Horned Lark,,1,74.69255,36.321593333333,Asia,Pakistan,PK,,Pakistan - Northern Areas,2019-03-26,16:48
Gypaetus barbatus,Animalia,HAWKS_AND_EAGLES_ACCIPITRIDAE,Bearded Vulture,,1,75.402151666667,36.844881666667,Asia,Pakistan,PK,,Pakistan - Khunjerab NP,2019-06-15,11:03
Tetraogallus tibetanus,Animalia,FRANCOLINS_QUAILS_PARTRIDGES_AND_PHEASANTS_PHASIANIDAE,Tibetan Snowcock,,1,75.395805,36.848383333333,Asia,Pakistan,PK,,Pakistan - Central Karakoram NP,2019-06-15,12:16
Gyps himalayensis,Animalia,HAWKS_AND_EAGLES_ACCIPITRIDAE,Himalayan Vulture,,1,75.40709,36.843648333333,Asia,Pakistan,PK,,Pakistan - Khunjerab NP,2019-06-15,10:27
Phoenicurus frontalis,Animalia,OLD_WORLD_FLYCATCHERS_MUSCICAPIDAE,Blue-fronted Redstart,,1,74.863281666667,36.438231666667,Asia,Pakistan,PK,,Pakistan - Northern Areas,2019-06-25,10:08
Oriolus kundoo,Animalia,ORIOLES_AND_FIG_BIRDS_ORIOLIDAE,Indian Golden Oriole,,1,74.611455,36.304021666667,Asia,Pakistan,PK,,Pakistan - Northern Areas,2019-06-29,05:32
Cinclus cinclus,Animalia,DIPPERS_CINCLIDAE,White-throated Dipper,,1,75.458435,35.053778333333,Asia,Pakistan,PK,,Pakistan - Northern Areas,2019-07-13,16:31
Charadrius mongolus,Animalia,PLOVERS_CHARADRIIDAE,Lesser Sand Plover,,1,75.453638333333,35.054265,Asia,Pakistan,PK,,Pakistan - Northern Areas,2019-07-14,07:29
Calliope pectoralis,Animalia,OLD_WORLD_FLYCATCHERS_MUSCICAPIDAE,Himalayan Rubythroat,,1,75.456976666667,35.053885,Asia,Pakistan,PK,,Pakistan - Northern Areas,2019-07-14,08:04
Carpodacus grandis,Animalia,FINCHES_FRINGILLIDAE,Blyth's Rosefinch,,1,73.484,34.601,Asia,Pakistan,PK,,Pakistan - Hazara,2018-06-27,
Periparus rufonuchalis,Animalia,TITS_PARIDAE,Rufous-naped Tit,,1,73.493,34.621,Asia,Pakistan,PK,,Pakistan - Hazara,2018-06-27,06:00
Pericrocotus ethologus,Animalia,CUCKOOSHRIKES_CAMPEPHAGIDAE,Long-tailed Minivet,,1,73.493,34.621,Asia,Pakistan,PK,,Pakistan - Hazara,2018-06-27,06:00
Mycerobas icterioides,Animalia,FINCHES_FRINGILLIDAE,Black-and-yellow Grosbeak,,1,73.484,34.601,Asia,Pakistan,PK,,Pakistan - Hazara,2018-06-27,
Carpodacus grandis,Animalia,FINCHES_FRINGILLIDAE,Blyth's Rosefinch,,1,73.484,34.601,Asia,Pakistan,PK,,Pakistan - Hazara,2018-06-28,
Prunella strophiata,Animalia,ACCENTORS_PRUNELLIDAE,Rufous-breasted Accentor,,1,73.484,34.601,Asia,Pakistan,PK,,Pakistan - Hazara,2018-06-27,
Calliope pectoralis,Animalia,OLD_WORLD_FLYCATCHERS_MUSCICAPIDAE,Himalayan Rubythroat,,7,73.484,34.601,Asia,Pakistan,PK,,Pakistan - Hazara,2018-06-28,
Phylloscopus trochiloides,Animalia,LEAF_WARBLERS_AND_ALLIES_PHYLLOSCOPIDAE,Greenish Warbler,,1,73.484,34.601,Asia,Pakistan,PK,,Pakistan - Hazara,2018-06-27,
Carpodacus rodochroa,Animalia,FINCHES_FRINGILLIDAE,Pink-browed Rosefinch,,1,73.485,34.614,Asia,Pakistan,PK,,Pakistan - Hazara,2018-06-26,08:00
Turdus rubrocanus,Animalia,THRUSHES_TURDIDAE,Chestnut Thrush,,1,73.485,34.614,Asia,Pakistan,PK,,Pakistan - Hazara,2018-06-26,08:00
Periparus rufonuchalis,Animalia,TITS_PARIDAE,Rufous-naped Tit,,1,73.485,34.614,Asia,Pakistan,PK,,Pakistan - Hazara,2018-06-26,08:00
Buteo burmanicus,Animalia,HAWKS_AND_EAGLES_ACCIPITRIDAE,Himalayan Buzzard,,1,73.485,34.614,Asia,Pakistan,PK,,Pakistan - Hazara,2018-06-26,08:00
Xylocopa (Xylocopa) spec.,Animalia,Apidae,,,1,73.042,33.762,Asia,Pakistan,PK,,Pakistan - Islamabad,2018-06-25,08:00
Lonchura punctulata,Animalia,WAXBILLS_MUNIAS_ALLIES_ESTRILDIDAE,Scaly-breasted Munia,,1,73.053,33.761,Asia,Pakistan,PK,,Pakistan - Islamabad,2018-06-25,
Copsychus saularis,Animalia,OLD_WORLD_FLYCATCHERS_MUSCICAPIDAE,Oriental Magpie-Robin,,1,73.053,33.761,Asia,Pakistan,PK,,Pakistan - Islamabad,2018-06-25,
Corvus splendens,Animalia,CROWS_AND_JAYS_CORVIDAE,House Crow,,1,73.13,33.69,Asia,Pakistan,PK,,Pakistan - Islamabad,2018-06-24,
Dodona durga,Animalia,METALMARKS_RIODINIDAE,Common Punch,,1,73.132,33.696,Asia,Pakistan,PK,,Pakistan - Islamabad,2018-06-24,
Issoria lathonia,Animalia,BRUSHFOOTED_BUTTERFLIES_NYMPHALIDAE,Queen of Spain Fritillary,,1,73.486,34.609,Asia,Pakistan,PK,,Pakistan - Hazara,2018-06-26,10:00
Carpodacus rodochroa,Animalia,FINCHES_FRINGILLIDAE,Pink-browed Rosefinch,,1,73.24426648,34.78607005,Asia,Pakistan,PK,,Pakistan - Hazara,2018-06-26,06:00
Cinnyris asiaticus,Animalia,SUNBIRDS_NECTARINIIDAE,Purple Sunbird,,6,73.132,33.696,Asia,Pakistan,PK,,Pakistan - Islamabad,2018-06-24,
Emberiza lathami,Animalia,BUNTINGS_EMBERIZIDAE,Crested Bunting,,1,73.122,33.781,Asia,Pakistan,PK,,Pakistan - Islamabad,2018-06-24,
Saxicola caprata,Animalia,OLD_WORLD_FLYCATCHERS_MUSCICAPIDAE,Pied Bush Chat,,6,73.122,33.781,Asia,Pakistan,PK,,Pakistan - Islamabad,2018-06-24,
Zosterops palpebrosus,Animalia,WHITEEYES_ZOSTEROPIDAE,Indian White-eye,,1,73.122,33.781,Asia,Pakistan,PK,,Pakistan - Islamabad,2018-06-24,
Phylloscopus xanthoschistos,Animalia,LEAF_WARBLERS_AND_ALLIES_PHYLLOSCOPIDAE,Grey-hooded Warbler,,20,73.122,33.781,Asia,Pakistan,PK,,Pakistan - Islamabad,2018-06-24,
Parus cinereus,Animalia,TITS_PARIDAE,Cinereous Tit,,1,73.122,33.781,Asia,Pakistan,PK,,Pakistan - Islamabad,2018-06-24,
Monticola cinclorhyncha,Animalia,OLD_WORLD_FLYCATCHERS_MUSCICAPIDAE,Blue-capped Rock Thrush,,1,73.122,33.781,Asia,Pakistan,PK,,Pakistan - Islamabad,2018-06-24,
Mycerobas icterioides,Animalia,FINCHES_FRINGILLIDAE,Black-and-yellow Grosbeak,,1,73.4966,34.6226,Asia,Pakistan,PK,,Pakistan - Hazara,2018-06-30,06:39
Mycerobas icterioides,Animalia,FINCHES_FRINGILLIDAE,Black-and-yellow Grosbeak,,1,73.4967,34.6228,Asia,Pakistan,PK,,Pakistan - Hazara,2018-06-28,07:30
Pyrrhula aurantiaca,Animalia,FINCHES_FRINGILLIDAE,Orange Bullfinch,,1,73.4933,34.6216,Asia,Pakistan,PK,,Pakistan - Hazara,2018-06-28,06:05
Periparus rufonuchalis,Animalia,TITS_PARIDAE,Rufous-naped Tit,,10,73.493,34.6211,Asia,Pakistan,PK,,Pakistan - Hazara,2018-06-28,05:52
Mycerobas icterioides,Animalia,FINCHES_FRINGILLIDAE,Black-and-yellow Grosbeak,,1,73.4908,34.6208,Asia,Pakistan,PK,,Pakistan - Hazara,2018-06-28,05:22
Calliope pectoralis,Animalia,OLD_WORLD_FLYCATCHERS_MUSCICAPIDAE,Himalayan Rubythroat,,1,73.4853,34.6017,Asia,Pakistan,PK,,Pakistan - Hazara,2018-06-27,08:50
Certhia himalayana,Animalia,TREECREEPERS_CERTHIIDAE,Bar-tailed Treecreeper,,1,73.4915,34.621,Asia,Pakistan,PK,,Pakistan - Hazara,2018-06-27,05:46
Sitta leucopsis,Animalia,NUTHATCHES_SITTIDAE,White-cheeked Nuthatch,,1,73.4866,34.6203,Asia,Pakistan,PK,,Pakistan - Hazara,2018-06-26,06:20
Saxicola caprata,Animalia,OLD_WORLD_FLYCATCHERS_MUSCICAPIDAE,Pied Bush Chat,,1,73.122,33.781,Asia,Pakistan,PK,,Pakistan - Islamabad,2018-06-24,
Argya striata,Animalia,Leiothrichidae,Jungle Babbler,,1,73.122,33.781,Asia,Pakistan,PK,,Pakistan - Islamabad,2018-06-24,
Garrulus lanceolatus,Animalia,CROWS_AND_JAYS_CORVIDAE,Black-headed Jay,,1,73.0479,33.7607,Asia,Pakistan,PK,,Pakistan - Islamabad,2018-06-25,06:56
Picus squamatus,Animalia,WOODPECKERS_PICIDAE,Scaly-bellied Woodpecker,,1,73.0526,33.7606,Asia,Pakistan,PK,,Pakistan - Islamabad,2018-06-25,06:26
Spilopelia chinensis,Animalia,PIGEONS_AND_DOVES_COLUMBIDAE,Spotted Dove,,1,73.122,33.781,Asia,Pakistan,PK,,Pakistan - Islamabad,2018-06-24,
Glaucidium cuculoides,Animalia,OWLS_STRIGIDAE,Asian Barred Owlet,,1,73.1215,33.7806,Asia,Pakistan,PK,,Pakistan - Islamabad,2018-06-24,07:52
Aegithalos leucogenys,Animalia,LONGTAILED_TITS_AEGITHALIDAE,White-cheeked Bushtit,,5,73.1218,33.7806,Asia,Pakistan,PK,,Pakistan - Islamabad,2018-06-24,07:47
