scientificName,kingdom,family,vernacularName,previousIdentifications,individualCount,longitudeDecimal,latitudeDecimal,continent,country,countryCode,stateProvince,locality,eventDate,eventTime
Rhea americana,Animalia,RHEIDAE_RHEAS,Greater Rhea,,1,-56.290050745,-23.7693215618,South America,Paraguay,PY,,Paraguay - Laguna Blanca,2011-01-15,
Sapajus cay,Animalia,NEW_WORLD_MONKEYS_CEBIDAE,Azaras’s Capuchin,,1,-56.2907373905,-23.8173853689,South America,Paraguay,PY,,Paraguay - Laguna Blanca,2011-01-15,
Piaya cayana,Animalia,CUCKOOS_AND_COUCALS_CUCULIDAE,Squirrel Cuckoo,,1,-56.292797327,-23.8092189171,South America,Paraguay,PY,,Paraguay - Laguna Blanca,2011-01-12,
Neothraupis fasciata,Animalia,TANAGERS_AND_ALLIES_THRAUPIDAE,Shrike-like Tanager,,1,-56.2917673588,-23.7957117352,South America,Paraguay,PY,,Paraguay - Laguna Blanca,2011-01-12,
Cariama cristata,Animalia,SERIEMAS_CARIAMIDAE,Red-legged Seriema,,1,-56.2917673588,-23.7957117352,South America,Paraguay,PY,,Paraguay - Laguna Blanca,2011-01-12,
Falco sparverius,Animalia,CARACAS_AND_FALCONS_FALCONIDAE,American Kestrel,,1,-56.2917673588,-23.7957117352,South America,Paraguay,PY,,Paraguay - Laguna Blanca,2011-01-10,
Columbina squammata,Animalia,PIGEONS_AND_DOVES_COLUMBIDAE,Scaled Dove,,1,-56.2917673588,-23.8111035285,South America,Paraguay,PY,,Paraguay - Laguna Blanca,2011-01-09,
Ramphastos toco,Animalia,TOUCANS_BARBETS_RAMPHASTIDAE,Toco Toucan,,1,-56.2917673588,-23.8111035285,South America,Paraguay,PY,,Paraguay - Laguna Blanca,2011-01-04,
Vanellus chilensis,Animalia,PLOVERS_CHARADRIIDAE,Southern Lapwing,,1,-56.2941099683,-23.8112875818,South America,Paraguay,PY,,Paraguay - Laguna Blanca,2010-12-30,
Guira guira,Animalia,CUCKOOS_AND_COUCALS_CUCULIDAE,Guira Cuckoo,,1,-56.2941099683,-23.8112875818,South America,Paraguay,PY,,Paraguay - Laguna Blanca,2010-12-28,
Piaya cayana,Animalia,CUCKOOS_AND_COUCALS_CUCULIDAE,Squirrel Cuckoo,,1,-56.2941099683,-23.8112875818,South America,Paraguay,PY,,Paraguay - Laguna Blanca,2010-12-28,
Vanellus chilensis,Animalia,PLOVERS_CHARADRIIDAE,Southern Lapwing,,4,-56.292915344238,-23.81298811255,South America,Paraguay,PY,,Paraguay - Laguna Blanca,2013-06-10,
Vanellus chilensis,Animalia,PLOVERS_CHARADRIIDAE,Southern Lapwing,,10,-56.294631958008,-23.814872669222,South America,Paraguay,PY,,Paraguay - Laguna Blanca,2013-06-09,
Cathartes aura,Animalia,NEW_WORLD_VULTURES_CATHARTIDAE,Turkey Vulture,,2,-56.291542053223,-23.804193153062,South America,Paraguay,PY,,Paraguay - Laguna Blanca,2013-06-07,
Pyrocephalus rubinus,Animalia,TYRANT_FLYCATCHERS_TYRANNIDAE,Scarlet Flycatcher,,1,-56.285705566406,-23.759580978293,South America,Paraguay,PY,,Paraguay - Laguna Blanca,2013-06-07,
Piaya cayana,Animalia,CUCKOOS_AND_COUCALS_CUCULIDAE,Squirrel Cuckoo,,1,-56.296005249023,-23.818013536212,South America,Paraguay,PY,,Paraguay - Laguna Blanca,2013-06-07,
Pyrocephalus rubinus,Animalia,TYRANT_FLYCATCHERS_TYRANNIDAE,Scarlet Flycatcher,,1,-56.292915344238,-23.819898019925,South America,Paraguay,PY,,Paraguay - Laguna Blanca,2013-06-03,
Ramphastos toco,Animalia,TOUCANS_BARBETS_RAMPHASTIDAE,Toco Toucan,,1,-56.294975280762,-23.81298811255,South America,Paraguay,PY,,Paraguay - Laguna Blanca,2013-06-01,
Baryphthengus ruficapillus,Animalia,MOTMOTS_MOMOTIDAE,Rufous-capped Motmot,,1,-56.2922286987,-23.8189557815,South America,Paraguay,PY,,Paraguay - Laguna Blanca,2013-05-29,
Neothraupis fasciata,Animalia,TANAGERS_AND_ALLIES_THRAUPIDAE,Shrike-like Tanager,,3,-56.29222869873,-23.806077837383,South America,Paraguay,PY,,Paraguay - Laguna Blanca,2013-05-28,
Pyrocephalus rubinus,Animalia,TYRANT_FLYCATCHERS_TYRANNIDAE,Scarlet Flycatcher,,1,-56.29222869873,-23.806077837383,South America,Paraguay,PY,,Paraguay - Laguna Blanca,2013-05-28,
Jacana jacana,Animalia,JACANAS_JACANIDAE,Wattled Jacana,,1,-56.2939453125,-23.813930394306,South America,Paraguay,PY,,Paraguay - Laguna Blanca,2013-05-28,
Cariama cristata,Animalia,SERIEMAS_CARIAMIDAE,Red-legged Seriema,,2,-56.290512084961,-23.807334278402,South America,Paraguay,PY,,Paraguay - Laguna Blanca,2013-05-27,
Neothraupis fasciata,Animalia,TANAGERS_AND_ALLIES_THRAUPIDAE,Shrike-like Tanager,,2,-56.290512084961,-23.807334278402,South America,Paraguay,PY,,Paraguay - Laguna Blanca,2013-05-27,
Pyrocephalus rubinus,Animalia,TYRANT_FLYCATCHERS_TYRANNIDAE,Scarlet Flycatcher,,2,-56.290512084961,-23.807334278402,South America,Paraguay,PY,,Paraguay - Laguna Blanca,2013-05-27,
Cariama cristata,Animalia,SERIEMAS_CARIAMIDAE,Red-legged Seriema,,3,-56.310081481934,-23.780003943936,South America,Paraguay,PY,,Paraguay,2013-05-16,
Rhea americana,Animalia,RHEIDAE_RHEAS,Greater Rhea,,3,-56.303558349609,-23.785344805941,South America,Paraguay,PY,,Paraguay,2013-05-16,
Icterus pyrrhopterus pyrrhopterus,Animalia,ICTERIDS_ICTERIDAE,Variable Oriole ssp pyrrhopterus,,5,-56.29222869873,-23.804821384208,South America,Paraguay,PY,,Paraguay - Laguna Blanca,2013-05-17,
Pyrocephalus rubinus,Animalia,TYRANT_FLYCATCHERS_TYRANNIDAE,Scarlet Flycatcher,,1,-56.292915344238,-23.801051951752,South America,Paraguay,PY,,Paraguay - Laguna Blanca,2013-05-17,
Ramphastos toco,Animalia,TOUCANS_BARBETS_RAMPHASTIDAE,Toco Toucan,,2,-56.296005249023,-23.813616301147,South America,Paraguay,PY,,Paraguay - Laguna Blanca,2013-05-16,
Podilymbus podiceps,Animalia,GREBES_PODICIPEDIDAE,Pied-billed Grebe,,1,-56.293258666992,-23.813616301147,South America,Paraguay,PY,,Paraguay - Laguna Blanca,2013-05-11,
Falco sparverius,Animalia,CARACAS_AND_FALCONS_FALCONIDAE,American Kestrel,,1,-56.280899047852,-23.75015391301,South America,Paraguay,PY,,Paraguay - Laguna Blanca,2013-05-09,
Neothraupis fasciata,Animalia,TANAGERS_AND_ALLIES_THRAUPIDAE,Shrike-like Tanager,,4,-56.280899047852,-23.75015391301,South America,Paraguay,PY,,Paraguay - Laguna Blanca,2013-05-09,
Falco sparverius,Animalia,CARACAS_AND_FALCONS_FALCONIDAE,American Kestrel,,1,-56.296348571777,-23.79696827649,South America,Paraguay,PY,,Paraguay - Laguna Blanca,2013-05-06,
Mastigodryas bifossatus,Animalia,Colubridae,Rio Tropical Racer,,1,-56.292572021484,-23.816757198536,South America,Paraguay,PY,,Paraguay - Laguna Blanca,2013-05-04,
Piaya cayana,Animalia,CUCKOOS_AND_COUCALS_CUCULIDAE,Squirrel Cuckoo,,1,-56.294631958008,-23.8211543272,South America,Paraguay,PY,,Paraguay - Laguna Blanca,2013-05-05,
Columbina squammata,Animalia,PIGEONS_AND_DOVES_COLUMBIDAE,Scaled Dove,,2,-56.297378540039,-23.812045823955,South America,Paraguay,PY,,Paraguay - Laguna Blanca,2013-05-05,
Tityra inquisitor,Animalia,Tityridae,Black-crowned Tityra,,1,-56.294631958008,-23.818013536212,South America,Paraguay,PY,,Paraguay - Laguna Blanca,2013-05-05,
Rhea americana,Animalia,RHEIDAE_RHEAS,Greater Rhea,,3,-56.303558349609,-23.784402316824,South America,Paraguay,PY,,Paraguay,2013-05-01,
Neothraupis fasciata,Animalia,TANAGERS_AND_ALLIES_THRAUPIDAE,Shrike-like Tanager,,2,-56.315574645996,-23.776547975146,South America,Paraguay,PY,,Paraguay,2013-05-03,
Podilymbus podiceps,Animalia,GREBES_PODICIPEDIDAE,Pied-billed Grebe,,1,-56.290855407715,-23.8155008487,South America,Paraguay,PY,,Paraguay - Laguna Blanca,2013-04-29,
Cariama cristata,Animalia,SERIEMAS_CARIAMIDAE,Red-legged Seriema,,3,-56.301498413086,-23.786287288225,South America,Paraguay,PY,,Paraguay,2013-04-27,
Neothraupis fasciata,Animalia,TANAGERS_AND_ALLIES_THRAUPIDAE,Shrike-like Tanager,,3,-56.301498413086,-23.786287288225,South America,Paraguay,PY,,Paraguay,2013-04-27,
Rhea americana,Animalia,RHEIDAE_RHEAS,Greater Rhea,,1,-56.301498413086,-23.786287288225,South America,Paraguay,PY,,Paraguay,2013-04-27,
Neothraupis fasciata,Animalia,TANAGERS_AND_ALLIES_THRAUPIDAE,Shrike-like Tanager,,10,-56.28776550293,-23.787229763676,South America,Paraguay,PY,,Paraguay - Laguna Blanca,2013-04-26,
Rhea americana,Animalia,RHEIDAE_RHEAS,Greater Rhea,,2,-56.28776550293,-23.787229763676,South America,Paraguay,PY,,Paraguay - Laguna Blanca,2013-04-26,
Falco sparverius,Animalia,CARACAS_AND_FALCONS_FALCONIDAE,American Kestrel,,2,-56.335830688477,-23.769321561822,South America,Paraguay,PY,,Paraguay,2013-04-26,
Vanellus chilensis,Animalia,PLOVERS_CHARADRIIDAE,Southern Lapwing,,7,-56.291885375977,-23.813302207228,South America,Paraguay,PY,,Paraguay - Laguna Blanca,2013-04-24,
Vanellus chilensis,Animalia,PLOVERS_CHARADRIIDAE,Southern Lapwing,,3,-56.294631958008,-23.814558578343,South America,Paraguay,PY,,Paraguay - Laguna Blanca,2013-04-23,
Guira guira,Animalia,CUCKOOS_AND_COUCALS_CUCULIDAE,Guira Cuckoo,,10,-56.291542053223,-23.801051951752,South America,Paraguay,PY,,Paraguay - Laguna Blanca,2013-04-23,
Falco sparverius,Animalia,CARACAS_AND_FALCONS_FALCONIDAE,American Kestrel,,1,-56.294975280762,-23.797596542577,South America,Paraguay,PY,,Paraguay - Laguna Blanca,2013-04-23,
Neothraupis fasciata,Animalia,TANAGERS_AND_ALLIES_THRAUPIDAE,Shrike-like Tanager,,2,-56.294975280762,-23.797596542577,South America,Paraguay,PY,,Paraguay - Laguna Blanca,2013-04-23,
Caracara plancus,Animalia,CARACAS_AND_FALCONS_FALCONIDAE,Southern Crested Caracara,,10,-56.294975280762,-23.797596542577,South America,Paraguay,PY,,Paraguay - Laguna Blanca,2013-04-23,
Cariama cristata,Animalia,SERIEMAS_CARIAMIDAE,Red-legged Seriema,,1,-56.333770751953,-23.777804701696,South America,Paraguay,PY,,Paraguay,2013-04-21,
Neothraupis fasciata,Animalia,TANAGERS_AND_ALLIES_THRAUPIDAE,Shrike-like Tanager,,4,-56.286392211914,-23.799481322612,South America,Paraguay,PY,,Paraguay - Laguna Blanca,2013-04-20,
Cariama cristata,Animalia,SERIEMAS_CARIAMIDAE,Red-legged Seriema,,4,-56.311798095703,-23.778433060417,South America,Paraguay,PY,,Paraguay,2013-04-19,
Ramphastos toco,Animalia,TOUCANS_BARBETS_RAMPHASTIDAE,Toco Toucan,,1,-56.291885375977,-23.767750549281,South America,Paraguay,PY,,Paraguay - Laguna Blanca,2013-04-18,
Neothraupis fasciata,Animalia,TANAGERS_AND_ALLIES_THRAUPIDAE,Shrike-like Tanager,,13,-56.291885375977,-23.767750549281,South America,Paraguay,PY,,Paraguay - Laguna Blanca,2013-04-18,
Jacana jacana,Animalia,JACANAS_JACANIDAE,Wattled Jacana,,3,-56.292572021484,-23.816757198536,South America,Paraguay,PY,,Paraguay - Laguna Blanca,2013-04-18,
Geothlypis velata,Animalia,NEW_WORLD_WARBLERS_PARULIDAE,Southern Yellowthroat,,1,-56.296691894531,-23.821782476276,South America,Paraguay,PY,,Paraguay - Laguna Blanca,2013-04-18,
Piaya cayana,Animalia,CUCKOOS_AND_COUCALS_CUCULIDAE,Squirrel Cuckoo,,1,-56.296691894531,-23.821782476276,South America,Paraguay,PY,,Paraguay - Laguna Blanca,2013-04-18,
Cathartes aura,Animalia,NEW_WORLD_VULTURES_CATHARTIDAE,Turkey Vulture,,1,-56.296691894531,-23.822410622313,South America,Paraguay,PY,,Paraguay - Laguna Blanca,2013-04-18,
Neothraupis fasciata,Animalia,TANAGERS_AND_ALLIES_THRAUPIDAE,Shrike-like Tanager,,5,-56.285705566406,-23.798224805627,South America,Paraguay,PY,,Paraguay - Laguna Blanca,2013-04-17,
Vanellus chilensis,Animalia,PLOVERS_CHARADRIIDAE,Southern Lapwing,,3,-56.292572021484,-23.814872669222,South America,Paraguay,PY,,Paraguay - Laguna Blanca,2013-04-16,
Cathartes burrovianus,Animalia,NEW_WORLD_VULTURES_CATHARTIDAE,Lesser Yellow-headed Vulture,,3,-56.2939453125,-27.078691552928,South America,Paraguay,PY,,Paraguay,2013-04-14,
Milvago chimango,Animalia,CARACAS_AND_FALCONS_FALCONIDAE,Chimango Caracara,,4,-56.27197265625,-27.095808798821,South America,Paraguay,PY,,Paraguay,2013-04-14,
Geothlypis velata,Animalia,NEW_WORLD_WARBLERS_PARULIDAE,Southern Yellowthroat,,3,-56.280212402344,-27.083582461484,South America,Paraguay,PY,,Paraguay,2013-04-14,
Rhea americana,Animalia,RHEIDAE_RHEAS,Greater Rhea,,1,-56.289138793945,-23.759580978293,South America,Paraguay,PY,,Paraguay - Laguna Blanca,2013-04-11,
Pyrocephalus rubinus,Animalia,TYRANT_FLYCATCHERS_TYRANNIDAE,Scarlet Flycatcher,,1,-56.294631958008,-23.8155008487,South America,Paraguay,PY,,Paraguay - Laguna Blanca,2013-04-08,
Guira guira,Animalia,CUCKOOS_AND_COUCALS_CUCULIDAE,Guira Cuckoo,,13,-56.295318603516,-23.794455181758,South America,Paraguay,PY,,Paraguay - Laguna Blanca,2013-04-08,
Falco sparverius,Animalia,CARACAS_AND_FALCONS_FALCONIDAE,American Kestrel,,1,-56.332569122314,-23.761309199543,South America,Paraguay,PY,,Paraguay,2013-04-08,
Falco sparverius,Animalia,CARACAS_AND_FALCONS_FALCONIDAE,American Kestrel,,1,-56.2939453125,-23.794769321258,South America,Paraguay,PY,,Paraguay - Laguna Blanca,2013-04-08,
Falco sparverius,Animalia,CARACAS_AND_FALCONS_FALCONIDAE,American Kestrel,,2,-56.31763458252,-23.74716853337,South America,Paraguay,PY,,Paraguay,2013-04-08,
Cariama cristata,Animalia,SERIEMAS_CARIAMIDAE,Red-legged Seriema,,2,-56.297378540039,-23.79178496535,South America,Paraguay,PY,,Paraguay - Laguna Blanca,2013-04-08,
Cariama cristata,Animalia,SERIEMAS_CARIAMIDAE,Red-legged Seriema,,2,-56.314373016357,-23.741354702939,South America,Paraguay,PY,,Paraguay,2013-04-08,
Neothraupis fasciata,Animalia,TANAGERS_AND_ALLIES_THRAUPIDAE,Shrike-like Tanager,,4,-56.309223175049,-23.780318118362,South America,Paraguay,PY,,Paraguay,2013-04-08,
Podilymbus podiceps,Animalia,GREBES_PODICIPEDIDAE,Pied-billed Grebe,,2,-56.293258666992,-23.815186759341,South America,Paraguay,PY,,Paraguay - Laguna Blanca,2013-04-05,
Vanellus chilensis,Animalia,PLOVERS_CHARADRIIDAE,Southern Lapwing,,2,-56.293258666992,-23.815186759341,South America,Paraguay,PY,,Paraguay - Laguna Blanca,2013-04-05,
Jacana jacana,Animalia,JACANAS_JACANIDAE,Wattled Jacana,,7,-56.292915344238,-23.816129025138,South America,Paraguay,PY,,Paraguay - Laguna Blanca,2013-04-05,
Guira guira,Animalia,CUCKOOS_AND_COUCALS_CUCULIDAE,Guira Cuckoo,,15,-56.299095153809,-23.796025871662,South America,Paraguay,PY,,Paraguay - Laguna Blanca,2013-04-05,
Ramphastos toco,Animalia,TOUCANS_BARBETS_RAMPHASTIDAE,Toco Toucan,,1,-56.319351196289,-23.733183475638,South America,Paraguay,PY,,Paraguay - Laguna Blanca,2013-04-05,
Icterus pyrrhopterus pyrrhopterus,Animalia,ICTERIDS_ICTERIDAE,Variable Oriole ssp pyrrhopterus,,2,-56.29566192627,-23.813616301147,South America,Paraguay,PY,,Paraguay - Laguna Blanca,2013-04-05,
Icterus pyrrhopterus pyrrhopterus,Animalia,ICTERIDS_ICTERIDAE,Variable Oriole ssp pyrrhopterus,,2,-56.318664550781,-23.730669148763,South America,Paraguay,PY,,Paraguay,2013-04-05,
Cathartes aura,Animalia,NEW_WORLD_VULTURES_CATHARTIDAE,Turkey Vulture,,1,-56.29222869873,-23.814558578343,South America,Paraguay,PY,,Paraguay - Laguna Blanca,2013-04-05,
Cathartes aura,Animalia,NEW_WORLD_VULTURES_CATHARTIDAE,Turkey Vulture,,9,-56.31591796875,-23.72784047305,South America,Paraguay,PY,,Paraguay,2013-04-05,
Pyrocephalus rubinus,Animalia,TYRANT_FLYCATCHERS_TYRANNIDAE,Scarlet Flycatcher,,1,-56.293601989746,-23.816286068772,South America,Paraguay,PY,,Paraguay - Laguna Blanca,2013-04-05,
Pyrocephalus rubinus,Animalia,TYRANT_FLYCATCHERS_TYRANNIDAE,Scarlet Flycatcher,,1,-56.295833587646,-23.812831064926,South America,Paraguay,PY,,Paraguay - Laguna Blanca,2013-04-05,
Pyrocephalus rubinus,Animalia,TYRANT_FLYCATCHERS_TYRANNIDAE,Scarlet Flycatcher,,1,-56.338920593262,-23.759423866133,South America,Paraguay,PY,,Paraguay,2013-04-05,
Falco sparverius,Animalia,CARACAS_AND_FALCONS_FALCONIDAE,American Kestrel,,2,-56.307764053345,-23.783224195819,South America,Paraguay,PY,,Paraguay,2013-04-05,
Guira guira,Animalia,CUCKOOS_AND_COUCALS_CUCULIDAE,Guira Cuckoo,,4,-56.295318603516,-23.8155008487,South America,Paraguay,PY,,Paraguay - Laguna Blanca,2013-04-04,
Podilymbus podiceps,Animalia,GREBES_PODICIPEDIDAE,Pied-billed Grebe,,1,-56.293601989746,-23.814558578343,South America,Paraguay,PY,,Paraguay - Laguna Blanca,2013-04-04,
Vanellus chilensis,Animalia,PLOVERS_CHARADRIIDAE,Southern Lapwing,,3,-56.29222869873,-23.815814937299,South America,Paraguay,PY,,Paraguay - Laguna Blanca,2013-04-04,
Podilymbus podiceps,Animalia,GREBES_PODICIPEDIDAE,Pied-billed Grebe,,2,-56.291885375977,-23.813616301147,South America,Paraguay,PY,,Paraguay - Laguna Blanca,2013-04-03,
Guira guira,Animalia,CUCKOOS_AND_COUCALS_CUCULIDAE,Guira Cuckoo,,10,-56.296348571777,-23.799167194505,South America,Paraguay,PY,,Paraguay - Laguna Blanca,2013-04-03,
Neothraupis fasciata,Animalia,TANAGERS_AND_ALLIES_THRAUPIDAE,Shrike-like Tanager,,8,-56.286392211914,-23.812674017112,South America,Paraguay,PY,,Paraguay - Laguna Blanca,2013-04-03,
Vanellus chilensis,Animalia,PLOVERS_CHARADRIIDAE,Southern Lapwing,,6,-56.29222869873,-23.816443112217,South America,Paraguay,PY,,Paraguay - Laguna Blanca,2013-04-03,
Vanellus chilensis,Animalia,PLOVERS_CHARADRIIDAE,Southern Lapwing,,4,-56.321067810059,-23.731926318264,South America,Paraguay,PY,,Paraguay,2013-04-03,
Falco sparverius,Animalia,CARACAS_AND_FALCONS_FALCONIDAE,American Kestrel,,5,-56.328964233398,-23.753610582875,South America,Paraguay,PY,,Paraguay,2013-04-03,
Eira barbara,Animalia,WEASELS_AND_RELATIVES_MUSTELIDAE,Tayra,,2,-56.173095703125,-23.810475327767,South America,Paraguay,PY,,Paraguay,2013-03-29,
Cathartes aura,Animalia,NEW_WORLD_VULTURES_CATHARTIDAE,Turkey Vulture,,3,-56.285362243652,-23.801366075302,South America,Paraguay,PY,,Paraguay,2013-03-31,
Icterus pyrrhopterus pyrrhopterus,Animalia,ICTERIDS_ICTERIDAE,Variable Oriole ssp pyrrhopterus,,2,-56.285362243652,-23.801366075302,South America,Paraguay,PY,,Paraguay,2013-03-31,
Cariama cristata,Animalia,SERIEMAS_CARIAMIDAE,Red-legged Seriema,,2,-56.285362243652,-23.798224805627,South America,Paraguay,PY,,Paraguay,2013-03-31,
Vanellus chilensis,Animalia,PLOVERS_CHARADRIIDAE,Southern Lapwing,,2,-56.293258666992,-23.8155008487,South America,Paraguay,PY,,Paraguay,2013-03-31,
Vanellus chilensis,Animalia,PLOVERS_CHARADRIIDAE,Southern Lapwing,,41,-56.275062561035,-23.807648386758,South America,Paraguay,PY,,Paraguay,2013-03-31,
Vanellus chilensis,Animalia,PLOVERS_CHARADRIIDAE,Southern Lapwing,,1,-56.283645629883,-23.808590707266,South America,Paraguay,PY,,Paraguay,2013-03-29,
Falco sparverius,Animalia,CARACAS_AND_FALCONS_FALCONIDAE,American Kestrel,,1,-56.321067810059,-23.734754905301,South America,Paraguay,PY,,Paraguay,2013-03-28,
Guira guira,Animalia,CUCKOOS_AND_COUCALS_CUCULIDAE,Guira Cuckoo,,23,-56.328964233398,-23.789742998135,South America,Paraguay,PY,,Paraguay,2013-03-28,
Neothraupis fasciata,Animalia,TANAGERS_AND_ALLIES_THRAUPIDAE,Shrike-like Tanager,,1,-56.302528381348,-23.792570328813,South America,Paraguay,PY,,Paraguay,2013-03-28,
Colaptes campestris,Animalia,WOODPECKERS_PICIDAE,Campo Flicker,,2,-56.284675598145,-23.805135498641,South America,Paraguay,PY,,Paraguay,2013-03-29,
Geothlypis velata,Animalia,NEW_WORLD_WARBLERS_PARULIDAE,Southern Yellowthroat,,1,-56.292572021484,-23.823038765308,South America,Paraguay,PY,,Paraguay,2013-03-27,
Guira guira,Animalia,CUCKOOS_AND_COUCALS_CUCULIDAE,Guira Cuckoo,,3,-56.288795471191,-23.817699452933,South America,Paraguay,PY,,Paraguay,2013-03-27,
Piaya cayana,Animalia,CUCKOOS_AND_COUCALS_CUCULIDAE,Squirrel Cuckoo,,1,-56.290426254272,-23.816678677027,South America,Paraguay,PY,,Paraguay,2013-03-27,
Falco sparverius,Animalia,CARACAS_AND_FALCONS_FALCONIDAE,American Kestrel,,3,-56.298923492432,-23.816286068772,South America,Paraguay,PY,,Paraguay,2013-03-27,
Vanellus chilensis,Animalia,PLOVERS_CHARADRIIDAE,Southern Lapwing,,5,-56.297721862793,-23.814715623877,South America,Paraguay,PY,,Paraguay,2013-03-27,
Podilymbus podiceps,Animalia,GREBES_PODICIPEDIDAE,Pied-billed Grebe,,2,-56.291542053223,-23.81298811255,South America,Paraguay,PY,,Paraguay,2013-03-27,
Icterus pyrrhopterus pyrrhopterus,Animalia,ICTERIDS_ICTERIDAE,Variable Oriole ssp pyrrhopterus,,2,-56.287078857422,-23.808904812582,South America,Paraguay,PY,,Paraguay,2013-03-26,
Falco sparverius,Animalia,CARACAS_AND_FALCONS_FALCONIDAE,American Kestrel,,1,-56.298751831055,-23.806706059412,South America,Paraguay,PY,,Paraguay,2013-03-26,
Podilymbus podiceps,Animalia,GREBES_PODICIPEDIDAE,Pied-billed Grebe,,1,-56.292572021484,-23.813616301147,South America,Paraguay,PY,,Paraguay,2013-03-26,
Vanellus chilensis,Animalia,PLOVERS_CHARADRIIDAE,Southern Lapwing,,2,-56.295318603516,-23.813616301147,South America,Paraguay,PY,,Paraguay,2013-03-26,
Guira guira,Animalia,CUCKOOS_AND_COUCALS_CUCULIDAE,Guira Cuckoo,,5,-56.295318603516,-23.812045823955,South America,Paraguay,PY,,Paraguay,2013-03-25,
Piaya cayana,Animalia,CUCKOOS_AND_COUCALS_CUCULIDAE,Squirrel Cuckoo,,1,-56.305961608887,-23.826493497433,South America,Paraguay,PY,,Paraguay,2013-03-25,
Podilymbus podiceps,Animalia,GREBES_PODICIPEDIDAE,Pied-billed Grebe,,2,-56.292572021484,-23.814244486704,South America,Paraguay,PY,,Paraguay,2013-03-25,
Vanellus chilensis,Animalia,PLOVERS_CHARADRIIDAE,Southern Lapwing,,2,-56.302185058594,-23.824687626205,South America,Paraguay,PY,,Paraguay,2013-03-24,
Vanellus chilensis,Animalia,PLOVERS_CHARADRIIDAE,Southern Lapwing,,3,-56.293258666992,-23.81589345933,South America,Paraguay,PY,,Paraguay,2013-03-24,
Puma concolor,Animalia,CATS_FELIDAE,Cougar,,1,-61.6525268555,-21.197856264,South America,Paraguay,PY,,Paraguay,2006-07-14,
Procyon cancrivorus,Animalia,COATIS_RACCOONS_AND_RINGTAILS_PROCYONIDAE,Crab-eating Raccoon,,1,-59.7824325561524,-22.4669513702393,South America,Paraguay,PY,,Paraquay - Boquerón,2020-03-09,09:44
Cerdocyon thous,Animalia,DOGS_CANIDAE,Crab-eating Fox,,1,-59.6623115539551,-22.4669704437256,South America,Paraguay,PY,,Paraquay - Presidente Hayes,2020-03-09,10:27
Mazama gouazoubira,Animalia,DEER_CERVIDAE,Common Brown Brocket,,1,-59.4599456787109,-22.0564651489258,South America,Paraguay,PY,,Paraquay - Boquerón,2020-03-09,14:49
Hydrochoerus hydrochaeris,Animalia,CAVIES_CAVIIDAE,Capybara,,1,-59.3194580078125,-22.0765476226807,South America,Paraguay,PY,,Paraquay - Boquerón,2020-03-09,15:40
Eira barbara,Animalia,WEASELS_AND_RELATIVES_MUSTELIDAE,Tayra,,1,-58.8259963989258,-22.0794219970703,South America,Paraguay,PY,,Paraquay - Alto Paraguay,2020-03-09,18:27
Tamandua tetradactyla,Animalia,ANTEATERS_MYRMECOPHAGIDAE,Southern Tamandua,,1,-59.1589698791504,-23.2789211273193,South America,Paraguay,PY,,Paraquay - Presidente Hayes,2020-01-19,08:31
Tachybaptus dominicus,Animalia,GREBES_PODICIPEDIDAE,Least Grebe,,14,-56.6620216369629,-23.5122013092041,South America,Paraguay,PY,,Paraquay - San Pedro,2020-01-17,18:21
Icterus cayanensis,Animalia,ICTERIDS_ICTERIDAE,Epaulet Oriole,,1,-54.8610687255859,-24.5885562896729,South America,Paraguay,PY,,Paraquay - Canindeyú,2020-01-16,17:04
Coragyps atratus,Animalia,NEW_WORLD_VULTURES_CATHARTIDAE,Black Vulture,,2,-57.2017822265625,-25.7212200164795,South America,Paraguay,PY,,Paraquay - Paraguarí,2020-01-14,16:16
Coragyps atratus,Animalia,NEW_WORLD_VULTURES_CATHARTIDAE,Black Vulture,,1,-57.2039680480957,-25.7231502532959,South America,Paraguay,PY,,Paraquay - Paraguarí,2020-01-14,16:16
Coragyps atratus,Animalia,NEW_WORLD_VULTURES_CATHARTIDAE,Black Vulture,,17,-57.2281913757324,-25.7563781738281,South America,Paraguay,PY,,Paraquay - Paraguarí,2020-01-14,16:20
Coragyps atratus,Animalia,NEW_WORLD_VULTURES_CATHARTIDAE,Black Vulture,,18,-57.2317504882813,-25.7604789733887,South America,Paraguay,PY,,Paraquay - Paraguarí,2020-01-14,16:20
Coragyps atratus,Animalia,NEW_WORLD_VULTURES_CATHARTIDAE,Black Vulture,,3,-57.2326736450195,-25.766170501709,South America,Paraguay,PY,,Paraquay - Paraguarí,2020-01-14,16:21
Historis odius,Animalia,BRUSHFOOTED_BUTTERFLIES_NYMPHALIDAE,Orion Cecropian,,1,-57.12892878,-25.60800248,South America,Paraguay,PY,,Paraquay - Paraguarí,2019-05-19,12:00
Dromococcyx pavoninus,Animalia,CUCKOOS_AND_COUCALS_CUCULIDAE,Pavonine Cuckoo,,1,-56.86,-26.08,South America,Paraguay,PY,,Paraguay - Ybycuí NP,2019-05-25,10:30
Columbina squammata,Animalia,PIGEONS_AND_DOVES_COLUMBIDAE,Scaled Dove,,3,-57.5374145507813,-25.4032554626465,South America,Paraguay,PY,,Paraquay - Central,2019-05-25,14:33
Milvago chimachima,Animalia,CARACAS_AND_FALCONS_FALCONIDAE,Yellow-headed Caracara,,2,-57.535270690918,-25.4044189453125,South America,Paraguay,PY,,Paraquay - Central,2019-05-25,15:34
Columbina squammata,Animalia,PIGEONS_AND_DOVES_COLUMBIDAE,Scaled Dove,,4,-57.5371589660645,-25.4017848968506,South America,Paraguay,PY,,Paraquay - Central,2019-05-25,16:18
Rostrhamus sociabilis,Animalia,HAWKS_AND_EAGLES_ACCIPITRIDAE,Snail Kite,,1,-57.5434608459473,-25.2640438079834,South America,Paraguay,PY,,Paraquay - Asunción,2019-05-16,12:01
Pandion haliaetus,Animalia,OSPREY_PANDIONIDAE,Western Osprey,,1,-57.5434226989746,-25.2640914916992,South America,Paraguay,PY,,Paraquay - Asunción,2019-05-16,12:02
Caracara plancus,Animalia,CARACAS_AND_FALCONS_FALCONIDAE,Southern Crested Caracara,,2,-57.5434226989746,-25.2640914916992,South America,Paraguay,PY,,Paraquay - Asunción,2019-05-16,12:02
Ardea alba,Animalia,HERONS_ARDEIDAE,Great Egret,,2,-57.5428276062012,-25.2638187408447,South America,Paraguay,PY,,Paraquay - Asunción,2019-05-16,12:09
Cathartes burrovianus,Animalia,NEW_WORLD_VULTURES_CATHARTIDAE,Lesser Yellow-headed Vulture,,1,-57.5428314208984,-25.2634429931641,South America,Paraguay,PY,,Paraquay - Asunción,2019-05-16,12:21
Anartia jatrophae,Animalia,BRUSHFOOTED_BUTTERFLIES_NYMPHALIDAE,White Peacock,,1,-57.5414085388184,-25.2640476226807,South America,Paraguay,PY,,Paraquay - Central,2019-05-16,12:29
Guira guira,Animalia,CUCKOOS_AND_COUCALS_CUCULIDAE,Guira Cuckoo,,7,-57.5413436889648,-25.2649211883545,South America,Paraguay,PY,,Paraquay - Central,2019-05-16,12:35
Ardea alba,Animalia,HERONS_ARDEIDAE,Great Egret,,1,-57.627025604248,-25.2755889892578,South America,Paraguay,PY,,Paraquay - Asunción,2019-05-03,16:31
Pomacea spec.,Animalia,AMPULLARIIDAE,,,2,-57.6238822937012,-25.276294708252,South America,Paraguay,PY,,Paraquay - Asunción,2019-05-03,17:03
Guira guira,Animalia,CUCKOOS_AND_COUCALS_CUCULIDAE,Guira Cuckoo,,1,-57.6064147949219,-25.2848320007324,South America,Paraguay,PY,,Paraquay - Asunción,2019-04-29,20:06
Paroaria coronata,Animalia,TANAGERS_AND_ALLIES_THRAUPIDAE,Red-crested Cardinal,,1,-57.52476865,-25.33998506,South America,Paraguay,PY,,Paraquay - Central,2013-10-16,15:24
Cathartes aura,Animalia,NEW_WORLD_VULTURES_CATHARTIDAE,Turkey Vulture,,1,-55.66406098,-26.63938067,South America,Paraguay,PY,,Paraquay - Itapúa,2013-10-05,14:11
Gallinula galeata,Animalia,RAILS_RALLIDAE,Common Gallinule,,1,-55.66159335,-26.63406005,South America,Paraguay,PY,,Paraquay - Itapúa,2013-10-06,05:45
Zonotrichia capensis,Animalia,PASSERELLIDAE,Rufous-collared Sparrow,,1,-57.52173467,-25.33929042,South America,Paraguay,PY,,Paraquay - Central,2013-08-29,15:58
Chloroceryle amazona,Animalia,KINGFISHERS_ALCEDINIDAE,Amazon Kingfisher,,1,-57.63906804,-25.25653083,South America,Paraguay,PY,,Paraquay - Asunción,2013-09-21,15:58
Pyrocephalus rubinus,Animalia,TYRANT_FLYCATCHERS_TYRANNIDAE,Scarlet Flycatcher,,1,-55.66439471,-26.63786815,South America,Paraguay,PY,,Paraquay - Itapúa,2013-09-14,17:00
Elanoides forficatus,Animalia,HAWKS_AND_EAGLES_ACCIPITRIDAE,Swallow-tailed Kite,,1,-55.66539927,-26.63415776,South America,Paraguay,PY,,Paraquay - Itapúa,2013-09-06,10:00
Gallinula galeata,Animalia,RAILS_RALLIDAE,Common Gallinule,,1,-55.6618723,-26.63415596,South America,Paraguay,PY,,Paraquay - Itapúa,2013-09-04,06:30
Anartia jatrophae jatrophae,Animalia,BRUSHFOOTED_BUTTERFLIES_NYMPHALIDAE,,,1,-58.31411272,-26.84403638,South America,Paraguay,PY,,Paraquay - Ñeembucú,2018-10-12,
Marpesia petreus petreus,Animalia,BRUSHFOOTED_BUTTERFLIES_NYMPHALIDAE,,,1,-55.66500619,-26.63467312,South America,Paraguay,PY,,Paraquay - Itapúa,2018-11-12,
Mycteria americana,Animalia,STORKS_CICONIIDAE,Wood Stork,,1,-57.96752572,-26.82713933,South America,Paraguay,PY,,Paraquay - Ñeembucú,2018-11-01,
Rynchops niger,Animalia,GULLS_TERNS_AND_SKIMMERS_LARIDAE,Black Skimmer,,1,-58.11949968,-26.66096916,South America,Paraguay,PY,,Paraquay - Ñeembucú,2018-10-30,
Geothlypis velata,Animalia,NEW_WORLD_WARBLERS_PARULIDAE,Southern Yellowthroat,,1,-58.11949968,-26.66096916,South America,Paraguay,PY,,Paraquay - Ñeembucú,2018-10-30,
Butorides striata,Animalia,HERONS_ARDEIDAE,Striated Heron,,1,-58.28321368,-26.86578343,South America,Paraguay,PY,,Paraquay - Ñeembucú,2018-10-21,
Dendrocygna autumnalis,Animalia,DUCKS_GEESE_AND_SWANS_ANATIDAE,Black-bellied Whistling Duck,,1,-58.28331426,-26.86579539,South America,Paraguay,PY,,Paraquay - Ñeembucú,2018-10-21,
Dendrocygna viduata,Animalia,DUCKS_GEESE_AND_SWANS_ANATIDAE,White-faced Whistling Duck,,1,-58.28331426,-26.86579539,South America,Paraguay,PY,,Paraquay - Ñeembucú,2018-10-21,
Nycticorax nycticorax,Animalia,HERONS_ARDEIDAE,Black-crowned Night Heron,,1,-58.30811933,-26.84972779,South America,Paraguay,PY,,Paraquay - Ñeembucú,2018-10-07,
Donacobius atricapilla,Animalia,Donacobiidae,Black-capped Donacobius,,1,-58.03364016,-26.85034011,South America,Paraguay,PY,,Paraquay - Ñeembucú,2018-09-29,
Anhinga anhinga,Animalia,ANHINGAS_ANHINGIDAE,Anhinga,,1,-58.30535799,-26.8500347,South America,Paraguay,PY,,Paraquay - Ñeembucú,2018-09-30,
Tigrisoma lineatum,Animalia,HERONS_ARDEIDAE,Rufescent Tiger Heron,,1,-58.02509129,-26.85332868,South America,Paraguay,PY,,Paraquay - Ñeembucú,2018-09-22,
Phaetusa simplex,Animalia,GULLS_TERNS_AND_SKIMMERS_LARIDAE,Large-billed Tern,,5,-58.57072449,-27.28578758,South America,Paraguay,PY,,Paraquay - Ñeembucú,2018-09-22,15:34
Tringa solitaria,Animalia,SANDPIPERS_AND_ALLIES_SCOLOPACIDAE,Solitary Sandpiper,,1,-58.57359314,-27.28615189,South America,Paraguay,PY,,Paraquay - Ñeembucú,2018-09-23,07:27
Aramus guarauna,Animalia,LIMPKIN_ARAMIDAE,Limpkin,,1,-58.57204056,-27.28511238,South America,Paraguay,PY,,Paraquay - Ñeembucú,2018-09-23,08:21
Anhinga anhinga,Animalia,ANHINGAS_ANHINGIDAE,Anhinga,,1,-58.57394409,-27.28451538,South America,Paraguay,PY,,Paraquay - Ñeembucú,2018-09-23,09:09
Jabiru mycteria,Animalia,STORKS_CICONIIDAE,Jabiru,,1,-58.54514077,-27.26140433,South America,Paraguay,PY,,Paraquay - Ñeembucú,2018-09-23,14:34
Rhea americana,Animalia,RHEIDAE_RHEAS,Greater Rhea,,1,-58.02134424,-26.84789051,South America,Paraguay,PY,,Paraquay - Ñeembucú,2018-09-23,
Chauna torquata,Animalia,SCREAMERS_ANHIMIDAE,Southern Screamer,,1,-58.21986794,-26.85930378,South America,Paraguay,PY,,Paraquay - Ñeembucú,2018-09-19,
Colaptes campestris,Animalia,WOODPECKERS_PICIDAE,Campo Flicker,,2,-58.30055583,-26.84934989,South America,Paraguay,PY,,Paraquay - Ñeembucú,2018-09-08,
Coragyps atratus,Animalia,NEW_WORLD_VULTURES_CATHARTIDAE,Black Vulture,,1,-58.31099499,-26.85814643,South America,Paraguay,PY,,Paraquay - Ñeembucú,2018-08-31,
Megaceryle torquata,Animalia,KINGFISHERS_ALCEDINIDAE,Ringed Kingfisher,,1,-58.31065712,-26.84946536,South America,Paraguay,PY,,Paraquay - Ñeembucú,2018-09-15,
Tigrisoma lineatum,Animalia,HERONS_ARDEIDAE,Rufescent Tiger Heron,,1,-58.2125358581543,-26.8976783752441,South America,Paraguay,PY,,Paraquay - Ñeembucú,2018-09-12,14:11
Milvago chimachima,Animalia,CARACAS_AND_FALCONS_FALCONIDAE,Yellow-headed Caracara,,1,-58.3039847,-26.82499111,South America,Paraguay,PY,,Paraquay - Ñeembucú,2018-09-09,
Chloroceryle americana,Animalia,KINGFISHERS_ALCEDINIDAE,Green Kingfisher,,1,-58.2961446,-26.85348183,South America,Paraguay,PY,,Paraquay - Ñeembucú,2018-09-09,
Ramphastos toco,Animalia,TOUCANS_BARBETS_RAMPHASTIDAE,Toco Toucan,,2,-58.30781937,-26.84669304,South America,Paraguay,PY,,Paraquay - Ñeembucú,2018-09-08,10:47
Athene cunicularia,Animalia,OWLS_STRIGIDAE,Burrowing Owl,,2,-58.30366728,-26.8333374,South America,Paraguay,PY,,Paraquay - Ñeembucú,2018-09-09,
Milvago chimachima,Animalia,CARACAS_AND_FALCONS_FALCONIDAE,Yellow-headed Caracara,,1,-58.29579544,-26.82871437,South America,Paraguay,PY,,Paraquay - Ñeembucú,2018-09-09,16:14
Guira guira,Animalia,CUCKOOS_AND_COUCALS_CUCULIDAE,Guira Cuckoo,,1,-58.30213928,-26.85461617,South America,Paraguay,PY,,Paraquay - Ñeembucú,2018-09-08,09:23
Ramphastos toco,Animalia,TOUCANS_BARBETS_RAMPHASTIDAE,Toco Toucan,,2,-58.30781937,-26.84669304,South America,Paraguay,PY,,Paraquay - Ñeembucú,2018-09-08,10:47
Chloroceryle americana,Animalia,KINGFISHERS_ALCEDINIDAE,Green Kingfisher,,1,-58.30453808,-26.84795433,South America,Paraguay,PY,,Paraquay - Ñeembucú,2018-09-08,
Athene cunicularia,Animalia,OWLS_STRIGIDAE,Burrowing Owl,,1,-58.20739031,-26.9147325,South America,Paraguay,PY,,Paraquay - Ñeembucú,2018-09-07,
Crotophaga ani,Animalia,CUCKOOS_AND_COUCALS_CUCULIDAE,Smooth-billed Ani,,1,-58.31394958,-26.85037041,South America,Paraguay,PY,,Paraquay - Ñeembucú,2018-09-05,15:46
Agraulis vanillae,Animalia,BRUSHFOOTED_BUTTERFLIES_NYMPHALIDAE,Gulf Fritillary,,1,-58.31308275,-26.84804367,South America,Paraguay,PY,,Paraquay - Ñeembucú,2018-08-26,
Alouatta caraya,Animalia,SPIDER_MONKEYS_ATELIDAE,Black-and-gold Howler Monkey,,1,-58.31028965,-26.85036754,South America,Paraguay,PY,,Paraquay - Ñeembucú,2018-09-05,
Geothlypis velata,Animalia,NEW_WORLD_WARBLERS_PARULIDAE,Southern Yellowthroat,,1,-58.31125259,-26.86091805,South America,Paraguay,PY,,Paraquay - Ñeembucú,2018-08-31,10:14
Geothlypis velata,Animalia,NEW_WORLD_WARBLERS_PARULIDAE,Southern Yellowthroat,,1,-58.31125259,-26.86091805,South America,Paraguay,PY,,Paraquay - Ñeembucú,2018-08-31,10:14
Saltator coerulescens,Animalia,TANAGERS_AND_ALLIES_THRAUPIDAE,Greyish Saltator,,1,-58.31220627,-26.84750748,South America,Paraguay,PY,,Paraquay - Ñeembucú,2018-08-31,10:45
Myocastor coypus,Animalia,NUTRIA_MYOCASTORIDAE,Coypu,,1,-58.30314852,-26.85432206,South America,Paraguay,PY,,Paraquay - Ñeembucú,2018-09-04,
Alouatta caraya,Animalia,SPIDER_MONKEYS_ATELIDAE,Black-and-gold Howler Monkey,,1,-58.19171548,-26.93370645,South America,Paraguay,PY,,Paraquay - Ñeembucú,2018-09-05,
Platalea ajaja,Animalia,IBISSES_AND_SPOONBILLS_THRESKIORNITHIDAE,Roseate Spoonbill,,1,-58.3111918,-26.84766437,South America,Paraguay,PY,,Paraquay - Ñeembucú,2018-09-04,
Chloroceryle amazona,Animalia,KINGFISHERS_ALCEDINIDAE,Amazon Kingfisher,,1,-58.29580296,-26.85431777,South America,Paraguay,PY,,Paraquay - Ñeembucú,2018-09-03,
Alouatta caraya,Animalia,SPIDER_MONKEYS_ATELIDAE,Black-and-gold Howler Monkey,,1,-58.31009653,-26.85030292,South America,Paraguay,PY,,Paraquay - Ñeembucú,2018-09-03,
Cairina moschata,Animalia,DUCKS_GEESE_AND_SWANS_ANATIDAE,Muscovy Duck,,1,-58.30751533,-26.84957683,South America,Paraguay,PY,,Paraquay - Ñeembucú,2018-09-02,
Cairina moschata,Animalia,DUCKS_GEESE_AND_SWANS_ANATIDAE,Muscovy Duck,,1,-58.30751533,-26.84957683,South America,Paraguay,PY,,Paraquay - Ñeembucú,2018-09-02,
Tigrisoma lineatum,Animalia,HERONS_ARDEIDAE,Rufescent Tiger Heron,,1,-58.30063248,-26.85507393,South America,Paraguay,PY,,Paraquay - Ñeembucú,2018-09-01,16:08
Myocastor coypus,Animalia,NUTRIA_MYOCASTORIDAE,Coypu,,1,-58.30260086,-26.8537674,South America,Paraguay,PY,,Paraquay - Ñeembucú,2018-09-01,16:38
Zonotrichia capensis,Animalia,PASSERELLIDAE,Rufous-collared Sparrow,,1,-58.31179529,-26.84842657,South America,Paraguay,PY,,Paraquay - Ñeembucú,2018-09-01,
Sporophila caerulescens,Animalia,TANAGERS_AND_ALLIES_THRAUPIDAE,Double-collared Seedeater,,1,-58.31125215,-26.84938319,South America,Paraguay,PY,,Paraquay - Ñeembucú,2018-09-01,
Platalea ajaja,Animalia,IBISSES_AND_SPOONBILLS_THRESKIORNITHIDAE,Roseate Spoonbill,,6,-58.31336975,-26.84732246,South America,Paraguay,PY,,Paraquay - Ñeembucú,2018-08-31,10:39
Megaceryle torquata,Animalia,KINGFISHERS_ALCEDINIDAE,Ringed Kingfisher,,1,-58.31112671,-26.85611916,South America,Paraguay,PY,,Paraquay - Ñeembucú,2018-08-31,09:51
Geothlypis velata,Animalia,NEW_WORLD_WARBLERS_PARULIDAE,Southern Yellowthroat,,1,-58.31125259,-26.86091805,South America,Paraguay,PY,,Paraquay - Ñeembucú,2018-08-31,10:14
Platalea ajaja,Animalia,IBISSES_AND_SPOONBILLS_THRESKIORNITHIDAE,Roseate Spoonbill,,6,-58.31336975,-26.84732246,South America,Paraguay,PY,,Paraquay - Ñeembucú,2018-08-31,10:39
Saltator coerulescens,Animalia,TANAGERS_AND_ALLIES_THRAUPIDAE,Greyish Saltator,,1,-58.31220627,-26.84750748,South America,Paraguay,PY,,Paraquay - Ñeembucú,2018-08-31,10:45
Amazonetta brasiliensis,Animalia,DUCKS_GEESE_AND_SWANS_ANATIDAE,Brazilian Teal,,1,-58.31197357,-26.84789467,South America,Paraguay,PY,,Paraquay - Ñeembucú,2018-08-31,10:48
Zonotrichia capensis,Animalia,PASSERELLIDAE,Rufous-collared Sparrow,,1,-58.31155777,-26.84844589,South America,Paraguay,PY,,Paraquay - Ñeembucú,2018-08-31,11:02
Pyrocephalus rubinus,Animalia,TYRANT_FLYCATCHERS_TYRANNIDAE,Scarlet Flycatcher,,1,-58.3112793,-26.84890556,South America,Paraguay,PY,,Paraquay - Ñeembucú,2018-08-31,11:15
Sporophila caerulescens,Animalia,TANAGERS_AND_ALLIES_THRAUPIDAE,Double-collared Seedeater,,1,-58.31087112,-26.84930611,South America,Paraguay,PY,,Paraquay - Ñeembucú,2018-08-31,11:23
Tachycineta leucorrhoa,Animalia,SWALLOWS_HIRUNDINIDAE,White-rumped Swallow,,1,-58.31308275,-26.84766078,South America,Paraguay,PY,,Paraquay - Ñeembucú,2018-08-26,
Falco sparverius,Animalia,CARACAS_AND_FALCONS_FALCONIDAE,American Kestrel,,1,-58.31308275,-26.84766078,South America,Paraguay,PY,,Paraquay - Ñeembucú,2018-08-26,
Sporophila leucoptera,Animalia,TANAGERS_AND_ALLIES_THRAUPIDAE,White-bellied Seedeater,,1,-58.31284001,-26.84815794,South America,Paraguay,PY,,Paraquay - Ñeembucú,2018-08-26,
Pyrocephalus rubinus,Animalia,TYRANT_FLYCATCHERS_TYRANNIDAE,Scarlet Flycatcher,,1,-58.31314042,-26.84792821,South America,Paraguay,PY,,Paraquay - Ñeembucú,2018-08-26,
Colaptes campestris,Animalia,WOODPECKERS_PICIDAE,Campo Flicker,,1,-58.30630213,-26.84597603,South America,Paraguay,PY,,Paraquay - Ñeembucú,2018-08-28,
Jacana jacana,Animalia,JACANAS_JACANIDAE,Wattled Jacana,,1,-58.31082299,-26.84980437,South America,Paraguay,PY,,Paraquay - Ñeembucú,2018-08-26,
Chauna torquata,Animalia,SCREAMERS_ANHIMIDAE,Southern Screamer,,2,-58.04053879,-26.85217094,South America,Paraguay,PY,,Paraguay,2018-08-29,10:22
Phimosus infuscatus,Animalia,IBISSES_AND_SPOONBILLS_THRESKIORNITHIDAE,Bare-faced Ibis,,1,-58.03318787,-26.84099388,South America,Paraguay,PY,,Paraguay,2018-08-29,12:54
Tigrisoma lineatum,Animalia,HERONS_ARDEIDAE,Rufescent Tiger Heron,,1,-58.04140472,-26.8521843,South America,Paraguay,PY,,Paraguay,2018-08-29,17:40
Phimosus infuscatus,Animalia,IBISSES_AND_SPOONBILLS_THRESKIORNITHIDAE,Bare-faced Ibis,,1,-58.30412854,-26.84597498,South America,Paraguay,PY,,Paraquay - Ñeembucú,2018-08-30,
Colaptes campestris,Animalia,WOODPECKERS_PICIDAE,Campo Flicker,,1,-58.29882813,-26.85014915,South America,Paraguay,PY,,Paraguay,2018-08-28,14:04
Guira guira,Animalia,CUCKOOS_AND_COUCALS_CUCULIDAE,Guira Cuckoo,,1,-58.29914474,-26.84994125,South America,Paraguay,PY,,Paraguay,2018-08-28,14:05
Coragyps atratus,Animalia,NEW_WORLD_VULTURES_CATHARTIDAE,Black Vulture,,1,-57.2438926696777,-25.7693271636963,South America,Paraguay,PY,,Paraguay,2018-08-25,15:20
Ciconia maguari,Animalia,STORKS_CICONIIDAE,Maguari Stork,,1,-57.6917343139648,-26.8936214447021,South America,Paraguay,PY,,Paraguay,2018-08-25,18:11
Ciconia maguari,Animalia,STORKS_CICONIIDAE,Maguari Stork,,1,-57.69173431,-26.89362144,South America,Paraguay,PY,,Paraguay,2018-08-25,18:11
Himantopus mexicanus,Animalia,STILTS_AND_AVOCETS_RECURVIROSTRIDAE,Black-necked Stilt,,1,-57.62340546,-25.25968345,South America,Paraguay,PY,,Paraguay,1994-04-10,
Podilymbus podiceps antarcticus,Animalia,GREBES_PODICIPEDIDAE,Pied-billed Grebe ssp antarcticus,,2,-57.6272928715,-25.2490465752,South America,Paraguay,PY,,Paraguay,2005-07-04,
Spatula platalea,Animalia,DUCKS_GEESE_AND_SWANS_ANATIDAE,Red Shoveler,,2,-57.6272928715,-25.2490465752,South America,Paraguay,PY,,Paraguay,2005-07-04,
Phaetusa simplex,Animalia,GULLS_TERNS_AND_SKIMMERS_LARIDAE,Large-billed Tern,,20,-57.6272928715,-25.2490465752,South America,Paraguay,PY,,Paraguay,2005-06-05,
Leistes superciliaris,Animalia,ICTERIDS_ICTERIDAE,White-browed Blackbird,,1,-55.7244801521,-27.2308272359,South America,Paraguay,PY,,Paraguay,2005-06-24,
Notharchus swainsoni,Animalia,PUFFBIRDS_BUCCONIDAE,Buff-bellied Puffbird,,1,-56.2897074223,-23.765868579,South America,Paraguay,PY,,Paraguay - Laguna Blanca,2005-11-06,
Aramus guarauna guarauna,Animalia,LIMPKIN_ARAMIDAE,Limpkin ssp guarauna,,10,-56.9961261749,-24.9138665889,South America,Paraguay,PY,,Paraguay,2005-11-26,
Ictinia plumbea,Animalia,HAWKS_AND_EAGLES_ACCIPITRIDAE,Plumbeous Kite,,3,-56.3000071049,-23.8036728964,South America,Paraguay,PY,,Paraguay - Laguna Blanca,2005-11-25,
Butorides striata striata,Animalia,HERONS_ARDEIDAE,Striated Heron ssp striata,,2,-56.3000071049,-23.8036728964,South America,Paraguay,PY,,Paraguay - Laguna Blanca,2005-11-25,
Coccyzus melacoryphus,Animalia,CUCKOOS_AND_COUCALS_CUCULIDAE,Dark-billed Cuckoo,,1,-56.3000071049,-23.8036728964,South America,Paraguay,PY,,Paraguay - Laguna Blanca,2005-11-23,
Vanellus chilensis lampronotus,Animalia,PLOVERS_CHARADRIIDAE,Southern Lapwing ssp lampronotus,,8,-56.3000071049,-23.8036728964,South America,Paraguay,PY,,Paraguay - Laguna Blanca,2005-11-23,
Ictinia plumbea,Animalia,HAWKS_AND_EAGLES_ACCIPITRIDAE,Plumbeous Kite,,4,-56.3000071049,-23.8036728964,South America,Paraguay,PY,,Paraguay - Laguna Blanca,2005-11-23,
Jacana jacana jacana,Animalia,JACANAS_JACANIDAE,Wattled Jacana ssp jacana,,1,-56.2894526124,-23.8157634072,South America,Paraguay,PY,,Paraguay - Laguna Blanca,2005-11-20,
Guira guira,Animalia,CUCKOOS_AND_COUCALS_CUCULIDAE,Guira Cuckoo,,5,-56.2981215119,-23.8067330533,South America,Paraguay,PY,,Paraguay - Laguna Blanca,2005-11-20,
Syrigma sibilatrix sibilatrix,Animalia,HERONS_ARDEIDAE,Whistling Heron ssp sibilatrix,,1,-56.2891951203,-23.815737233,South America,Paraguay,PY,,Paraguay - Laguna Blanca,2005-11-23,
Crotophaga ani,Animalia,CUCKOOS_AND_COUCALS_CUCULIDAE,Smooth-billed Ani,,10,-56.287649389395085,-23.788211445855502,South America,Paraguay,PY,,Paraguay - Laguna Blanca,2005-11-18,
Megaceryle torquata torquata,Animalia,KINGFISHERS_ALCEDINIDAE,Ringed Kingfisher ssp torquata,,1,-56.287649389395085,-23.788211445855502,South America,Paraguay,PY,,Paraguay - Laguna Blanca,2005-11-16,
Nystalus chacuru chacuru,Animalia,PUFFBIRDS_BUCCONIDAE,White-eared Puffbird ssp chacuru,,1,-56.2392389774,-23.7004967154,South America,Paraguay,PY,,Paraguay,2005-11-13,
Cariama cristata,Animalia,SERIEMAS_CARIAMIDAE,Red-legged Seriema,,1,-56.2392389774,-23.7004967154,South America,Paraguay,PY,,Paraguay,2005-11-13,
Procnias nudicollis,Animalia,COTINGAS_COTINGIDAE,Bare-throated Bellbird,,1,-56.0155963898,-23.475869383,South America,Paraguay,PY,,Paraguay,2005-11-12,
Mycteria americana,Animalia,STORKS_CICONIIDAE,Wood Stork,,1,-56.262845099,-23.8002674572,South America,Paraguay,PY,,Paraguay,2005-11-11,
Sarcoramphus papa,Animalia,NEW_WORLD_VULTURES_CATHARTIDAE,King Vulture,,1,-56.2804377079,-23.7562324841,South America,Paraguay,PY,,Paraguay - Laguna Blanca,2005-11-11,
Anas flavirostris flavirostris,Animalia,DUCKS_GEESE_AND_SWANS_ANATIDAE,Yellow-billed Teal ssp flavirostris,,1,-59.34253335,-22.5721734867,South America,Paraguay,PY,,Paraguay,2006-07-29,
Himantopus melanurus,Animalia,STILTS_AND_AVOCETS_RECURVIROSTRIDAE,White-backed Stilt,,500,-59.34253335,-22.5721734867,South America,Paraguay,PY,,Paraguay,2006-07-29,
Theristicus caudatus hyperorius,Animalia,IBISSES_AND_SPOONBILLS_THRESKIORNITHIDAE,Buff-necked Ibis ssp hyperorius,,3,-59.34253335,-22.5721734867,South America,Paraguay,PY,,Paraguay,2006-07-29,
Chauna torquata,Animalia,SCREAMERS_ANHIMIDAE,Southern Screamer,,4,-59.34253335,-22.5721734867,South America,Paraguay,PY,,Paraguay,2006-07-29,
Phoenicopterus chilensis,Animalia,FLAMINGOS_PHOENICOPTERIDAE,Chilean Flamingo,,450,-59.34253335,-22.5721734867,South America,Paraguay,PY,,Paraguay,2006-07-29,
Theristicus caerulescens,Animalia,IBISSES_AND_SPOONBILLS_THRESKIORNITHIDAE,Plumbeous Ibis,,2,-58.7374591827,-23.6068048737,South America,Paraguay,PY,,Paraguay,2006-07-30,
Pyrocephalus rubinus,Animalia,TYRANT_FLYCATCHERS_TYRANNIDAE,Scarlet Flycatcher,,1,-59.692325592,-22.5532003745,South America,Paraguay,PY,,Paraguay,2006-07-30,
Saltator aurantiirostris aurantiirostris,Animalia,TANAGERS_AND_ALLIES_THRAUPIDAE,Golden-billed Saltator ssp aurantiirostris,,1,-59.692325592,-22.5532003745,South America,Paraguay,PY,,Paraguay,2006-07-30,
Amazonetta brasiliensis ipecutiri,Animalia,DUCKS_GEESE_AND_SWANS_ANATIDAE,Brazilian Teal ssp ipecutiri,,1,-59.7489094734,-22.596268458,South America,Paraguay,PY,,Paraguay,2006-07-29,
Callonetta leucophrys,Animalia,DUCKS_GEESE_AND_SWANS_ANATIDAE,Ringed Teal,,18,-59.7489094734,-22.596268458,South America,Paraguay,PY,,Paraguay,2006-07-29,
Paroaria coronata,Animalia,TANAGERS_AND_ALLIES_THRAUPIDAE,Red-crested Cardinal,,6,-61.6534280777,-21.088357419,South America,Paraguay,PY,,Paraguay - Tentiente Agripino Enciso NP,2006-07-24,
Falco sparverius cinnamominus,Animalia,CARACAS_AND_FALCONS_FALCONIDAE,American Kestrel ssp cinnamominus,,2,-61.6534280777,-21.088357419,South America,Paraguay,PY,,Paraguay - Tentiente Agripino Enciso NP,2006-07-23,
Phytotoma rutila rutila,Animalia,COTINGAS_COTINGIDAE,White-tipped Plantcutter ssp rutila,,1,-61.6534280777,-21.088357419,South America,Paraguay,PY,,Paraguay - Tentiente Agripino Enciso NP,2006-07-23,
Nystalus maculatus,Animalia,PUFFBIRDS_BUCCONIDAE,Caatinga Puffbird,,2,-61.9949054718,-20.4896576444,South America,Paraguay,PY,,Paraguay - Médanos del Chaco NP,2006-07-12,
Falco sparverius cinnamominus,Animalia,CARACAS_AND_FALCONS_FALCONIDAE,American Kestrel ssp cinnamominus,,2,-61.977481842,-20.4630963325,South America,Paraguay,PY,,Paraguay - Médanos del Chaco NP,2006-07-15,
Eudromia formosa mira,Animalia,TINAMOUS_TINAMIDAE,Quebracho Crested Tinamou ssp mira,,2,-61.977481842,-20.4630963325,South America,Paraguay,PY,,Paraguay - Médanos del Chaco NP,2006-07-15,
Paroaria coronata,Animalia,TANAGERS_AND_ALLIES_THRAUPIDAE,Red-crested Cardinal,,50,-61.977481842,-20.4630963325,South America,Paraguay,PY,,Paraguay - Médanos del Chaco NP,2006-07-12,
Paroaria coronata,Animalia,TANAGERS_AND_ALLIES_THRAUPIDAE,Red-crested Cardinal,,100,-62.0140457153,-20.5711890373,South America,Paraguay,PY,,Paraguay - Médanos del Chaco NP,2006-07-10,
Charadrius collaris,Animalia,PLOVERS_CHARADRIIDAE,Collared Plover,,1,-62.0140457153,-20.5711890373,South America,Paraguay,PY,,Paraguay - Médanos del Chaco NP,2006-07-10,
Lophospingus pusillus,Animalia,TANAGERS_AND_ALLIES_THRAUPIDAE,Black-crested Finch,,30,-62.0140457153,-20.5711890373,South America,Paraguay,PY,,Paraguay - Médanos del Chaco NP,2006-07-10,
Falco sparverius cinnamominus,Animalia,CARACAS_AND_FALCONS_FALCONIDAE,American Kestrel ssp cinnamominus,,1,-61.6355752945,-21.0605929679,South America,Paraguay,PY,,Paraguay - Tentiente Agripino Enciso NP,2006-07-03,
Saltatricula multicolor,Animalia,TANAGERS_AND_ALLIES_THRAUPIDAE,Many-colored Chaco Finch,,10,-61.6355752945,-21.0605929679,South America,Paraguay,PY,,Paraguay - Tentiente Agripino Enciso NP,2006-07-05,
