scientificName,kingdom,family,vernacularName,previousIdentifications,individualCount,longitudeDecimal,latitudeDecimal,continent,country,countryCode,stateProvince,locality,eventDate,eventTime
Tyrannus dominicensis,Animalia,TYRANT_FLYCATCHERS_TYRANNIDAE,Grey Kingbird,,1,-66.0498544,18.4026684,North America,Puerto Rico,PR,,Puerto Rico - San Juan,2015-03-08,16:02
Mimus polyglottos,Animalia,THRASHERS_MIMIDAE,Northern Mockingbird,,1,-66.0551531,18.407199,North America,Puerto Rico,PR,,Puerto Rico - San Juan,2015-03-08,16:14
Tiaris bicolor,Animalia,TANAGERS_AND_ALLIES_THRAUPIDAE,Black-faced Grassquit,,2,-66.0528007149696,18.4082119198436,North America,Puerto Rico,PR,,Puerto Rico - San Juan,2015-03-08,17:06
Turdus plumbeus,Animalia,THRUSHES_TURDIDAE,Red-legged Thrush,,1,-66.0494046,18.4018279,North America,Puerto Rico,PR,,Puerto Rico - San Juan,2015-03-05,08:35
Zenaida asiatica,Animalia,PIGEONS_AND_DOVES_COLUMBIDAE,White-winged Dove,,1,-66.0493597,18.4019092,North America,Puerto Rico,PR,,Puerto Rico - San Juan,2015-03-05,08:35
Zenaida aurita,Animalia,PIGEONS_AND_DOVES_COLUMBIDAE,Zenaida Dove,,5,-66.0493597,18.4019092,North America,Puerto Rico,PR,,Puerto Rico - San Juan,2015-03-05,08:35
Quiscalus niger,Animalia,ICTERIDS_ICTERIDAE,Greater Antillean Grackle,,10,-66.0493597,18.4019092,North America,Puerto Rico,PR,,Puerto Rico - San Juan,2015-03-05,08:35
Margarops fuscatus,Animalia,THRASHERS_MIMIDAE,Pearly-eyed Thrasher,,1,-66.0493597,18.4019092,North America,Puerto Rico,PR,,Puerto Rico - San Juan,2015-03-05,08:35
Eulampis holosericeus,Animalia,HUMMINGBIRDS_TROCHILIDAE,Green-throated Carib,,2,-66.0500330105424,18.4016998740989,North America,Puerto Rico,PR,,Puerto Rico - San Juan,2015-03-05,12:58
Margarops fuscatus,Animalia,THRASHERS_MIMIDAE,Pearly-eyed Thrasher,,10,-66.04105333,18.38378892,North America,Puerto Rico,PR,,Puerto Rico - San Juan,2014-10-18,07:34
Turdus plumbeus,Animalia,THRUSHES_TURDIDAE,Red-legged Thrush,,10,-66.04105333,18.38378892,North America,Puerto Rico,PR,,Puerto Rico - San Juan,2014-10-18,07:34
Eulampis holosericeus,Animalia,HUMMINGBIRDS_TROCHILIDAE,Green-throated Carib,,1,-66.04105333,18.38378892,North America,Puerto Rico,PR,,Puerto Rico - San Juan,2014-10-18,07:34
Chlorostilbon maugaeus,Animalia,HUMMINGBIRDS_TROCHILIDAE,Puerto Rican Emerald,,1,-66.08175317,18.12200321,North America,Puerto Rico,PR,,Puerto Rico - Cayey,2014-10-25,07:37
Euphonia musica,Animalia,FINCHES_FRINGILLIDAE,Antillean Euphonia,,2,-66.08175334,18.12199876,North America,Puerto Rico,PR,,Puerto Rico - Cayey,2014-10-25,07:48
Turdus plumbeus,Animalia,THRUSHES_TURDIDAE,Red-legged Thrush,,15,-66.13272835,18.40506985,North America,Puerto Rico,PR,,Puerto Rico - Bayamón,2014-10-11,07:42
Margarops fuscatus,Animalia,THRASHERS_MIMIDAE,Pearly-eyed Thrasher,,15,-66.13272835,18.40506985,North America,Puerto Rico,PR,,Puerto Rico - Bayamón,2014-10-11,07:42
Anthracothorax dominicus,Animalia,HUMMINGBIRDS_TROCHILIDAE,Antillean Mango,,1,-66.14004259,18.40724612,North America,Puerto Rico,PR,,Puerto Rico - Bayamón,2014-10-11,08:53
Coccyzus minor,Animalia,CUCKOOS_AND_COUCALS_CUCULIDAE,Mangrove Cuckoo,,1,-66.14002494,18.40722382,North America,Puerto Rico,PR,,Puerto Rico - Bayamón,2014-10-11,08:53
Anthracothorax dominicus,Animalia,HUMMINGBIRDS_TROCHILIDAE,Antillean Mango,,1,-66.14113506,18.40603717,North America,Puerto Rico,PR,,Puerto Rico - Bayamón,2014-10-11,11:59
Gallinula galeata,Animalia,RAILS_RALLIDAE,Common Gallinule,,1,-66.14011438,18.40449315,North America,Puerto Rico,PR,,Puerto Rico - Bayamón,2014-10-11,12:23
Quiscalus niger,Animalia,ICTERIDS_ICTERIDAE,Greater Antillean Grackle,,29,-66.13761373,18.40816356,North America,Puerto Rico,PR,,Puerto Rico - Bayamón,2014-10-11,14:13
Tyrannus dominicensis,Animalia,TYRANT_FLYCATCHERS_TYRANNIDAE,Grey Kingbird,,10,-66.13763262,18.40826534,North America,Puerto Rico,PR,,Puerto Rico - Bayamón,2014-10-11,14:13
Zenaida aurita,Animalia,PIGEONS_AND_DOVES_COLUMBIDAE,Zenaida Dove,,22,-66.13747764,18.40833151,North America,Puerto Rico,PR,,Puerto Rico - Bayamón,2014-10-11,14:13
Turdus plumbeus,Animalia,THRUSHES_TURDIDAE,Red-legged Thrush,,4,-66.13255117,18.40479272,North America,Puerto Rico,PR,,Puerto Rico - Bayamón,2014-10-05,08:25
Zenaida aurita,Animalia,PIGEONS_AND_DOVES_COLUMBIDAE,Zenaida Dove,,3,-66.13255113,18.40479271,North America,Puerto Rico,PR,,Puerto Rico - Bayamón,2014-10-05,08:25
Margarops fuscatus,Animalia,THRASHERS_MIMIDAE,Pearly-eyed Thrasher,,3,-66.13255155,18.40479345,North America,Puerto Rico,PR,,Puerto Rico - Bayamón,2014-10-05,08:25
Calidris melanotos,Animalia,SANDPIPERS_AND_ALLIES_SCOLOPACIDAE,Pectoral Sandpiper,,93,-66.2432098528,18.4509304002,North America,Puerto Rico,PR,,Puerto Rico - Toa Baja,2014-09-21,
Pluvialis dominica,Animalia,PLOVERS_CHARADRIIDAE,American Golden Plover,,1,-66.2432098528,18.4509304002,North America,Puerto Rico,PR,,Puerto Rico - Toa Baja,2014-09-21,
Pandion haliaetus ridgwayi,Animalia,OSPREY_PANDIONIDAE,Western Osprey ssp ridgwayi,,1,-66.5882134439,18.4762300382,North America,Puerto Rico,PR,,Puerto Rico - Barceloneta,2014-09-07,
Calidris minutilla,Animalia,SANDPIPERS_AND_ALLIES_SCOLOPACIDAE,Least Sandpiper,,10,-66.243724816,18.4486669551,North America,Puerto Rico,PR,,Puerto Rico - Toa Baja,2014-09-07,
Eudocimus albus,Animalia,IBISSES_AND_SPOONBILLS_THRESKIORNITHIDAE,American White Ibis,,2,-66.55398567,18.48021041,North America,Puerto Rico,PR,,Puerto Rico - Barceloneta,2014-09-06,07:00
Ammodramus savannarum,Animalia,PASSERELLIDAE,Grasshopper Sparrow,,5,-66.58718791,18.4779319,North America,Puerto Rico,PR,,Puerto Rico - Barceloneta,2014-09-06,09:46
Numenius hudsonicus hudsonicus,Animalia,SANDPIPERS_AND_ALLIES_SCOLOPACIDAE,Hudsonian Whimbrel ssp hudsonicus,,1,-66.58761656,18.47660049,North America,Puerto Rico,PR,,Puerto Rico - Barceloneta,2014-09-06,10:29
Eudocimus albus,Animalia,IBISSES_AND_SPOONBILLS_THRESKIORNITHIDAE,American White Ibis,,1,-66.53522183,18.4799884,North America,Puerto Rico,PR,,Puerto Rico - Barceloneta,2014-09-06,11:11
Calidris melanotos,Animalia,SANDPIPERS_AND_ALLIES_SCOLOPACIDAE,Pectoral Sandpiper,,10,-66.243724816,18.4486669551,North America,Puerto Rico,PR,,Puerto Rico - Toa Baja,2014-09-07,
Calidris minutilla,Animalia,SANDPIPERS_AND_ALLIES_SCOLOPACIDAE,Least Sandpiper,,1,-66.2446975725,18.4507594256,North America,Puerto Rico,PR,,Puerto Rico - Toa Baja,2014-08-31,
Clathrus ruber,Fungi,PHALLACEAE,,,3,-66.0503983499,18.4054125869,North America,Puerto Rico,PR,,Puerto Rico - San Juan,2014-09-01,
Margarops fuscatus,Animalia,THRASHERS_MIMIDAE,Pearly-eyed Thrasher,,1,-66.00645026,18.43863027,North America,Puerto Rico,PR,,Puerto Rico - Carolina,2014-08-13,04:28
Ardenna gravis,Animalia,PETRELS_AND_SHEARWATERS_PROCELLARIIDAE,Great Shearwater,,1,-67.41184738,18.01317998,North America,Puerto Rico,PR,,Puerto Rico,2014-06-15,09:05
Ardenna gravis,Animalia,PETRELS_AND_SHEARWATERS_PROCELLARIIDAE,Great Shearwater,,2,-67.3635319,17.96850132,North America,Puerto Rico,PR,,Puerto Rico,2014-06-15,09:55
Fregata magnificens,Animalia,FRIGATEBIRDS_FREGATTIDAE,Magnificent Frigatebird,,1,-66.09031889,18.46697407,North America,Puerto Rico,PR,,Puerto Rico - San Juan,2014-06-14,12:38
Eulampis holosericeus,Animalia,HUMMINGBIRDS_TROCHILIDAE,Green-throated Carib,,2,-66.04934783,18.40173249,North America,Puerto Rico,PR,,Puerto Rico - San Juan,2014-05-10,16:58
Zenaida asiatica,Animalia,PIGEONS_AND_DOVES_COLUMBIDAE,White-winged Dove,,4,-66.05101434,18.40594907,North America,Puerto Rico,PR,,Puerto Rico - San Juan,2014-05-11,16:55
Turdus plumbeus,Animalia,THRUSHES_TURDIDAE,Red-legged Thrush,,1,-66.05107995,18.4059598,North America,Puerto Rico,PR,,Puerto Rico - San Juan,2014-05-11,16:55
Eulampis holosericeus,Animalia,HUMMINGBIRDS_TROCHILIDAE,Green-throated Carib,,1,-66.0511144,18.40596297,North America,Puerto Rico,PR,,Puerto Rico - San Juan,2014-05-11,16:55
Quiscalus niger,Animalia,ICTERIDS_ICTERIDAE,Greater Antillean Grackle,,1,-66.05120824,18.40596265,North America,Puerto Rico,PR,,Puerto Rico - San Juan,2014-05-11,16:55
Tyrannus dominicensis,Animalia,TYRANT_FLYCATCHERS_TYRANNIDAE,Grey Kingbird,,1,-66.05201484,18.4063415,North America,Puerto Rico,PR,,Puerto Rico - San Juan,2014-05-11,17:14
Tiaris bicolor,Animalia,TANAGERS_AND_ALLIES_THRAUPIDAE,Black-faced Grassquit,,3,-66.05656349,18.40750141,North America,Puerto Rico,PR,,Puerto Rico - San Juan,2014-05-24,12:17
Quiscalus niger,Animalia,ICTERIDS_ICTERIDAE,Greater Antillean Grackle,,20,-66.0527257,18.40283162,North America,Puerto Rico,PR,,Puerto Rico - San Juan,2014-05-09,23:18
Zenaida aurita,Animalia,PIGEONS_AND_DOVES_COLUMBIDAE,Zenaida Dove,,1,-66.0527257,18.40283162,North America,Puerto Rico,PR,,Puerto Rico - San Juan,2014-05-09,23:18
Margarops fuscatus,Animalia,THRASHERS_MIMIDAE,Pearly-eyed Thrasher,,1,-66.0527257,18.40283162,North America,Puerto Rico,PR,,Puerto Rico - San Juan,2014-05-09,23:19
Turdus plumbeus,Animalia,THRUSHES_TURDIDAE,Red-legged Thrush,,1,-66.0527257,18.40283162,North America,Puerto Rico,PR,,Puerto Rico - San Juan,2014-05-09,23:19
Mimus polyglottos,Animalia,THRASHERS_MIMIDAE,Northern Mockingbird,,1,-66.0527257,18.40283162,North America,Puerto Rico,PR,,Puerto Rico - San Juan,2014-05-10,10:41
Margarops fuscatus,Animalia,THRASHERS_MIMIDAE,Pearly-eyed Thrasher,,1,-66.0495242,18.4017424,North America,Puerto Rico,PR,,Puerto Rico - San Juan,2014-05-02,13:56
Anthracothorax dominicus,Animalia,HUMMINGBIRDS_TROCHILIDAE,Antillean Mango,,1,-66.05116079,18.40361044,North America,Puerto Rico,PR,,Puerto Rico - San Juan,2014-05-03,19:28
Margarops fuscatus,Animalia,THRASHERS_MIMIDAE,Pearly-eyed Thrasher,,1,-66.05123669,18.40369854,North America,Puerto Rico,PR,,Puerto Rico - San Juan,2014-05-03,19:28
Quiscalus niger,Animalia,ICTERIDS_ICTERIDAE,Greater Antillean Grackle,,10,-66.05133331,18.40384073,North America,Puerto Rico,PR,,Puerto Rico - San Juan,2014-05-03,19:28
Zenaida aurita,Animalia,PIGEONS_AND_DOVES_COLUMBIDAE,Zenaida Dove,,3,-66.05147549,18.40387807,North America,Puerto Rico,PR,,Puerto Rico - San Juan,2014-05-03,19:28
Nesospingus speculiferus,Animalia,NESOSPINGIDAE,Puerto Rican Tanager,,1,-65.8157372479,18.3105286054,North America,Puerto Rico,PR,,Puerto Rico - Río Grande,2014-03-31,
Margarops fuscatus,Animalia,THRASHERS_MIMIDAE,Pearly-eyed Thrasher,,1,-66.04973305,18.40172885,North America,Puerto Rico,PR,,Puerto Rico - San Juan,2014-03-25,18:06
Zenaida aurita,Animalia,PIGEONS_AND_DOVES_COLUMBIDAE,Zenaida Dove,,1,-66.041082,18.40725,North America,Puerto Rico,PR,,Puerto Rico - San Juan,2014-03-29,17:33
Zenaida aurita,Animalia,PIGEONS_AND_DOVES_COLUMBIDAE,Zenaida Dove,,1,-66.0441081,18.40815,North America,Puerto Rico,PR,,Puerto Rico - San Juan,2014-03-29,17:33
Tiaris bicolor,Animalia,TANAGERS_AND_ALLIES_THRAUPIDAE,Black-faced Grassquit,,2,-66.0441081,18.40815,North America,Puerto Rico,PR,,Puerto Rico - San Juan,2014-03-29,17:36
Quiscalus niger,Animalia,ICTERIDS_ICTERIDAE,Greater Antillean Grackle,,3,-66.0441081,18.40815,North America,Puerto Rico,PR,,Puerto Rico - San Juan,2014-03-29,17:36
Phoenicopterus ruber,Animalia,FLAMINGOS_PHOENICOPTERIDAE,American Flamingo,,1,-66.8883132917,18.482599305,North America,Puerto Rico,PR,,Puerto Rico - Camuy,2013-11-11,
Spindalis portoricensis,Animalia,SPINDALIDAE,Puerto Rican Spindalis,,11,-66.5307712559,18.2423327143,North America,Puerto Rico,PR,,Puerto Rico - Ciales,2013-11-11,
Myiarchus antillarum,Animalia,TYRANT_FLYCATCHERS_TYRANNIDAE,Puerto Rican Flycatcher,,1,-66.5307712559,18.2423327143,North America,Puerto Rico,PR,,Puerto Rico - Ciales,2013-11-11,
Euphonia musica,Animalia,FINCHES_FRINGILLIDAE,Antillean Euphonia,,2,-66.531052,18.243187,North America,Puerto Rico,PR,,Puerto Rico - Ciales,2013-11-09,16:31
Nesospingus speculiferus,Animalia,NESOSPINGIDAE,Puerto Rican Tanager,,1,-65.79478,18.292054,North America,Puerto Rico,PR,,Puerto Rico - Río Grande,2013-11-03,08:52
Setophaga angelae,Animalia,NEW_WORLD_WARBLERS_PARULIDAE,Elfin Woods Warbler,,2,-65.793973,18.292762,North America,Puerto Rico,PR,,Puerto Rico - Naguabo,2013-11-03,09:04
Setophaga angelae,Animalia,NEW_WORLD_WARBLERS_PARULIDAE,Elfin Woods Warbler,,2,-65.793658,18.293733,North America,Puerto Rico,PR,,Puerto Rico - Naguabo,2013-11-03,09:28
Nesospingus speculiferus,Animalia,NESOSPINGIDAE,Puerto Rican Tanager,,3,-65.793658,18.293733,North America,Puerto Rico,PR,,Puerto Rico - Naguabo,2013-11-03,09:28
Nesospingus speculiferus,Animalia,NESOSPINGIDAE,Puerto Rican Tanager,,3,-65.790643,18.286202,North America,Puerto Rico,PR,,Puerto Rico - Naguabo,2013-11-03,10:45
Setophaga angelae,Animalia,NEW_WORLD_WARBLERS_PARULIDAE,Elfin Woods Warbler,,1,-65.790643,18.286202,North America,Puerto Rico,PR,,Puerto Rico - Naguabo,2013-11-03,10:45
Thalasseus acuflavidus,Animalia,GULLS_TERNS_AND_SKIMMERS_LARIDAE,Cabot's Tern,,1,-65.877475,18.437061,North America,Puerto Rico,PR,,Puerto Rico - Loíza,2013-11-03,14:53
Calidris melanotos,Animalia,SANDPIPERS_AND_ALLIES_SCOLOPACIDAE,Pectoral Sandpiper,,33,-66.242294312,18.4506481533,North America,Puerto Rico,PR,,Puerto Rico - Toa Baja,2013-09-08,
Pluvialis dominica,Animalia,PLOVERS_CHARADRIIDAE,American Golden Plover,,23,-66.242294312,18.4506481533,North America,Puerto Rico,PR,,Puerto Rico - Toa Baja,2013-09-08,
Bartramia longicauda,Animalia,SANDPIPERS_AND_ALLIES_SCOLOPACIDAE,Upland Sandpiper,,1,-66.242294312,18.4506481533,North America,Puerto Rico,PR,,Puerto Rico - Toa Baja,2013-09-08,
Eulampis holosericeus,Animalia,HUMMINGBIRDS_TROCHILIDAE,Green-throated Carib,,2,-66.0495829587,18.4016311786,North America,Puerto Rico,PR,,Puerto Rico - San Juan,2013-08-30,
Calidris minutilla,Animalia,SANDPIPERS_AND_ALLIES_SCOLOPACIDAE,Least Sandpiper,,1,-66.2446546559,18.4511000267,North America,Puerto Rico,PR,,Puerto Rico - Toa Baja,2013-08-26,
Calidris melanotos,Animalia,SANDPIPERS_AND_ALLIES_SCOLOPACIDAE,Pectoral Sandpiper,,8,-66.2446546559,18.4511000267,North America,Puerto Rico,PR,,Puerto Rico - Toa Baja,2013-08-26,
Calidris minutilla,Animalia,SANDPIPERS_AND_ALLIES_SCOLOPACIDAE,Least Sandpiper,,100,-66.243209852837,18.449171752188,North America,Puerto Rico,PR,,Puerto Rico - Toa Baja,2013-08-19,
Calidris melanotos,Animalia,SANDPIPERS_AND_ALLIES_SCOLOPACIDAE,Pectoral Sandpiper,,60,-66.243209852837,18.449171752188,North America,Puerto Rico,PR,,Puerto Rico - Toa Baja,2013-08-19,
Megascops nudipes,Animalia,OWLS_STRIGIDAE,Puerto Rican Screech Owl,,1,-66.875380575657,17.949993592489,North America,Puerto Rico,PR,,Puerto Rico - Guánica,2013-04-12,
Dendroica angelae,Animalia,NEW_WORLD_WARBLERS_PARULIDAE,Elfin-woods Warbler,,5,-66.97837471962,18.122360322627,North America,Puerto Rico,PR,,Puerto Rico - San Germán,2013-04-12,
Dendroica adelaidae,Animalia,NEW_WORLD_WARBLERS_PARULIDAE,,,2,-66.89100176096,17.952279860403,North America,Puerto Rico,PR,,Puerto Rico - Guánica,2013-04-11,
Megascops nudipes,Animalia,OWLS_STRIGIDAE,Puerto Rican Screech Owl,,1,-66.904820501804,17.960526509749,North America,Puerto Rico,PR,,Puerto Rico - Guánica,2013-04-10,
Dendroica adelaidae,Animalia,NEW_WORLD_WARBLERS_PARULIDAE,,,10,-66.876925528049,17.981427184267,North America,Puerto Rico,PR,,Puerto Rico - Guánica,2013-04-10,
Melanerpes portoricensis,Animalia,WOODPECKERS_PICIDAE,Puerto Rican Woodpecker,,4,-66.876925528049,17.981427184267,North America,Puerto Rico,PR,,Puerto Rico - Guánica,2013-04-10,
Todus mexicanus,Animalia,TODIES_TODIDAE,Puerto Rican Tody,,10,-66.876925528049,17.981427184267,North America,Puerto Rico,PR,,Puerto Rico - Guánica,2013-04-10,
Antrostomus noctitherus,Animalia,NIGHTJARS_CAPRIMULGIDAE,Puerto Rican Nightjar,,10,-66.876925528049,17.981427184267,North America,Puerto Rico,PR,,Puerto Rico - Guánica,2013-04-10,
Dendroica adelaidae,Animalia,NEW_WORLD_WARBLERS_PARULIDAE,,,5,-66.868685781956,17.971875229713,North America,Puerto Rico,PR,,Puerto Rico - Guánica,2013-04-10,
Melanerpes portoricensis,Animalia,WOODPECKERS_PICIDAE,Puerto Rican Woodpecker,,2,-66.868685781956,17.971875229713,North America,Puerto Rico,PR,,Puerto Rico - Guánica,2013-04-10,
Todus mexicanus,Animalia,TODIES_TODIDAE,Puerto Rican Tody,,5,-66.868685781956,17.971875229713,North America,Puerto Rico,PR,,Puerto Rico - Guánica,2013-04-10,
Dendroica adelaidae,Animalia,NEW_WORLD_WARBLERS_PARULIDAE,,,20,-66.903275549412,17.954157844077,North America,Puerto Rico,PR,,Puerto Rico - Guánica,2013-04-10,
Melanerpes portoricensis,Animalia,WOODPECKERS_PICIDAE,Puerto Rican Woodpecker,,2,-66.903275549412,17.954157844077,North America,Puerto Rico,PR,,Puerto Rico - Guánica,2013-04-10,
Todus mexicanus,Animalia,TODIES_TODIDAE,Puerto Rican Tody,,11,-66.903189718723,17.954321146063,North America,Puerto Rico,PR,,Puerto Rico - Guánica,2013-04-10,
Herpestes auropunctatus,Animalia,MONGOOSES_HERPESTIDAE,Small Indian Mongoose,,1,-66.7169880867,18.169340064571,North America,Puerto Rico,PR,,Puerto Rico - Adjuntas,2013-04-09,
Ameiva exsul,Animalia,Teiidae,Common Puerto Rican Ameiva,,25,-65.771082937717,18.150582306819,North America,Puerto Rico,PR,,Puerto Rico - Humacao,2013-04-09,
Herpestes auropunctatus,Animalia,MONGOOSES_HERPESTIDAE,Small Indian Mongoose,,2,-65.772799551487,18.147564566438,North America,Puerto Rico,PR,,Puerto Rico - Humacao,2013-04-09,
Thalasseus maximus,Animalia,GULLS_TERNS_AND_SKIMMERS_LARIDAE,Royal Tern,,1,-65.772799551487,18.146504266909,North America,Puerto Rico,PR,,Puerto Rico - Humacao,2013-04-09,
Pelecanus occidentalis,Animalia,PELICANS_PELECANIDAE,Brown Pelican,,2,-65.772799551487,18.146504266909,North America,Puerto Rico,PR,,Puerto Rico - Humacao,2013-04-09,
Nesospingus speculiferus,Animalia,NESOSPINGIDAE,Puerto Rican Tanager,,6,-65.821379721165,18.330573406387,North America,Puerto Rico,PR,,Puerto Rico - Río Grande,2013-04-08,
Nesospingus speculiferus,Animalia,NESOSPINGIDAE,Puerto Rican Tanager,,3,-65.773314535618,18.312403426873,North America,Puerto Rico,PR,,Puerto Rico - Río Grande,2013-04-08,
Herpestes auropunctatus,Animalia,MONGOOSES_HERPESTIDAE,Small Indian Mongoose,,1,-65.785159170628,18.300098904767,North America,Puerto Rico,PR,,Puerto Rico - Río Grande,2013-04-08,
Nesospingus speculiferus,Animalia,NESOSPINGIDAE,Puerto Rican Tanager,,2,-65.785159170628,18.300098904767,North America,Puerto Rico,PR,,Puerto Rico - Río Grande,2013-04-08,
Nesospingus speculiferus,Animalia,NESOSPINGIDAE,Puerto Rican Tanager,,1,-65.766533911228,18.327069926551,North America,Puerto Rico,PR,,Puerto Rico - Río Grande,2013-04-08,
Fregata magnificens,Animalia,FRIGATEBIRDS_FREGATTIDAE,Magnificent Frigatebird,,5,-66.005741357803,18.448021023457,North America,Puerto Rico,PR,,Puerto Rico - Carolina,2013-04-07,
Megascops nudipes,Animalia,OWLS_STRIGIDAE,Puerto Rican Screech Owl,,3,-66.980109215001,18.142797925712,North America,Puerto Rico,PR,,Puerto Rico - San Germán,2013-05-04,
Accipiter striatus venator,Animalia,HAWKS_AND_EAGLES_ACCIPITRIDAE,Sharp-shinned Hawk ssp venator,,2,-66.994407177408,18.150265582627,North America,Puerto Rico,PR,,Puerto Rico - San Germán,2013-05-04,
Dendroica angelae,Animalia,NEW_WORLD_WARBLERS_PARULIDAE,Elfin-woods Warbler,,5,-66.994407177408,18.150265582627,North America,Puerto Rico,PR,,Puerto Rico - San Germán,2013-05-04,
Sterna dougallii,Animalia,GULLS_TERNS_AND_SKIMMERS_LARIDAE,Roseate Tern,,27,-67.188377378625,18.266318093329,North America,Puerto Rico,PR,,Puerto Rico - Mayagüez,2013-05-04,
Chroicocephalus philadelphia,Animalia,GULLS_TERNS_AND_SKIMMERS_LARIDAE,Bonaparte's Gull,,1,-67.188377378625,18.266318093329,North America,Puerto Rico,PR,,Puerto Rico - Mayagüez,2013-05-04,
Phoenicopterus ruber,Animalia,FLAMINGOS_PHOENICOPTERIDAE,American Flamingo,,1,-66.888599392259,18.482441924023,North America,Puerto Rico,PR,,Puerto Rico - Camuy,2013-05-07,
Quiscalus niger,Animalia,ICTERIDS_ICTERIDAE,Greater Antillean Grackle,,1,-66.139183047926,18.405807738693,North America,Puerto Rico,PR,,Puerto Rico - Bayamón,2013-04-28,
Tiaris bicolor,Animalia,TANAGERS_AND_ALLIES_THRAUPIDAE,Black-faced Grassquit,,1,-66.139183047926,18.405807738693,North America,Puerto Rico,PR,,Puerto Rico - Bayamón,2013-04-28,
Tyrannus dominicensis,Animalia,TYRANT_FLYCATCHERS_TYRANNIDAE,Grey Kingbird,,1,-66.139183047926,18.405807738693,North America,Puerto Rico,PR,,Puerto Rico - Bayamón,2013-04-28,
Coccyzus minor,Animalia,CUCKOOS_AND_COUCALS_CUCULIDAE,Mangrove Cuckoo,,5,-66.139183047926,18.405807738693,North America,Puerto Rico,PR,,Puerto Rico - Bayamón,2013-04-28,
Zenaida asiatica,Animalia,PIGEONS_AND_DOVES_COLUMBIDAE,White-winged Dove,,1,-66.139183047926,18.405807738693,North America,Puerto Rico,PR,,Puerto Rico - Bayamón,2013-04-28,
Zenaida aurita,Animalia,PIGEONS_AND_DOVES_COLUMBIDAE,Zenaida Dove,,1,-66.139183047926,18.405807738693,North America,Puerto Rico,PR,,Puerto Rico - Bayamón,2013-04-28,
Vermivora cyanoptera,Animalia,NEW_WORLD_WARBLERS_PARULIDAE,Blue-winged Warbler,,1,-67.156376838684,18.488705818673,North America,Puerto Rico,PR,,Puerto Rico - Aguadilla,2013-03-24,
Zenaida asiatica,Animalia,PIGEONS_AND_DOVES_COLUMBIDAE,White-winged Dove,,1,-66.135549545288,18.455755744136,North America,Puerto Rico,PR,,Puerto Rico - Cataño,2013-03-22,
Zenaida aurita,Animalia,PIGEONS_AND_DOVES_COLUMBIDAE,Zenaida Dove,,1,-66.135549545288,18.455755744136,North America,Puerto Rico,PR,,Puerto Rico - Cataño,2013-03-22,
Eulampis holosericeus,Animalia,HUMMINGBIRDS_TROCHILIDAE,Green-throated Carib,,1,-66.135549545288,18.455755744136,North America,Puerto Rico,PR,,Puerto Rico - Cataño,2013-03-22,
Todus mexicanus,Animalia,TODIES_TODIDAE,Puerto Rican Tody,,11,-66.869434118271,17.96948716035,North America,Puerto Rico,PR,,Puerto Rico - Guánica,2013-03-11,
Melanerpes portoricensis,Animalia,WOODPECKERS_PICIDAE,Puerto Rican Woodpecker,,3,-66.868801116943,17.970446474145,North America,Puerto Rico,PR,,Puerto Rico - Guánica,2013-03-11,
Antrostomus noctitherus,Animalia,NIGHTJARS_CAPRIMULGIDAE,Puerto Rican Nightjar,,5,-66.867084503174,17.955545906148,North America,Puerto Rico,PR,,Puerto Rico - Guánica,2013-03-11,
Fregata magnificens,Animalia,FRIGATEBIRDS_FREGATTIDAE,Magnificent Frigatebird,,1,-66.125839,18.44171,North America,Puerto Rico,PR,,Puerto Rico - Cataño,2013-03-03,14:44
Eulampis holosericeus,Animalia,HUMMINGBIRDS_TROCHILIDAE,Green-throated Carib,,1,-66.073837280273,18.379207404389,North America,Puerto Rico,PR,,Puerto Rico - San Juan,2013-02-17,
Fregata magnificens,Animalia,FRIGATEBIRDS_FREGATTIDAE,Magnificent Frigatebird,,1,-65.968351364136,18.45437166182,North America,Puerto Rico,PR,,Puerto Rico - Loíza,2013-02-18,
Pelecanus occidentalis,Animalia,PELICANS_PELECANIDAE,Brown Pelican,,1,-65.713949203491,18.186954210858,North America,Puerto Rico,PR,,Puerto Rico,2013-02-09,
Nesospingus speculiferus,Animalia,NESOSPINGIDAE,Puerto Rican Tanager,,11,-65.793342590332,18.266521857388,North America,Puerto Rico,PR,,Puerto Rico - Naguabo,2013-02-09,
Coccyzus vieilloti,Animalia,CUCKOOS_AND_COUCALS_CUCULIDAE,Puerto Rican Lizard Cuckoo,,10,-66.600344181061,18.447328952522,North America,Puerto Rico,PR,,Puerto Rico - Arecibo,2013-02-09,
Orthorhyncus cristatus,Animalia,HUMMINGBIRDS_TROCHILIDAE,Antillean Crested Hummingbird,,3,-65.319557189941,18.328455031713,North America,Puerto Rico,PR,,Puerto Rico - Culebra,2011-12-25,
Euphonia musica,Animalia,FINCHES_FRINGILLIDAE,Antillean Euphonia,,1,-66.491918563843,18.171623480127,North America,Puerto Rico,PR,,Puerto Rico - Orocovis,2013-01-19,
Dendroica adelaidae,Animalia,NEW_WORLD_WARBLERS_PARULIDAE,,,1,-66.874512733048,17.974895989152,North America,Puerto Rico,PR,,Puerto Rico - Guánica,2013-01-27,
Vireo latimeri,Animalia,VIREOS_VIREONIDAE,Puerto Rican Vireo,,1,-66.876205951485,17.981663025692,North America,Puerto Rico,PR,,Puerto Rico - Guánica,2013-01-27,
Melanerpes portoricensis,Animalia,WOODPECKERS_PICIDAE,Puerto Rican Woodpecker,,1,-66.876205951485,17.981663025692,North America,Puerto Rico,PR,,Puerto Rico - Guánica,2013-01-27,
Todus mexicanus,Animalia,TODIES_TODIDAE,Puerto Rican Tody,,1,-66.876205951485,17.981663025692,North America,Puerto Rico,PR,,Puerto Rico - Guánica,2013-01-27,
Dendroica adelaidae,Animalia,NEW_WORLD_WARBLERS_PARULIDAE,,,1,-66.872643977913,17.982007721037,North America,Puerto Rico,PR,,Puerto Rico - Guánica,2013-01-27,
Antrostomus noctitherus,Animalia,NIGHTJARS_CAPRIMULGIDAE,Puerto Rican Nightjar,,1,-66.879982501778,17.981028060393,North America,Puerto Rico,PR,,Puerto Rico - Guánica,2013-01-27,
Antrostomus noctitherus,Animalia,NIGHTJARS_CAPRIMULGIDAE,Puerto Rican Nightjar,,6,-66.870884448799,17.981803625518,North America,Puerto Rico,PR,,Puerto Rico - Guánica,2013-01-27,
Megascops nudipes,Animalia,OWLS_STRIGIDAE,Puerto Rican Screech Owl,,3,-66.870884448799,17.981803625518,North America,Puerto Rico,PR,,Puerto Rico - Guánica,2013-01-27,
Geothlypis trichas,Animalia,NEW_WORLD_WARBLERS_PARULIDAE,Common Yellowthroat,,3,-67.105030567618,18.012619377745,North America,Puerto Rico,PR,,Puerto Rico - Laguna Cartagena National Wildlife Refuge,2013-01-27,
Plegadis falcinellus,Animalia,IBISSES_AND_SPOONBILLS_THRESKIORNITHIDAE,Glossy Ibis,,5,-67.105710394972,18.013143130707,North America,Puerto Rico,PR,,Puerto Rico - Laguna Cartagena National Wildlife Refuge,2013-01-27,
Numenius hudsonicus hudsonicus,Animalia,SANDPIPERS_AND_ALLIES_SCOLOPACIDAE,Hudsonian Whimbrel ssp hudsonicus,,6,-67.172503248439,17.966380127681,North America,Puerto Rico,PR,,Puerto Rico - Cabo Rojo,2013-01-27,
Butorides virescens,Animalia,HERONS_ARDEIDAE,Green Heron,,3,-67.172503248439,17.966380127681,North America,Puerto Rico,PR,,Puerto Rico - Cabo Rojo,2013-01-27,
Anthracothorax dominicus,Animalia,HUMMINGBIRDS_TROCHILIDAE,Antillean Mango,,2,-67.210917361372,17.976384805373,North America,Puerto Rico,PR,,Puerto Rico - Cabo Rojo,2013-01-27,
Butorides virescens,Animalia,HERONS_ARDEIDAE,Green Heron,,1,-67.21071154112,17.973979787741,North America,Puerto Rico,PR,,Puerto Rico - Cabo Rojo,2013-01-27,
Dendroica adelaidae,Animalia,NEW_WORLD_WARBLERS_PARULIDAE,,,4,-66.752164964564,18.343246899663,North America,Puerto Rico,PR,,Puerto Rico - Arecibo,2013-01-23,
Spindalis portoricensis,Animalia,SPINDALIDAE,Puerto Rican Spindalis,,5,-66.489228308201,18.170563326619,North America,Puerto Rico,PR,,Puerto Rico - Orocovis,2013-01-19,
Mniotilta varia,Animalia,NEW_WORLD_WARBLERS_PARULIDAE,Black-and-white Warbler,,1,-66.489228308201,18.170563326619,North America,Puerto Rico,PR,,Puerto Rico - Orocovis,2013-01-19,
Dendroica caerulescens,Animalia,NEW_WORLD_WARBLERS_PARULIDAE,Black-throated blue warbler,,6,-66.489228308201,18.170563326619,North America,Puerto Rico,PR,,Puerto Rico - Orocovis,2013-01-19,
Thalasseus acuflavidus,Animalia,GULLS_TERNS_AND_SKIMMERS_LARIDAE,Cabot's Tern,,1,-65.87962818041,18.439279010176,North America,Puerto Rico,PR,,Puerto Rico,2013-01-13,
Vireo flavifrons,Animalia,VIREOS_VIREONIDAE,Yellow-throated Vireo,,1,-65.763595014778,18.339964809399,North America,Puerto Rico,PR,,Puerto Rico - Río Grande,2013-01-03,
Nesospingus speculiferus,Animalia,NESOSPINGIDAE,Puerto Rican Tanager,,1,-65.794025481009,18.297137913767,North America,Puerto Rico,PR,,Puerto Rico - Río Grande,2013-01-03,
Fregata magnificens,Animalia,FRIGATEBIRDS_FREGATTIDAE,Magnificent Frigatebird,,1,-66.125962256338,18.443187322005,North America,Puerto Rico,PR,,Puerto Rico - Cataño,2013-01-02,
Tyrannus dominicensis,Animalia,TYRANT_FLYCATCHERS_TYRANNIDAE,Grey Kingbird,,1,-66.055267810298,18.389984590544,North America,Puerto Rico,PR,,Puerto Rico - San Juan,2013-01-01,14:00
Tiaris bicolor,Animalia,TANAGERS_AND_ALLIES_THRAUPIDAE,Black-faced Grassquit,,1,-66.055267810298,18.389984590544,North America,Puerto Rico,PR,,Puerto Rico - San Juan,2013-01-01,14:00
Zenaida aurita,Animalia,PIGEONS_AND_DOVES_COLUMBIDAE,Zenaida Dove,,1,-66.055267810298,18.389984590544,North America,Puerto Rico,PR,,Puerto Rico - San Juan,2013-01-01,14:00
Turdus plumbeus,Animalia,THRUSHES_TURDIDAE,Red-legged Thrush,,1,-66.055267810298,18.389984590544,North America,Puerto Rico,PR,,Puerto Rico - San Juan,2013-01-01,14:00
Margarops fuscatus,Animalia,THRASHERS_MIMIDAE,Pearly-eyed Thrasher,,1,-66.055267810298,18.389984590544,North America,Puerto Rico,PR,,Puerto Rico - San Juan,2013-01-01,14:00
Tachybaptus dominicus,Animalia,GREBES_PODICIPEDIDAE,Least Grebe,,1,-66.055267810298,18.389984590544,North America,Puerto Rico,PR,,Puerto Rico - San Juan,2013-01-01,14:00
Mimus polyglottos,Animalia,THRASHERS_MIMIDAE,Northern Mockingbird,,1,-66.054081201291,18.399500780241,North America,Puerto Rico,PR,,Puerto Rico - San Juan,2013-01-01,09:00
Coccyzus minor,Animalia,CUCKOOS_AND_COUCALS_CUCULIDAE,Mangrove Cuckoo,,1,-66.053674546711,18.399611747051,North America,Puerto Rico,PR,,Puerto Rico - San Juan,2012-12-28,
Egretta caerulea,Animalia,HERONS_ARDEIDAE,Little Blue Heron,,4,-66.279858827329,17.951108832185,North America,Puerto Rico,PR,,Puerto Rico - Salinas,2012-12-21,
Sula leucogaster,Animalia,GANNETS_AND_BOOBIES_SULIDAE,Brown Booby,,1,-67.484316869813,18.389038375675,North America,Puerto Rico,PR,,Puerto Rico - Mayagüez,2012-12-26,
Sula leucogaster,Animalia,GANNETS_AND_BOOBIES_SULIDAE,Brown Booby,,1,-67.490023775026,18.385020603793,North America,Puerto Rico,PR,,Puerto Rico,2012-12-26,
Sula leucogaster,Animalia,GANNETS_AND_BOOBIES_SULIDAE,Brown Booby,,1,-67.4744932662,18.384596081684,North America,Puerto Rico,PR,,Puerto Rico,2012-12-27,
Puffinus lherminieri,Animalia,PETRELS_AND_SHEARWATERS_PROCELLARIIDAE,Audubon's Shearwater,,1,-67.443947,18.10815,North America,Puerto Rico,PR,,Puerto Rico,2012-12-26,11:25
Anthracothorax dominicus,Animalia,HUMMINGBIRDS_TROCHILIDAE,Antillean Mango,,6,-67.189636230469,17.982651756454,North America,Puerto Rico,PR,,Puerto Rico - Cabo Rojo,2012-12-01,09:00
Falco sparverius,Animalia,CARACAS_AND_FALCONS_FALCONIDAE,American Kestrel,,1,-66.888012171839,18.482633901104,North America,Puerto Rico,PR,,Puerto Rico - Camuy,2012-12-20,
Phoenicopterus ruber,Animalia,FLAMINGOS_PHOENICOPTERIDAE,American Flamingo,,1,-66.867699266004,18.489343116327,North America,Puerto Rico,PR,,Puerto Rico - Camuy,2012-12-20,
Parkesia noveboracensis,Animalia,NEW_WORLD_WARBLERS_PARULIDAE,Northern Waterthrush,,11,-65.964588761854,18.444159978044,North America,Puerto Rico,PR,,Puerto Rico - Loíza,2012-12-16,
Rallus crepitans caribaeus,Animalia,RAILS_RALLIDAE,Clapper Rail ssp caribaeus,,2,-67.18103440954604,18.0055805194,North America,Puerto Rico,PR,,Puerto Rico - Cabo Rojo,2012-12-01,08:00
Antrostomus noctitherus,Animalia,NIGHTJARS_CAPRIMULGIDAE,Puerto Rican Nightjar,,1,-66.919643253083,17.98242919355,North America,Puerto Rico,PR,,Puerto Rico - Guánica,2012-12-01,06:00
Megascops nudipes,Animalia,OWLS_STRIGIDAE,Puerto Rican Screech Owl,,1,-66.919643253083,17.98242919355,North America,Puerto Rico,PR,,Puerto Rico - Guánica,2012-12-01,06:00
Dendroica angelae,Animalia,NEW_WORLD_WARBLERS_PARULIDAE,Elfin-woods Warbler,,1,-66.984329223633,18.154986483048,North America,Puerto Rico,PR,,Puerto Rico - Maricao,2012-11-30,11:00
Calidris minutilla,Animalia,SANDPIPERS_AND_ALLIES_SCOLOPACIDAE,Least Sandpiper,,1,-65.775131465052,18.166376336263,North America,Puerto Rico,PR,,Puerto Rico - Humacao,2012-12-01,
Dendroica caerulescens,Animalia,NEW_WORLD_WARBLERS_PARULIDAE,Black-throated blue warbler,,20,-66.541857005213,18.210572178228,North America,Puerto Rico,PR,,Puerto Rico - Jayuya,2012-11-25,
Dendroica virens,Animalia,NEW_WORLD_WARBLERS_PARULIDAE,Black-throated Green Warbler,,2,-66.541857005213,18.210572178228,North America,Puerto Rico,PR,,Puerto Rico - Jayuya,2012-11-25,
Mniotilta varia,Animalia,NEW_WORLD_WARBLERS_PARULIDAE,Black-and-white Warbler,,2,-66.541857005213,18.210572178228,North America,Puerto Rico,PR,,Puerto Rico - Jayuya,2012-11-25,
Tyrannus caudifasciatus,Animalia,TYRANT_FLYCATCHERS_TYRANNIDAE,Loggerhead Kingbird,,1,-66.546620608424,18.210898305152,North America,Puerto Rico,PR,,Puerto Rico - Jayuya,2012-11-25,
Dendroica caerulescens,Animalia,NEW_WORLD_WARBLERS_PARULIDAE,Black-throated blue warbler,,2,-66.591560483503,18.172160010158,North America,Puerto Rico,PR,,Puerto Rico - Jayuya,2012-11-23,
Spindalis portoricensis,Animalia,SPINDALIDAE,Puerto Rican Spindalis,,8,-66.494907617307,18.179668883297,North America,Puerto Rico,PR,,Puerto Rico - Orocovis,2012-11-24,
Dendroica caerulescens,Animalia,NEW_WORLD_WARBLERS_PARULIDAE,Black-throated blue warbler,,35,-66.494907617307,18.179668883297,North America,Puerto Rico,PR,,Puerto Rico - Orocovis,2012-11-24,
Mniotilta varia,Animalia,NEW_WORLD_WARBLERS_PARULIDAE,Black-and-white Warbler,,3,-66.493105172849,18.177548667584,North America,Puerto Rico,PR,,Puerto Rico - Orocovis,2012-11-24,
Myiarchus antillarum,Animalia,TYRANT_FLYCATCHERS_TYRANNIDAE,Puerto Rican Flycatcher,,1,-66.495637178159,18.178527231884,North America,Puerto Rico,PR,,Puerto Rico - Orocovis,2012-11-24,
Dendroica discolor,Animalia,NEW_WORLD_WARBLERS_PARULIDAE,,,8,-66.427491989283,18.455882131622,North America,Puerto Rico,PR,,Puerto Rico - Vega Baja,2012-11-17,
Dendroica discolor,Animalia,NEW_WORLD_WARBLERS_PARULIDAE,,,3,-66.439422454981,18.477293260747,North America,Puerto Rico,PR,,Puerto Rico - Manatí,2012-11-17,
Quiscalus niger,Animalia,ICTERIDS_ICTERIDAE,Greater Antillean Grackle,,3,-67.266175351344,18.365822971986,North America,Puerto Rico,PR,,Puerto Rico - Rincón,2012-10-31,
Coereba flaveola,Animalia,TANAGERS_AND_ALLIES_THRAUPIDAE,Bananaquit,,12,-67.266175351344,18.365822971986,North America,Puerto Rico,PR,,Puerto Rico - Rincón,2012-10-31,
Quiscalus niger,Animalia,ICTERIDS_ICTERIDAE,Greater Antillean Grackle,,1,-67.268398363093,18.362970531825,North America,Puerto Rico,PR,,Puerto Rico - Rincón,2012-10-20,
Coereba flaveola,Animalia,TANAGERS_AND_ALLIES_THRAUPIDAE,Bananaquit,,30,-67.268398363093,18.362970531825,North America,Puerto Rico,PR,,Puerto Rico - Rincón,2012-10-20,
Myiopsitta monachus,Animalia,PARROTS_PSITTACIDAE,Monk Parakeet,,2,-66.0894899619,18.452509016,North America,Puerto Rico,PR,,Puerto Rico - San Juan,2012-10-12,
Mimus polyglottos,Animalia,THRASHERS_MIMIDAE,Northern Mockingbird,,1,-66.0894631398,18.4527227377,North America,Puerto Rico,PR,,Puerto Rico - San Juan,2012-10-12,
Zenaida asiatica,Animalia,PIGEONS_AND_DOVES_COLUMBIDAE,White-winged Dove,,2,-66.0894631398,18.4527227377,North America,Puerto Rico,PR,,Puerto Rico - San Juan,2012-10-12,
Zenaida aurita,Animalia,PIGEONS_AND_DOVES_COLUMBIDAE,Zenaida Dove,,4,-66.0894631398,18.4527227377,North America,Puerto Rico,PR,,Puerto Rico - San Juan,2012-10-12,
Quiscalus niger,Animalia,ICTERIDS_ICTERIDAE,Greater Antillean Grackle,,14,-66.0894631398,18.4527227377,North America,Puerto Rico,PR,,Puerto Rico - San Juan,2012-10-12,
Mimus polyglottos,Animalia,THRASHERS_MIMIDAE,Northern Mockingbird,,5,-66.0556243907,18.3873929636,North America,Puerto Rico,PR,,Puerto Rico - San Juan,2012-10-11,
Petrochelidon fulva,Animalia,SWALLOWS_HIRUNDINIDAE,Cave Swallow,,5,-66.0556243907,18.3873929636,North America,Puerto Rico,PR,,Puerto Rico - San Juan,2012-10-11,
Geotrygon montana,Animalia,PIGEONS_AND_DOVES_COLUMBIDAE,Ruddy Quail-Dove,,2,-66.0551201354,18.3859370631,North America,Puerto Rico,PR,,Puerto Rico - San Juan,2012-10-11,
Butorides virescens,Animalia,HERONS_ARDEIDAE,Green Heron,,1,-66.056037451,18.3919082136,North America,Puerto Rico,PR,,Puerto Rico - San Juan,2012-10-11,
Anolis cristatellus,Animalia,Polychrotidae,Common Puerto Rican Anole,,1,-66.056037451,18.3919082136,North America,Puerto Rico,PR,,Puerto Rico - San Juan,2012-10-11,
Tachybaptus dominicus,Animalia,GREBES_PODICIPEDIDAE,Least Grebe,,1,-66.056037451,18.3919082136,North America,Puerto Rico,PR,,Puerto Rico - San Juan,2012-10-11,
Iguana iguana,Animalia,Iguanidae,Common Green Iguana,,2,-66.056037451,18.3919082136,North America,Puerto Rico,PR,,Puerto Rico - San Juan,2012-10-11,
Brachymesia herbida,Animalia,SKIMMERS_LIBELLULIDAE,Tawny Pennant,,20,-66.056037451,18.3919082136,North America,Puerto Rico,PR,,Puerto Rico - San Juan,2012-10-11,
Megaceryle alcyon,Animalia,KINGFISHERS_ALCEDINIDAE,Belted Kingfisher,,1,-66.056037451,18.3919082136,North America,Puerto Rico,PR,,Puerto Rico - San Juan,2012-10-11,
Turdus plumbeus,Animalia,THRUSHES_TURDIDAE,Red-legged Thrush,,3,-66.056037451,18.3919082136,North America,Puerto Rico,PR,,Puerto Rico - San Juan,2012-10-11,
Ardea alba egretta,Animalia,HERONS_ARDEIDAE,American Great Egret,,2,-66.056037451,18.3919082136,North America,Puerto Rico,PR,,Puerto Rico - San Juan,2012-10-11,
Anthracothorax dominicus,Animalia,HUMMINGBIRDS_TROCHILIDAE,Antillean Mango,,1,-66.056037451,18.3919082136,North America,Puerto Rico,PR,,Puerto Rico - San Juan,2012-10-11,
Coereba flaveola portoricensis,Animalia,TANAGERS_AND_ALLIES_THRAUPIDAE,Bananaquit ssp portoricensis,,30,-66.056037451,18.3919082136,North America,Puerto Rico,PR,,Puerto Rico - San Juan,2012-10-11,
Margarops fuscatus,Animalia,THRASHERS_MIMIDAE,Pearly-eyed Thrasher,,1,-66.056037451,18.3919082136,North America,Puerto Rico,PR,,Puerto Rico - San Juan,2012-10-11,
Trachemys stejnegeri,Animalia,Emydidae,Puerto Rican Slider,,1,-66.056037451,18.3919082136,North America,Puerto Rico,PR,,Puerto Rico - San Juan,2012-10-11,
Gallinula galeata,Animalia,RAILS_RALLIDAE,Common Gallinule,,30,-66.056037451,18.3919082136,North America,Puerto Rico,PR,,Puerto Rico - San Juan,2012-10-11,
Larus delawarensis,Animalia,GULLS_TERNS_AND_SKIMMERS_LARIDAE,Ring-billed Gull,,2,-66.0931699526,18.4455425627,North America,Puerto Rico,PR,,Puerto Rico,2012-10-10,
Quiscalus niger,Animalia,ICTERIDS_ICTERIDAE,Greater Antillean Grackle,,1,-66.0902517092,18.4565340622,North America,Puerto Rico,PR,,Puerto Rico - San Juan,2012-10-10,
Lonchura punctulata,Animalia,WAXBILLS_MUNIAS_ALLIES_ESTRILDIDAE,Scaly-breasted Munia,,30,-66.0902087939,18.4565238853,North America,Puerto Rico,PR,,Puerto Rico - San Juan,2012-10-10,
Myiopsitta monachus,Animalia,PARROTS_PSITTACIDAE,Monk Parakeet,,5,-66.0902087939,18.4565238853,North America,Puerto Rico,PR,,Puerto Rico - San Juan,2012-10-10,
Zenaida asiatica,Animalia,PIGEONS_AND_DOVES_COLUMBIDAE,White-winged Dove,,2,-66.0902087939,18.4565238853,North America,Puerto Rico,PR,,Puerto Rico - San Juan,2012-10-10,
Columba livia,Animalia,PIGEONS_AND_DOVES_COLUMBIDAE,Rock Dove,,8,-66.0902087939,18.4565238853,North America,Puerto Rico,PR,,Puerto Rico - San Juan,2012-10-10,
Charadrius vociferus,Animalia,PLOVERS_CHARADRIIDAE,Killdeer,,8,-66.1,18.45,North America,Puerto Rico,PR,,Puerto Rico - San Juan,2012-10-10,
Actitis macularius,Animalia,SANDPIPERS_AND_ALLIES_SCOLOPACIDAE,Spotted Sandpiper,,1,-66.0902087939,18.4565238853,North America,Puerto Rico,PR,,Puerto Rico - San Juan,2012-10-10,
Tiaris bicolor,Animalia,TANAGERS_AND_ALLIES_THRAUPIDAE,Black-faced Grassquit,,1,-66.0899942172,18.4520052425,North America,Puerto Rico,PR,,Puerto Rico - San Juan,2012-10-10,
Tiaris bicolor,Animalia,TANAGERS_AND_ALLIES_THRAUPIDAE,Black-faced Grassquit,,1,-66.0899942172,18.4520052425,North America,Puerto Rico,PR,,Puerto Rico - San Juan,2012-10-10,
Tiaris bicolor,Animalia,TANAGERS_AND_ALLIES_THRAUPIDAE,Black-faced Grassquit,,2,-66.0902624381,18.4565645932,North America,Puerto Rico,PR,,Puerto Rico - San Juan,2012-10-10,
Columbina passerina portoricensis,Animalia,PIGEONS_AND_DOVES_COLUMBIDAE,Common Ground Dove ssp portoricensis,,2,-66.0902624381,18.4565645932,North America,Puerto Rico,PR,,Puerto Rico - San Juan,2012-10-10,
Coereba flaveola portoricensis,Animalia,TANAGERS_AND_ALLIES_THRAUPIDAE,Bananaquit ssp portoricensis,,1,-66.0902624381,18.4565645932,North America,Puerto Rico,PR,,Puerto Rico - San Juan,2012-10-10,
Mimus polyglottos,Animalia,THRASHERS_MIMIDAE,Northern Mockingbird,,2,-66.0902624381,18.4565645932,North America,Puerto Rico,PR,,Puerto Rico - San Juan,2012-10-10,
Tyrannus dominicensis,Animalia,TYRANT_FLYCATCHERS_TYRANNIDAE,Grey Kingbird,,5,-66.0902624381,18.4565645932,North America,Puerto Rico,PR,,Puerto Rico - San Juan,2012-10-10,
Anthracothorax dominicus,Animalia,HUMMINGBIRDS_TROCHILIDAE,Antillean Mango,,1,-66.0902624381,18.4565645932,North America,Puerto Rico,PR,,Puerto Rico - San Juan,2012-10-10,
Eulampis holosericeus,Animalia,HUMMINGBIRDS_TROCHILIDAE,Green-throated Carib,,1,-66.0902624381,18.4565645932,North America,Puerto Rico,PR,,Puerto Rico - San Juan,2012-10-10,
Tiaris bicolor,Animalia,TANAGERS_AND_ALLIES_THRAUPIDAE,Black-faced Grassquit,,1,-66.0913567793,18.453450407,North America,Puerto Rico,PR,,Puerto Rico - San Juan,2012-10-10,
Thalasseus acuflavidus acuflavidus,Animalia,GULLS_TERNS_AND_SKIMMERS_LARIDAE,Cabot's Tern ssp acuflavidus,,45,-65.7430000305,18.163684601,North America,Puerto Rico,PR,,Puerto Rico,2012-10-09,
Ameiva exsul,Animalia,Teiidae,Common Puerto Rican Ameiva,,12,-65.7411491275,18.1698463511,North America,Puerto Rico,PR,,Puerto Rico - Humacao,2012-10-09,
Iguana iguana,Animalia,Iguanidae,Common Green Iguana,,1,-65.7411491275,18.1698463511,North America,Puerto Rico,PR,,Puerto Rico - Humacao,2012-10-09,
Pelecanus occidentalis,Animalia,PELICANS_PELECANIDAE,Brown Pelican,,1,-65.7431232333,18.1635668226,North America,Puerto Rico,PR,,Puerto Rico,2012-10-09,
Arenaria interpres,Animalia,SANDPIPERS_AND_ALLIES_SCOLOPACIDAE,Ruddy Turnstone,,55,-65.7431232333,18.1635668226,North America,Puerto Rico,PR,,Puerto Rico,2012-10-09,
Calidris minutilla,Animalia,SANDPIPERS_AND_ALLIES_SCOLOPACIDAE,Least Sandpiper,,3,-65.7431232333,18.1635668226,North America,Puerto Rico,PR,,Puerto Rico,2012-10-09,
Fregata magnificens,Animalia,FRIGATEBIRDS_FREGATTIDAE,Magnificent Frigatebird,,5,-65.7431232333,18.1635668226,North America,Puerto Rico,PR,,Puerto Rico,2012-10-09,
Charadrius semipalmatus,Animalia,PLOVERS_CHARADRIIDAE,Semipalmated Plover,,4,-65.7431232333,18.1635668226,North America,Puerto Rico,PR,,Puerto Rico,2012-10-09,
Thalasseus maximus,Animalia,GULLS_TERNS_AND_SKIMMERS_LARIDAE,Royal Tern,,30,-65.7431232333,18.1635668226,North America,Puerto Rico,PR,,Puerto Rico,2012-10-09,
Actitis macularius,Animalia,SANDPIPERS_AND_ALLIES_SCOLOPACIDAE,Spotted Sandpiper,,5,-65.7431232333,18.1635668226,North America,Puerto Rico,PR,,Puerto Rico,2012-10-09,
Actitis macularius,Animalia,SANDPIPERS_AND_ALLIES_SCOLOPACIDAE,Spotted Sandpiper,,1,-66.0899298441,18.4564933543,North America,Puerto Rico,PR,,Puerto Rico - San Juan,2012-10-08,
Charadrius vociferus,Animalia,PLOVERS_CHARADRIIDAE,Killdeer,,2,-66.1,18.4,North America,Puerto Rico,PR,,Puerto Rico - San Juan,2012-10-08,
Mimus polyglottos,Animalia,THRASHERS_MIMIDAE,Northern Mockingbird,,3,-66.0944144976,18.449450732,North America,Puerto Rico,PR,,Puerto Rico - San Juan,2012-10-08,
Zenaida asiatica,Animalia,PIGEONS_AND_DOVES_COLUMBIDAE,White-winged Dove,,20,-66.0944144976,18.449450732,North America,Puerto Rico,PR,,Puerto Rico - San Juan,2012-10-08,
Tyrannus dominicensis,Animalia,TYRANT_FLYCATCHERS_TYRANNIDAE,Grey Kingbird,,2,-66.0894899619,18.4527481807,North America,Puerto Rico,PR,,Puerto Rico - San Juan,2012-10-08,
Turdus plumbeus,Animalia,THRUSHES_TURDIDAE,Red-legged Thrush,,2,-66.0894899619,18.4527481807,North America,Puerto Rico,PR,,Puerto Rico - San Juan,2012-10-08,
Quiscalus niger,Animalia,ICTERIDS_ICTERIDAE,Greater Antillean Grackle,,5,-66.0896911009,18.4534952147,North America,Puerto Rico,PR,,Puerto Rico - San Juan,2012-10-08,
Zenaida aurita,Animalia,PIGEONS_AND_DOVES_COLUMBIDAE,Zenaida Dove,,2,-66.0896911009,18.4534952147,North America,Puerto Rico,PR,,Puerto Rico - San Juan,2012-10-08,
Ardea alba egretta,Animalia,HERONS_ARDEIDAE,American Great Egret,,1,-66.0908927306,18.45544922,North America,Puerto Rico,PR,,Puerto Rico - San Juan,2012-10-08,
Thalasseus acuflavidus,Animalia,GULLS_TERNS_AND_SKIMMERS_LARIDAE,Cabot's Tern,,46,-65.87759,18.43899,North America,Puerto Rico,PR,,Puerto Rico,2012-10-06,17:08
Nesospingus speculiferus,Animalia,NESOSPINGIDAE,Puerto Rican Tanager,,1,-65.785467,18.2672,North America,Puerto Rico,PR,,Puerto Rico - Naguabo,2012-10-06,12:34
Nesospingus speculiferus,Animalia,NESOSPINGIDAE,Puerto Rican Tanager,,6,-65.78933,18.281963,North America,Puerto Rico,PR,,Puerto Rico - Naguabo,2012-10-06,10:41
Nesospingus speculiferus,Animalia,NESOSPINGIDAE,Puerto Rican Tanager,,13,-65.7698998868,18.2808231407,North America,Puerto Rico,PR,,Puerto Rico - Río Grande,2012-09-30,
Nesospingus speculiferus,Animalia,NESOSPINGIDAE,Puerto Rican Tanager,,13,-65.7698998868,18.2808231407,North America,Puerto Rico,PR,,Puerto Rico - Río Grande,2012-09-30,
Calidris minutilla,Animalia,SANDPIPERS_AND_ALLIES_SCOLOPACIDAE,Least Sandpiper,,20,-66.2421417311,18.4487225643,North America,Puerto Rico,PR,,Puerto Rico - Toa Baja,2012-09-15,
Calidris melanotos,Animalia,SANDPIPERS_AND_ALLIES_SCOLOPACIDAE,Pectoral Sandpiper,,10,-66.2421417311,18.4487225643,North America,Puerto Rico,PR,,Puerto Rico - Toa Baja,2012-09-15,
Pluvialis dominica,Animalia,PLOVERS_CHARADRIIDAE,American Golden Plover,,2,-66.2452960148,18.4462799586,North America,Puerto Rico,PR,,Puerto Rico - Toa Baja,2012-09-15,
Pluvialis dominica,Animalia,PLOVERS_CHARADRIIDAE,American Golden Plover,,1,-66.2403822079,18.4486614996,North America,Puerto Rico,PR,,Puerto Rico - Toa Baja,2012-09-15,
Pluvialis dominica,Animalia,PLOVERS_CHARADRIIDAE,American Golden Plover,,10,-66.2432146206,18.453058104,North America,Puerto Rico,PR,,Puerto Rico - Toa Baja,2012-09-15,
Calidris subruficollis,Animalia,SANDPIPERS_AND_ALLIES_SCOLOPACIDAE,Buff-breasted Sandpiper,,1,-66.2405860557,18.4526968132,North America,Puerto Rico,PR,,Puerto Rico - Toa Baja,2012-09-15,
Ammodramus savannarum,Animalia,PASSERELLIDAE,Grasshopper Sparrow,,1,-66.5208876299,18.4709283271,North America,Puerto Rico,PR,,Puerto Rico - Manatí,2012-09-15,
Ammodramus savannarum,Animalia,PASSERELLIDAE,Grasshopper Sparrow,,5,-66.5558421765,18.4703381096,North America,Puerto Rico,PR,,Puerto Rico - Barceloneta,2012-09-15,
Eudocimus albus,Animalia,IBISSES_AND_SPOONBILLS_THRESKIORNITHIDAE,American White Ibis,,1,-66.572364584,18.4767489782,North America,Puerto Rico,PR,,Puerto Rico - Barceloneta,2012-09-15,
Actitis macularius,Animalia,SANDPIPERS_AND_ALLIES_SCOLOPACIDAE,Spotted Sandpiper,,6,-65.7672686577,18.147561704,North America,Puerto Rico,PR,,Puerto Rico,2012-07-19,
Pelecanus occidentalis,Animalia,PELICANS_PELECANIDAE,Brown Pelican,,8,-65.7657237053,18.144747818,North America,Puerto Rico,PR,,Puerto Rico,2012-07-19,
Quiscalus niger,Animalia,ICTERIDS_ICTERIDAE,Greater Antillean Grackle,,40,-66.1088426113,18.4670337593,North America,Puerto Rico,PR,,Puerto Rico - San Juan,2012-07-19,
Mimus polyglottos,Animalia,THRASHERS_MIMIDAE,Northern Mockingbird,,1,-66.1088426113,18.4670337593,North America,Puerto Rico,PR,,Puerto Rico - San Juan,2012-07-19,
Tyrannus dominicensis,Animalia,TYRANT_FLYCATCHERS_TYRANNIDAE,Grey Kingbird,,10,-66.0701812506,18.4541245534,North America,Puerto Rico,PR,,Puerto Rico - San Juan,2012-07-19,
Fregata magnificens,Animalia,FRIGATEBIRDS_FREGATTIDAE,Magnificent Frigatebird,,4,-66.1197806597,18.4583734533,North America,Puerto Rico,PR,,Puerto Rico,2012-07-19,
Zenaida aurita,Animalia,PIGEONS_AND_DOVES_COLUMBIDAE,Zenaida Dove,,1,-66.082095623,18.4612280443,North America,Puerto Rico,PR,,Puerto Rico - San Juan,2012-07-19,
Turdus plumbeus,Animalia,THRUSHES_TURDIDAE,Red-legged Thrush,,1,-66.082095623,18.4612280443,North America,Puerto Rico,PR,,Puerto Rico - San Juan,2012-07-19,
Turdus plumbeus,Animalia,THRUSHES_TURDIDAE,Red-legged Thrush,,1,-66.0747195482,18.4573252315,North America,Puerto Rico,PR,,Puerto Rico - San Juan,2012-07-19,
Coccyzus vieilloti,Animalia,CUCKOOS_AND_COUCALS_CUCULIDAE,Puerto Rican Lizard Cuckoo,,12,-66.5962083535,18.4438956711,North America,Puerto Rico,PR,,Puerto Rico - Arecibo,2012-06-10,
Quiscalus niger,Animalia,ICTERIDS_ICTERIDAE,Greater Antillean Grackle,,6,-65.4252147674,18.1080844645,North America,Puerto Rico,PR,,Puerto Rico,2012-06-02,
Columba livia domestica,Animalia,PIGEONS_AND_DOVES_COLUMBIDAE,Feral Pigeon,,5,-66.0113303912,18.4435884447,North America,Puerto Rico,PR,,Puerto Rico - Carolina,2012-06-01,08:00
Eulampis holosericeus,Animalia,HUMMINGBIRDS_TROCHILIDAE,Green-throated Carib,,1,-66.013304497,18.4439141325,North America,Puerto Rico,PR,,Puerto Rico - Carolina,2012-06-01,08:00
Phoenicopterus ruber,Animalia,FLAMINGOS_PHOENICOPTERIDAE,American Flamingo,,1,-66.0005586398,18.4461125096,North America,Puerto Rico,PR,,Puerto Rico - Carolina,2012-06-01,08:00
Zenaida asiatica,Animalia,PIGEONS_AND_DOVES_COLUMBIDAE,White-winged Dove,,5,-66.0024469149,18.4457054048,North America,Puerto Rico,PR,,Puerto Rico - Carolina,2012-06-01,08:00
Fregata magnificens,Animalia,FRIGATEBIRDS_FREGATTIDAE,Magnificent Frigatebird,,6,-66.0009877932,18.4470081366,North America,Puerto Rico,PR,,Puerto Rico - Carolina,2012-06-01,08:00
Quiscalus niger,Animalia,ICTERIDS_ICTERIDAE,Greater Antillean Grackle,,200,-66.0009877932,18.4470081366,North America,Puerto Rico,PR,,Puerto Rico - Carolina,2012-06-01,08:00
Tyrannus dominicensis,Animalia,TYRANT_FLYCATCHERS_TYRANNIDAE,Grey Kingbird,,20,-66.0009877932,18.4470081366,North America,Puerto Rico,PR,,Puerto Rico - Carolina,2012-06-01,08:00
Zenaida aurita,Animalia,PIGEONS_AND_DOVES_COLUMBIDAE,Zenaida Dove,,1,-66.0009877932,18.4470081366,North America,Puerto Rico,PR,,Puerto Rico - Carolina,2012-06-01,08:00
Turdus plumbeus,Animalia,THRUSHES_TURDIDAE,Red-legged Thrush,,2,-66.0009877932,18.4470081366,North America,Puerto Rico,PR,,Puerto Rico - Carolina,2012-06-01,08:00
Margarops fuscatus,Animalia,THRASHERS_MIMIDAE,Pearly-eyed Thrasher,,1,-66.0535699448,18.3996441622,North America,Puerto Rico,PR,,Puerto Rico - San Juan,2012-05-28,
Zenaida aurita,Animalia,PIGEONS_AND_DOVES_COLUMBIDAE,Zenaida Dove,,1,-66.0535699448,18.3996441622,North America,Puerto Rico,PR,,Puerto Rico - San Juan,2012-05-28,
Zenaida asiatica,Animalia,PIGEONS_AND_DOVES_COLUMBIDAE,White-winged Dove,,1,-66.0535699448,18.3996441622,North America,Puerto Rico,PR,,Puerto Rico - San Juan,2012-05-28,
Anthracothorax dominicus,Animalia,HUMMINGBIRDS_TROCHILIDAE,Antillean Mango,,1,-66.0535699448,18.3996441622,North America,Puerto Rico,PR,,Puerto Rico - San Juan,2012-05-28,
Tyrannus caudifasciatus,Animalia,TYRANT_FLYCATCHERS_TYRANNIDAE,Loggerhead Kingbird,,1,-66.5828126988,18.2732291351,North America,Puerto Rico,PR,,Puerto Rico - Jayuya,2012-05-28,
Tachybaptus dominicus,Animalia,GREBES_PODICIPEDIDAE,Least Grebe,,1,-66.5828985295,18.2779154613,North America,Puerto Rico,PR,,Puerto Rico - Jayuya,2012-05-29,
Ammodramus savannarum,Animalia,PASSERELLIDAE,Grasshopper Sparrow,,12,-66.5553815164,18.4719475418,North America,Puerto Rico,PR,,Puerto Rico - Barceloneta,2012-05-13,
Todus mexicanus,Animalia,TODIES_TODIDAE,Puerto Rican Tody,,2,-66.8669056504,17.9487165204,North America,Puerto Rico,PR,,Puerto Rico - Guánica,2012-04-22,
Dendroica adelaidae,Animalia,NEW_WORLD_WARBLERS_PARULIDAE,,,8,-66.8669056504,17.9487165204,North America,Puerto Rico,PR,,Puerto Rico - Guánica,2012-04-22,
Dendroica angelae,Animalia,NEW_WORLD_WARBLERS_PARULIDAE,Elfin-woods Warbler,,4,-66.992621582,18.1929315297,North America,Puerto Rico,PR,,Puerto Rico - Maricao,2012-04-21,
Antrostomus noctitherus,Animalia,NIGHTJARS_CAPRIMULGIDAE,Puerto Rican Nightjar,,1,-66.8669056504,17.9944365895,North America,Puerto Rico,PR,,Puerto Rico - Guánica,2012-04-20,
Nesospingus speculiferus,Animalia,NESOSPINGIDAE,Puerto Rican Tanager,,2,-65.813742528,18.3463286882,North America,Puerto Rico,PR,,Puerto Rico - Río Grande,2012-04-20,
Tringa melanoleuca,Animalia,SANDPIPERS_AND_ALLIES_SCOLOPACIDAE,Greater Yellowlegs,,10,-66.2439384421,18.4497808866,North America,Puerto Rico,PR,,Puerto Rico - Toa Baja,2012-03-25,
Calidris minutilla,Animalia,SANDPIPERS_AND_ALLIES_SCOLOPACIDAE,Least Sandpiper,,25,-66.2439384421,18.4497808866,North America,Puerto Rico,PR,,Puerto Rico - Toa Baja,2012-03-25,
Zenaida aurita,Animalia,PIGEONS_AND_DOVES_COLUMBIDAE,Zenaida Dove,,1,-66.0530662537,18.403834847,North America,Puerto Rico,PR,,Puerto Rico - San Juan,2012-03-25,12:00
Ixobrychus exilis,Animalia,HERONS_ARDEIDAE,Least Bittern,,1,-66.6396375552,18.4694245069,North America,Puerto Rico,PR,,Puerto Rico - Arecibo,2012-03-18,
Turdus plumbeus,Animalia,THRUSHES_TURDIDAE,Red-legged Thrush,,12,-66.0577401655,18.3865152801,North America,Puerto Rico,PR,,Puerto Rico - San Juan,2012-03-24,
Euphonia musica,Animalia,FINCHES_FRINGILLIDAE,Antillean Euphonia,,1,-66.0742196577,18.1192377918,North America,Puerto Rico,PR,,Puerto Rico - Cayey,2012-03-24,
Contopus latirostris blancoi,Animalia,TYRANT_FLYCATCHERS_TYRANNIDAE,Lesser Antillean Pewee ssp blancoi,,8,-66.7488128801,18.3432714318,North America,Puerto Rico,PR,,Puerto Rico - Arecibo,2012-03-19,
Thalasseus acuflavidus acuflavidus,Animalia,GULLS_TERNS_AND_SKIMMERS_LARIDAE,Cabot's Tern ssp acuflavidus,,2,-66.5353004561,18.4808482329,North America,Puerto Rico,PR,,Puerto Rico - Barceloneta,2012-03-12,
Euphonia musica,Animalia,FINCHES_FRINGILLIDAE,Antillean Euphonia,,1,-66.0599441691,18.101302775,North America,Puerto Rico,PR,,Puerto Rico - Guayama,2012-03-10,
Chlorostilbon maugaeus,Animalia,HUMMINGBIRDS_TROCHILIDAE,Puerto Rican Emerald,,5,-66.0599441691,18.101302775,North America,Puerto Rico,PR,,Puerto Rico - Guayama,2012-03-10,
Nesospingus speculiferus,Animalia,NESOSPINGIDAE,Puerto Rican Tanager,,14,-65.8415794373,18.2787472631,North America,Puerto Rico,PR,,Puerto Rico - Río Grande,2012-03-04,
Turdus plumbeus,Animalia,THRUSHES_TURDIDAE,Red-legged Thrush,,6,-66.135635,18.405141,North America,Puerto Rico,PR,,Puerto Rico - Bayamón,2012-02-26,16:40
Margarops fuscatus,Animalia,THRASHERS_MIMIDAE,Pearly-eyed Thrasher,,10,-66.135635,18.405141,North America,Puerto Rico,PR,,Puerto Rico - Bayamón,2012-02-26,16:40
Coccyzus minor,Animalia,CUCKOOS_AND_COUCALS_CUCULIDAE,Mangrove Cuckoo,,1,-66.135635,18.405141,North America,Puerto Rico,PR,,Puerto Rico - Bayamón,2012-02-26,16:38
Patagioenas leucocephala,Animalia,PIGEONS_AND_DOVES_COLUMBIDAE,White-crowned Pigeon,,5,-66.135635,18.405135,North America,Puerto Rico,PR,,Puerto Rico - Bayamón,2012-02-26,16:37
Zenaida aurita,Animalia,PIGEONS_AND_DOVES_COLUMBIDAE,Zenaida Dove,,5,-66.133644,18.402254,North America,Puerto Rico,PR,,Puerto Rico - Bayamón,2012-02-26,15:19
Coccyzus minor,Animalia,CUCKOOS_AND_COUCALS_CUCULIDAE,Mangrove Cuckoo,,1,-66.133644,18.402254,North America,Puerto Rico,PR,,Puerto Rico - Bayamón,2012-02-26,15:17
Phoenicopterus ruber,Animalia,FLAMINGOS_PHOENICOPTERIDAE,American Flamingo,,1,-66.8682118309,18.4891648411,North America,Puerto Rico,PR,,Puerto Rico - Camuy,2012-02-11,
Anas carolinensis,Animalia,DUCKS_GEESE_AND_SWANS_ANATIDAE,Green-winged Teal,,1,-66.8889184845,18.4825712802,North America,Puerto Rico,PR,,Puerto Rico - Camuy,2012-02-11,
Todus mexicanus,Animalia,TODIES_TODIDAE,Puerto Rican Tody,,3,-66.8678569794,17.9654253272,North America,Puerto Rico,PR,,Puerto Rico - Guánica,2012-02-05,
Icterus icterus,Animalia,ICTERIDS_ICTERIDAE,Venezuelan Troupial,,1,-66.8645954132,17.9611796933,North America,Puerto Rico,PR,,Puerto Rico - Guánica,2012-02-05,
Dendroica adelaidae,Animalia,NEW_WORLD_WARBLERS_PARULIDAE,,,15,-66.8645954132,17.9611796933,North America,Puerto Rico,PR,,Puerto Rico - Guánica,2012-02-05,
Megascops nudipes,Animalia,OWLS_STRIGIDAE,Puerto Rican Screech Owl,,1,-66.8469142914,17.9569339573,North America,Puerto Rico,PR,,Puerto Rico - Guayanilla,2012-02-04,
Megascops nudipes,Animalia,OWLS_STRIGIDAE,Puerto Rican Screech Owl,,1,-66.8462276459,17.9617512269,North America,Puerto Rico,PR,,Puerto Rico - Yauco,2012-02-04,
Megascops nudipes,Animalia,OWLS_STRIGIDAE,Puerto Rican Screech Owl,,1,-66.8518924713,17.9708955129,North America,Puerto Rico,PR,,Puerto Rico - Yauco,2012-02-04,
Megascops nudipes,Animalia,OWLS_STRIGIDAE,Puerto Rican Screech Owl,,1,-66.8538665772,17.9735080791,North America,Puerto Rico,PR,,Puerto Rico - Yauco,2012-02-04,
Megascops nudipes,Animalia,OWLS_STRIGIDAE,Puerto Rican Screech Owl,,1,-66.8554973602,17.9753858372,North America,Puerto Rico,PR,,Puerto Rico - Yauco,2012-02-04,
Antrostomus noctitherus,Animalia,NIGHTJARS_CAPRIMULGIDAE,Puerto Rican Nightjar,,1,-66.8577289581,17.9742428564,North America,Puerto Rico,PR,,Puerto Rico - Yauco,2012-02-04,
Antrostomus noctitherus,Animalia,NIGHTJARS_CAPRIMULGIDAE,Puerto Rican Nightjar,,2,-66.8579864502,17.9596283785,North America,Puerto Rico,PR,,Puerto Rico - Yauco,2012-02-04,
Antrostomus noctitherus,Animalia,NIGHTJARS_CAPRIMULGIDAE,Puerto Rican Nightjar,,2,-66.84923172,17.9569339573,North America,Puerto Rico,PR,,Puerto Rico - Yauco,2012-02-04,
Antrostomus noctitherus,Animalia,NIGHTJARS_CAPRIMULGIDAE,Puerto Rican Nightjar,,2,-66.8508625031,17.971630301,North America,Puerto Rico,PR,,Puerto Rico - Yauco,2012-02-04,
Antrostomus noctitherus,Animalia,NIGHTJARS_CAPRIMULGIDAE,Puerto Rican Nightjar,,3,-66.8535232544,17.9739162891,North America,Puerto Rico,PR,,Puerto Rico - Yauco,2012-02-04,
Antrostomus noctitherus,Animalia,NIGHTJARS_CAPRIMULGIDAE,Puerto Rican Nightjar,,2,-66.8506908417,17.9784065366,North America,Puerto Rico,PR,,Puerto Rico - Yauco,2012-02-04,
Antrostomus noctitherus,Animalia,NIGHTJARS_CAPRIMULGIDAE,Puerto Rican Nightjar,,3,-66.8621921539,17.9758756838,North America,Puerto Rico,PR,,Puerto Rico - Yauco,2012-02-04,
Antrostomus noctitherus,Animalia,NIGHTJARS_CAPRIMULGIDAE,Puerto Rican Nightjar,,1,-66.8644237518,17.9643639283,North America,Puerto Rico,PR,,Puerto Rico - Guánica,2012-02-04,
Antrostomus noctitherus,Animalia,NIGHTJARS_CAPRIMULGIDAE,Puerto Rican Nightjar,,3,-66.8658828735,17.9551376537,North America,Puerto Rico,PR,,Puerto Rico - Guánica,2012-02-04,
Pelecanus occidentalis,Animalia,PELICANS_PELECANIDAE,Brown Pelican,,4,-65.7800126546,18.1360892133,North America,Puerto Rico,PR,,Puerto Rico - Humacao,2012-01-21,
Chlorostilbon maugaeus,Animalia,HUMMINGBIRDS_TROCHILIDAE,Puerto Rican Emerald,,4,-66.0822654241,18.1128003973,North America,Puerto Rico,PR,,Puerto Rico - Cayey,2012-01-21,
Zenaida aurita,Animalia,PIGEONS_AND_DOVES_COLUMBIDAE,Zenaida Dove,,10,-66.056793,18.391477,North America,Puerto Rico,PR,,Puerto Rico - San Juan,2012-01-14,09:13
Mimus polyglottos,Animalia,THRASHERS_MIMIDAE,Northern Mockingbird,,1,-66.056793,18.391477,North America,Puerto Rico,PR,,Puerto Rico - San Juan,2012-01-14,09:13
Quiscalus niger,Animalia,ICTERIDS_ICTERIDAE,Greater Antillean Grackle,,4,-66.056793,18.391477,North America,Puerto Rico,PR,,Puerto Rico - San Juan,2012-01-14,09:10
Turdus plumbeus,Animalia,THRUSHES_TURDIDAE,Red-legged Thrush,,5,-66.056791,18.391478,North America,Puerto Rico,PR,,Puerto Rico - San Juan,2012-01-14,09:10
Dendroica angelae,Animalia,NEW_WORLD_WARBLERS_PARULIDAE,Elfin-woods Warbler,,4,-66.9746701699,18.1410355032,North America,Puerto Rico,PR,,Puerto Rico - Sabana Grande,2012-01-07,
Quiscalus niger,Animalia,ICTERIDS_ICTERIDAE,Greater Antillean Grackle,,20,-67.2074000817,18.2942275026,North America,Puerto Rico,PR,,Puerto Rico - Añasco,2012-01-07,
Coereba flaveola,Animalia,TANAGERS_AND_ALLIES_THRAUPIDAE,Bananaquit,,15,-67.2063271981,18.2987910257,North America,Puerto Rico,PR,,Puerto Rico - Añasco,2012-01-07,
Tyrannus dominicensis,Animalia,TYRANT_FLYCATCHERS_TYRANNIDAE,Grey Kingbird,,1,-66.1408405965,18.4065668139,North America,Puerto Rico,PR,,Puerto Rico - Bayamón,2012-01-04,
Coccyzus minor,Animalia,CUCKOOS_AND_COUCALS_CUCULIDAE,Mangrove Cuckoo,,1,-66.1408405965,18.4065668139,North America,Puerto Rico,PR,,Puerto Rico - Bayamón,2012-01-04,
Nesospingus speculiferus,Animalia,NESOSPINGIDAE,Puerto Rican Tanager,,1,-65.819198395,18.3209639051,North America,Puerto Rico,PR,,Puerto Rico - Río Grande,2012-01-01,
Turdus plumbeus,Animalia,THRUSHES_TURDIDAE,Red-legged Thrush,,1,-66.0527866137,18.403442689,North America,Puerto Rico,PR,,Puerto Rico - San Juan,2012-01-01,
Quiscalus niger,Animalia,ICTERIDS_ICTERIDAE,Greater Antillean Grackle,,1,-66.0527866137,18.403442689,North America,Puerto Rico,PR,,Puerto Rico - San Juan,2012-01-01,
Zenaida asiatica,Animalia,PIGEONS_AND_DOVES_COLUMBIDAE,White-winged Dove,,1,-66.0527866137,18.403442689,North America,Puerto Rico,PR,,Puerto Rico - San Juan,2012-01-01,
Zenaida asiatica,Animalia,PIGEONS_AND_DOVES_COLUMBIDAE,White-winged Dove,,1,-66.0528342059,18.4035551942,North America,Puerto Rico,PR,,Puerto Rico - San Juan,2012-01-01,
Quiscalus niger,Animalia,ICTERIDS_ICTERIDAE,Greater Antillean Grackle,,1,-66.0528342059,18.4035551942,North America,Puerto Rico,PR,,Puerto Rico - San Juan,2012-01-01,
Orthorhyncus cristatus,Animalia,HUMMINGBIRDS_TROCHILIDAE,Antillean Crested Hummingbird,,4,-65.3208875656,18.3296364362,North America,Puerto Rico,PR,,Puerto Rico - Culebra,2011-12-24,
Zenaida aurita,Animalia,PIGEONS_AND_DOVES_COLUMBIDAE,Zenaida Dove,,19,-66.1430483115,18.4062218425,North America,Puerto Rico,PR,,Puerto Rico - Bayamón,2011-12-22,
Quiscalus niger,Animalia,ICTERIDS_ICTERIDAE,Greater Antillean Grackle,,8,-66.1430483115,18.4062218425,North America,Puerto Rico,PR,,Puerto Rico - Bayamón,2011-12-22,
Coccyzus minor,Animalia,CUCKOOS_AND_COUCALS_CUCULIDAE,Mangrove Cuckoo,,8,-66.1430483115,18.4062218425,North America,Puerto Rico,PR,,Puerto Rico - Bayamón,2011-12-22,
Anthracothorax dominicus,Animalia,HUMMINGBIRDS_TROCHILIDAE,Antillean Mango,,1,-66.1400656951,18.4093165248,North America,Puerto Rico,PR,,Puerto Rico - Bayamón,2011-12-22,
Anthracothorax dominicus,Animalia,HUMMINGBIRDS_TROCHILIDAE,Antillean Mango,,1,-66.1425705805,18.408193428,North America,Puerto Rico,PR,,Puerto Rico - Bayamón,2011-12-18,
Eulampis holosericeus,Animalia,HUMMINGBIRDS_TROCHILIDAE,Green-throated Carib,,1,-66.1425705805,18.408193428,North America,Puerto Rico,PR,,Puerto Rico - Bayamón,2011-12-18,
Margarops fuscatus,Animalia,THRASHERS_MIMIDAE,Pearly-eyed Thrasher,,2,-66.1425705805,18.408193428,North America,Puerto Rico,PR,,Puerto Rico - Bayamón,2011-12-18,
Nesospingus speculiferus,Animalia,NESOSPINGIDAE,Puerto Rican Tanager,,8,-65.7968046432,18.263597428,North America,Puerto Rico,PR,,Puerto Rico - Naguabo,2011-12-04,
Falco columbarius,Animalia,CARACAS_AND_FALCONS_FALCONIDAE,Merlin,,1,-66.000482,18.446943,North America,Puerto Rico,PR,,Puerto Rico - Carolina,2011-12-03,20:08
Vermivora chrysoptera,Animalia,NEW_WORLD_WARBLERS_PARULIDAE,Golden-winged Warbler,,1,-65.797799,18.2644,North America,Puerto Rico,PR,,Puerto Rico - Naguabo,2011-12-04,13:06
Geothlypis trichas,Animalia,NEW_WORLD_WARBLERS_PARULIDAE,Common Yellowthroat,,1,-67.077248,17.970424,North America,Puerto Rico,PR,,Puerto Rico - Lajas,2011-11-19,10:40
Zenaida aurita,Animalia,PIGEONS_AND_DOVES_COLUMBIDAE,Zenaida Dove,,1,-66.1420757433,18.4080071475,North America,Puerto Rico,PR,,Puerto Rico - Bayamón,2011-10-30,
Euphonia musica,Animalia,FINCHES_FRINGILLIDAE,Antillean Euphonia,,2,-66.5360386034,18.2451543993,North America,Puerto Rico,PR,,Puerto Rico - Ciales,2011-10-30,
Spindalis portoricensis,Animalia,SPINDALIDAE,Puerto Rican Spindalis,,6,-66.5360386034,18.2451543993,North America,Puerto Rico,PR,,Puerto Rico - Ciales,2011-10-30,
Dendroica caerulescens,Animalia,NEW_WORLD_WARBLERS_PARULIDAE,Black-throated blue warbler,,3,-66.5360386034,18.2451543993,North America,Puerto Rico,PR,,Puerto Rico - Ciales,2011-10-30,
Mniotilta varia,Animalia,NEW_WORLD_WARBLERS_PARULIDAE,Black-and-white Warbler,,4,-66.5360386034,18.2451543993,North America,Puerto Rico,PR,,Puerto Rico - Ciales,2011-10-30,
Actitis macularius,Animalia,SANDPIPERS_AND_ALLIES_SCOLOPACIDAE,Spotted Sandpiper,,1,-66.076773,18.442106,North America,Puerto Rico,PR,,Puerto Rico - San Juan,2011-10-29,12:10
Anthracothorax dominicus,Animalia,HUMMINGBIRDS_TROCHILIDAE,Antillean Mango,,1,-66.066598,18.437908,North America,Puerto Rico,PR,,Puerto Rico - San Juan,2011-10-29,13:13
Zenaida asiatica,Animalia,PIGEONS_AND_DOVES_COLUMBIDAE,White-winged Dove,,1,-66.066598,18.437908,North America,Puerto Rico,PR,,Puerto Rico - San Juan,2011-10-29,13:14
Quiscalus niger,Animalia,ICTERIDS_ICTERIDAE,Greater Antillean Grackle,,2,-66.066598,18.437908,North America,Puerto Rico,PR,,Puerto Rico - San Juan,2011-10-29,13:14
Gallinula galeata,Animalia,RAILS_RALLIDAE,Common Gallinule,,2,-66.060582,18.432322,North America,Puerto Rico,PR,,Puerto Rico - San Juan,2011-10-29,09:58
Tyrannus dominicensis,Animalia,TYRANT_FLYCATCHERS_TYRANNIDAE,Grey Kingbird,,2,-66.064955,18.435046,North America,Puerto Rico,PR,,Puerto Rico - San Juan,2011-10-29,09:59
Nesospingus speculiferus,Animalia,NESOSPINGIDAE,Puerto Rican Tanager,,5,-65.7797635246,18.3125663948,North America,Puerto Rico,PR,,Puerto Rico - Río Grande,2011-10-16,
Thalasseus acuflavidus,Animalia,GULLS_TERNS_AND_SKIMMERS_LARIDAE,Cabot's Tern,,3,-65.956603,18.442392,North America,Puerto Rico,PR,,Puerto Rico - Loíza,2011-10-16,13:58
Thalasseus acuflavidus,Animalia,GULLS_TERNS_AND_SKIMMERS_LARIDAE,Cabot's Tern,,37,-65.968317,18.454399,North America,Puerto Rico,PR,,Puerto Rico - Loíza,2011-10-16,16:13
Dendroica caerulescens,Animalia,NEW_WORLD_WARBLERS_PARULIDAE,Black-throated blue warbler,,2,-66.501873562,18.2578969216,North America,Puerto Rico,PR,,Puerto Rico - Ciales,2011-10-16,
Mniotilta varia,Animalia,NEW_WORLD_WARBLERS_PARULIDAE,Black-and-white Warbler,,2,-66.501873562,18.2578969216,North America,Puerto Rico,PR,,Puerto Rico - Ciales,2011-10-16,
Tyrannus caudifasciatus,Animalia,TYRANT_FLYCATCHERS_TYRANNIDAE,Loggerhead Kingbird,,1,-66.501873562,18.2578969216,North America,Puerto Rico,PR,,Puerto Rico - Ciales,2011-10-16,
Euphonia musica,Animalia,FINCHES_FRINGILLIDAE,Antillean Euphonia,,1,-66.501873562,18.2578969216,North America,Puerto Rico,PR,,Puerto Rico - Ciales,2011-10-16,
Anthracothorax dominicus,Animalia,HUMMINGBIRDS_TROCHILIDAE,Antillean Mango,,1,-66.0499708281,18.4021935966,North America,Puerto Rico,PR,,Puerto Rico - San Juan,2011-10-05,
Quiscalus niger,Animalia,ICTERIDS_ICTERIDAE,Greater Antillean Grackle,,1,-66.0502807429,18.4020688895,North America,Puerto Rico,PR,,Puerto Rico - San Juan,2011-10-05,
Zenaida aurita,Animalia,PIGEONS_AND_DOVES_COLUMBIDAE,Zenaida Dove,,1,-66.0502807429,18.4020688895,North America,Puerto Rico,PR,,Puerto Rico - San Juan,2011-10-05,
Butorides virescens,Animalia,HERONS_ARDEIDAE,Green Heron,,1,-66.0583226931,18.3880496421,North America,Puerto Rico,PR,,Puerto Rico - San Juan,2011-10-01,
Quiscalus niger,Animalia,ICTERIDS_ICTERIDAE,Greater Antillean Grackle,,1,-66.0583226931,18.3880496421,North America,Puerto Rico,PR,,Puerto Rico - San Juan,2011-10-01,
Zenaida aurita,Animalia,PIGEONS_AND_DOVES_COLUMBIDAE,Zenaida Dove,,10,-66.0583226931,18.3880496421,North America,Puerto Rico,PR,,Puerto Rico - San Juan,2011-10-01,
Thalasseus acuflavidus acuflavidus,Animalia,GULLS_TERNS_AND_SKIMMERS_LARIDAE,Cabot's Tern ssp acuflavidus,,100,-66.703357,18.479948,North America,Puerto Rico,PR,,Puerto Rico - Arecibo,2011-09-24,09:35
Junonia genoveva,Animalia,BRUSHFOOTED_BUTTERFLIES_NYMPHALIDAE,Mangrove Buckeye,,1,-67.1921540911,17.9429216463,North America,Puerto Rico,PR,,Puerto Rico - Cabo Rojo,2011-09-17,
Numenius hudsonicus hudsonicus,Animalia,SANDPIPERS_AND_ALLIES_SCOLOPACIDAE,Hudsonian Whimbrel ssp hudsonicus,,1,-67.190947,17.939692,North America,Puerto Rico,PR,,Puerto Rico - Cabo Rojo,2011-09-17,12:43
Agelaius xanthomus,Animalia,ICTERIDS_ICTERIDAE,Yellow-shouldered Blackbird,,1,-67.193606,17.949897,North America,Puerto Rico,PR,,Puerto Rico - Cabo Rojo,2011-09-17,12:43
Anthracothorax dominicus,Animalia,HUMMINGBIRDS_TROCHILIDAE,Antillean Mango,,1,-67.191715,17.943036,North America,Puerto Rico,PR,,Puerto Rico - Cabo Rojo,2011-09-17,12:53
Anthracothorax dominicus,Animalia,HUMMINGBIRDS_TROCHILIDAE,Antillean Mango,,1,-67.198845,17.954228,North America,Puerto Rico,PR,,Puerto Rico - Cabo Rojo,2011-09-17,11:12
Calidris subruficollis,Animalia,SANDPIPERS_AND_ALLIES_SCOLOPACIDAE,Buff-breasted Sandpiper,,2,-66.244341,18.450044,North America,Puerto Rico,PR,,Puerto Rico - Toa Baja,2011-09-16,18:28
Pluvialis dominica,Animalia,PLOVERS_CHARADRIIDAE,American Golden Plover,,5,-66.244341,18.450044,North America,Puerto Rico,PR,,Puerto Rico - Toa Baja,2011-09-16,18:37
Calidris minutilla,Animalia,SANDPIPERS_AND_ALLIES_SCOLOPACIDAE,Least Sandpiper,,20,-66.24516,18.449446,North America,Puerto Rico,PR,,Puerto Rico - Toa Baja,2011-09-16,18:41
Tringa melanoleuca,Animalia,SANDPIPERS_AND_ALLIES_SCOLOPACIDAE,Greater Yellowlegs,,4,-66.24516,18.449446,North America,Puerto Rico,PR,,Puerto Rico - Toa Baja,2011-09-16,18:46
Calidris melanotos,Animalia,SANDPIPERS_AND_ALLIES_SCOLOPACIDAE,Pectoral Sandpiper,,120,-66.24516,18.449446,North America,Puerto Rico,PR,,Puerto Rico - Toa Baja,2011-09-16,18:52
Thalasseus acuflavidus,Animalia,GULLS_TERNS_AND_SKIMMERS_LARIDAE,Cabot's Tern,,1,-65.9690380096,18.4542088279,North America,Puerto Rico,PR,,Puerto Rico - Loíza,2011-08-14,
Choranthus vitellius,Animalia,SKIPPERS_HESPERIIDAE,Vitellius Skipper,,15,-66.0765698356,18.4386554865,North America,Puerto Rico,PR,,Puerto Rico - San Juan,2011-08-15,
Phoenicopterus ruber,Animalia,FLAMINGOS_PHOENICOPTERIDAE,American Flamingo,,1,-66.8683011013,18.4893817349,North America,Puerto Rico,PR,,Puerto Rico - Camuy,2011-09-03,
Thalasseus acuflavidus,Animalia,GULLS_TERNS_AND_SKIMMERS_LARIDAE,Cabot's Tern,,40,-66.7036349255,18.4801018474,North America,Puerto Rico,PR,,Puerto Rico - Arecibo,2011-09-03,
Eudocimus albus,Animalia,IBISSES_AND_SPOONBILLS_THRESKIORNITHIDAE,American White Ibis,,1,-66.6920130164,18.4773472179,North America,Puerto Rico,PR,,Puerto Rico - Arecibo,2011-09-03,
Plegadis falcinellus,Animalia,IBISSES_AND_SPOONBILLS_THRESKIORNITHIDAE,Glossy Ibis,,3,-66.6026014763,18.482126778,North America,Puerto Rico,PR,,Puerto Rico - Arecibo,2011-09-03,
Lonchura punctulata,Animalia,WAXBILLS_MUNIAS_ALLIES_ESTRILDIDAE,Scaly-breasted Munia,,1,-66.5351118015,18.4803446547,North America,Puerto Rico,PR,,Puerto Rico - Barceloneta,2011-09-03,
Thalasseus acuflavidus,Animalia,GULLS_TERNS_AND_SKIMMERS_LARIDAE,Cabot's Tern,,10,-66.5339530872,18.4799376312,North America,Puerto Rico,PR,,Puerto Rico - Barceloneta,2011-09-03,
Dendroica adelaidae,Animalia,NEW_WORLD_WARBLERS_PARULIDAE,,,4,-66.5970895006,18.4512147302,North America,Puerto Rico,PR,,Puerto Rico - Arecibo,2011-09-03,
Coccyzus vieilloti,Animalia,CUCKOOS_AND_COUCALS_CUCULIDAE,Puerto Rican Lizard Cuckoo,,1,-66.5962741091,18.4501969968,North America,Puerto Rico,PR,,Puerto Rico - Arecibo,2011-09-03,
Nesospingus speculiferus,Animalia,NESOSPINGIDAE,Puerto Rican Tanager,,1,-65.7906621164,18.3329093465,North America,Puerto Rico,PR,,Puerto Rico - Río Grande,2011-08-27,
Fregata magnificens,Animalia,FRIGATEBIRDS_FREGATTIDAE,Magnificent Frigatebird,,15,-65.993606354,18.4568393716,North America,Puerto Rico,PR,,Puerto Rico - Carolina,2011-08-27,
Thalasseus acuflavidus,Animalia,GULLS_TERNS_AND_SKIMMERS_LARIDAE,Cabot's Tern,,34,-65.9688442004,18.4546004235,North America,Puerto Rico,PR,,Puerto Rico - Loíza,2011-08-27,
Calidris canutus,Animalia,SANDPIPERS_AND_ALLIES_SCOLOPACIDAE,Red Knot,,1,-65.9688442004,18.4546004235,North America,Puerto Rico,PR,,Puerto Rico - Loíza,2011-08-27,
Anthracothorax dominicus,Animalia,HUMMINGBIRDS_TROCHILIDAE,Antillean Mango,,1,-66.0526924795,18.4031463177,North America,Puerto Rico,PR,,Puerto Rico - San Juan,2011-08-23,
Zenaida asiatica,Animalia,PIGEONS_AND_DOVES_COLUMBIDAE,White-winged Dove,,2,-66.0534067154,18.4096803618,North America,Puerto Rico,PR,,Puerto Rico - San Juan,2011-08-22,
Quiscalus niger,Animalia,ICTERIDS_ICTERIDAE,Greater Antillean Grackle,,1,-66.123916626,18.4707073882,North America,Puerto Rico,PR,,Puerto Rico - San Juan,2011-08-22,
Butorides virescens,Animalia,HERONS_ARDEIDAE,Green Heron,,1,-66.0733222961,18.4376905572,North America,Puerto Rico,PR,,Puerto Rico,2011-08-19,
Gallinula galeata,Animalia,RAILS_RALLIDAE,Common Gallinule,,10,-66.0736690163,18.4376697094,North America,Puerto Rico,PR,,Puerto Rico,2011-08-19,
Tiaris bicolor,Animalia,TANAGERS_AND_ALLIES_THRAUPIDAE,Black-faced Grassquit,,1,-66.0532457829,18.3906227913,North America,Puerto Rico,PR,,Puerto Rico,2011-08-14,
Ardea alba egretta,Animalia,HERONS_ARDEIDAE,American Great Egret,,1,-66.0539646149,18.3865911119,North America,Puerto Rico,PR,,Puerto Rico,2011-08-14,
Gallinula galeata,Animalia,RAILS_RALLIDAE,Common Gallinule,,1,-66.0539646149,18.3865911119,North America,Puerto Rico,PR,,Puerto Rico,2011-08-14,
Margarops fuscatus,Animalia,THRASHERS_MIMIDAE,Pearly-eyed Thrasher,,1,-66.0555417538,18.3916917813,North America,Puerto Rico,PR,,Puerto Rico,2011-08-14,
Margarops fuscatus,Animalia,THRASHERS_MIMIDAE,Pearly-eyed Thrasher,,1,-66.0545763373,18.3859525583,North America,Puerto Rico,PR,,Puerto Rico,2011-08-14,
Mimus polyglottos,Animalia,THRASHERS_MIMIDAE,Northern Mockingbird,,1,-66.0545763373,18.3859525583,North America,Puerto Rico,PR,,Puerto Rico,2011-08-14,
Fregata magnificens,Animalia,FRIGATEBIRDS_FREGATTIDAE,Magnificent Frigatebird,,17,-65.9931993484,18.4574654775,North America,Puerto Rico,PR,,Puerto Rico,2011-08-14,
Thalasseus acuflavidus,Animalia,GULLS_TERNS_AND_SKIMMERS_LARIDAE,Cabot's Tern,,12,-65.9681367874,18.4543309534,North America,Puerto Rico,PR,,Puerto Rico - Loíza,2011-08-14,
Mimus polyglottos,Animalia,THRASHERS_MIMIDAE,Northern Mockingbird,,1,-66.033411026,18.4460669336,North America,Puerto Rico,PR,,Puerto Rico,2011-08-14,
Quiscalus niger,Animalia,ICTERIDS_ICTERIDAE,Greater Antillean Grackle,,1,-66.0389572701,18.3962744313,North America,Puerto Rico,PR,,Puerto Rico,2011-08-13,
Tiaris bicolor,Animalia,TANAGERS_AND_ALLIES_THRAUPIDAE,Black-faced Grassquit,,1,-66.0389572701,18.3962744313,North America,Puerto Rico,PR,,Puerto Rico,2011-08-13,
Brotogeris versicolurus,Animalia,PARROTS_PSITTACIDAE,White-winged Parakeet,,20,-66.0389572701,18.3962744313,North America,Puerto Rico,PR,,Puerto Rico - San Juan,2011-08-13,
Tyrannus dominicensis,Animalia,TYRANT_FLYCATCHERS_TYRANNIDAE,Grey Kingbird,,1,-66.0530165143,18.4037681072,North America,Puerto Rico,PR,,Puerto Rico,2011-08-12,
Anthracothorax dominicus,Animalia,HUMMINGBIRDS_TROCHILIDAE,Antillean Mango,,1,-66.0528838634,18.4036414248,North America,Puerto Rico,PR,,Puerto Rico,2011-08-10,
Tiaris bicolor,Animalia,TANAGERS_AND_ALLIES_THRAUPIDAE,Black-faced Grassquit,,1,-66.0530877113,18.3913943051,North America,Puerto Rico,PR,,Puerto Rico,2011-08-09,
Quiscalus niger,Animalia,ICTERIDS_ICTERIDAE,Greater Antillean Grackle,,15,-66.0520148277,18.4032443997,North America,Puerto Rico,PR,,Puerto Rico,2011-08-09,
Quiscalus niger,Animalia,ICTERIDS_ICTERIDAE,Greater Antillean Grackle,,4,-66.0528302193,18.3957516511,North America,Puerto Rico,PR,,Puerto Rico,2011-08-09,
Quiscalus niger,Animalia,ICTERIDS_ICTERIDAE,Greater Antillean Grackle,,10,-66.053173542,18.3917608151,North America,Puerto Rico,PR,,Puerto Rico,2011-08-09,
Tyrannus dominicensis,Animalia,TYRANT_FLYCATCHERS_TYRANNIDAE,Grey Kingbird,,1,-66.053173542,18.3917608151,North America,Puerto Rico,PR,,Puerto Rico,2011-08-09,
Margarops fuscatus,Animalia,THRASHERS_MIMIDAE,Pearly-eyed Thrasher,,1,-66.0528731346,18.3895210197,North America,Puerto Rico,PR,,Puerto Rico,2011-08-09,
Margarops fuscatus,Animalia,THRASHERS_MIMIDAE,Pearly-eyed Thrasher,,1,-66.0516929626,18.4027455719,North America,Puerto Rico,PR,,Puerto Rico,2011-08-09,
Zenaida aurita,Animalia,PIGEONS_AND_DOVES_COLUMBIDAE,Zenaida Dove,,1,-66.0514515639,18.4021042198,North America,Puerto Rico,PR,,Puerto Rico,2011-08-09,
Turdus plumbeus,Animalia,THRUSHES_TURDIDAE,Red-legged Thrush,,1,-66.0514515639,18.4021042198,North America,Puerto Rico,PR,,Puerto Rico,2011-08-09,
Tramea calverti,Animalia,SKIMMERS_LIBELLULIDAE,Striped Saddlebags,,1,-66.87802,17.9534,North America,Puerto Rico,PR,,Puerto Rico,2008-11-09,
Perithemis domitia,Animalia,SKIMMERS_LIBELLULIDAE,Slough Amberwing,,1,-66.05431,18.39121,North America,Puerto Rico,PR,,Puerto Rico,2007-05-26,
Pantala hymenaea,Animalia,SKIMMERS_LIBELLULIDAE,Spot-winged Glider,,1,-66.90841,17.98416,North America,Puerto Rico,PR,,Puerto Rico,2008-11-09,
Micrathyria dissocians,Animalia,SKIMMERS_LIBELLULIDAE,Caribbean Dasher,,1,-66.05431,18.39121,North America,Puerto Rico,PR,,Puerto Rico,2007-05-26,
Micrathyria didyma,Animalia,SKIMMERS_LIBELLULIDAE,Three-striped Dasher,,1,-66.84909,17.95414,North America,Puerto Rico,PR,,Puerto Rico,2008-11-07,
Micrathyria aequalis,Animalia,SKIMMERS_LIBELLULIDAE,Spot-tailed Dasher,,1,-66.05431,18.39121,North America,Puerto Rico,PR,,Puerto Rico,2007-05-26,
Ischnura ramburii,Animalia,POND_DAMSELS_COENAGRIONIDAE,Rambur's Forktail,,1,-66.88133,17.95284,North America,Puerto Rico,PR,,Puerto Rico,2008-11-04,
Ischnura ramburii,Animalia,POND_DAMSELS_COENAGRIONIDAE,Rambur's Forktail,,1,-65.75533,18.38819,North America,Puerto Rico,PR,,Puerto Rico,2008-11-02,
Ischnura ramburii,Animalia,POND_DAMSELS_COENAGRIONIDAE,Rambur's Forktail,,1,-66.05431,18.39121,North America,Puerto Rico,PR,,Puerto Rico,2007-05-26,
Erythrodiplax umbrata,Animalia,SKIMMERS_LIBELLULIDAE,Band-winged Dragonlet,,1,-66.90841,17.98416,North America,Puerto Rico,PR,,Puerto Rico,2008-11-09,
Erythrodiplax umbrata,Animalia,SKIMMERS_LIBELLULIDAE,Band-winged Dragonlet,,1,-66.84909,17.95414,North America,Puerto Rico,PR,,Puerto Rico,2008-11-07,
Erythrodiplax umbrata,Animalia,SKIMMERS_LIBELLULIDAE,Band-winged Dragonlet,,1,-66.05431,18.39121,North America,Puerto Rico,PR,,Puerto Rico,2007-05-26,
Erythrodiplax berenice,Animalia,SKIMMERS_LIBELLULIDAE,Seaside Dragonlet,,1,-66.88133,17.95284,North America,Puerto Rico,PR,,Puerto Rico,2007-11-05,
Erythemis vesiculosa,Animalia,SKIMMERS_LIBELLULIDAE,Great Pondhawk,,1,-66.91337,17.9871,North America,Puerto Rico,PR,,Puerto Rico,2008-11-09,
Erythemis vesiculosa,Animalia,SKIMMERS_LIBELLULIDAE,Great Pondhawk,,1,-66.84909,17.95414,North America,Puerto Rico,PR,,Puerto Rico,2008-11-07,
Erythemis vesiculosa,Animalia,SKIMMERS_LIBELLULIDAE,Great Pondhawk,,1,-66.05431,18.39121,North America,Puerto Rico,PR,,Puerto Rico,2007-05-26,
Erythemis plebeja,Animalia,SKIMMERS_LIBELLULIDAE,Pin-tailed Pondhawk,,1,-66.05431,18.39121,North America,Puerto Rico,PR,,Puerto Rico,2007-05-26,
Brachymesia herbida,Animalia,SKIMMERS_LIBELLULIDAE,Tawny Pennant,,1,-66.84909,17.95414,North America,Puerto Rico,PR,,Puerto Rico,2008-11-07,
Brachymesia herbida,Animalia,SKIMMERS_LIBELLULIDAE,Tawny Pennant,,1,-66.86191,17.95913,North America,Puerto Rico,PR,,Puerto Rico,2008-11-04,
Estrilda melpoda,Animalia,WAXBILLS_MUNIAS_ALLIES_ESTRILDIDAE,Orange-cheeked Waxbill,,1,-65.7593078613,18.165315668,North America,Puerto Rico,PR,,Puerto Rico,2011-02-10,
Euodice malabarica,Animalia,WAXBILLS_MUNIAS_ALLIES_ESTRILDIDAE,Indian Silverbill,,1,-65.7593078613,18.165315668,North America,Puerto Rico,PR,,Puerto Rico,2011-02-10,
Mimus polyglottos,Animalia,THRASHERS_MIMIDAE,Northern Mockingbird,,1,-66.1067504883,18.4648458267,North America,Puerto Rico,PR,,Puerto Rico,2011-02-10,
Petrochelidon fulva,Animalia,SWALLOWS_HIRUNDINIDAE,Cave Swallow,,1,-66.1067504883,18.4648458267,North America,Puerto Rico,PR,,Puerto Rico,2011-02-10,
Patagioenas inornata,Animalia,PIGEONS_AND_DOVES_COLUMBIDAE,Plain Pigeon,,1,-65.6480712891,18.2641298482,North America,Puerto Rico,PR,,Puerto Rico,2011-02-10,
Gallinula galeata,Animalia,RAILS_RALLIDAE,Common Gallinule,,1,-65.7706375122,18.1574864075,North America,Puerto Rico,PR,,Puerto Rico,2011-02-10,
Fulica americana,Animalia,RAILS_RALLIDAE,American Coot,,1,-65.7706375122,18.1574864075,North America,Puerto Rico,PR,,Puerto Rico,2011-02-10,
Actitis macularius,Animalia,SANDPIPERS_AND_ALLIES_SCOLOPACIDAE,Spotted Sandpiper,,1,-65.7702941895,18.1578126337,North America,Puerto Rico,PR,,Puerto Rico,2011-02-10,
Thalasseus maximus,Animalia,GULLS_TERNS_AND_SKIMMERS_LARIDAE,Royal Tern,,1,-65.7702941895,18.1578126337,North America,Puerto Rico,PR,,Puerto Rico,2011-02-10,
Fregata magnificens,Animalia,FRIGATEBIRDS_FREGATTIDAE,Magnificent Frigatebird,,1,-66.1067504883,18.4518194177,North America,Puerto Rico,PR,,Puerto Rico,2011-02-10,
Lonchura oryzivora,Animalia,WAXBILLS_MUNIAS_ALLIES_ESTRILDIDAE,Java Sparrow,,8,-66.1100578308,18.4669094119,North America,Puerto Rico,PR,,Puerto Rico,1990-08-01,
Myiopsitta monachus,Animalia,PARROTS_PSITTACIDAE,Monk Parakeet,,6,-66.1100578308,18.4669094119,North America,Puerto Rico,PR,,Puerto Rico,1990-08-01,
Todus mexicanus,Animalia,TODIES_TODIDAE,Puerto Rican Tody,,4,-66.70874,18.34048,North America,Puerto Rico,PR,,Puerto Rico - Arecibo,2016-11-22,08:00
Iguana iguana,Animalia,Iguanidae,Common Green Iguana,,1,-67.00166032,18.20639282,North America,Puerto Rico,PR,,Puerto Rico - Las Marías,2017-01-10,
Todus mexicanus,Animalia,TODIES_TODIDAE,Puerto Rican Tody,,2,-66.7054,18.3303,North America,Puerto Rico,PR,,Puerto Rico - Arecibo,2016-07-04,13:20
Eudocimus albus,Animalia,IBISSES_AND_SPOONBILLS_THRESKIORNITHIDAE,American White Ibis,,1,-66.5522,18.4796,North America,Puerto Rico,PR,,Puerto Rico - Barceloneta,2016-07-04,09:17
Charadrius vociferus,Animalia,PLOVERS_CHARADRIIDAE,Killdeer,,1,-66.55,18.4,North America,Puerto Rico,PR,,Puerto Rico - Manatí,2016-07-04,08:03
Patagioenas leucocephala,Animalia,PIGEONS_AND_DOVES_COLUMBIDAE,White-crowned Pigeon,,2,-66.424,18.441,North America,Puerto Rico,PR,,Puerto Rico - Vega Baja,2016-07-04,06:38
Columbina passerina portoricensis,Animalia,PIGEONS_AND_DOVES_COLUMBIDAE,Common Ground Dove ssp portoricensis,,1,-66.8036,18.4883,North America,Puerto Rico,PR,,Puerto Rico - Hatillo,2016-07-04,06:02
Patagioenas leucocephala,Animalia,PIGEONS_AND_DOVES_COLUMBIDAE,White-crowned Pigeon,,2,-66.43921389,18.48201562,North America,Puerto Rico,PR,,Puerto Rico - Manatí,2015-03-21,09:12
Margarops fuscatus,Animalia,THRASHERS_MIMIDAE,Pearly-eyed Thrasher,,22,-66.0434675218,18.3824851578,North America,Puerto Rico,PR,,Puerto Rico - San Juan,2015-03-15,
Turdus plumbeus,Animalia,THRUSHES_TURDIDAE,Red-legged Thrush,,11,-66.0434675218,18.3824851578,North America,Puerto Rico,PR,,Puerto Rico - San Juan,2015-03-15,
Tyrannus dominicensis,Animalia,TYRANT_FLYCATCHERS_TYRANNIDAE,Grey Kingbird,,3,-66.0389614106,18.3814228984,North America,Puerto Rico,PR,,Puerto Rico - San Juan,2015-03-15,
Turdus plumbeus,Animalia,THRUSHES_TURDIDAE,Red-legged Thrush,,3,-66.05048287,18.38404329,North America,Puerto Rico,PR,,Puerto Rico - San Juan,2015-03-15,06:39
Tyrannus dominicensis,Animalia,TYRANT_FLYCATCHERS_TYRANNIDAE,Grey Kingbird,,1,-66.05048287,18.38404329,North America,Puerto Rico,PR,,Puerto Rico - San Juan,2015-03-15,06:41
