scientificName,kingdom,family,vernacularName,previousIdentifications,individualCount,longitudeDecimal,latitudeDecimal,continent,country,countryCode,stateProvince,locality,eventDate,eventTime
Acridotheres tristis,Animalia,STARLINGS_STURNIDAE,Common Myna,,2,51.5462243555,25.2914106243,Asia,Qatar,QA,,Qatar - Doha,2015-02-27,05:49
Ichthyaetus ichthyaetus,Animalia,GULLS_TERNS_AND_SKIMMERS_LARIDAE,Pallas's Gull,,7,51.3790369025,26.0278437076,Asia,Qatar,QA,,Qatar - Madinat ash Shamal,2014-02-23,14:30
Spilopelia senegalensis cambayensis,Animalia,PIGEONS_AND_DOVES_COLUMBIDAE,Laughing Dove ssp cambayensis,,1,51.6090206802,25.2603380737,Asia,Qatar,QA,,Qatar - Doha,2014-07-14,
Diplacodes lefebvrii,Animalia,SKIMMERS_LIBELLULIDAE,Black Percher,,3,51.3589885086,25.1503542211,Asia,Qatar,QA,,Qatar,2014-02-22,
Crocothemis erythraea,Animalia,SKIMMERS_LIBELLULIDAE,Broad Scarlet,,3,51.3589885086,25.1503542211,Asia,Qatar,QA,,Qatar,2014-02-22,
Felis catus,Animalia,CATS_FELIDAE,Domesticated Cat,,1,51.6045,25.179,Asia,Qatar,QA,,Qatar - Al Wakrah,2014-02-23,23:23
Acridotheres tristis,Animalia,STARLINGS_STURNIDAE,Common Myna,,2,51.4705,25.3191,Asia,Qatar,QA,,Qatar - Doha,2014-02-23,12:38
Spilopelia senegalensis cambayensis,Animalia,PIGEONS_AND_DOVES_COLUMBIDAE,Laughing Dove ssp cambayensis,,2,51.475,25.2955,Asia,Qatar,QA,,Qatar - Doha,2014-02-23,12:36
Columba livia domestica,Animalia,PIGEONS_AND_DOVES_COLUMBIDAE,Feral Pigeon,,20,51.4917,25.272,Asia,Qatar,QA,,Qatar - Doha,2014-02-23,12:34
Spilopelia senegalensis cambayensis,Animalia,PIGEONS_AND_DOVES_COLUMBIDAE,Laughing Dove ssp cambayensis,,2,51.5229,25.2545,Asia,Qatar,QA,,Qatar - Doha,2014-02-23,12:30
Columba livia domestica,Animalia,PIGEONS_AND_DOVES_COLUMBIDAE,Feral Pigeon,,2,51.5273,25.2544,Asia,Qatar,QA,,Qatar - Doha,2014-02-23,12:30
Spilopelia senegalensis cambayensis,Animalia,PIGEONS_AND_DOVES_COLUMBIDAE,Laughing Dove ssp cambayensis,,2,51.5292,25.2544,Asia,Qatar,QA,,Qatar - Doha,2014-02-23,12:29
Spilopelia senegalensis cambayensis,Animalia,PIGEONS_AND_DOVES_COLUMBIDAE,Laughing Dove ssp cambayensis,,1,51.5539,25.2603,Asia,Qatar,QA,,Qatar - Doha,2014-02-23,12:24
Columba livia domestica,Animalia,PIGEONS_AND_DOVES_COLUMBIDAE,Feral Pigeon,,3,51.5555,25.262,Asia,Qatar,QA,,Qatar - Doha,2014-02-23,12:24
Spilopelia senegalensis cambayensis,Animalia,PIGEONS_AND_DOVES_COLUMBIDAE,Laughing Dove ssp cambayensis,,1,51.561,25.2593,Asia,Qatar,QA,,Qatar - Doha,2014-02-23,12:23
Vanessa cardui,Animalia,BRUSHFOOTED_BUTTERFLIES_NYMPHALIDAE,Painted Lady,,1,51.5686,25.2454,Asia,Qatar,QA,,Qatar - Doha,2014-02-23,12:22
Passer domesticus,Animalia,OLD_WORLD_SPARROWS_PASSERIDAE,House Sparrow,,1,51.573,25.237,Asia,Qatar,QA,,Qatar - Doha,2014-02-23,12:21
Columba livia domestica,Animalia,PIGEONS_AND_DOVES_COLUMBIDAE,Feral Pigeon,,15,51.5776,25.2294,Asia,Qatar,QA,,Qatar - Doha,2014-02-23,12:20
Motacilla alba,Animalia,PIPITS_EN_WAGTAILS_MOTACILLIDAE,White Wagtail,,5,51.3616063446,25.1478291541,Asia,Qatar,QA,,Qatar,2014-02-22,12:00
Spatula clypeata,Animalia,DUCKS_GEESE_AND_SWANS_ANATIDAE,Northern Shoveler,,16,51.362901181,25.152354814,Asia,Qatar,QA,,Qatar,2014-02-22,12:00
Aythya ferina,Animalia,DUCKS_GEESE_AND_SWANS_ANATIDAE,Common Pochard,,8,51.3623861969,25.1521994293,Asia,Qatar,QA,,Qatar,2014-02-22,12:00
Egretta garzetta,Animalia,HERONS_ARDEIDAE,Little Egret,,1,51.3637594879,25.148625527,Asia,Qatar,QA,,Qatar,2014-02-22,12:00
Ardea purpurea purpurea,Animalia,HERONS_ARDEIDAE,Purple Heron ssp purpurea,,2,51.3637594879,25.148625527,Asia,Qatar,QA,,Qatar,2014-02-22,12:00
Ardea cinerea,Animalia,HERONS_ARDEIDAE,Grey Heron,,2,51.3637594879,25.148625527,Asia,Qatar,QA,,Qatar,2014-02-22,12:00
Phalacrocorax carbo carbo,Animalia,CORMORANTS_PHALACROCORACIDAE,Atlantic Great Cormorant,,100,51.3638594002,25.1497132475,Asia,Qatar,QA,,Qatar,2014-02-22,12:00
Tachybaptus ruficollis ruficollis,Animalia,GREBES_PODICIPEDIDAE,Little Grebe ssp ruficollis,,1,51.3622071594,25.1486449507,Asia,Qatar,QA,,Qatar,2014-02-22,12:00
Podiceps cristatus cristatus,Animalia,GREBES_PODICIPEDIDAE,Great Crested Grebe ssp cristatus,,10,51.3605083153,25.1501891222,Asia,Qatar,QA,,Qatar,2014-02-22,12:00
Columba livia domestica,Animalia,PIGEONS_AND_DOVES_COLUMBIDAE,Feral Pigeon,,50,51.5336931031,25.2889292261,Asia,Qatar,QA,,Qatar - Doha,2014-02-22,22:00
Spilopelia senegalensis cambayensis,Animalia,PIGEONS_AND_DOVES_COLUMBIDAE,Laughing Dove ssp cambayensis,,1,51.5985,25.1797,Asia,Qatar,QA,,Qatar - Al Wakrah,2014-02-22,15:15
Columba livia domestica,Animalia,PIGEONS_AND_DOVES_COLUMBIDAE,Feral Pigeon,,3,51.598,25.1794,Asia,Qatar,QA,,Qatar - Al Wakrah,2014-02-22,15:15
Spilopelia senegalensis cambayensis,Animalia,PIGEONS_AND_DOVES_COLUMBIDAE,Laughing Dove ssp cambayensis,,1,51.5973,25.1769,Asia,Qatar,QA,,Qatar - Al Wakrah,2014-02-22,15:14
Columba livia domestica,Animalia,PIGEONS_AND_DOVES_COLUMBIDAE,Feral Pigeon,,4,51.5973,25.1749,Asia,Qatar,QA,,Qatar - Al Wakrah,2014-02-22,15:14
Galerida cristata,Animalia,LARKS_ALAUDIDAE,Crested Lark,,2,51.2526,25.171,Asia,Qatar,QA,,Qatar - Al Rayyan,2014-02-22,13:24
Pycnonotus leucotis,Animalia,BULBULS_PYCNONOTIDAE,White-eared Bulbul,,1,51.5247,25.1483,Asia,Qatar,QA,,Qatar - Al Wakrah,2014-02-22,10:15
Spilopelia senegalensis cambayensis,Animalia,PIGEONS_AND_DOVES_COLUMBIDAE,Laughing Dove ssp cambayensis,,2,51.5988,25.1797,Asia,Qatar,QA,,Qatar - Al Wakrah,2014-02-22,10:03
Passer domesticus,Animalia,OLD_WORLD_SPARROWS_PASSERIDAE,House Sparrow,,1,51.6012,25.1718,Asia,Qatar,QA,,Qatar - Al Wakrah,2014-02-22,09:02
Spilopelia senegalensis cambayensis,Animalia,PIGEONS_AND_DOVES_COLUMBIDAE,Laughing Dove ssp cambayensis,,1,51.601,25.1715,Asia,Qatar,QA,,Qatar - Al Wakrah,2014-02-22,09:01
Trigonella glabra,Plantae,Fabaceae,Egyptian fenugreek,,1,51.59874212,25.1728929845,Asia,Qatar,QA,,Qatar - Al Wakrah,2014-02-21,
Streptopelia decaocto,Animalia,PIGEONS_AND_DOVES_COLUMBIDAE,Eurasian Collared Dove,,2,51.5997183602,25.1733517765,Asia,Qatar,QA,,Qatar - Al Wakrah,2014-02-21,
Cenchrus ciliaris,Plantae,Poaceae,Buffel-grass,,1,51.5986061655,25.1788838464,Asia,Qatar,QA,,Qatar - Al Wakrah,2014-02-21,
Acridotheres tristis,Animalia,STARLINGS_STURNIDAE,Common Myna,,2,51.6011,25.1716,Asia,Qatar,QA,,Qatar - Al Wakrah,2014-02-21,17:06
Columba livia domestica,Animalia,PIGEONS_AND_DOVES_COLUMBIDAE,Feral Pigeon,,1,51.6015,25.1707,Asia,Qatar,QA,,Qatar - Al Wakrah,2014-02-21,16:37
Spilopelia senegalensis cambayensis,Animalia,PIGEONS_AND_DOVES_COLUMBIDAE,Laughing Dove ssp cambayensis,,6,51.6013,25.1708,Asia,Qatar,QA,,Qatar - Al Wakrah,2014-02-21,16:37
Passer domesticus,Animalia,OLD_WORLD_SPARROWS_PASSERIDAE,House Sparrow,,1,51.6014,25.1716,Asia,Qatar,QA,,Qatar - Al Wakrah,2014-02-21,16:34
Columba livia domestica,Animalia,PIGEONS_AND_DOVES_COLUMBIDAE,Feral Pigeon,,1,51.6014,25.1717,Asia,Qatar,QA,,Qatar - Al Wakrah,2014-02-21,16:33
Spilopelia senegalensis cambayensis,Animalia,PIGEONS_AND_DOVES_COLUMBIDAE,Laughing Dove ssp cambayensis,,1,51.6014,25.1717,Asia,Qatar,QA,,Qatar - Al Wakrah,2014-02-21,16:33
Streptopelia decaocto,Animalia,PIGEONS_AND_DOVES_COLUMBIDAE,Eurasian Collared Dove,,1,51.5991,25.1729,Asia,Qatar,QA,,Qatar - Al Wakrah,2014-02-21,16:24
Spilopelia senegalensis cambayensis,Animalia,PIGEONS_AND_DOVES_COLUMBIDAE,Laughing Dove ssp cambayensis,,1,51.5991,25.1729,Asia,Qatar,QA,,Qatar - Al Wakrah,2014-02-21,16:23
Pycnonotus leucotis,Animalia,BULBULS_PYCNONOTIDAE,White-eared Bulbul,,1,51.5991,25.1729,Asia,Qatar,QA,,Qatar - Al Wakrah,2014-02-21,16:23
Passer domesticus,Animalia,OLD_WORLD_SPARROWS_PASSERIDAE,House Sparrow,,5,51.5991,25.1729,Asia,Qatar,QA,,Qatar - Al Wakrah,2014-02-21,16:23
Streptopelia decaocto,Animalia,PIGEONS_AND_DOVES_COLUMBIDAE,Eurasian Collared Dove,,1,51.5989,25.1791,Asia,Qatar,QA,,Qatar - Al Wakrah,2014-02-21,15:47
Spilopelia senegalensis cambayensis,Animalia,PIGEONS_AND_DOVES_COLUMBIDAE,Laughing Dove ssp cambayensis,,1,51.599,25.1791,Asia,Qatar,QA,,Qatar - Al Wakrah,2014-02-21,15:44
Columba livia domestica,Animalia,PIGEONS_AND_DOVES_COLUMBIDAE,Feral Pigeon,,6,51.5989,25.179,Asia,Qatar,QA,,Qatar - Al Wakrah,2014-02-21,15:38
Passer domesticus,Animalia,OLD_WORLD_SPARROWS_PASSERIDAE,House Sparrow,,2,51.5997,25.176,Asia,Qatar,QA,,Qatar - Al Wakrah,2014-02-21,15:23
Acridotheres tristis,Animalia,STARLINGS_STURNIDAE,Common Myna,,1,51.5996,25.1758,Asia,Qatar,QA,,Qatar - Al Wakrah,2014-02-21,15:23
Streptopelia decaocto,Animalia,PIGEONS_AND_DOVES_COLUMBIDAE,Eurasian Collared Dove,,1,51.5989,25.173,Asia,Qatar,QA,,Qatar - Al Wakrah,2014-02-21,15:03
Pycnonotus leucotis,Animalia,BULBULS_PYCNONOTIDAE,White-eared Bulbul,,1,51.5989,25.173,Asia,Qatar,QA,,Qatar - Al Wakrah,2014-02-21,15:03
Spilopelia senegalensis cambayensis,Animalia,PIGEONS_AND_DOVES_COLUMBIDAE,Laughing Dove ssp cambayensis,,1,51.5989,25.173,Asia,Qatar,QA,,Qatar - Al Wakrah,2014-02-21,15:02
Columba livia domestica,Animalia,PIGEONS_AND_DOVES_COLUMBIDAE,Feral Pigeon,,2,51.5989,25.173,Asia,Qatar,QA,,Qatar - Al Wakrah,2014-02-21,15:02
Passer domesticus,Animalia,OLD_WORLD_SPARROWS_PASSERIDAE,House Sparrow,,6,51.5989,25.173,Asia,Qatar,QA,,Qatar - Al Wakrah,2014-02-21,15:02
Columba livia domestica,Animalia,PIGEONS_AND_DOVES_COLUMBIDAE,Feral Pigeon,,3,51.5981,25.1725,Asia,Qatar,QA,,Qatar - Al Wakrah,2014-02-21,14:53
Acridotheres tristis,Animalia,STARLINGS_STURNIDAE,Common Myna,,2,51.5979,25.1722,Asia,Qatar,QA,,Qatar - Al Wakrah,2014-02-21,14:45
Spilopelia senegalensis cambayensis,Animalia,PIGEONS_AND_DOVES_COLUMBIDAE,Laughing Dove ssp cambayensis,,1,51.5982,25.1722,Asia,Qatar,QA,,Qatar - Al Wakrah,2014-02-21,14:44
Passer domesticus,Animalia,OLD_WORLD_SPARROWS_PASSERIDAE,House Sparrow,,2,51.5987,25.1722,Asia,Qatar,QA,,Qatar - Al Wakrah,2014-02-21,14:43
Spilopelia senegalensis cambayensis,Animalia,PIGEONS_AND_DOVES_COLUMBIDAE,Laughing Dove ssp cambayensis,,2,51.5987,25.1722,Asia,Qatar,QA,,Qatar - Al Wakrah,2014-02-21,14:43
Spilopelia senegalensis cambayensis,Animalia,PIGEONS_AND_DOVES_COLUMBIDAE,Laughing Dove ssp cambayensis,,1,51.6018,25.1714,Asia,Qatar,QA,,Qatar - Al Wakrah,2014-02-21,13:45
Passer domesticus,Animalia,OLD_WORLD_SPARROWS_PASSERIDAE,House Sparrow,,2,51.6007,25.172,Asia,Qatar,QA,,Qatar - Al Wakrah,2014-02-21,13:37
Pycnonotus leucotis,Animalia,BULBULS_PYCNONOTIDAE,White-eared Bulbul,,1,51.6007,25.1719,Asia,Qatar,QA,,Qatar - Al Wakrah,2014-02-21,13:28
Streptopelia decaocto,Animalia,PIGEONS_AND_DOVES_COLUMBIDAE,Eurasian Collared Dove,,1,51.6007,25.172,Asia,Qatar,QA,,Qatar - Al Wakrah,2014-02-21,13:25
Cloeon spec.,Animalia,BAETIDAE,,,1,51.6008,25.172,Asia,Qatar,QA,,Qatar - Al Wakrah,2014-02-21,13:22
Columba livia domestica,Animalia,PIGEONS_AND_DOVES_COLUMBIDAE,Feral Pigeon,,4,51.6016,25.1712,Asia,Qatar,QA,,Qatar - Al Wakrah,2014-02-21,13:13
Solanum villosum,Plantae,SOLANACEAE,Yellow Nightshade,,1,51.6016,25.1713,Asia,Qatar,QA,,Qatar - Al Wakrah,2014-02-21,13:10
Passer domesticus,Animalia,OLD_WORLD_SPARROWS_PASSERIDAE,House Sparrow,,2,51.6017,25.1714,Asia,Qatar,QA,,Qatar - Al Wakrah,2014-02-21,13:07
Cistanche phelypaea,Plantae,OROBANCHACEAE,,,1,51.6155434773,25.1804179257,Asia,Qatar,QA,,Qatar - Al Wakrah,2014-02-20,
Trigonella glabra,Plantae,Fabaceae,Egyptian fenugreek,,1,51.5996861737,25.1794809745,Asia,Qatar,QA,,Qatar - Al Wakrah,2014-02-20,
Scoliidae indet.,Animalia,Scoliidae,Scoliid unknown,,1,51.612202283,25.1803960797,Asia,Qatar,QA,,Qatar - Al Wakrah,2014-02-20,
Hymenoptera indet.,Animalia,OTHER_WASP_FAMILIES_HYMENOPTERA,Hymenoptera unknown,,1,51.6112920921,25.1799397416,Asia,Qatar,QA,,Qatar - Al Wakrah,2014-02-20,
Canis familiaris,Animalia,DOGS_CANIDAE,Feral Dog,,1,51.6168416664,25.1801169369,Asia,Qatar,QA,,Qatar - Al Wakrah,2014-02-20,
Spilopelia senegalensis cambayensis,Animalia,PIGEONS_AND_DOVES_COLUMBIDAE,Laughing Dove ssp cambayensis,,2,51.6119635664,25.1799688696,Asia,Qatar,QA,,Qatar - Al Wakrah,2014-02-20,
Spilopelia senegalensis cambayensis,Animalia,PIGEONS_AND_DOVES_COLUMBIDAE,Laughing Dove ssp cambayensis,,1,51.6125697456,25.1804252077,Asia,Qatar,QA,,Qatar - Al Wakrah,2014-02-20,
Spilopelia senegalensis cambayensis,Animalia,PIGEONS_AND_DOVES_COLUMBIDAE,Laughing Dove ssp cambayensis,,2,51.6017026822,25.171604855,Asia,Qatar,QA,,Qatar - Al Wakrah,2014-02-20,16:30
Passer domesticus,Animalia,OLD_WORLD_SPARROWS_PASSERIDAE,House Sparrow,,1,51.6020946356,25.1718441676,Asia,Qatar,QA,,Qatar - Al Wakrah,2014-02-20,16:29
Pycnonotus leucotis,Animalia,BULBULS_PYCNONOTIDAE,White-eared Bulbul,,1,51.6021973178,25.1724975725,Asia,Qatar,QA,,Qatar - Al Wakrah,2014-02-20,16:29
Spilopelia senegalensis cambayensis,Animalia,PIGEONS_AND_DOVES_COLUMBIDAE,Laughing Dove ssp cambayensis,,1,51.6037026822,25.1722024275,Asia,Qatar,QA,,Qatar - Al Wakrah,2014-02-20,16:26
Psittacula krameri,Animalia,PSITTACULIDAE,Rose-ringed Parakeet,,1,51.6038,25.1731194198,Asia,Qatar,QA,,Qatar - Al Wakrah,2014-02-20,16:25
Spilopelia senegalensis cambayensis,Animalia,PIGEONS_AND_DOVES_COLUMBIDAE,Laughing Dove ssp cambayensis,,1,51.6052,25.1745048549,Asia,Qatar,QA,,Qatar - Al Wakrah,2014-02-20,16:21
Acridotheres tristis,Animalia,STARLINGS_STURNIDAE,Common Myna,,1,51.6054946356,25.1747024274,Asia,Qatar,QA,,Qatar - Al Wakrah,2014-02-20,16:20
Passer domesticus,Animalia,OLD_WORLD_SPARROWS_PASSERIDAE,House Sparrow,,4,51.6055,25.1747242744,Asia,Qatar,QA,,Qatar - Al Wakrah,2014-02-20,16:20
Columba livia domestica,Animalia,PIGEONS_AND_DOVES_COLUMBIDAE,Feral Pigeon,,6,51.6054429153,25.1761,Asia,Qatar,QA,,Qatar - Al Wakrah,2014-02-20,16:15
Columba livia domestica,Animalia,PIGEONS_AND_DOVES_COLUMBIDAE,Feral Pigeon,,30,51.6057160933,25.1775,Asia,Qatar,QA,,Qatar - Al Wakrah,2014-02-20,16:12
Passer domesticus,Animalia,OLD_WORLD_SPARROWS_PASSERIDAE,House Sparrow,,1,51.6062,25.1777072821,Asia,Qatar,QA,,Qatar - Al Wakrah,2014-02-20,16:11
Felis catus,Animalia,CATS_FELIDAE,Domesticated Cat,,1,51.6083053644,25.1777024274,Asia,Qatar,QA,,Qatar - Al Wakrah,2014-02-20,16:08
Passer domesticus,Animalia,OLD_WORLD_SPARROWS_PASSERIDAE,House Sparrow,,1,51.6106214577,25.1789194188,Asia,Qatar,QA,,Qatar - Al Wakrah,2014-02-20,16:03
Columba livia domestica,Animalia,PIGEONS_AND_DOVES_COLUMBIDAE,Feral Pigeon,,4,51.6128214577,25.1809262204,Asia,Qatar,QA,,Qatar - Al Wakrah,2014-02-20,15:54
Acridotheres tristis,Animalia,STARLINGS_STURNIDAE,Common Myna,,2,51.6120107288,25.1796048547,Asia,Qatar,QA,,Qatar - Al Wakrah,2014-02-20,15:47
Felis catus,Animalia,CATS_FELIDAE,Domesticated Cat,,3,51.6120107288,25.1796048547,Asia,Qatar,QA,,Qatar - Al Wakrah,2014-02-20,15:47
Vanessa cardui,Animalia,BRUSHFOOTED_BUTTERFLIES_NYMPHALIDAE,Painted Lady,,3,51.6113107288,25.1799242734,Asia,Qatar,QA,,Qatar - Al Wakrah,2014-02-20,15:39
Acridotheres tristis,Animalia,STARLINGS_STURNIDAE,Common Myna,,3,51.6108,25.18,Asia,Qatar,QA,,Qatar - Al Wakrah,2014-02-20,15:33
Passer domesticus,Animalia,OLD_WORLD_SPARROWS_PASSERIDAE,House Sparrow,,8,51.6109107288,25.1801,Asia,Qatar,QA,,Qatar - Al Wakrah,2014-02-20,15:33
Passer domesticus,Animalia,OLD_WORLD_SPARROWS_PASSERIDAE,House Sparrow,,1,51.6124214577,25.1807194186,Asia,Qatar,QA,,Qatar - Al Wakrah,2014-02-20,15:22
Pycnonotus leucotis,Animalia,BULBULS_PYCNONOTIDAE,White-eared Bulbul,,1,51.6124107288,25.1807097093,Asia,Qatar,QA,,Qatar - Al Wakrah,2014-02-20,15:22
Papilio demoleus,Animalia,SWALLOWTAILS_PAPILIONIDAE,Lemon Butterfly,,1,51.613,25.1805097093,Asia,Qatar,QA,,Qatar - Al Wakrah,2014-02-20,15:17
Pycnonotus cafer,Animalia,BULBULS_PYCNONOTIDAE,Red-vented Bulbul,,2,51.6131026822,25.1804048547,Asia,Qatar,QA,,Qatar - Al Wakrah,2014-02-20,15:09
Streptopelia decaocto,Animalia,PIGEONS_AND_DOVES_COLUMBIDAE,Eurasian Collared Dove,,4,51.6130892712,25.1803097093,Asia,Qatar,QA,,Qatar - Al Wakrah,2014-02-20,15:02
Pycnonotus leucotis,Animalia,BULBULS_PYCNONOTIDAE,White-eared Bulbul,,2,51.6131214577,25.1803194186,Asia,Qatar,QA,,Qatar - Al Wakrah,2014-02-20,15:01
Pycnonotus leucotis,Animalia,BULBULS_PYCNONOTIDAE,White-eared Bulbul,,2,51.6170239728,25.1800052797,Asia,Qatar,QA,,Qatar - Al Wakrah,2014-02-20,14:45
Chroicocephalus genei,Animalia,GULLS_TERNS_AND_SKIMMERS_LARIDAE,Slender-billed Gull,,10,51.6212858307,25.1814495324,Asia,Qatar,QA,,Qatar - Al Wakrah,2014-02-20,14:23
Vanessa cardui,Animalia,BRUSHFOOTED_BUTTERFLIES_NYMPHALIDAE,Painted Lady,,1,51.6167,25.1805194186,Asia,Qatar,QA,,Qatar - Al Wakrah,2014-02-20,14:07
Acridotheres tristis,Animalia,STARLINGS_STURNIDAE,Common Myna,,2,51.6163,25.1801339826,Asia,Qatar,QA,,Qatar - Al Wakrah,2014-02-20,14:04
Passer domesticus,Animalia,OLD_WORLD_SPARROWS_PASSERIDAE,House Sparrow,,2,51.6154107288,25.181,Asia,Qatar,QA,,Qatar - Al Wakrah,2014-02-20,14:00
Streptopelia decaocto,Animalia,PIGEONS_AND_DOVES_COLUMBIDAE,Eurasian Collared Dove,,1,51.6145,25.1812048546,Asia,Qatar,QA,,Qatar - Al Wakrah,2014-02-20,13:51
Spilopelia senegalensis cambayensis,Animalia,PIGEONS_AND_DOVES_COLUMBIDAE,Laughing Dove ssp cambayensis,,1,51.6083107288,25.1779,Asia,Qatar,QA,,Qatar - Al Wakrah,2014-02-20,13:42
Passer domesticus,Animalia,OLD_WORLD_SPARROWS_PASSERIDAE,House Sparrow,,3,51.6043026822,25.1776072821,Asia,Qatar,QA,,Qatar - Al Wakrah,2014-02-20,13:42
Acridotheres tristis,Animalia,STARLINGS_STURNIDAE,Common Myna,,2,51.5991107288,25.1796048547,Asia,Qatar,QA,,Qatar - Al Wakrah,2014-02-20,13:02
Spilopelia senegalensis cambayensis,Animalia,PIGEONS_AND_DOVES_COLUMBIDAE,Laughing Dove ssp cambayensis,,1,51.5991214577,25.1795,Asia,Qatar,QA,,Qatar - Al Wakrah,2014-02-20,12:50
Passer domesticus,Animalia,OLD_WORLD_SPARROWS_PASSERIDAE,House Sparrow,,3,51.5989026822,25.1796024273,Asia,Qatar,QA,,Qatar - Al Wakrah,2014-02-20,12:46
Columba livia domestica,Animalia,PIGEONS_AND_DOVES_COLUMBIDAE,Feral Pigeon,,3,51.5974107288,25.177919419,Asia,Qatar,QA,,Qatar - Al Wakrah,2014-02-20,12:46
Spilopelia senegalensis cambayensis,Animalia,PIGEONS_AND_DOVES_COLUMBIDAE,Laughing Dove ssp cambayensis,,1,51.6017026822,25.1713024275,Asia,Qatar,QA,,Qatar - Al Wakrah,2014-02-20,11:55
Passer domesticus,Animalia,OLD_WORLD_SPARROWS_PASSERIDAE,House Sparrow,,3,51.6016946356,25.1713024275,Asia,Qatar,QA,,Qatar - Al Wakrah,2014-02-20,11:55
Columba livia domestica,Animalia,PIGEONS_AND_DOVES_COLUMBIDAE,Feral Pigeon,,2,51.6017026822,25.1713,Asia,Qatar,QA,,Qatar - Al Wakrah,2014-02-20,11:55
Passer domesticus,Animalia,OLD_WORLD_SPARROWS_PASSERIDAE,House Sparrow,,2,51.6012,25.1715975725,Asia,Qatar,QA,,Qatar - Al Wakrah,2014-02-20,11:06
Jynx torquilla,Animalia,WOODPECKERS_PICIDAE,Eurasian Wryneck,,1,51.61321287084307,25.15093602374205,Asia,Qatar,QA,,Qatar - Al Wakrah,2020-03-31,19:09
Euodice malabarica,Animalia,WAXBILLS_MUNIAS_ALLIES_ESTRILDIDAE,Indian Silverbill,,3,51.61321287084307,25.15093602374205,Asia,Qatar,QA,,Qatar - Al Wakrah,2020-03-31,19:06
Acridotheres tristis,Animalia,STARLINGS_STURNIDAE,Common Myna,,2,51.540111541748,25.293872833252,Asia,Qatar,QA,,Qatar - Doha,2020-01-31,11:16
Vanessa cardui,Animalia,BRUSHFOOTED_BUTTERFLIES_NYMPHALIDAE,Painted Lady,,3,51.53454961,25.28653556,Asia,Qatar,QA,,Qatar - Doha,2020-01-31,12:56
Acridotheres tristis,Animalia,STARLINGS_STURNIDAE,Common Myna,,10,51.548152923584,25.2905311584473,Asia,Qatar,QA,,Qatar - Doha,2020-02-01,16:13
Acridotheres tristis,Animalia,STARLINGS_STURNIDAE,Common Myna,,30,51.5439949035645,25.2927093505859,Asia,Qatar,QA,,Qatar - Doha,2020-02-01,16:31
Hippotion celerio,Animalia,Sphingidae,Silver-striped Hawk-moth,,1,51.194076666667,25.006431666667,Asia,Qatar,QA,,Qatar - Irakaya Farm,2019-03-04,20:44
Acherontia atropos,Animalia,Sphingidae,Death's Head Hawkmoth,,1,51.50966428,25.38730709,Asia,Qatar,QA,,Qatar - Doha,2020-01-31,
Clamator jacobinus,Animalia,CUCKOOS_AND_COUCALS_CUCULIDAE,Jacobin Cuckoo,,1,51.20173043,24.98800903,Asia,Qatar,QA,,Qatar - Irakaya Farm,2019-11-30,
Acridotheres tristis,Animalia,STARLINGS_STURNIDAE,Common Myna,,1,51.550178527832,25.2891273498535,Asia,Qatar,QA,,Qatar - Doha,2019-07-26,18:20
Pterocles alchata,Animalia,SANDGROUSE_PTEROCLIDAE,Pin-tailed Sandgrouse,,6,51.2,25.81,Asia,Qatar,QA,,Qatar - Al Khor,2019-07-06,
Pterocles alchata,Animalia,SANDGROUSE_PTEROCLIDAE,Pin-tailed Sandgrouse,,6,51.2,25.81,Asia,Qatar,QA,,Qatar - Al Khor,2019-07-06,
Monticola saxatilis,Animalia,OLD_WORLD_FLYCATCHERS_MUSCICAPIDAE,Common Rock Thrush,,1,51.20224357,24.998894,Asia,Qatar,QA,,Qatar - Irakaya Farm,2019-05-02,
Sylvia communis,Animalia,OLD_WORLD_WARBLERS_SYLVIIDAE,Common Whitethroat,,1,51.6181764,25.19408786,Asia,Qatar,QA,,Qatar - Al Wakrah,2019-05-19,
Lanius collurio,Animalia,SHRIKES_LANIIDAE,Red-backed Shrike,,20,51.6181764,25.19408786,Asia,Qatar,QA,,Qatar - Al Wakrah,2019-05-19,
Lanius collurio,Animalia,SHRIKES_LANIIDAE,Red-backed Shrike,,20,51.6181764,25.19408786,Asia,Qatar,QA,,Qatar - Al Wakrah,2019-05-19,
Lanius minor,Animalia,SHRIKES_LANIIDAE,Lesser Grey Shrike,,1,51.6181764,25.19408786,Asia,Qatar,QA,,Qatar - Al Wakrah,2019-05-19,
Ixobrychus minutus,Animalia,HERONS_ARDEIDAE,Little Bittern,,2,51.16223398,25.01314631,Asia,Qatar,QA,,Qatar - Irakaya Farm,2019-05-04,
Ixobrychus minutus,Animalia,HERONS_ARDEIDAE,Little Bittern,,4,51.16223398,25.01314631,Asia,Qatar,QA,,Qatar - Irakaya Farm,2019-05-04,
Rostratula benghalensis,Animalia,PAINTED_SNIPES_ROSTRATULIDAE,Greater Painted-snipe,,1,51.16223398,25.01314631,Asia,Qatar,QA,,Qatar - Irakaya Farm,2019-05-04,
Acridotheres tristis,Animalia,STARLINGS_STURNIDAE,Common Myna,,3,51.6161843,25.2624443,Asia,Qatar,QA,,Qatar - Hamad International Airport,2019-03-11,07:38
Acridotheres tristis,Animalia,STARLINGS_STURNIDAE,Common Myna,,2,51.5333786010742,25.3250141143799,Asia,Qatar,QA,,Qatar - Doha,2019-03-06,08:32
Falco naumanni,Animalia,CARACAS_AND_FALCONS_FALCONIDAE,Lesser Kestrel,,1,51.17889762,25.00605044,Asia,Qatar,QA,,Qatar - Irakaya Farm,2019-02-27,
Sylvia nana,Animalia,OLD_WORLD_WARBLERS_SYLVIIDAE,Asian Desert Warbler,,4,51.61764666,25.18829192,Asia,Qatar,QA,,Qatar - Al Wakrah,2019-03-03,
Jynx torquilla,Animalia,WOODPECKERS_PICIDAE,Eurasian Wryneck,,1,51.61764666,25.18829192,Asia,Qatar,QA,,Qatar - Al Wakrah,2019-03-03,
Monticola saxatilis,Animalia,OLD_WORLD_FLYCATCHERS_MUSCICAPIDAE,Common Rock Thrush,,1,51.61065146,25.15477296,Asia,Qatar,QA,,Qatar - Al Wakrah,2019-03-03,
Euodice malabarica,Animalia,WAXBILLS_MUNIAS_ALLIES_ESTRILDIDAE,Indian Silverbill,,1,51.61065146,25.15477296,Asia,Qatar,QA,,Qatar - Al Wakrah,2019-03-03,
Phylloscopus collybita,Animalia,LEAF_WARBLERS_AND_ALLIES_PHYLLOSCOPIDAE,Common Chiffchaff,,1,51.61609434,25.12986568,Asia,Qatar,QA,,Qatar - Al Wakrah,2019-03-04,
Phoenicurus ochruros,Animalia,OLD_WORLD_FLYCATCHERS_MUSCICAPIDAE,Black Redstart,,1,51.61609434,25.12986568,Asia,Qatar,QA,,Qatar - Al Wakrah,2019-03-04,
Saxicola rubicola,Animalia,OLD_WORLD_FLYCATCHERS_MUSCICAPIDAE,European Stonechat,,1,51.26381099,26.14931299,Asia,Qatar,QA,,Qatar - Madinat ash Shamal,2019-03-05,
Turdus philomelos,Animalia,THRUSHES_TURDIDAE,Song Thrush,,4,51.21069454,26.12404405,Asia,Qatar,QA,,Qatar - Al Shamal Park,2019-03-05,
Acridotheres tristis,Animalia,STARLINGS_STURNIDAE,Common Myna,,4,51.6091346740723,25.2677612304688,Asia,Qatar,QA,,Qatar - Hamad International Airport,2019-02-08,16:56
Acridotheres tristis,Animalia,STARLINGS_STURNIDAE,Common Myna,,4,51.6091499328613,25.2677669525146,Asia,Qatar,QA,,Qatar - Hamad International Airport,2019-02-08,17:06
Acridotheres tristis,Animalia,STARLINGS_STURNIDAE,Common Myna,,1,51.55373740718825,25.26727854726834,Asia,Qatar,QA,,Qatar - Doha,2018-11-25,06:28
Erithacus rubecula,Animalia,OLD_WORLD_FLYCATCHERS_MUSCICAPIDAE,European Robin,,1,51.17946273,25.01220626,Asia,Qatar,QA,,Qatar - Irakaya Farm,2018-11-19,
Acridotheres tristis,Animalia,STARLINGS_STURNIDAE,Common Myna,,1,51.52,25.32,Asia,Qatar,QA,,Qatar - Doha,2018-10-16,14:48
Phoenicurus phoenicurus,Animalia,OLD_WORLD_FLYCATCHERS_MUSCICAPIDAE,Common Redstart,,1,51.1740911,25.00542816,Asia,Qatar,QA,,Qatar - Irakaya Farm,2018-10-05,
Pastor roseus,Animalia,STARLINGS_STURNIDAE,Rosy Starling,,1,51.1740911,25.00542816,Asia,Qatar,QA,,Qatar - Irakaya Farm,2018-10-05,
Plegadis falcinellus,Animalia,IBISSES_AND_SPOONBILLS_THRESKIORNITHIDAE,Glossy Ibis,,8,51.1740911,25.00542816,Asia,Qatar,QA,,Qatar - Irakaya Farm,2018-10-05,
Sylvia communis,Animalia,OLD_WORLD_WARBLERS_SYLVIIDAE,Common Whitethroat,,1,51.18233085,25.007295,Asia,Qatar,QA,,Qatar - Irakaya Farm,2018-10-15,
Sylvia nisoria,Animalia,OLD_WORLD_WARBLERS_SYLVIIDAE,Barred Warbler,,1,51.18233085,25.007295,Asia,Qatar,QA,,Qatar - Irakaya Farm,2018-10-15,
Vanellus gregarius,Animalia,PLOVERS_CHARADRIIDAE,Sociable Lapwing,,3,51.18233085,25.007295,Asia,Qatar,QA,,Qatar - Irakaya Farm,2018-10-15,
Emberiza striolata,Animalia,BUNTINGS_EMBERIZIDAE,Striolated Bunting,,1,51.2046,24.9933,Asia,Qatar,QA,,Qatar - Irakaya Farm,2018-10-15,
Porzana porzana,Animalia,RAILS_RALLIDAE,Spotted Crake,,1,51.18027091,25.00542816,Asia,Qatar,QA,,Qatar - Irakaya Farm,2018-09-23,
Jynx torquilla,Animalia,WOODPECKERS_PICIDAE,Eurasian Wryneck,,1,51.1794865318119,25.0132403243566,Asia,Qatar,QA,,Qatar - Irakaya Farm,2018-09-23,12:15
Sylvia nisoria,Animalia,OLD_WORLD_WARBLERS_SYLVIIDAE,Barred Warbler,,1,51.1979051772982,24.9930606829235,Asia,Qatar,QA,,Qatar - Irakaya Farm,2018-09-23,11:17
Oena capensis,Animalia,PIGEONS_AND_DOVES_COLUMBIDAE,Namaqua Dove,,1,51.1977809881355,24.9920412641788,Asia,Qatar,QA,,Qatar - Irakaya Farm,2018-09-23,10:07
Muscicapa striata,Animalia,OLD_WORLD_FLYCATCHERS_MUSCICAPIDAE,Spotted Flycatcher,,1,51.1826301484722,25.0119084853936,Asia,Qatar,QA,,Qatar - Irakaya Farm,2018-09-23,10:07
Merops apiaster,Animalia,BEEEATERS_MEROPIDAE,European Bee-eater,,1,51.182917077142,25.0120106153423,Asia,Qatar,QA,,Qatar - Irakaya Farm,2018-09-23,09:30
Passer hispaniolensis,Animalia,OLD_WORLD_SPARROWS_PASSERIDAE,Spanish Sparrow,,1,51.1800297668429,25.0117661407451,Asia,Qatar,QA,,Qatar - Irakaya Farm,2018-09-23,08:51
Euodice malabarica,Animalia,WAXBILLS_MUNIAS_ALLIES_ESTRILDIDAE,Indian Silverbill,,1,51.1800297668429,25.0117661407451,Asia,Qatar,QA,,Qatar - Irakaya Farm,2018-09-23,08:44
Cercotrichas galactotes,Animalia,OLD_WORLD_FLYCATCHERS_MUSCICAPIDAE,Rufous-tailed Scrub Robin,,1,51.1800297668429,25.0117661407451,Asia,Qatar,QA,,Qatar - Irakaya Farm,2018-09-23,08:43
Upupa epops,Animalia,HOOPOES_UPUPIDAE,Eurasian Hoopoe,,1,51.1800297668429,25.0117661407451,Asia,Qatar,QA,,Qatar - Irakaya Farm,2018-09-23,08:42
Lanius nubicus,Animalia,SHRIKES_LANIIDAE,Masked Shrike,,1,51.1800297668429,25.0117661407451,Asia,Qatar,QA,,Qatar - Irakaya Farm,2018-09-23,08:42
Oriolus oriolus,Animalia,ORIOLES_AND_FIG_BIRDS_ORIOLIDAE,Eurasian Golden Oriole,,1,51.1800297668429,25.0117661407451,Asia,Qatar,QA,,Qatar - Irakaya Farm,2018-09-23,08:41
Botaurus stellaris,Animalia,HERONS_ARDEIDAE,Eurasian Bittern,,1,51.18713737,24.99506279,Asia,Qatar,QA,,Qatar - Irakaya Farm,2018-06-01,
Tarucus rosaceus,Animalia,GOSSAMERWINGED_BUTTERFLIES_LYCAENIDAE,Mediterranean Blue,,3,51.17944663,26.12560907,Asia,Qatar,QA,,Qatar - Madinat ash Shamal,2018-05-04,
Lanius collurio,Animalia,SHRIKES_LANIIDAE,Red-backed Shrike,,1,51.17968451,26.12560877,Asia,Qatar,QA,,Qatar - Madinat ash Shamal,2018-05-04,
Passer hispaniolensis,Animalia,OLD_WORLD_SPARROWS_PASSERIDAE,Spanish Sparrow,,100,51.18542075,25.00387244,Asia,Qatar,QA,,Qatar - Irakaya Farm,2018-04-18,
Bubulcus ibis,Animalia,HERONS_ARDEIDAE,Western Cattle Egret,,3,51.1937,25.0069,Asia,Qatar,QA,,Qatar - Irakaya Farm,2018-04-18,10:18
Himantopus himantopus,Animalia,STILTS_AND_AVOCETS_RECURVIROSTRIDAE,Black-winged Stilt,,4,51.1937,25.0069,Asia,Qatar,QA,,Qatar - Irakaya Farm,2018-04-18,10:18
Cercotrichas galactotes,Animalia,OLD_WORLD_FLYCATCHERS_MUSCICAPIDAE,Rufous-tailed Scrub Robin,,2,51.1814,25.0118,Asia,Qatar,QA,,Qatar - Irakaya Farm,2018-04-18,10:00
Muscicapa striata,Animalia,OLD_WORLD_FLYCATCHERS_MUSCICAPIDAE,Spotted Flycatcher,,1,51.1815,25.0119,Asia,Qatar,QA,,Qatar - Irakaya Farm,2018-04-18,09:59
Upupa epops,Animalia,HOOPOES_UPUPIDAE,Eurasian Hoopoe,,3,51.1814,25.0119,Asia,Qatar,QA,,Qatar - Irakaya Farm,2018-04-18,09:59
Phoenicurus phoenicurus,Animalia,OLD_WORLD_FLYCATCHERS_MUSCICAPIDAE,Common Redstart,,3,51.1814,25.0118,Asia,Qatar,QA,,Qatar - Irakaya Farm,2018-04-18,09:59
Saxicola rubetra,Animalia,OLD_WORLD_FLYCATCHERS_MUSCICAPIDAE,Whinchat,,1,51.18542075,25.00387244,Asia,Qatar,QA,,Qatar - Irakaya Farm,2018-04-18,
Merops apiaster,Animalia,BEEEATERS_MEROPIDAE,European Bee-eater,,50,51.18542075,25.00387244,Asia,Qatar,QA,,Qatar - Irakaya Farm,2018-04-18,
Hirundo rustica,Animalia,SWALLOWS_HIRUNDINIDAE,Barn Swallow,,50,51.18542075,25.00387244,Asia,Qatar,QA,,Qatar - Irakaya Farm,2018-04-18,
Falco tinnunculus,Animalia,CARACAS_AND_FALCONS_FALCONIDAE,Common Kestrel,,1,51.18542075,25.00387244,Asia,Qatar,QA,,Qatar - Irakaya Farm,2018-04-18,
Lanius excubitor aucheri,Animalia,SHRIKES_LANIIDAE,Levant Grey Shrike,,1,51.18542075,25.00387244,Asia,Qatar,QA,,Qatar - Irakaya Farm,2018-04-18,
Lanius phoenicuroides,Animalia,SHRIKES_LANIIDAE,Red-tailed Shrike,,1,51.18542075,25.00387244,Asia,Qatar,QA,,Qatar - Irakaya Farm,2018-04-18,
Oenanthe oenanthe,Animalia,OLD_WORLD_FLYCATCHERS_MUSCICAPIDAE,Northern Wheatear,,1,51.18542075,25.00387244,Asia,Qatar,QA,,Qatar - Irakaya Farm,2018-04-18,
Oenanthe isabellina,Animalia,OLD_WORLD_FLYCATCHERS_MUSCICAPIDAE,Isabelline Wheatear,,5,51.18542075,25.00387244,Asia,Qatar,QA,,Qatar - Irakaya Farm,2018-04-18,
Muscicapa striata,Animalia,OLD_WORLD_FLYCATCHERS_MUSCICAPIDAE,Spotted Flycatcher,,2,51.18542075,25.00387244,Asia,Qatar,QA,,Qatar - Irakaya Farm,2018-04-18,
Lanius collurio,Animalia,SHRIKES_LANIIDAE,Red-backed Shrike,,1,51.18542075,25.00387244,Asia,Qatar,QA,,Qatar - Irakaya Farm,2018-04-18,
Lanius senator,Animalia,SHRIKES_LANIIDAE,Woodchat Shrike,,1,51.18542075,25.00387244,Asia,Qatar,QA,,Qatar - Irakaya Farm,2018-04-18,
Circaetus gallicus,Animalia,HAWKS_AND_EAGLES_ACCIPITRIDAE,Short-toed Snake Eagle,,1,51.18542075,25.00387244,Asia,Qatar,QA,,Qatar - Irakaya Farm,2018-04-18,
Sylvia atricapilla,Animalia,OLD_WORLD_WARBLERS_SYLVIIDAE,Eurasian Blackcap,,1,51.18542075,25.00387244,Asia,Qatar,QA,,Qatar - Irakaya Farm,2018-04-18,
Sylvia atricapilla,Animalia,OLD_WORLD_WARBLERS_SYLVIIDAE,Eurasian Blackcap,,1,51.18542075,25.00387244,Asia,Qatar,QA,,Qatar - Irakaya Farm,2018-04-18,
Monticola saxatilis,Animalia,OLD_WORLD_FLYCATCHERS_MUSCICAPIDAE,Common Rock Thrush,,1,51.18542075,25.00387244,Asia,Qatar,QA,,Qatar - Irakaya Farm,2018-04-18,
Monticola saxatilis,Animalia,OLD_WORLD_FLYCATCHERS_MUSCICAPIDAE,Common Rock Thrush,,1,51.18542075,25.00387244,Asia,Qatar,QA,,Qatar - Irakaya Farm,2018-04-18,
Azanus ubaldus,Animalia,GOSSAMERWINGED_BUTTERFLIES_LYCAENIDAE,Desert Babul Blue,,1,51.51711009,24.86266599,Asia,Qatar,QA,,Qatar - Al Wakrah,2018-04-17,
Brephidium exilis,Animalia,GOSSAMERWINGED_BUTTERFLIES_LYCAENIDAE,Western Pygmy-Blue,,1,51.51620954,24.86159154,Asia,Qatar,QA,,Qatar - Al Wakrah,2018-04-17,
Colias crocea,Animalia,WHITES_PIERIDAE,Clouded Yellow,,5,51.1861074,25.00284176,Asia,Qatar,QA,,Qatar - Irakaya Farm,2018-03-11,
Lanius nubicus,Animalia,SHRIKES_LANIIDAE,Masked Shrike,,1,51.51595205,24.86130437,Asia,Qatar,QA,,Qatar - Al Wakrah,2018-04-17,
Heremites septemtaeniatus,Animalia,Scincidae,,,5,51.51595205,24.86130437,Asia,Qatar,QA,,Qatar - Al Wakrah,2018-04-17,
Phoenicurus phoenicurus,Animalia,OLD_WORLD_FLYCATCHERS_MUSCICAPIDAE,Common Redstart,,4,51.51595205,24.86130437,Asia,Qatar,QA,,Qatar - Al Wakrah,2018-04-17,
Oenanthe isabellina,Animalia,OLD_WORLD_FLYCATCHERS_MUSCICAPIDAE,Isabelline Wheatear,,1,51.6169,25.1867,Asia,Qatar,QA,,Qatar - Al Wakrah,2018-03-27,09:14
Acontia trabealis,Animalia,Noctuidae,Spotted Sulphur,,1,51.18748069,25.00449473,Asia,Qatar,QA,,Qatar - Irakaya Farm,2017-10-10,
Rhodometra sacraria,Animalia,Geometridae,Vestal,,1,51.17909795,25.01218681,Asia,Qatar,QA,,Qatar - Irakaya Farm,2018-03-29,
Merops persicus,Animalia,BEEEATERS_MEROPIDAE,Blue-cheeked Bee-eater,,5,51.1828284,25.00096513,Asia,Qatar,QA,,Qatar - Irakaya Farm,2018-03-11,
Sylvia mystacea,Animalia,OLD_WORLD_WARBLERS_SYLVIIDAE,Menetries's Warbler,,1,51.19640708,25.007295,Asia,Qatar,QA,,Qatar - Irakaya Farm,2018-03-11,
Coccinella undecimpunctata,Animalia,LADYBIRDS_LADYBUGS_OR_LADY_BEETLES_COCCINELLIDAE,11-spot Ladybird,,1,51.19640708,25.007295,Asia,Qatar,QA,,Qatar - Irakaya Farm,2018-03-11,
Carpospiza brachydactyla,Animalia,OLD_WORLD_SPARROWS_PASSERIDAE,Pale Rockfinch,,6,51.20052695,24.99235949,Asia,Qatar,QA,,Qatar - Irakaya Farm,2018-03-11,
Spilopelia senegalensis,Animalia,PIGEONS_AND_DOVES_COLUMBIDAE,Laughing Dove,,1,51.6016,25.1714,Asia,Qatar,QA,,Qatar - Al Wakrah,2018-02-12,15:03
Acridotheres tristis,Animalia,STARLINGS_STURNIDAE,Common Myna,,1,51.6139984,25.27437934,Asia,Qatar,QA,,Qatar - Hamad International Airport,2018-02-15,
Hydroprogne caspia,Animalia,GULLS_TERNS_AND_SKIMMERS_LARIDAE,Caspian Tern,,14,51.61812544,25.17383484,Asia,Qatar,QA,,Qatar - Al Wakrah,2018-02-12,
Egretta gularis,Animalia,HERONS_ARDEIDAE,Western Reef Heron,,1,51.61812544,25.17383484,Asia,Qatar,QA,,Qatar - Al Wakrah,2018-02-12,
Ardea cinerea,Animalia,HERONS_ARDEIDAE,Grey Heron,,1,51.61812544,25.17383484,Asia,Qatar,QA,,Qatar - Al Wakrah,2018-02-12,
Fulica atra,Animalia,RAILS_RALLIDAE,Eurasian Coot,,1,51.15984052,25.01211268,Asia,Qatar,QA,,Qatar - Irakaya Farm,2018-02-09,
Gallinula chloropus,Animalia,RAILS_RALLIDAE,Common Moorhen,,1,51.15984052,25.01211268,Asia,Qatar,QA,,Qatar - Irakaya Farm,2018-02-09,
Podiceps cristatus,Animalia,GREBES_PODICIPEDIDAE,Great Crested Grebe,,1,51.15984052,25.01211268,Asia,Qatar,QA,,Qatar - Irakaya Farm,2018-02-09,
Himantopus himantopus,Animalia,STILTS_AND_AVOCETS_RECURVIROSTRIDAE,Black-winged Stilt,,1,51.16215795,24.99811123,Asia,Qatar,QA,,Qatar - Irakaya Farm,2018-02-09,
Circus aeruginosus,Animalia,HAWKS_AND_EAGLES_ACCIPITRIDAE,Western Marsh Harrier,,1,51.16215795,24.99811123,Asia,Qatar,QA,,Qatar - Irakaya Farm,2018-02-09,
Luscinia svecica,Animalia,OLD_WORLD_FLYCATCHERS_MUSCICAPIDAE,Bluethroat,,1,51.17850434,24.99547059,Asia,Qatar,QA,,Qatar - Irakaya Farm,2018-02-09,
Motacilla alba,Animalia,PIPITS_EN_WAGTAILS_MOTACILLIDAE,White Wagtail,,1,51.16894126,25.00564207,Asia,Qatar,QA,,Qatar - Irakaya Farm,2018-02-09,
Buteo rufinus,Animalia,HAWKS_AND_EAGLES_ACCIPITRIDAE,Long-legged Buzzard,,1,51.16894126,25.00564207,Asia,Qatar,QA,,Qatar - Irakaya Farm,2018-02-09,
Lanius senator,Animalia,SHRIKES_LANIIDAE,Woodchat Shrike,,1,51.16894126,25.00564207,Asia,Qatar,QA,,Qatar - Irakaya Farm,2018-02-09,
Anthus campestris,Animalia,PIPITS_EN_WAGTAILS_MOTACILLIDAE,Tawny Pipit,,1,51.16894126,25.00564207,Asia,Qatar,QA,,Qatar - Irakaya Farm,2018-02-09,
Pycnonotus leucotis,Animalia,BULBULS_PYCNONOTIDAE,White-eared Bulbul,,1,51.61592267,25.18066915,Asia,Qatar,QA,,Qatar - Al Wakrah,2018-02-12,
Passer domesticus,Animalia,OLD_WORLD_SPARROWS_PASSERIDAE,House Sparrow,,1,51.61592267,25.18066915,Asia,Qatar,QA,,Qatar - Al Wakrah,2018-02-12,
Tringa totanus,Animalia,SANDPIPERS_AND_ALLIES_SCOLOPACIDAE,Common Redshank,,1,51.61423087,25.15707453,Asia,Qatar,QA,,Qatar - Al Wakrah,2018-02-12,
Chroicocephalus genei,Animalia,GULLS_TERNS_AND_SKIMMERS_LARIDAE,Slender-billed Gull,,1,51.61423087,25.15707453,Asia,Qatar,QA,,Qatar - Al Wakrah,2018-02-12,
Chroicocephalus ridibundus,Animalia,GULLS_TERNS_AND_SKIMMERS_LARIDAE,Black-headed Gull,,1,51.61423087,25.15707453,Asia,Qatar,QA,,Qatar - Al Wakrah,2018-02-12,
Calidris alba,Animalia,SANDPIPERS_AND_ALLIES_SCOLOPACIDAE,Sanderling,,1,51.61423087,25.15707453,Asia,Qatar,QA,,Qatar - Al Wakrah,2018-02-12,
Calidris alpina,Animalia,SANDPIPERS_AND_ALLIES_SCOLOPACIDAE,Dunlin,,1,51.61423087,25.15707453,Asia,Qatar,QA,,Qatar - Al Wakrah,2018-02-12,
Calidris minuta,Animalia,SANDPIPERS_AND_ALLIES_SCOLOPACIDAE,Little Stint,,5,51.61423087,25.15707453,Asia,Qatar,QA,,Qatar - Al Wakrah,2018-02-12,
Ichthyaetus hemprichii,Animalia,GULLS_TERNS_AND_SKIMMERS_LARIDAE,Sooty Gull,,1,51.61423087,25.15707453,Asia,Qatar,QA,,Qatar - Al Wakrah,2018-02-12,
Charadrius alexandrinus,Animalia,PLOVERS_CHARADRIIDAE,Kentish Plover,,1,51.61423087,25.15707453,Asia,Qatar,QA,,Qatar - Al Wakrah,2018-02-12,
Pluvialis squatarola,Animalia,PLOVERS_CHARADRIIDAE,Grey Plover,,1,51.61423087,25.15707453,Asia,Qatar,QA,,Qatar - Al Wakrah,2018-02-12,
Haematopus ostralegus,Animalia,OYSTERCATCHERS_HAEMATOPODIDAE,Eurasian Oystercatcher,,1,51.61423087,25.15707453,Asia,Qatar,QA,,Qatar - Al Wakrah,2018-02-12,
Numenius arquata,Animalia,SANDPIPERS_AND_ALLIES_SCOLOPACIDAE,Eurasian Curlew,,1,51.61423087,25.15707453,Asia,Qatar,QA,,Qatar - Al Wakrah,2018-02-12,
Xenus cinereus,Animalia,SANDPIPERS_AND_ALLIES_SCOLOPACIDAE,Terek Sandpiper,,1,51.61423087,25.15707453,Asia,Qatar,QA,,Qatar - Al Wakrah,2018-02-12,
Arenaria interpres,Animalia,SANDPIPERS_AND_ALLIES_SCOLOPACIDAE,Ruddy Turnstone,,2,51.61423087,25.15707453,Asia,Qatar,QA,,Qatar - Al Wakrah,2018-02-12,
Euodice malabarica,Animalia,WAXBILLS_MUNIAS_ALLIES_ESTRILDIDAE,Indian Silverbill,,2,51.61618017,25.13281242,Asia,Qatar,QA,,Qatar - Al Wakrah,2018-02-12,
Alaemon alaudipes,Animalia,LARKS_ALAUDIDAE,Greater Hoopoe-Lark,,1,51.61386274,25.13141373,Asia,Qatar,QA,,Qatar - Al Wakrah,2018-02-12,
Streptopelia decaocto,Animalia,PIGEONS_AND_DOVES_COLUMBIDAE,Eurasian Collared Dove,,10,51.61605142,25.13271529,Asia,Qatar,QA,,Qatar - Al Wakrah,2018-02-12,
Acridotheres tristis,Animalia,STARLINGS_STURNIDAE,Common Myna,,10,51.61605142,25.13271529,Asia,Qatar,QA,,Qatar - Al Wakrah,2018-02-12,
Spilopelia senegalensis,Animalia,PIGEONS_AND_DOVES_COLUMBIDAE,Laughing Dove,,10,51.61605142,25.13271529,Asia,Qatar,QA,,Qatar - Al Wakrah,2018-02-12,
Sylvia nana,Animalia,OLD_WORLD_WARBLERS_SYLVIIDAE,Asian Desert Warbler,,1,51.61700293,25.19177485,Asia,Qatar,QA,,Qatar - Al Wakrah,2018-02-11,
Acridotheres tristis,Animalia,STARLINGS_STURNIDAE,Common Myna,,1,51.6131767,25.2627605,Asia,Qatar,QA,,Qatar - Hamad International Airport,2017-11-13,07:01
Accipiter nisus,Animalia,HAWKS_AND_EAGLES_ACCIPITRIDAE,Eurasian Sparrowhawk,,1,51.2012,24.9882,Asia,Qatar,QA,,Qatar - Irakaya Farm,2017-12-14,15:26
Aythya ferina,Animalia,DUCKS_GEESE_AND_SWANS_ANATIDAE,Common Pochard,,20,51.36704922,25.15802622,Asia,Qatar,QA,,Qatar,2017-12-08,
Anas crecca,Animalia,DUCKS_GEESE_AND_SWANS_ANATIDAE,Eurasian Teal,,50,51.36704922,25.15802622,Asia,Qatar,QA,,Qatar,2017-12-08,
Spatula clypeata,Animalia,DUCKS_GEESE_AND_SWANS_ANATIDAE,Northern Shoveler,,20,51.36704922,25.15802622,Asia,Qatar,QA,,Qatar,2017-12-08,
Tachybaptus ruficollis,Animalia,GREBES_PODICIPEDIDAE,Little Grebe,,50,51.36704922,25.15802622,Asia,Qatar,QA,,Qatar,2017-12-08,
Tringa stagnatilis,Animalia,SANDPIPERS_AND_ALLIES_SCOLOPACIDAE,Marsh Sandpiper,,1,51.36704922,25.15802622,Asia,Qatar,QA,,Qatar,2017-12-08,
Melanocorypha bimaculata,Animalia,LARKS_ALAUDIDAE,Bimaculated Lark,,5,51.1909,25.0007,Asia,Qatar,QA,,Qatar - Irakaya Farm,2017-12-05,
Circaetus gallicus,Animalia,HAWKS_AND_EAGLES_ACCIPITRIDAE,Short-toed Snake Eagle,,1,51.18679404,25.0037752,Asia,Qatar,QA,,Qatar - Irakaya Farm,2017-12-05,
Buteo rufinus,Animalia,HAWKS_AND_EAGLES_ACCIPITRIDAE,Long-legged Buzzard,,4,51.18679404,25.0037752,Asia,Qatar,QA,,Qatar - Irakaya Farm,2017-12-05,
Pastor roseus,Animalia,STARLINGS_STURNIDAE,Rosy Starling,,1,51.21153876,26.12442214,Asia,Qatar,QA,,Qatar - Al Shamal Park,2017-12-02,
Sturnus vulgaris,Animalia,STARLINGS_STURNIDAE,Common Starling,,6,51.21153876,26.12442214,Asia,Qatar,QA,,Qatar - Al Shamal Park,2017-12-02,
Fringilla montifringilla,Animalia,FINCHES_FRINGILLIDAE,Brambling,,1,51.18116509,26.12632158,Asia,Qatar,QA,,Qatar - Madinat ash Shamal,2017-12-02,
Oenanthe oenanthe,Animalia,OLD_WORLD_FLYCATCHERS_MUSCICAPIDAE,Northern Wheatear,,1,51.61574364,25.14044759,Asia,Qatar,QA,,Qatar - Al Wakrah,2017-03-19,
Hypocolius ampelinus,Animalia,Hypocoliidae,Grey Hypocolius,,20,51.51684707,24.86233106,Asia,Qatar,QA,,Qatar - Al Wakrah,2017-11-21,
Circus macrourus,Animalia,HAWKS_AND_EAGLES_ACCIPITRIDAE,Pallid Harrier,,1,51.18439078,24.99475162,Asia,Qatar,QA,,Qatar - Irakaya Farm,2017-11-05,
Athene noctua lilith,Animalia,OWLS_STRIGIDAE,Little Owl ssp lilith,,1,51.19268417,25.00721721,Asia,Qatar,QA,,Qatar - Irakaya Farm,2017-11-03,
Falco subbuteo,Animalia,CARACAS_AND_FALCONS_FALCONIDAE,Eurasian Hobby,,1,51.19268417,25.00721721,Asia,Qatar,QA,,Qatar - Irakaya Farm,2017-11-03,
Glareola nordmanni,Animalia,COURSERS_AND_PRATINCOLES_GLAREOLIDAE,Black-winged Pratincole,,1,51.19268417,25.00721721,Asia,Qatar,QA,,Qatar - Irakaya Farm,2017-11-03,
Gallinago gallinago,Animalia,SANDPIPERS_AND_ALLIES_SCOLOPACIDAE,Common Snipe,,1,51.18440151,25.00006084,Asia,Qatar,QA,,Qatar - Irakaya Farm,2017-10-13,
Falco naumanni,Animalia,CARACAS_AND_FALCONS_FALCONIDAE,Lesser Kestrel,,1,51.1861074,25.00044978,Asia,Qatar,QA,,Qatar - Irakaya Farm,2017-10-11,
Circaetus gallicus,Animalia,HAWKS_AND_EAGLES_ACCIPITRIDAE,Short-toed Snake Eagle,,1,51.1861074,25.00044978,Asia,Qatar,QA,,Qatar - Irakaya Farm,2017-10-11,
Falco subbuteo,Animalia,CARACAS_AND_FALCONS_FALCONIDAE,Eurasian Hobby,,1,51.1861074,25.00044978,Asia,Qatar,QA,,Qatar - Irakaya Farm,2017-10-11,
Ficedula parva,Animalia,OLD_WORLD_FLYCATCHERS_MUSCICAPIDAE,Red-breasted Flycatcher,,1,51.51662394,24.86222915,Asia,Qatar,QA,,Qatar - Al Wakrah,2017-10-10,
Lanius collurio,Animalia,SHRIKES_LANIIDAE,Red-backed Shrike,,1,51.20644659,26.12949127,Asia,Qatar,QA,,Qatar - Madinat ash Shamal,2017-10-06,
Milvus migrans,Animalia,HAWKS_AND_EAGLES_ACCIPITRIDAE,Black Kite,,1,51.18336082,25.00885068,Asia,Qatar,QA,,Qatar - Irakaya Farm,2017-10-07,
Chlidonias leucopterus,Animalia,GULLS_TERNS_AND_SKIMMERS_LARIDAE,White-winged Tern,,1,51.27451032,26.14582661,Asia,Qatar,QA,,Qatar - Madinat ash Shamal,2017-09-29,
Emberiza hortulana,Animalia,BUNTINGS_EMBERIZIDAE,Ortolan Bunting,,1,51.18035406,26.12633182,Asia,Qatar,QA,,Qatar - Madinat ash Shamal,2017-09-29,
Cuculus canorus,Animalia,CUCKOOS_AND_COUCALS_CUCULIDAE,Common Cuckoo,,1,51.211162596002,26.124770436196,Asia,Qatar,QA,,Qatar - Al Shamal Park,2017-09-29,
Phalaropus lobatus,Animalia,SANDPIPERS_AND_ALLIES_SCOLOPACIDAE,Red-necked Phalarope,,1,51.17898077,24.99572402,Asia,Qatar,QA,,Qatar - Irakaya Farm,2017-09-23,
Anax parthenope,Animalia,DARNERS_AESHNIDAE,Lesser Emperor,,1,51.51612304,24.86043313,Asia,Qatar,QA,,Qatar - Al Wakrah,2017-09-19,
Vanellus indicus,Animalia,PLOVERS_CHARADRIIDAE,Red-wattled Lapwing,,6,51.16070151,24.99422652,Asia,Qatar,QA,,Qatar - Irakaya Farm,2017-09-18,
Luscinia luscinia,Animalia,OLD_WORLD_FLYCATCHERS_MUSCICAPIDAE,Thrush Nightingale,,1,51.18027091,25.01133972,Asia,Qatar,QA,,Qatar - Irakaya Farm,2017-09-18,
Jynx torquilla,Animalia,WOODPECKERS_PICIDAE,Eurasian Wryneck,,1,51.18714809,25.00216112,Asia,Qatar,QA,,Qatar - Irakaya Farm,2017-09-15,
Oriolus oriolus,Animalia,ORIOLES_AND_FIG_BIRDS_ORIOLIDAE,Eurasian Golden Oriole,,2,51.18714809,25.00216112,Asia,Qatar,QA,,Qatar - Irakaya Farm,2017-09-15,
Alaudala rufescens,Animalia,LARKS_ALAUDIDAE,Lesser Short-toed Lark,,8,51.24578655,26.15388749,Asia,Qatar,QA,,Qatar - Madinat ash Shamal,2017-09-15,
Carpodacus erythrinus,Animalia,FINCHES_FRINGILLIDAE,Common Rosefinch,,2,51.18043989,26.12607655,Asia,Qatar,QA,,Qatar - Madinat ash Shamal,2017-09-15,
Lanius minor,Animalia,SHRIKES_LANIIDAE,Lesser Grey Shrike,,1,51.18043989,26.12607655,Asia,Qatar,QA,,Qatar - Madinat ash Shamal,2017-09-15,
Pastor roseus,Animalia,STARLINGS_STURNIDAE,Rosy Starling,,1,51.211162596002,26.124770436196,Asia,Qatar,QA,,Qatar - Al Shamal Park,2017-09-15,
Crex crex,Animalia,RAILS_RALLIDAE,Corn Crake,,1,51.2,26.1,Asia,Qatar,QA,,Qatar - Al Shamal Park,2017-09-03,
Trithemis annulata,Animalia,SKIMMERS_LIBELLULIDAE,Violet Dropwing,,8,51.18001074,26.1261777,Asia,Qatar,QA,,Qatar - Madinat ash Shamal,2017-08-11,
Dromas ardeola,Animalia,CRABPLOVER_DROMADIDAE,Crab-plover,,14,51.25166461,26.15768179,Asia,Qatar,QA,,Qatar - Madinat ash Shamal,2017-08-11,
Junonia orithya,Animalia,BRUSHFOOTED_BUTTERFLIES_NYMPHALIDAE,Blue Pansy,,4,51.19469047,25.00169439,Asia,Qatar,QA,,Qatar - Irakaya Farm,2017-08-09,
Acridotheres tristis,Animalia,STARLINGS_STURNIDAE,Common Myna,,1,51.53491973,25.29089456,Asia,Qatar,QA,,Qatar - Doha,2017-05-05,
Pluvialis squatarola,Animalia,PLOVERS_CHARADRIIDAE,Grey Plover,,1,51.61609065,25.18118481,Asia,Qatar,QA,,Qatar - Al Wakrah,2017-03-26,
Danaus chrysippus,Animalia,BRUSHFOOTED_BUTTERFLIES_NYMPHALIDAE,African Monarch,,1,51.18719101,25.00091651,Asia,Qatar,QA,,Qatar - Irakaya Farm,2017-04-27,
Cercotrichas galactotes,Animalia,OLD_WORLD_FLYCATCHERS_MUSCICAPIDAE,Rufous-tailed Scrub Robin,,1,51.18485212,25.00923959,Asia,Qatar,QA,,Qatar - Al Rayyan,2017-04-27,
Luscinia megarhynchos,Animalia,OLD_WORLD_FLYCATCHERS_MUSCICAPIDAE,Common Nightingale,,1,51.18485212,25.00923959,Asia,Qatar,QA,,Qatar - Al Rayyan,2017-04-27,
Chlidonias leucopterus,Animalia,GULLS_TERNS_AND_SKIMMERS_LARIDAE,White-winged Tern,,2,51.16013288,24.99741598,Asia,Qatar,QA,,Qatar - Al Rayyan,2017-04-27,
Charadrius alexandrinus,Animalia,PLOVERS_CHARADRIIDAE,Kentish Plover,,1,51.52273268,25.14452706,Asia,Qatar,QA,,Qatar - Al Wakrah,2017-04-27,
Merops apiaster,Animalia,BEEEATERS_MEROPIDAE,European Bee-eater,,2,51.52273268,25.14452706,Asia,Qatar,QA,,Qatar - Al Wakrah,2017-04-27,
Circaetus gallicus,Animalia,HAWKS_AND_EAGLES_ACCIPITRIDAE,Short-toed Snake Eagle,,1,51.16035819,24.9954712,Asia,Qatar,QA,,Qatar - Irakaya Farm,2017-04-27,
Oenanthe isabellina,Animalia,OLD_WORLD_FLYCATCHERS_MUSCICAPIDAE,Isabelline Wheatear,,1,51.16035819,24.9954712,Asia,Qatar,QA,,Qatar - Irakaya Farm,2017-04-27,
Podiceps cristatus,Animalia,GREBES_PODICIPEDIDAE,Great Crested Grebe,,20,51.16035819,24.9954712,Asia,Qatar,QA,,Qatar - Al Rayyan,2017-04-27,
Hirundo rustica,Animalia,SWALLOWS_HIRUNDINIDAE,Barn Swallow,,50,51.1857748,25.00379465,Asia,Qatar,QA,,Qatar - Al Rayyan,2017-04-27,
Monticola saxatilis,Animalia,OLD_WORLD_FLYCATCHERS_MUSCICAPIDAE,Common Rock Thrush,,3,51.1857748,25.00379465,Asia,Qatar,QA,,Qatar - Al Rayyan,2017-04-27,
Streptopelia turtur,Animalia,PIGEONS_AND_DOVES_COLUMBIDAE,European Turtle Dove,,1,51.1857748,25.00379465,Asia,Qatar,QA,,Qatar - Al Rayyan,2017-04-27,
Muscicapa striata,Animalia,OLD_WORLD_FLYCATCHERS_MUSCICAPIDAE,Spotted Flycatcher,,2,51.1857748,25.00379465,Asia,Qatar,QA,,Qatar - Al Rayyan,2017-04-27,
Oriolus oriolus,Animalia,ORIOLES_AND_FIG_BIRDS_ORIOLIDAE,Eurasian Golden Oriole,,2,51.1857748,25.00379465,Asia,Qatar,QA,,Qatar - Al Rayyan,2017-04-27,
Coracias garrulus,Animalia,ROLLERS_CORACIIDAE,European Roller,,1,51.1857748,25.00379465,Asia,Qatar,QA,,Qatar - Al Rayyan,2017-04-27,
Lanius nubicus,Animalia,SHRIKES_LANIIDAE,Masked Shrike,,1,51.1857748,25.00379465,Asia,Qatar,QA,,Qatar - Al Rayyan,2017-04-27,
Sylvia nisoria,Animalia,OLD_WORLD_WARBLERS_SYLVIIDAE,Barred Warbler,,1,51.1857748,25.00379465,Asia,Qatar,QA,,Qatar - Al Rayyan,2017-04-27,
Streptopelia turtur,Animalia,PIGEONS_AND_DOVES_COLUMBIDAE,European Turtle Dove,,1,51.18102595,25.01158279,Asia,Qatar,QA,,Qatar - Al Rayyan,2017-04-26,
Cercotrichas galactotes,Animalia,OLD_WORLD_FLYCATCHERS_MUSCICAPIDAE,Rufous-tailed Scrub Robin,,1,51.18102595,25.01158279,Asia,Qatar,QA,,Qatar - Al Rayyan,2017-04-26,
Coracias garrulus,Animalia,ROLLERS_CORACIIDAE,European Roller,,4,51.18102595,25.01158279,Asia,Qatar,QA,,Qatar - Al Rayyan,2017-04-26,
Muscicapa striata,Animalia,OLD_WORLD_FLYCATCHERS_MUSCICAPIDAE,Spotted Flycatcher,,1,51.18102595,25.01158279,Asia,Qatar,QA,,Qatar - Al Rayyan,2017-04-26,
Sylvia nisoria,Animalia,OLD_WORLD_WARBLERS_SYLVIIDAE,Barred Warbler,,1,51.18102595,25.01158279,Asia,Qatar,QA,,Qatar - Al Rayyan,2017-04-26,
Lanius excubitor aucheri,Animalia,SHRIKES_LANIIDAE,Levant Grey Shrike,,1,51.18102595,25.01158279,Asia,Qatar,QA,,Qatar - Irakaya Farm,2017-04-26,
Sylvia atricapilla,Animalia,OLD_WORLD_WARBLERS_SYLVIIDAE,Eurasian Blackcap,,1,51.18102595,25.01158279,Asia,Qatar,QA,,Qatar - Al Rayyan,2017-04-26,
Luscinia megarhynchos,Animalia,OLD_WORLD_FLYCATCHERS_MUSCICAPIDAE,Common Nightingale,,4,51.18102595,25.01158279,Asia,Qatar,QA,,Qatar - Al Rayyan,2017-04-26,
Jynx torquilla,Animalia,WOODPECKERS_PICIDAE,Eurasian Wryneck,,2,51.1806,26.1264,Asia,Qatar,QA,,Qatar - Madinat ash Shamal,2017-04-22,
Turdus philomelos,Animalia,THRUSHES_TURDIDAE,Song Thrush,,1,51.1806,26.1264,Asia,Qatar,QA,,Qatar - Madinat ash Shamal,2017-04-22,
Cecropis daurica,Animalia,SWALLOWS_HIRUNDINIDAE,Red-rumped Swallow,,5,51.1806,26.1264,Asia,Qatar,QA,,Qatar - Madinat ash Shamal,2017-04-22,
Falco naumanni,Animalia,CARACAS_AND_FALCONS_FALCONIDAE,Lesser Kestrel,,2,51.1742,26.1081,Asia,Qatar,QA,,Qatar - Madinat ash Shamal,2017-04-22,
Irania gutturalis,Animalia,OLD_WORLD_FLYCATCHERS_MUSCICAPIDAE,White-throated Robin,,1,51.21196792,26.12447271,Asia,Qatar,QA,,Qatar - Al Shamal Park,2017-04-22,
Calidris alpina,Animalia,SANDPIPERS_AND_ALLIES_SCOLOPACIDAE,Dunlin,,1,51.6179,25.1372,Asia,Qatar,QA,,Qatar - Al Wakrah,2017-03-19,15:00
Lanius phoenicuroides,Animalia,SHRIKES_LANIIDAE,Red-tailed Shrike,,1,51.61678836,25.18126263,Asia,Qatar,QA,,Qatar - Al Wakrah,2017-03-26,16:00
Numenius arquata,Animalia,SANDPIPERS_AND_ALLIES_SCOLOPACIDAE,Eurasian Curlew,,1,51.61678836,25.18126263,Asia,Qatar,QA,,Qatar - Al Wakrah,2017-03-26,16:00
Charadrius alexandrinus,Animalia,PLOVERS_CHARADRIIDAE,Kentish Plover,,2,51.61678836,25.18126263,Asia,Qatar,QA,,Qatar - Al Wakrah,2017-03-26,16:00
Limosa lapponica,Animalia,SANDPIPERS_AND_ALLIES_SCOLOPACIDAE,Bar-tailed Godwit,,2,51.61678836,25.18126263,Asia,Qatar,QA,,Qatar - Al Wakrah,2017-03-26,16:00
Tringa totanus,Animalia,SANDPIPERS_AND_ALLIES_SCOLOPACIDAE,Common Redshank,,1,51.61678836,25.18126263,Asia,Qatar,QA,,Qatar - Al Wakrah,2017-03-26,16:00
Tringa nebularia,Animalia,SANDPIPERS_AND_ALLIES_SCOLOPACIDAE,Common Greenshank,,1,51.61678836,25.18126263,Asia,Qatar,QA,,Qatar - Al Wakrah,2017-03-26,16:00
Xenus cinereus,Animalia,SANDPIPERS_AND_ALLIES_SCOLOPACIDAE,Terek Sandpiper,,1,51.61678836,25.18126263,Asia,Qatar,QA,,Qatar - Al Wakrah,2017-03-26,16:00
Larus fuscus heuglini,Animalia,GULLS_TERNS_AND_SKIMMERS_LARIDAE,Heuglin's Gull,,1,51.61678836,25.18126263,Asia,Qatar,QA,,Qatar - Al Wakrah,2017-03-26,16:00
Gelochelidon nilotica,Animalia,GULLS_TERNS_AND_SKIMMERS_LARIDAE,Gull-billed Tern,,4,51.61678836,25.18126263,Asia,Qatar,QA,,Qatar - Al Wakrah,2017-03-26,16:00
Butorides striata,Animalia,HERONS_ARDEIDAE,Striated Heron,,1,51.61705624,25.1790125,Asia,Qatar,QA,,Qatar - Al Wakrah,2017-03-26,16:00
Alcedo atthis,Animalia,KINGFISHERS_ALCEDINIDAE,Common Kingfisher,,1,51.61705624,25.1790125,Asia,Qatar,QA,,Qatar - Al Wakrah,2017-03-26,16:00
Junonia orithya,Animalia,BRUSHFOOTED_BUTTERFLIES_NYMPHALIDAE,Blue Pansy,,1,51.1939,25.0072,Asia,Qatar,QA,,Qatar - Al Rayyan,2017-03-26,10:35
Pycnonotus cafer,Animalia,BULBULS_PYCNONOTIDAE,Red-vented Bulbul,,1,51.6034,25.1749,Asia,Qatar,QA,,Qatar - Al Wakrah,2017-03-26,14:18
Acridotheres tristis,Animalia,STARLINGS_STURNIDAE,Common Myna,,1,51.5381,25.2541,Asia,Qatar,QA,,Qatar - Doha,2017-03-26,12:34
Orthetrum sabina,Animalia,SKIMMERS_LIBELLULIDAE,Slender Skimmer,,5,51.1939,25.0072,Asia,Qatar,QA,,Qatar - Al Rayyan,2017-03-26,10:35
Lanius excubitor aucheri,Animalia,SHRIKES_LANIIDAE,Levant Grey Shrike,,1,51.18,25.0116,Asia,Qatar,QA,,Qatar - Al Rayyan,2017-03-26,10:00
Lanius phoenicuroides,Animalia,SHRIKES_LANIIDAE,Red-tailed Shrike,,1,51.18,25.0116,Asia,Qatar,QA,,Qatar - Al Rayyan,2017-03-26,10:00
Upupa epops,Animalia,HOOPOES_UPUPIDAE,Eurasian Hoopoe,,4,51.18,25.0116,Asia,Qatar,QA,,Qatar - Al Rayyan,2017-03-26,10:00
Coturnix coturnix,Animalia,FRANCOLINS_QUAILS_PARTRIDGES_AND_PHEASANTS_PHASIANIDAE,Common Quail,,1,51.18,25.0116,Asia,Qatar,QA,,Qatar - Al Rayyan,2017-03-26,10:00
Pycnonotus leucotis,Animalia,BULBULS_PYCNONOTIDAE,White-eared Bulbul,,1,51.18,25.0116,Asia,Qatar,QA,,Qatar - Al Rayyan,2017-03-26,10:00
Circaetus gallicus,Animalia,HAWKS_AND_EAGLES_ACCIPITRIDAE,Short-toed Snake Eagle,,1,51.18,25.0116,Asia,Qatar,QA,,Qatar - Al Rayyan,2017-03-26,10:00
Falco tinnunculus,Animalia,CARACAS_AND_FALCONS_FALCONIDAE,Common Kestrel,,3,51.18,25.0116,Asia,Qatar,QA,,Qatar - Al Rayyan,2017-03-26,10:00
Phoenicurus phoenicurus samamisicus,Animalia,OLD_WORLD_FLYCATCHERS_MUSCICAPIDAE,Common Redstart ssp samamisicus,,1,51.18,25.0116,Asia,Qatar,QA,,Qatar - Al Rayyan,2017-03-26,10:00
Phoenicurus phoenicurus,Animalia,OLD_WORLD_FLYCATCHERS_MUSCICAPIDAE,Common Redstart,,2,51.18,25.0116,Asia,Qatar,QA,,Qatar - Al Rayyan,2017-03-26,10:00
Motacilla flava flava,Animalia,PIPITS_EN_WAGTAILS_MOTACILLIDAE,Blue-headed Wagtail,,1,51.18,25.0116,Asia,Qatar,QA,,Qatar - Al Rayyan,2017-03-26,10:00
Emberiza calandra,Animalia,BUNTINGS_EMBERIZIDAE,Corn Bunting,,3,51.18,25.0116,Asia,Qatar,QA,,Qatar - Al Rayyan,2017-03-26,10:00
Galerida cristata,Animalia,LARKS_ALAUDIDAE,Crested Lark,,1,51.18,25.0116,Asia,Qatar,QA,,Qatar - Al Rayyan,2017-03-26,10:00
Oena capensis,Animalia,PIGEONS_AND_DOVES_COLUMBIDAE,Namaqua Dove,,1,51.18,25.0116,Asia,Qatar,QA,,Qatar - Al Rayyan,2017-03-26,10:00
Spilopelia senegalensis cambayensis,Animalia,PIGEONS_AND_DOVES_COLUMBIDAE,Laughing Dove ssp cambayensis,,5,51.18,25.0116,Asia,Qatar,QA,,Qatar - Al Rayyan,2017-03-26,10:00
Turdus philomelos,Animalia,THRUSHES_TURDIDAE,Song Thrush,,1,51.18,25.0116,Asia,Qatar,QA,,Qatar - Al Rayyan,2017-03-26,10:00
Acridotheres tristis,Animalia,STARLINGS_STURNIDAE,Common Myna,,1,51.6022,25.2456,Asia,Qatar,QA,,Qatar - Doha,2017-03-27,07:52
Passer domesticus,Animalia,OLD_WORLD_SPARROWS_PASSERIDAE,House Sparrow,,1,51.5979,25.1724,Asia,Qatar,QA,,Qatar - Al Wakrah,2017-03-27,07:35
Spilopelia senegalensis cambayensis,Animalia,PIGEONS_AND_DOVES_COLUMBIDAE,Laughing Dove ssp cambayensis,,1,51.5979,25.1724,Asia,Qatar,QA,,Qatar - Al Wakrah,2017-03-27,07:35
Columba livia domestica,Animalia,PIGEONS_AND_DOVES_COLUMBIDAE,Feral Pigeon,,1,51.5979,25.1724,Asia,Qatar,QA,,Qatar - Al Wakrah,2017-03-27,07:35
Acridotheres tristis,Animalia,STARLINGS_STURNIDAE,Common Myna,,1,51.5979,25.1724,Asia,Qatar,QA,,Qatar - Al Wakrah,2017-03-27,07:35
Thalasseus bergii,Animalia,GULLS_TERNS_AND_SKIMMERS_LARIDAE,Greater Crested Tern,,1,51.24515891,26.1749279,Asia,Qatar,QA,,Qatar - Madinat ash Shamal,2017-03-28,
Sturnia pagodarum,Animalia,STARLINGS_STURNIDAE,Brahminy Starling,,1,51.11687422,25.81488159,Asia,Qatar,QA,,Qatar - Al Khor,2017-03-27,
Falco naumanni,Animalia,CARACAS_AND_FALCONS_FALCONIDAE,Lesser Kestrel,,1,51.11687422,25.81488159,Asia,Qatar,QA,,Qatar - Al Khor,2017-03-27,
Junonia orithya,Animalia,BRUSHFOOTED_BUTTERFLIES_NYMPHALIDAE,Blue Pansy,,1,51.1939,25.0072,Asia,Qatar,QA,,Qatar - Al Rayyan,2017-03-26,10:35
Passer domesticus,Animalia,OLD_WORLD_SPARROWS_PASSERIDAE,House Sparrow,,1,51.6131,25.181,Asia,Qatar,QA,,Qatar - Al Wakrah,2017-03-26,15:53
Spilopelia senegalensis cambayensis,Animalia,PIGEONS_AND_DOVES_COLUMBIDAE,Laughing Dove ssp cambayensis,,1,51.6128,25.1809,Asia,Qatar,QA,,Qatar - Al Wakrah,2017-03-26,15:52
Streptopelia decaocto,Animalia,PIGEONS_AND_DOVES_COLUMBIDAE,Eurasian Collared Dove,,1,51.6127,25.1809,Asia,Qatar,QA,,Qatar - Al Wakrah,2017-03-26,15:52
Pycnonotus leucotis,Animalia,BULBULS_PYCNONOTIDAE,White-eared Bulbul,,1,51.6133,25.181,Asia,Qatar,QA,,Qatar - Al Wakrah,2017-03-26,15:49
Acridotheres tristis,Animalia,STARLINGS_STURNIDAE,Common Myna,,1,51.6133,25.181,Asia,Qatar,QA,,Qatar - Al Wakrah,2017-03-26,15:48
Streptopelia decaocto,Animalia,PIGEONS_AND_DOVES_COLUMBIDAE,Eurasian Collared Dove,,2,51.6072,25.178,Asia,Qatar,QA,,Qatar - Al Wakrah,2017-03-26,14:24
Passer domesticus,Animalia,OLD_WORLD_SPARROWS_PASSERIDAE,House Sparrow,,2,51.6064,25.1778,Asia,Qatar,QA,,Qatar - Al Wakrah,2017-03-26,14:23
Acridotheres tristis,Animalia,STARLINGS_STURNIDAE,Common Myna,,1,51.6038,25.1749,Asia,Qatar,QA,,Qatar - Al Wakrah,2017-03-26,14:21
Streptopelia decaocto,Animalia,PIGEONS_AND_DOVES_COLUMBIDAE,Eurasian Collared Dove,,1,51.6039,25.1749,Asia,Qatar,QA,,Qatar - Al Wakrah,2017-03-26,14:19
Pycnonotus cafer,Animalia,BULBULS_PYCNONOTIDAE,Red-vented Bulbul,,1,51.6034,25.1749,Asia,Qatar,QA,,Qatar - Al Wakrah,2017-03-26,14:18
Passer domesticus,Animalia,OLD_WORLD_SPARROWS_PASSERIDAE,House Sparrow,,5,51.603,25.1748,Asia,Qatar,QA,,Qatar - Al Wakrah,2017-03-26,14:17
Oenanthe pleschanka,Animalia,OLD_WORLD_FLYCATCHERS_MUSCICAPIDAE,Pied Wheatear,,1,51.61678836,25.18126263,Asia,Qatar,QA,,Qatar - Al Wakrah,2017-03-26,16:00
Lanius phoenicuroides,Animalia,SHRIKES_LANIIDAE,Red-tailed Shrike,,1,51.61678836,25.18126263,Asia,Qatar,QA,,Qatar - Al Wakrah,2017-03-26,16:00
Numenius arquata,Animalia,SANDPIPERS_AND_ALLIES_SCOLOPACIDAE,Eurasian Curlew,,1,51.61678836,25.18126263,Asia,Qatar,QA,,Qatar - Al Wakrah,2017-03-26,16:00
Charadrius alexandrinus,Animalia,PLOVERS_CHARADRIIDAE,Kentish Plover,,2,51.61678836,25.18126263,Asia,Qatar,QA,,Qatar - Al Wakrah,2017-03-26,16:00
Limosa lapponica,Animalia,SANDPIPERS_AND_ALLIES_SCOLOPACIDAE,Bar-tailed Godwit,,2,51.61678836,25.18126263,Asia,Qatar,QA,,Qatar - Al Wakrah,2017-03-26,16:00
Tringa totanus,Animalia,SANDPIPERS_AND_ALLIES_SCOLOPACIDAE,Common Redshank,,1,51.61678836,25.18126263,Asia,Qatar,QA,,Qatar - Al Wakrah,2017-03-26,16:00
Tringa nebularia,Animalia,SANDPIPERS_AND_ALLIES_SCOLOPACIDAE,Common Greenshank,,1,51.61678836,25.18126263,Asia,Qatar,QA,,Qatar - Al Wakrah,2017-03-26,16:00
Xenus cinereus,Animalia,SANDPIPERS_AND_ALLIES_SCOLOPACIDAE,Terek Sandpiper,,1,51.61678836,25.18126263,Asia,Qatar,QA,,Qatar - Al Wakrah,2017-03-26,16:00
Larus fuscus heuglini,Animalia,GULLS_TERNS_AND_SKIMMERS_LARIDAE,Heuglin's Gull,,1,51.61678836,25.18126263,Asia,Qatar,QA,,Qatar - Al Wakrah,2017-03-26,16:00
Gelochelidon nilotica,Animalia,GULLS_TERNS_AND_SKIMMERS_LARIDAE,Gull-billed Tern,,4,51.61678836,25.18126263,Asia,Qatar,QA,,Qatar - Al Wakrah,2017-03-26,16:00
Butorides striata,Animalia,HERONS_ARDEIDAE,Striated Heron,,1,51.61705624,25.1790125,Asia,Qatar,QA,,Qatar - Al Wakrah,2017-03-26,16:00
Alcedo atthis,Animalia,KINGFISHERS_ALCEDINIDAE,Common Kingfisher,,1,51.61705624,25.1790125,Asia,Qatar,QA,,Qatar - Al Wakrah,2017-03-26,16:00
Passer hispaniolensis,Animalia,OLD_WORLD_SPARROWS_PASSERIDAE,Spanish Sparrow,,50,51.18,25.0116,Asia,Qatar,QA,,Qatar - Al Rayyan,2017-03-26,10:00
Buteo rufinus,Animalia,HAWKS_AND_EAGLES_ACCIPITRIDAE,Long-legged Buzzard,,1,51.18,25.0116,Asia,Qatar,QA,,Qatar - Al Rayyan,2017-03-26,10:00
Circaetus gallicus,Animalia,HAWKS_AND_EAGLES_ACCIPITRIDAE,Short-toed Snake Eagle,,1,51.18,25.0116,Asia,Qatar,QA,,Qatar - Al Rayyan,2017-03-26,10:00
Falco tinnunculus,Animalia,CARACAS_AND_FALCONS_FALCONIDAE,Common Kestrel,,3,51.18,25.0116,Asia,Qatar,QA,,Qatar - Al Rayyan,2017-03-26,10:00
Phoenicurus phoenicurus samamisicus,Animalia,OLD_WORLD_FLYCATCHERS_MUSCICAPIDAE,Common Redstart ssp samamisicus,,1,51.18,25.0116,Asia,Qatar,QA,,Qatar - Al Rayyan,2017-03-26,10:00
Phoenicurus phoenicurus,Animalia,OLD_WORLD_FLYCATCHERS_MUSCICAPIDAE,Common Redstart,,1,51.18,25.0116,Asia,Qatar,QA,,Qatar - Al Rayyan,2017-03-26,10:00
Motacilla flava flava,Animalia,PIPITS_EN_WAGTAILS_MOTACILLIDAE,Blue-headed Wagtail,,1,51.18,25.0116,Asia,Qatar,QA,,Qatar - Al Rayyan,2017-03-26,10:00
Oenanthe pleschanka,Animalia,OLD_WORLD_FLYCATCHERS_MUSCICAPIDAE,Pied Wheatear,,2,51.18,25.0116,Asia,Qatar,QA,,Qatar - Al Rayyan,2017-03-26,10:00
Oenanthe isabellina,Animalia,OLD_WORLD_FLYCATCHERS_MUSCICAPIDAE,Isabelline Wheatear,,1,51.18,25.0116,Asia,Qatar,QA,,Qatar - Al Rayyan,2017-03-26,10:00
Anthus campestris,Animalia,PIPITS_EN_WAGTAILS_MOTACILLIDAE,Tawny Pipit,,1,51.18,25.0116,Asia,Qatar,QA,,Qatar - Al Rayyan,2017-03-26,10:00
Emberiza calandra,Animalia,BUNTINGS_EMBERIZIDAE,Corn Bunting,,3,51.18,25.0116,Asia,Qatar,QA,,Qatar - Al Rayyan,2017-03-26,10:00
Galerida cristata,Animalia,LARKS_ALAUDIDAE,Crested Lark,,1,51.18,25.0116,Asia,Qatar,QA,,Qatar - Al Rayyan,2017-03-26,10:00
Oena capensis,Animalia,PIGEONS_AND_DOVES_COLUMBIDAE,Namaqua Dove,,1,51.18,25.0116,Asia,Qatar,QA,,Qatar - Al Rayyan,2017-03-26,10:00
Lanius excubitor aucheri,Animalia,SHRIKES_LANIIDAE,Levant Grey Shrike,,1,51.18,25.0116,Asia,Qatar,QA,,Qatar - Al Rayyan,2017-03-26,10:00
Lanius phoenicuroides,Animalia,SHRIKES_LANIIDAE,Red-tailed Shrike,,1,51.18,25.0116,Asia,Qatar,QA,,Qatar - Al Rayyan,2017-03-26,10:00
Crocothemis erythraea,Animalia,SKIMMERS_LIBELLULIDAE,Broad Scarlet,,2,51.1939,25.0072,Asia,Qatar,QA,,Qatar - Al Rayyan,2017-03-26,10:35
Orthetrum sabina,Animalia,SKIMMERS_LIBELLULIDAE,Slender Skimmer,,5,51.1939,25.0072,Asia,Qatar,QA,,Qatar - Al Rayyan,2017-03-26,10:35
Spilopelia senegalensis cambayensis,Animalia,PIGEONS_AND_DOVES_COLUMBIDAE,Laughing Dove ssp cambayensis,,1,51.6013,25.1716,Asia,Qatar,QA,,Qatar - Al Wakrah,2017-03-26,13:43
Passer domesticus,Animalia,OLD_WORLD_SPARROWS_PASSERIDAE,House Sparrow,,1,51.5989,25.1722,Asia,Qatar,QA,,Qatar - Al Wakrah,2017-03-26,13:41
Spilopelia senegalensis cambayensis,Animalia,PIGEONS_AND_DOVES_COLUMBIDAE,Laughing Dove ssp cambayensis,,2,51.5989,25.1722,Asia,Qatar,QA,,Qatar - Al Wakrah,2017-03-26,13:41
Passer domesticus,Animalia,OLD_WORLD_SPARROWS_PASSERIDAE,House Sparrow,,1,51.5974,25.1781,Asia,Qatar,QA,,Qatar - Al Wakrah,2017-03-26,13:34
Acridotheres tristis,Animalia,STARLINGS_STURNIDAE,Common Myna,,1,51.5992,25.1799,Asia,Qatar,QA,,Qatar - Al Wakrah,2017-03-26,13:33
Acridotheres tristis,Animalia,STARLINGS_STURNIDAE,Common Myna,,1,51.5502,25.2498,Asia,Qatar,QA,,Qatar - Doha,2017-03-26,12:37
Acridotheres tristis,Animalia,STARLINGS_STURNIDAE,Common Myna,,1,51.5381,25.2541,Asia,Qatar,QA,,Qatar - Doha,2017-03-26,12:34
Lanius excubitor aucheri,Animalia,SHRIKES_LANIIDAE,Levant Grey Shrike,,1,51.18,25.0116,Asia,Qatar,QA,,Qatar - Al Rayyan,2017-03-26,10:00
Lanius phoenicuroides,Animalia,SHRIKES_LANIIDAE,Red-tailed Shrike,,1,51.18,25.0116,Asia,Qatar,QA,,Qatar - Al Rayyan,2017-03-26,10:00
Upupa epops,Animalia,HOOPOES_UPUPIDAE,Eurasian Hoopoe,,4,51.18000081,25.0115998,Asia,Qatar,QA,,Qatar - Irakaya Farm,2017-03-26,10:00
Coturnix coturnix,Animalia,FRANCOLINS_QUAILS_PARTRIDGES_AND_PHEASANTS_PHASIANIDAE,Common Quail,,1,51.18,25.0116,Asia,Qatar,QA,,Qatar - Al Rayyan,2017-03-26,10:00
Pycnonotus leucotis,Animalia,BULBULS_PYCNONOTIDAE,White-eared Bulbul,,1,51.18,25.0116,Asia,Qatar,QA,,Qatar - Al Rayyan,2017-03-26,10:00
Passer hispaniolensis,Animalia,OLD_WORLD_SPARROWS_PASSERIDAE,Spanish Sparrow,,50,51.18,25.0116,Asia,Qatar,QA,,Qatar - Al Rayyan,2017-03-26,10:00
Buteo rufinus,Animalia,HAWKS_AND_EAGLES_ACCIPITRIDAE,Long-legged Buzzard,,1,51.18,25.0116,Asia,Qatar,QA,,Qatar - Al Rayyan,2017-03-26,10:00
Circaetus gallicus,Animalia,HAWKS_AND_EAGLES_ACCIPITRIDAE,Short-toed Snake Eagle,,1,51.18,25.0116,Asia,Qatar,QA,,Qatar - Al Rayyan,2017-03-26,10:00
Falco tinnunculus,Animalia,CARACAS_AND_FALCONS_FALCONIDAE,Common Kestrel,,3,51.18,25.0116,Asia,Qatar,QA,,Qatar - Al Rayyan,2017-03-26,10:00
Phoenicurus phoenicurus samamisicus,Animalia,OLD_WORLD_FLYCATCHERS_MUSCICAPIDAE,Common Redstart ssp samamisicus,,1,51.18,25.0116,Asia,Qatar,QA,,Qatar - Al Rayyan,2017-03-26,10:00
Phoenicurus phoenicurus,Animalia,OLD_WORLD_FLYCATCHERS_MUSCICAPIDAE,Common Redstart,,1,51.18,25.0116,Asia,Qatar,QA,,Qatar - Al Rayyan,2017-03-26,10:00
Motacilla flava flava,Animalia,PIPITS_EN_WAGTAILS_MOTACILLIDAE,Blue-headed Wagtail,,1,51.18,25.0116,Asia,Qatar,QA,,Qatar - Al Rayyan,2017-03-26,10:00
Oenanthe pleschanka,Animalia,OLD_WORLD_FLYCATCHERS_MUSCICAPIDAE,Pied Wheatear,,2,51.18,25.0116,Asia,Qatar,QA,,Qatar - Al Rayyan,2017-03-26,10:00
Oenanthe isabellina,Animalia,OLD_WORLD_FLYCATCHERS_MUSCICAPIDAE,Isabelline Wheatear,,1,51.18,25.0116,Asia,Qatar,QA,,Qatar - Al Rayyan,2017-03-26,10:00
Anthus campestris,Animalia,PIPITS_EN_WAGTAILS_MOTACILLIDAE,Tawny Pipit,,1,51.18,25.0116,Asia,Qatar,QA,,Qatar - Al Rayyan,2017-03-26,10:00
Emberiza calandra,Animalia,BUNTINGS_EMBERIZIDAE,Corn Bunting,,3,51.18,25.0116,Asia,Qatar,QA,,Qatar - Al Rayyan,2017-03-26,10:00
Galerida cristata,Animalia,LARKS_ALAUDIDAE,Crested Lark,,1,51.18,25.0116,Asia,Qatar,QA,,Qatar - Al Rayyan,2017-03-26,10:00
Spilopelia senegalensis cambayensis,Animalia,PIGEONS_AND_DOVES_COLUMBIDAE,Laughing Dove ssp cambayensis,,5,51.18,25.0116,Asia,Qatar,QA,,Qatar - Al Rayyan,2017-03-26,10:00
Colias crocea,Animalia,WHITES_PIERIDAE,Clouded Yellow,,1,51.1939,25.0072,Asia,Qatar,QA,,Qatar - Al Rayyan,2017-03-26,10:35
Turdus philomelos,Animalia,THRUSHES_TURDIDAE,Song Thrush,,1,51.18,25.0116,Asia,Qatar,QA,,Qatar - Al Rayyan,2017-03-26,10:00
Acridotheres tristis,Animalia,STARLINGS_STURNIDAE,Common Myna,,1,51.5084,25.2257,Asia,Qatar,QA,,Qatar - Doha,2017-03-26,08:39
Spilopelia senegalensis cambayensis,Animalia,PIGEONS_AND_DOVES_COLUMBIDAE,Laughing Dove ssp cambayensis,,1,51.5089,25.2264,Asia,Qatar,QA,,Qatar - Doha,2017-03-26,08:38
Spilopelia senegalensis cambayensis,Animalia,PIGEONS_AND_DOVES_COLUMBIDAE,Laughing Dove ssp cambayensis,,1,51.5515,25.2462,Asia,Qatar,QA,,Qatar - Doha,2017-03-26,08:32
Spilopelia senegalensis cambayensis,Animalia,PIGEONS_AND_DOVES_COLUMBIDAE,Laughing Dove ssp cambayensis,,1,51.5537,25.2466,Asia,Qatar,QA,,Qatar - Doha,2017-03-26,08:31
Streptopelia decaocto,Animalia,PIGEONS_AND_DOVES_COLUMBIDAE,Eurasian Collared Dove,,1,51.5588,25.2486,Asia,Qatar,QA,,Qatar - Doha,2017-03-26,08:31
Spilopelia senegalensis cambayensis,Animalia,PIGEONS_AND_DOVES_COLUMBIDAE,Laughing Dove ssp cambayensis,,1,51.5589,25.2484,Asia,Qatar,QA,,Qatar - Doha,2017-03-26,08:28
Spilopelia senegalensis cambayensis,Animalia,PIGEONS_AND_DOVES_COLUMBIDAE,Laughing Dove ssp cambayensis,,1,51.5572,25.245,Asia,Qatar,QA,,Qatar - Doha,2017-03-26,08:25
Acridotheres tristis,Animalia,STARLINGS_STURNIDAE,Common Myna,,1,51.5575,25.2443,Asia,Qatar,QA,,Qatar - Doha,2017-03-26,08:25
Spilopelia senegalensis cambayensis,Animalia,PIGEONS_AND_DOVES_COLUMBIDAE,Laughing Dove ssp cambayensis,,1,51.5608,25.2419,Asia,Qatar,QA,,Qatar - Doha,2017-03-26,08:24
Spilopelia senegalensis cambayensis,Animalia,PIGEONS_AND_DOVES_COLUMBIDAE,Laughing Dove ssp cambayensis,,1,51.562,25.2419,Asia,Qatar,QA,,Qatar - Doha,2017-03-26,08:23
Passer domesticus,Animalia,OLD_WORLD_SPARROWS_PASSERIDAE,House Sparrow,,1,51.602,25.1733,Asia,Qatar,QA,,Qatar - Al Wakrah,2017-03-26,08:07
Columba livia domestica,Animalia,PIGEONS_AND_DOVES_COLUMBIDAE,Feral Pigeon,,1,51.602,25.1733,Asia,Qatar,QA,,Qatar - Al Wakrah,2017-03-26,08:07
Acridotheres tristis,Animalia,STARLINGS_STURNIDAE,Common Myna,,1,51.6016,25.1719,Asia,Qatar,QA,,Qatar - Al Wakrah,2017-03-26,08:06
Passer domesticus,Animalia,OLD_WORLD_SPARROWS_PASSERIDAE,House Sparrow,,1,51.6018,25.1713,Asia,Qatar,QA,,Qatar - Al Wakrah,2017-03-26,08:06
Spilopelia senegalensis cambayensis,Animalia,PIGEONS_AND_DOVES_COLUMBIDAE,Laughing Dove ssp cambayensis,,2,51.602,25.1714,Asia,Qatar,QA,,Qatar - Al Wakrah,2017-03-26,08:06
Acridotheres tristis,Animalia,STARLINGS_STURNIDAE,Common Myna,,2,51.5789,25.2118,Asia,Qatar,QA,,Qatar - Doha,2017-03-25,15:24
Gallinago gallinago,Animalia,SANDPIPERS_AND_ALLIES_SCOLOPACIDAE,Common Snipe,,1,51.1578,25.0,Asia,Qatar,QA,,Qatar - Al Rayyan,2017-03-23,07:00
Limosa lapponica,Animalia,SANDPIPERS_AND_ALLIES_SCOLOPACIDAE,Bar-tailed Godwit,,20,51.61806827,25.17900006,Asia,Qatar,QA,,Qatar - Al Wakrah,2017-03-21,15:30
Chroicocephalus genei,Animalia,GULLS_TERNS_AND_SKIMMERS_LARIDAE,Slender-billed Gull,,20,51.6169,25.1811,Asia,Qatar,QA,,Qatar - Al Wakrah,2017-03-24,15:59
Larus fuscus heuglini,Animalia,GULLS_TERNS_AND_SKIMMERS_LARIDAE,Heuglin's Gull,,2,51.6169,25.1811,Asia,Qatar,QA,,Qatar - Al Wakrah,2017-03-24,15:59
Hydroprogne caspia,Animalia,GULLS_TERNS_AND_SKIMMERS_LARIDAE,Caspian Tern,,3,51.6169,25.1811,Asia,Qatar,QA,,Qatar - Al Wakrah,2017-03-24,15:59
Charadrius alexandrinus,Animalia,PLOVERS_CHARADRIIDAE,Kentish Plover,,1,51.6146,25.1794,Asia,Qatar,QA,,Qatar - Al Wakrah,2017-03-24,15:59
Spilopelia senegalensis cambayensis,Animalia,PIGEONS_AND_DOVES_COLUMBIDAE,Laughing Dove ssp cambayensis,,1,51.5994,25.1731,Asia,Qatar,QA,,Qatar - Al Wakrah,2017-03-25,11:39
Psittacula krameri,Animalia,PSITTACULIDAE,Rose-ringed Parakeet,,3,51.6078,25.1782,Asia,Qatar,QA,,Qatar - Al Wakrah,2017-03-24,16:16
Gelochelidon nilotica,Animalia,GULLS_TERNS_AND_SKIMMERS_LARIDAE,Gull-billed Tern,,1,51.617532,25.18178207,Asia,Qatar,QA,,Qatar - Al Wakrah,2017-03-21,15:00
Acridotheres tristis,Animalia,STARLINGS_STURNIDAE,Common Myna,,1,51.5996,25.1744,Asia,Qatar,QA,,Qatar - Al Wakrah,2017-03-25,12:26
Columba livia domestica,Animalia,PIGEONS_AND_DOVES_COLUMBIDAE,Feral Pigeon,,3,51.6004,25.1768,Asia,Qatar,QA,,Qatar - Al Wakrah,2017-03-25,12:26
Passer domesticus,Animalia,OLD_WORLD_SPARROWS_PASSERIDAE,House Sparrow,,1,51.5998,25.1774,Asia,Qatar,QA,,Qatar - Al Wakrah,2017-03-25,12:26
Streptopelia decaocto,Animalia,PIGEONS_AND_DOVES_COLUMBIDAE,Eurasian Collared Dove,,1,51.5997,25.1774,Asia,Qatar,QA,,Qatar - Al Wakrah,2017-03-25,12:26
Acridotheres tristis,Animalia,STARLINGS_STURNIDAE,Common Myna,,1,51.5994,25.1746,Asia,Qatar,QA,,Qatar - Al Wakrah,2017-03-25,11:44
Spilopelia senegalensis cambayensis,Animalia,PIGEONS_AND_DOVES_COLUMBIDAE,Laughing Dove ssp cambayensis,,1,51.5994,25.1731,Asia,Qatar,QA,,Qatar - Al Wakrah,2017-03-25,11:39
Gelochelidon nilotica,Animalia,GULLS_TERNS_AND_SKIMMERS_LARIDAE,Gull-billed Tern,,1,51.617532,25.18178207,Asia,Qatar,QA,,Qatar - Al Wakrah,2017-03-21,15:00
Gallinago gallinago,Animalia,SANDPIPERS_AND_ALLIES_SCOLOPACIDAE,Common Snipe,,1,51.1578,25.0,Asia,Qatar,QA,,Qatar - Al Rayyan,2017-03-23,07:00
Passer domesticus,Animalia,OLD_WORLD_SPARROWS_PASSERIDAE,House Sparrow,,1,51.6015,25.1715,Asia,Qatar,QA,,Qatar - Al Wakrah,2017-03-25,10:19
Spilopelia senegalensis cambayensis,Animalia,PIGEONS_AND_DOVES_COLUMBIDAE,Laughing Dove ssp cambayensis,,1,51.6015,25.1715,Asia,Qatar,QA,,Qatar - Al Wakrah,2017-03-25,10:19
Pycnonotus leucotis,Animalia,BULBULS_PYCNONOTIDAE,White-eared Bulbul,,1,51.6014,25.1714,Asia,Qatar,QA,,Qatar - Al Wakrah,2017-03-25,10:18
Psittacula krameri,Animalia,PSITTACULIDAE,Rose-ringed Parakeet,,1,51.6111,25.1796,Asia,Qatar,QA,,Qatar - Al Wakrah,2017-03-20,15:00
Psittacula krameri,Animalia,PSITTACULIDAE,Rose-ringed Parakeet,,1,51.6111,25.1796,Asia,Qatar,QA,,Qatar - Al Wakrah,2017-03-20,15:00
Coturnix coturnix,Animalia,FRANCOLINS_QUAILS_PARTRIDGES_AND_PHEASANTS_PHASIANIDAE,Common Quail,,1,51.6181,25.1365,Asia,Qatar,QA,,Qatar - Al Wakrah,2017-03-19,10:38
Calidris alba,Animalia,SANDPIPERS_AND_ALLIES_SCOLOPACIDAE,Sanderling,,1,51.6181,25.1365,Asia,Qatar,QA,,Qatar - Al Wakrah,2017-03-19,10:38
Chroicocephalus genei,Animalia,GULLS_TERNS_AND_SKIMMERS_LARIDAE,Slender-billed Gull,,2,51.6181,25.1365,Asia,Qatar,QA,,Qatar - Al Wakrah,2017-03-19,10:38
Calidris alba,Animalia,SANDPIPERS_AND_ALLIES_SCOLOPACIDAE,Sanderling,,1,51.6181,25.1365,Asia,Qatar,QA,,Qatar - Al Wakrah,2017-03-19,10:38
Chroicocephalus genei,Animalia,GULLS_TERNS_AND_SKIMMERS_LARIDAE,Slender-billed Gull,,2,51.6181,25.1365,Asia,Qatar,QA,,Qatar - Al Wakrah,2017-03-19,10:38
Ardea cinerea,Animalia,HERONS_ARDEIDAE,Grey Heron,,1,51.6103,25.163,Asia,Qatar,QA,,Qatar - Al Wakrah,2017-03-19,11:55
Spilopelia senegalensis cambayensis,Animalia,PIGEONS_AND_DOVES_COLUMBIDAE,Laughing Dove ssp cambayensis,,1,51.6054,25.1573,Asia,Qatar,QA,,Qatar - Al Wakrah,2017-03-19,09:35
Passer domesticus,Animalia,OLD_WORLD_SPARROWS_PASSERIDAE,House Sparrow,,5,51.6169,25.1811,Asia,Qatar,QA,,Qatar - Al Wakrah,2017-03-24,15:59
Spilopelia senegalensis cambayensis,Animalia,PIGEONS_AND_DOVES_COLUMBIDAE,Laughing Dove ssp cambayensis,,1,51.6153,25.1808,Asia,Qatar,QA,,Qatar - Al Wakrah,2017-03-24,15:59
Oenanthe oenanthe,Animalia,OLD_WORLD_FLYCATCHERS_MUSCICAPIDAE,Northern Wheatear,,1,51.6153,25.1808,Asia,Qatar,QA,,Qatar - Al Wakrah,2017-03-24,15:59
Chroicocephalus ridibundus,Animalia,GULLS_TERNS_AND_SKIMMERS_LARIDAE,Black-headed Gull,,4,51.6169,25.1811,Asia,Qatar,QA,,Qatar - Al Wakrah,2017-03-24,15:59
Chroicocephalus genei,Animalia,GULLS_TERNS_AND_SKIMMERS_LARIDAE,Slender-billed Gull,,20,51.6169,25.1811,Asia,Qatar,QA,,Qatar - Al Wakrah,2017-03-24,15:59
Larus fuscus heuglini,Animalia,GULLS_TERNS_AND_SKIMMERS_LARIDAE,Heuglin's Gull,,2,51.6169,25.1811,Asia,Qatar,QA,,Qatar - Al Wakrah,2017-03-24,15:59
Hydroprogne caspia,Animalia,GULLS_TERNS_AND_SKIMMERS_LARIDAE,Caspian Tern,,3,51.6169,25.1811,Asia,Qatar,QA,,Qatar - Al Wakrah,2017-03-24,15:59
Charadrius alexandrinus,Animalia,PLOVERS_CHARADRIIDAE,Kentish Plover,,1,51.6146,25.1794,Asia,Qatar,QA,,Qatar - Al Wakrah,2017-03-24,15:59
Columba livia domestica,Animalia,PIGEONS_AND_DOVES_COLUMBIDAE,Feral Pigeon,,30,51.6078,25.1782,Asia,Qatar,QA,,Qatar - Al Wakrah,2017-03-24,16:16
Acridotheres tristis,Animalia,STARLINGS_STURNIDAE,Common Myna,,1,51.6078,25.1782,Asia,Qatar,QA,,Qatar - Al Wakrah,2017-03-24,16:16
Spilopelia senegalensis cambayensis,Animalia,PIGEONS_AND_DOVES_COLUMBIDAE,Laughing Dove ssp cambayensis,,1,51.6078,25.1782,Asia,Qatar,QA,,Qatar - Al Wakrah,2017-03-24,16:16
Pycnonotus leucotis,Animalia,BULBULS_PYCNONOTIDAE,White-eared Bulbul,,1,51.6078,25.1782,Asia,Qatar,QA,,Qatar - Al Wakrah,2017-03-24,16:16
Lampides boeticus,Animalia,GOSSAMERWINGED_BUTTERFLIES_LYCAENIDAE,Long-tailed Blue,,1,51.6047,25.1775,Asia,Qatar,QA,,Qatar - Al Wakrah,2017-03-24,16:24
Psittacula krameri,Animalia,PSITTACULIDAE,Rose-ringed Parakeet,,3,51.6078,25.1782,Asia,Qatar,QA,,Qatar - Al Wakrah,2017-03-24,16:16
Pycnonotus leucotis,Animalia,BULBULS_PYCNONOTIDAE,White-eared Bulbul,,1,51.5885,25.1714,Asia,Qatar,QA,,Qatar - Al Wakrah,2017-03-24,13:35
Sylvia curruca,Animalia,OLD_WORLD_WARBLERS_SYLVIIDAE,Lesser Whitethroat,,1,51.6158,25.1313,Asia,Qatar,QA,,Qatar - Al Wakrah,2017-03-19,09:41
Phoenicopterus roseus,Animalia,FLAMINGOS_PHOENICOPTERIDAE,Greater Flamingo,,17,51.54996883,25.0093587,Asia,Qatar,QA,,Qatar - Al Wakrah,2017-03-23,14:00
Colias crocea,Animalia,WHITES_PIERIDAE,Clouded Yellow,,1,51.1871,24.9991,Asia,Qatar,QA,,Qatar - Al Rayyan,2017-03-23,09:00
Falco tinnunculus,Animalia,CARACAS_AND_FALCONS_FALCONIDAE,Common Kestrel,,1,51.1871,24.9991,Asia,Qatar,QA,,Qatar - Al Rayyan,2017-03-23,09:00
Circus macrourus,Animalia,HAWKS_AND_EAGLES_ACCIPITRIDAE,Pallid Harrier,,2,51.1871,24.9991,Asia,Qatar,QA,,Qatar - Al Rayyan,2017-03-23,09:00
Euodice malabarica,Animalia,WAXBILLS_MUNIAS_ALLIES_ESTRILDIDAE,Indian Silverbill,,2,51.1871,24.9991,Asia,Qatar,QA,,Qatar - Al Rayyan,2017-03-23,09:00
Lanius excubitor aucheri,Animalia,SHRIKES_LANIIDAE,Levant Grey Shrike,,1,51.1871,24.9991,Asia,Qatar,QA,,Qatar - Al Rayyan,2017-03-23,09:00
Lanius nubicus,Animalia,SHRIKES_LANIIDAE,Masked Shrike,,1,51.1871,24.9991,Asia,Qatar,QA,,Qatar - Al Rayyan,2017-03-23,09:00
Upupa epops,Animalia,HOOPOES_UPUPIDAE,Eurasian Hoopoe,,1,51.1871,24.9991,Asia,Qatar,QA,,Qatar - Al Rayyan,2017-03-23,09:00
Oenanthe pleschanka,Animalia,OLD_WORLD_FLYCATCHERS_MUSCICAPIDAE,Pied Wheatear,,1,51.1871,24.9991,Asia,Qatar,QA,,Qatar - Al Rayyan,2017-03-23,09:00
Emberiza calandra,Animalia,BUNTINGS_EMBERIZIDAE,Corn Bunting,,4,51.1871,24.9991,Asia,Qatar,QA,,Qatar - Al Rayyan,2017-03-23,09:00
Galerida cristata,Animalia,LARKS_ALAUDIDAE,Crested Lark,,15,51.1871,24.9991,Asia,Qatar,QA,,Qatar - Al Rayyan,2017-03-23,09:00
Spilopelia senegalensis cambayensis,Animalia,PIGEONS_AND_DOVES_COLUMBIDAE,Laughing Dove ssp cambayensis,,10,51.1871,24.9991,Asia,Qatar,QA,,Qatar - Al Rayyan,2017-03-23,09:00
Oena capensis,Animalia,PIGEONS_AND_DOVES_COLUMBIDAE,Namaqua Dove,,1,51.1871,24.9991,Asia,Qatar,QA,,Qatar - Al Rayyan,2017-03-23,09:00
Phoenicurus phoenicurus,Animalia,OLD_WORLD_FLYCATCHERS_MUSCICAPIDAE,Common Redstart,,1,51.1871,24.9991,Asia,Qatar,QA,,Qatar - Al Rayyan,2017-03-23,09:00
Passer hispaniolensis,Animalia,OLD_WORLD_SPARROWS_PASSERIDAE,Spanish Sparrow,,10,51.1871,24.9991,Asia,Qatar,QA,,Qatar - Al Rayyan,2017-03-23,09:00
Pycnonotus leucotis,Animalia,BULBULS_PYCNONOTIDAE,White-eared Bulbul,,1,51.1578,25.0,Asia,Qatar,QA,,Qatar - Al Rayyan,2017-03-23,07:00
Merops apiaster,Animalia,BEEEATERS_MEROPIDAE,European Bee-eater,,1,51.1578,25.0,Asia,Qatar,QA,,Qatar - Al Rayyan,2017-03-23,07:00
Lanius phoenicuroides,Animalia,SHRIKES_LANIIDAE,Red-tailed Shrike,,1,51.1578,25.0,Asia,Qatar,QA,,Qatar - Al Rayyan,2017-03-23,07:00
Lanius excubitor aucheri,Animalia,SHRIKES_LANIIDAE,Levant Grey Shrike,,1,51.1578,25.0,Asia,Qatar,QA,,Qatar - Al Rayyan,2017-03-23,07:00
Francolinus pondicerianus,Animalia,FRANCOLINS_QUAILS_PARTRIDGES_AND_PHEASANTS_PHASIANIDAE,Grey Francolin,,1,51.1578,25.0,Asia,Qatar,QA,,Qatar - Al Rayyan,2017-03-23,07:00
Coturnix coturnix,Animalia,FRANCOLINS_QUAILS_PARTRIDGES_AND_PHEASANTS_PHASIANIDAE,Common Quail,,1,51.1578,25.0,Asia,Qatar,QA,,Qatar - Al Rayyan,2017-03-23,07:00
Himantopus himantopus,Animalia,STILTS_AND_AVOCETS_RECURVIROSTRIDAE,Black-winged Stilt,,3,51.1578,25.0,Asia,Qatar,QA,,Qatar - Al Rayyan,2017-03-23,07:00
Vanellus indicus,Animalia,PLOVERS_CHARADRIIDAE,Red-wattled Lapwing,,3,51.1578,25.0,Asia,Qatar,QA,,Qatar - Al Rayyan,2017-03-23,07:00
Luscinia svecica,Animalia,OLD_WORLD_FLYCATCHERS_MUSCICAPIDAE,Bluethroat,,1,51.1578,25.0,Asia,Qatar,QA,,Qatar - Al Rayyan,2017-03-23,07:00
Motacilla flava,Animalia,PIPITS_EN_WAGTAILS_MOTACILLIDAE,Western Yellow Wagtail,,1,51.1578,25.0,Asia,Qatar,QA,,Qatar - Al Rayyan,2017-03-23,07:00
Falco tinnunculus,Animalia,CARACAS_AND_FALCONS_FALCONIDAE,Common Kestrel,,1,51.1578,25.0,Asia,Qatar,QA,,Qatar - Al Rayyan,2017-03-23,07:00
Circus aeruginosus,Animalia,HAWKS_AND_EAGLES_ACCIPITRIDAE,Western Marsh Harrier,,1,51.1578,25.0,Asia,Qatar,QA,,Qatar - Al Rayyan,2017-03-23,07:00
Podiceps nigricollis,Animalia,GREBES_PODICIPEDIDAE,Black-necked Grebe,,1,51.1578,25.0,Asia,Qatar,QA,,Qatar - Al Rayyan,2017-03-23,07:00
Podiceps cristatus,Animalia,GREBES_PODICIPEDIDAE,Great Crested Grebe,,1,51.1578,25.0,Asia,Qatar,QA,,Qatar - Al Rayyan,2017-03-23,07:00
Phoenicopterus roseus,Animalia,FLAMINGOS_PHOENICOPTERIDAE,Greater Flamingo,,1,51.1578,25.0,Asia,Qatar,QA,,Qatar - Al Rayyan,2017-03-23,07:00
Porphyrio madagascariensis,Animalia,RAILS_RALLIDAE,African Swamphen,,4,51.1578,25.0,Asia,Qatar,QA,,Qatar - Al Rayyan,2017-03-23,07:00
Fulica atra,Animalia,RAILS_RALLIDAE,Eurasian Coot,,1,51.1578,25.0,Asia,Qatar,QA,,Qatar - Al Rayyan,2017-03-23,07:00
Gallinula chloropus,Animalia,RAILS_RALLIDAE,Common Moorhen,,1,51.1578,25.0,Asia,Qatar,QA,,Qatar - Al Rayyan,2017-03-23,07:00
Ardea purpurea,Animalia,HERONS_ARDEIDAE,Purple Heron,,1,51.1578,25.0,Asia,Qatar,QA,,Qatar - Al Rayyan,2017-03-23,07:00
Utetheisa pulchella,Animalia,EREBIDAE,Crimson Speckled,,3,51.6156,25.1818,Asia,Qatar,QA,,Qatar - Al Wakrah,2017-03-22,16:00
Oenanthe isabellina,Animalia,OLD_WORLD_FLYCATCHERS_MUSCICAPIDAE,Isabelline Wheatear,,1,51.6156,25.1818,Asia,Qatar,QA,,Qatar - Al Wakrah,2017-03-22,16:00
Sylvia nana,Animalia,OLD_WORLD_WARBLERS_SYLVIIDAE,Asian Desert Warbler,,1,51.6156,25.1818,Asia,Qatar,QA,,Qatar - Al Wakrah,2017-03-22,16:00
Jynx torquilla,Animalia,WOODPECKERS_PICIDAE,Eurasian Wryneck,,1,51.6156,25.1818,Asia,Qatar,QA,,Qatar - Al Wakrah,2017-03-22,16:00
Lanius senator,Animalia,SHRIKES_LANIIDAE,Woodchat Shrike,,2,51.6157,25.1818,Asia,Qatar,QA,,Qatar - Al Wakrah,2017-03-22,16:00
Lanius phoenicuroides,Animalia,SHRIKES_LANIIDAE,Red-tailed Shrike,,1,51.6157,25.1818,Asia,Qatar,QA,,Qatar - Al Wakrah,2017-03-22,16:00
Lanius isabellinus,Animalia,SHRIKES_LANIIDAE,Isabelline Shrike,,1,51.6157,25.1818,Asia,Qatar,QA,,Qatar - Al Wakrah,2017-03-22,16:00
Calidris alpina,Animalia,SANDPIPERS_AND_ALLIES_SCOLOPACIDAE,Dunlin,,1,51.617,25.1794,Asia,Qatar,QA,,Qatar - Al Wakrah,2017-03-22,16:00
Charadrius alexandrinus,Animalia,PLOVERS_CHARADRIIDAE,Kentish Plover,,1,51.617,25.1794,Asia,Qatar,QA,,Qatar - Al Wakrah,2017-03-22,16:00
Tringa nebularia,Animalia,SANDPIPERS_AND_ALLIES_SCOLOPACIDAE,Common Greenshank,,1,51.617,25.1794,Asia,Qatar,QA,,Qatar - Al Wakrah,2017-03-22,16:00
Pycnonotus leucotis,Animalia,BULBULS_PYCNONOTIDAE,White-eared Bulbul,,3,51.617,25.1794,Asia,Qatar,QA,,Qatar - Al Wakrah,2017-03-22,16:00
Acridotheres tristis,Animalia,STARLINGS_STURNIDAE,Common Myna,,6,51.617,25.1794,Asia,Qatar,QA,,Qatar - Al Wakrah,2017-03-22,16:00
Alcedo atthis,Animalia,KINGFISHERS_ALCEDINIDAE,Common Kingfisher,,1,51.617,25.1794,Asia,Qatar,QA,,Qatar - Al Wakrah,2017-03-22,16:00
Butorides striata,Animalia,HERONS_ARDEIDAE,Striated Heron,,1,51.617,25.1794,Asia,Qatar,QA,,Qatar - Al Wakrah,2017-03-22,16:00
Passer domesticus,Animalia,OLD_WORLD_SPARROWS_PASSERIDAE,House Sparrow,,10,51.6116,25.1796,Asia,Qatar,QA,,Qatar - Al Wakrah,2017-03-22,13:00
Acridotheres tristis,Animalia,STARLINGS_STURNIDAE,Common Myna,,3,51.6116,25.1796,Asia,Qatar,QA,,Qatar - Al Wakrah,2017-03-22,13:00
Upupa epops,Animalia,HOOPOES_UPUPIDAE,Eurasian Hoopoe,,1,51.6116,25.1796,Asia,Qatar,QA,,Qatar - Al Wakrah,2017-03-22,13:00
Streptopelia decaocto,Animalia,PIGEONS_AND_DOVES_COLUMBIDAE,Eurasian Collared Dove,,3,51.6116,25.1796,Asia,Qatar,QA,,Qatar - Al Wakrah,2017-03-22,13:00
Spilopelia senegalensis cambayensis,Animalia,PIGEONS_AND_DOVES_COLUMBIDAE,Laughing Dove ssp cambayensis,,5,51.6116,25.1796,Asia,Qatar,QA,,Qatar - Al Wakrah,2017-03-22,13:00
Pycnonotus cafer,Animalia,BULBULS_PYCNONOTIDAE,Red-vented Bulbul,,5,51.6116,25.1796,Asia,Qatar,QA,,Qatar - Al Wakrah,2017-03-22,13:00
Pycnonotus leucotis,Animalia,BULBULS_PYCNONOTIDAE,White-eared Bulbul,,5,51.6116,25.1796,Asia,Qatar,QA,,Qatar - Al Wakrah,2017-03-22,13:00
Sylvia atricapilla,Animalia,OLD_WORLD_WARBLERS_SYLVIIDAE,Eurasian Blackcap,,1,51.6116,25.1796,Asia,Qatar,QA,,Qatar - Al Wakrah,2017-03-22,13:00
Turdus philomelos,Animalia,THRUSHES_TURDIDAE,Song Thrush,,1,51.6116,25.1796,Asia,Qatar,QA,,Qatar - Al Wakrah,2017-03-22,13:00
Fulica atra,Animalia,RAILS_RALLIDAE,Eurasian Coot,,1,51.1578,25.0,Asia,Qatar,QA,,Qatar - Al Rayyan,2017-03-23,07:00
Gallinula chloropus,Animalia,RAILS_RALLIDAE,Common Moorhen,,1,51.1578,25.0,Asia,Qatar,QA,,Qatar - Al Rayyan,2017-03-23,07:00
Ardea purpurea,Animalia,HERONS_ARDEIDAE,Purple Heron,,1,51.1578,25.0,Asia,Qatar,QA,,Qatar - Al Rayyan,2017-03-23,07:00
Oenanthe isabellina,Animalia,OLD_WORLD_FLYCATCHERS_MUSCICAPIDAE,Isabelline Wheatear,,1,51.6156,25.1818,Asia,Qatar,QA,,Qatar - Al Wakrah,2017-03-22,16:00
Sylvia nana,Animalia,OLD_WORLD_WARBLERS_SYLVIIDAE,Asian Desert Warbler,,1,51.6156,25.1818,Asia,Qatar,QA,,Qatar - Al Wakrah,2017-03-22,16:00
Lanius senator,Animalia,SHRIKES_LANIIDAE,Woodchat Shrike,,2,51.6157,25.1818,Asia,Qatar,QA,,Qatar - Al Wakrah,2017-03-22,16:00
Lanius phoenicuroides,Animalia,SHRIKES_LANIIDAE,Red-tailed Shrike,,1,51.1578,25.0,Asia,Qatar,QA,,Qatar - Al Rayyan,2017-03-23,07:00
Lanius excubitor aucheri,Animalia,SHRIKES_LANIIDAE,Levant Grey Shrike,,1,51.1578,25.0,Asia,Qatar,QA,,Qatar - Al Rayyan,2017-03-23,07:00
Francolinus pondicerianus,Animalia,FRANCOLINS_QUAILS_PARTRIDGES_AND_PHEASANTS_PHASIANIDAE,Grey Francolin,,1,51.1578,25.0,Asia,Qatar,QA,,Qatar - Al Rayyan,2017-03-23,07:00
Coturnix coturnix,Animalia,FRANCOLINS_QUAILS_PARTRIDGES_AND_PHEASANTS_PHASIANIDAE,Common Quail,,1,51.1578,25.0,Asia,Qatar,QA,,Qatar - Al Rayyan,2017-03-23,07:00
Himantopus himantopus,Animalia,STILTS_AND_AVOCETS_RECURVIROSTRIDAE,Black-winged Stilt,,3,51.1578,25.0,Asia,Qatar,QA,,Qatar - Al Rayyan,2017-03-23,07:00
Vanellus indicus,Animalia,PLOVERS_CHARADRIIDAE,Red-wattled Lapwing,,3,51.1578,25.0,Asia,Qatar,QA,,Qatar - Al Rayyan,2017-03-23,07:00
Luscinia svecica,Animalia,OLD_WORLD_FLYCATCHERS_MUSCICAPIDAE,Bluethroat,,1,51.1578,25.0,Asia,Qatar,QA,,Qatar - Al Rayyan,2017-03-23,07:00
Motacilla flava,Animalia,PIPITS_EN_WAGTAILS_MOTACILLIDAE,Western Yellow Wagtail,,1,51.1578,25.0,Asia,Qatar,QA,,Qatar - Al Rayyan,2017-03-23,07:00
Falco tinnunculus,Animalia,CARACAS_AND_FALCONS_FALCONIDAE,Common Kestrel,,1,51.1578,25.0,Asia,Qatar,QA,,Qatar - Al Rayyan,2017-03-23,07:00
Circus aeruginosus,Animalia,HAWKS_AND_EAGLES_ACCIPITRIDAE,Western Marsh Harrier,,1,51.1578,25.0,Asia,Qatar,QA,,Qatar - Al Rayyan,2017-03-23,07:00
Podiceps nigricollis,Animalia,GREBES_PODICIPEDIDAE,Black-necked Grebe,,1,51.1578,25.0,Asia,Qatar,QA,,Qatar - Al Rayyan,2017-03-23,07:00
Podiceps cristatus,Animalia,GREBES_PODICIPEDIDAE,Great Crested Grebe,,1,51.1578,25.0,Asia,Qatar,QA,,Qatar - Al Rayyan,2017-03-23,07:00
Aythya nyroca,Animalia,DUCKS_GEESE_AND_SWANS_ANATIDAE,Ferruginous Duck,,2,51.1578,25.0,Asia,Qatar,QA,,Qatar - Al Rayyan,2017-03-23,07:00
Phoenicopterus roseus,Animalia,FLAMINGOS_PHOENICOPTERIDAE,Greater Flamingo,,1,51.1578,25.0,Asia,Qatar,QA,,Qatar - Al Rayyan,2017-03-23,07:00
Anthus spinoletta,Animalia,PIPITS_EN_WAGTAILS_MOTACILLIDAE,Water Pipit,,1,51.1578,25.0,Asia,Qatar,QA,,Qatar - Al Rayyan,2017-03-23,07:00
Hirundo rustica,Animalia,SWALLOWS_HIRUNDINIDAE,Barn Swallow,,1,51.1578,25.0,Asia,Qatar,QA,,Qatar - Al Rayyan,2017-03-23,07:00
Circus macrourus,Animalia,HAWKS_AND_EAGLES_ACCIPITRIDAE,Pallid Harrier,,2,51.1871,24.9991,Asia,Qatar,QA,,Qatar - Al Rayyan,2017-03-23,09:00
Euodice malabarica,Animalia,WAXBILLS_MUNIAS_ALLIES_ESTRILDIDAE,Indian Silverbill,,2,51.1871,24.9991,Asia,Qatar,QA,,Qatar - Al Rayyan,2017-03-23,09:00
Lanius excubitor aucheri,Animalia,SHRIKES_LANIIDAE,Levant Grey Shrike,,1,51.1871,24.9991,Asia,Qatar,QA,,Qatar - Al Rayyan,2017-03-23,09:00
Lanius nubicus,Animalia,SHRIKES_LANIIDAE,Masked Shrike,,1,51.1871,24.9991,Asia,Qatar,QA,,Qatar - Al Rayyan,2017-03-23,09:00
Upupa epops,Animalia,HOOPOES_UPUPIDAE,Eurasian Hoopoe,,1,51.1871,24.9991,Asia,Qatar,QA,,Qatar - Al Rayyan,2017-03-23,09:00
Oenanthe pleschanka,Animalia,OLD_WORLD_FLYCATCHERS_MUSCICAPIDAE,Pied Wheatear,,1,51.1871,24.9991,Asia,Qatar,QA,,Qatar - Al Rayyan,2017-03-23,09:00
Emberiza calandra,Animalia,BUNTINGS_EMBERIZIDAE,Corn Bunting,,4,51.1871,24.9991,Asia,Qatar,QA,,Qatar - Al Rayyan,2017-03-23,09:00
Galerida cristata,Animalia,LARKS_ALAUDIDAE,Crested Lark,,15,51.1871,24.9991,Asia,Qatar,QA,,Qatar - Al Rayyan,2017-03-23,09:00
Spilopelia senegalensis cambayensis,Animalia,PIGEONS_AND_DOVES_COLUMBIDAE,Laughing Dove ssp cambayensis,,10,51.1871,24.9991,Asia,Qatar,QA,,Qatar - Al Rayyan,2017-03-23,09:00
Oena capensis,Animalia,PIGEONS_AND_DOVES_COLUMBIDAE,Namaqua Dove,,1,51.1871,24.9991,Asia,Qatar,QA,,Qatar - Al Rayyan,2017-03-23,09:00
Phoenicurus phoenicurus,Animalia,OLD_WORLD_FLYCATCHERS_MUSCICAPIDAE,Common Redstart,,1,51.1871,24.9991,Asia,Qatar,QA,,Qatar - Al Rayyan,2017-03-23,09:00
Passer hispaniolensis,Animalia,OLD_WORLD_SPARROWS_PASSERIDAE,Spanish Sparrow,,10,51.1871,24.9991,Asia,Qatar,QA,,Qatar - Al Rayyan,2017-03-23,09:00
Pycnonotus leucotis,Animalia,BULBULS_PYCNONOTIDAE,White-eared Bulbul,,1,51.1578,25.0,Asia,Qatar,QA,,Qatar - Al Rayyan,2017-03-23,07:00
Merops apiaster,Animalia,BEEEATERS_MEROPIDAE,European Bee-eater,,1,51.1578,25.0,Asia,Qatar,QA,,Qatar - Al Rayyan,2017-03-23,07:00
Falco tinnunculus,Animalia,CARACAS_AND_FALCONS_FALCONIDAE,Common Kestrel,,1,51.1871,24.9991,Asia,Qatar,QA,,Qatar - Al Rayyan,2017-03-23,09:00
Sylvia curruca,Animalia,OLD_WORLD_WARBLERS_SYLVIIDAE,Lesser Whitethroat,,1,51.6158,25.1313,Asia,Qatar,QA,,Qatar - Al Wakrah,2017-03-19,09:41
Anthus spinoletta,Animalia,PIPITS_EN_WAGTAILS_MOTACILLIDAE,Water Pipit,,1,51.1578,25.0,Asia,Qatar,QA,,Qatar - Al Rayyan,2017-03-23,07:00
Colias crocea,Animalia,WHITES_PIERIDAE,Clouded Yellow,,1,51.1871,24.9991,Asia,Qatar,QA,,Qatar - Al Rayyan,2017-03-23,09:00
Phoenicopterus roseus,Animalia,FLAMINGOS_PHOENICOPTERIDAE,Greater Flamingo,,17,51.54996883,25.0093587,Asia,Qatar,QA,,Qatar - Al Wakrah,2017-03-23,14:00
Hirundo rustica,Animalia,SWALLOWS_HIRUNDINIDAE,Barn Swallow,,1,51.1578,25.0,Asia,Qatar,QA,,Qatar - Al Rayyan,2017-03-23,07:00
Falco tinnunculus,Animalia,CARACAS_AND_FALCONS_FALCONIDAE,Common Kestrel,,1,51.1871,24.9991,Asia,Qatar,QA,,Qatar - Al Rayyan,2017-03-23,09:00
Circus macrourus,Animalia,HAWKS_AND_EAGLES_ACCIPITRIDAE,Pallid Harrier,,2,51.1871,24.9991,Asia,Qatar,QA,,Qatar - Al Rayyan,2017-03-23,09:00
Pycnonotus leucotis,Animalia,BULBULS_PYCNONOTIDAE,White-eared Bulbul,,3,51.1871,24.9991,Asia,Qatar,QA,,Qatar - Al Rayyan,2017-03-23,09:00
Euodice malabarica,Animalia,WAXBILLS_MUNIAS_ALLIES_ESTRILDIDAE,Indian Silverbill,,2,51.1871,24.9991,Asia,Qatar,QA,,Qatar - Al Rayyan,2017-03-23,09:00
Lanius excubitor aucheri,Animalia,SHRIKES_LANIIDAE,Levant Grey Shrike,,1,51.1871,24.9991,Asia,Qatar,QA,,Qatar - Al Rayyan,2017-03-23,09:00
Lanius nubicus,Animalia,SHRIKES_LANIIDAE,Masked Shrike,,1,51.1871,24.9991,Asia,Qatar,QA,,Qatar - Al Rayyan,2017-03-23,09:00
Upupa epops,Animalia,HOOPOES_UPUPIDAE,Eurasian Hoopoe,,1,51.1871,24.9991,Asia,Qatar,QA,,Qatar - Al Rayyan,2017-03-23,09:00
Oenanthe pleschanka,Animalia,OLD_WORLD_FLYCATCHERS_MUSCICAPIDAE,Pied Wheatear,,1,51.1871,24.9991,Asia,Qatar,QA,,Qatar - Al Rayyan,2017-03-23,09:00
Emberiza calandra,Animalia,BUNTINGS_EMBERIZIDAE,Corn Bunting,,4,51.1871,24.9991,Asia,Qatar,QA,,Qatar - Al Rayyan,2017-03-23,09:00
Galerida cristata,Animalia,LARKS_ALAUDIDAE,Crested Lark,,15,51.1871,24.9991,Asia,Qatar,QA,,Qatar - Al Rayyan,2017-03-23,09:00
Spilopelia senegalensis cambayensis,Animalia,PIGEONS_AND_DOVES_COLUMBIDAE,Laughing Dove ssp cambayensis,,10,51.1871,24.9991,Asia,Qatar,QA,,Qatar - Al Rayyan,2017-03-23,09:00
Phoenicurus phoenicurus,Animalia,OLD_WORLD_FLYCATCHERS_MUSCICAPIDAE,Common Redstart,,1,51.1871,24.9991,Asia,Qatar,QA,,Qatar - Al Rayyan,2017-03-23,09:00
Passer hispaniolensis,Animalia,OLD_WORLD_SPARROWS_PASSERIDAE,Spanish Sparrow,,10,51.1871,24.9991,Asia,Qatar,QA,,Qatar - Al Rayyan,2017-03-23,09:00
Pycnonotus leucotis,Animalia,BULBULS_PYCNONOTIDAE,White-eared Bulbul,,1,51.1578,25.0,Asia,Qatar,QA,,Qatar - Al Rayyan,2017-03-23,07:00
Merops apiaster,Animalia,BEEEATERS_MEROPIDAE,European Bee-eater,,1,51.1578,25.0,Asia,Qatar,QA,,Qatar - Al Rayyan,2017-03-23,07:00
Lanius phoenicuroides,Animalia,SHRIKES_LANIIDAE,Red-tailed Shrike,,1,51.1578,25.0,Asia,Qatar,QA,,Qatar - Al Rayyan,2017-03-23,07:00
Lanius excubitor aucheri,Animalia,SHRIKES_LANIIDAE,Levant Grey Shrike,,1,51.1578,25.0,Asia,Qatar,QA,,Qatar - Al Rayyan,2017-03-23,07:00
Francolinus pondicerianus,Animalia,FRANCOLINS_QUAILS_PARTRIDGES_AND_PHEASANTS_PHASIANIDAE,Grey Francolin,,1,51.1578,25.0,Asia,Qatar,QA,,Qatar - Al Rayyan,2017-03-23,07:00
Coturnix coturnix,Animalia,FRANCOLINS_QUAILS_PARTRIDGES_AND_PHEASANTS_PHASIANIDAE,Common Quail,,1,51.1578,25.0,Asia,Qatar,QA,,Qatar - Al Rayyan,2017-03-23,07:00
Himantopus himantopus,Animalia,STILTS_AND_AVOCETS_RECURVIROSTRIDAE,Black-winged Stilt,,3,51.1578,25.0,Asia,Qatar,QA,,Qatar - Al Rayyan,2017-03-23,07:00
Luscinia svecica,Animalia,OLD_WORLD_FLYCATCHERS_MUSCICAPIDAE,Bluethroat,,1,51.1578,25.0,Asia,Qatar,QA,,Qatar - Al Rayyan,2017-03-23,07:00
Motacilla flava,Animalia,PIPITS_EN_WAGTAILS_MOTACILLIDAE,Western Yellow Wagtail,,1,51.1578,25.0,Asia,Qatar,QA,,Qatar - Al Rayyan,2017-03-23,07:00
Falco tinnunculus,Animalia,CARACAS_AND_FALCONS_FALCONIDAE,Common Kestrel,,1,51.1578,25.0,Asia,Qatar,QA,,Qatar - Al Rayyan,2017-03-23,07:00
Circus aeruginosus,Animalia,HAWKS_AND_EAGLES_ACCIPITRIDAE,Western Marsh Harrier,,1,51.1578,25.0,Asia,Qatar,QA,,Qatar - Al Rayyan,2017-03-23,07:00
Podiceps nigricollis,Animalia,GREBES_PODICIPEDIDAE,Black-necked Grebe,,1,51.1578,25.0,Asia,Qatar,QA,,Qatar - Al Rayyan,2017-03-23,07:00
Podiceps cristatus,Animalia,GREBES_PODICIPEDIDAE,Great Crested Grebe,,1,51.1578,25.0,Asia,Qatar,QA,,Qatar - Al Rayyan,2017-03-23,07:00
Aythya nyroca,Animalia,DUCKS_GEESE_AND_SWANS_ANATIDAE,Ferruginous Duck,,2,51.1578,25.0,Asia,Qatar,QA,,Qatar - Al Rayyan,2017-03-23,07:00
Phoenicopterus roseus,Animalia,FLAMINGOS_PHOENICOPTERIDAE,Greater Flamingo,,1,51.1578,25.0,Asia,Qatar,QA,,Qatar - Al Rayyan,2017-03-23,07:00
Porphyrio madagascariensis,Animalia,RAILS_RALLIDAE,African Swamphen,,4,51.1578,25.0,Asia,Qatar,QA,,Qatar - Al Rayyan,2017-03-23,07:00
Fulica atra,Animalia,RAILS_RALLIDAE,Eurasian Coot,,1,51.1578,25.0,Asia,Qatar,QA,,Qatar - Al Rayyan,2017-03-23,07:00
Gallinula chloropus,Animalia,RAILS_RALLIDAE,Common Moorhen,,1,51.1578,25.0,Asia,Qatar,QA,,Qatar - Al Rayyan,2017-03-23,07:00
Ardea purpurea,Animalia,HERONS_ARDEIDAE,Purple Heron,,1,51.1578,25.0,Asia,Qatar,QA,,Qatar - Al Rayyan,2017-03-23,07:00
Brephidium exilis,Animalia,GOSSAMERWINGED_BUTTERFLIES_LYCAENIDAE,Western Pygmy-Blue,,20,51.6156,25.1818,Asia,Qatar,QA,,Qatar - Al Wakrah,2017-03-22,16:00
Utetheisa pulchella,Animalia,EREBIDAE,Crimson Speckled,,3,51.6156,25.1818,Asia,Qatar,QA,,Qatar - Al Wakrah,2017-03-22,16:00
Oenanthe isabellina,Animalia,OLD_WORLD_FLYCATCHERS_MUSCICAPIDAE,Isabelline Wheatear,,1,51.6156,25.1818,Asia,Qatar,QA,,Qatar - Al Wakrah,2017-03-22,16:00
Sylvia nana,Animalia,OLD_WORLD_WARBLERS_SYLVIIDAE,Asian Desert Warbler,,1,51.6156,25.1818,Asia,Qatar,QA,,Qatar - Al Wakrah,2017-03-22,16:00
Jynx torquilla,Animalia,WOODPECKERS_PICIDAE,Eurasian Wryneck,,1,51.6156,25.1818,Asia,Qatar,QA,,Qatar - Al Wakrah,2017-03-22,16:00
Lanius senator,Animalia,SHRIKES_LANIIDAE,Woodchat Shrike,,2,51.6157,25.1818,Asia,Qatar,QA,,Qatar - Al Wakrah,2017-03-22,16:00
Lanius phoenicuroides,Animalia,SHRIKES_LANIIDAE,Red-tailed Shrike,,1,51.6157,25.1818,Asia,Qatar,QA,,Qatar - Al Wakrah,2017-03-22,16:00
Lanius isabellinus,Animalia,SHRIKES_LANIIDAE,Isabelline Shrike,,1,51.6157,25.1818,Asia,Qatar,QA,,Qatar - Al Wakrah,2017-03-22,16:00
Calidris alpina,Animalia,SANDPIPERS_AND_ALLIES_SCOLOPACIDAE,Dunlin,,1,51.617,25.1794,Asia,Qatar,QA,,Qatar - Al Wakrah,2017-03-22,16:00
Charadrius alexandrinus,Animalia,PLOVERS_CHARADRIIDAE,Kentish Plover,,1,51.617,25.1794,Asia,Qatar,QA,,Qatar - Al Wakrah,2017-03-22,16:00
Tringa nebularia,Animalia,SANDPIPERS_AND_ALLIES_SCOLOPACIDAE,Common Greenshank,,1,51.617,25.1794,Asia,Qatar,QA,,Qatar - Al Wakrah,2017-03-22,16:00
Pycnonotus leucotis,Animalia,BULBULS_PYCNONOTIDAE,White-eared Bulbul,,3,51.617,25.1794,Asia,Qatar,QA,,Qatar - Al Wakrah,2017-03-22,16:00
Acridotheres tristis,Animalia,STARLINGS_STURNIDAE,Common Myna,,6,51.617,25.1794,Asia,Qatar,QA,,Qatar - Al Wakrah,2017-03-22,16:00
Alcedo atthis,Animalia,KINGFISHERS_ALCEDINIDAE,Common Kingfisher,,1,51.617,25.1794,Asia,Qatar,QA,,Qatar - Al Wakrah,2017-03-22,16:00
Butorides striata,Animalia,HERONS_ARDEIDAE,Striated Heron,,1,51.617,25.1794,Asia,Qatar,QA,,Qatar - Al Wakrah,2017-03-22,16:00
Passer domesticus,Animalia,OLD_WORLD_SPARROWS_PASSERIDAE,House Sparrow,,10,51.6116,25.1796,Asia,Qatar,QA,,Qatar - Al Wakrah,2017-03-22,13:00
Acridotheres tristis,Animalia,STARLINGS_STURNIDAE,Common Myna,,3,51.6116,25.1796,Asia,Qatar,QA,,Qatar - Al Wakrah,2017-03-22,13:00
Upupa epops,Animalia,HOOPOES_UPUPIDAE,Eurasian Hoopoe,,1,51.6116,25.1796,Asia,Qatar,QA,,Qatar - Al Wakrah,2017-03-22,13:00
Streptopelia decaocto,Animalia,PIGEONS_AND_DOVES_COLUMBIDAE,Eurasian Collared Dove,,3,51.6116,25.1796,Asia,Qatar,QA,,Qatar - Al Wakrah,2017-03-22,13:00
Spilopelia senegalensis cambayensis,Animalia,PIGEONS_AND_DOVES_COLUMBIDAE,Laughing Dove ssp cambayensis,,5,51.6116,25.1796,Asia,Qatar,QA,,Qatar - Al Wakrah,2017-03-22,13:00
Pycnonotus cafer,Animalia,BULBULS_PYCNONOTIDAE,Red-vented Bulbul,,5,51.6116,25.1796,Asia,Qatar,QA,,Qatar - Al Wakrah,2017-03-22,13:00
Pycnonotus leucotis,Animalia,BULBULS_PYCNONOTIDAE,White-eared Bulbul,,5,51.6116,25.1796,Asia,Qatar,QA,,Qatar - Al Wakrah,2017-03-22,13:00
Sylvia atricapilla,Animalia,OLD_WORLD_WARBLERS_SYLVIIDAE,Eurasian Blackcap,,1,51.6116,25.1796,Asia,Qatar,QA,,Qatar - Al Wakrah,2017-03-22,13:00
Turdus philomelos,Animalia,THRUSHES_TURDIDAE,Song Thrush,,1,51.6116,25.1796,Asia,Qatar,QA,,Qatar - Al Wakrah,2017-03-22,13:00
Buteo rufinus,Animalia,HAWKS_AND_EAGLES_ACCIPITRIDAE,Long-legged Buzzard,,1,51.1905,25.0007,Asia,Qatar,QA,,Qatar - Al Rayyan,2017-03-18,13:00
Lanius nubicus,Animalia,SHRIKES_LANIIDAE,Masked Shrike,,1,51.5161,24.8617,Asia,Qatar,QA,,Qatar - Al Wakrah,2017-03-20,12:00
Lanius senator,Animalia,SHRIKES_LANIIDAE,Woodchat Shrike,,1,51.5161,24.8617,Asia,Qatar,QA,,Qatar - Al Wakrah,2017-03-20,12:00
Phoenicopterus roseus,Animalia,FLAMINGOS_PHOENICOPTERIDAE,Greater Flamingo,,34,51.5503,25.0095,Asia,Qatar,QA,,Qatar - Mesaieed,2017-03-20,09:35
Calidris alba,Animalia,SANDPIPERS_AND_ALLIES_SCOLOPACIDAE,Sanderling,,1,51.6171,25.1795,Asia,Qatar,QA,,Qatar - Al Wakrah,2017-03-20,16:00
Calidris alpina,Animalia,SANDPIPERS_AND_ALLIES_SCOLOPACIDAE,Dunlin,,15,51.6171,25.1795,Asia,Qatar,QA,,Qatar - Al Wakrah,2017-03-20,16:00
Chroicocephalus genei,Animalia,GULLS_TERNS_AND_SKIMMERS_LARIDAE,Slender-billed Gull,,1,51.6171,25.1795,Asia,Qatar,QA,,Qatar - Al Wakrah,2017-03-20,16:00
Actitis hypoleucos,Animalia,SANDPIPERS_AND_ALLIES_SCOLOPACIDAE,Common Sandpiper,,2,51.6171,25.1795,Asia,Qatar,QA,,Qatar - Al Wakrah,2017-03-20,16:00
Xenus cinereus,Animalia,SANDPIPERS_AND_ALLIES_SCOLOPACIDAE,Terek Sandpiper,,1,51.6171,25.1795,Asia,Qatar,QA,,Qatar - Al Wakrah,2017-03-20,16:00
Tringa nebularia,Animalia,SANDPIPERS_AND_ALLIES_SCOLOPACIDAE,Common Greenshank,,1,51.6171,25.1795,Asia,Qatar,QA,,Qatar - Al Wakrah,2017-03-20,16:00
Alcedo atthis,Animalia,KINGFISHERS_ALCEDINIDAE,Common Kingfisher,,1,51.6171,25.1795,Asia,Qatar,QA,,Qatar - Al Wakrah,2017-03-20,16:00
Butorides striata,Animalia,HERONS_ARDEIDAE,Striated Heron,,1,51.6171,25.1795,Asia,Qatar,QA,,Qatar - Al Wakrah,2017-03-20,16:00
Passer domesticus,Animalia,OLD_WORLD_SPARROWS_PASSERIDAE,House Sparrow,,3,51.6111,25.1796,Asia,Qatar,QA,,Qatar - Al Wakrah,2017-03-20,15:00
Pycnonotus leucotis,Animalia,BULBULS_PYCNONOTIDAE,White-eared Bulbul,,10,51.6111,25.1796,Asia,Qatar,QA,,Qatar - Al Wakrah,2017-03-20,15:00
Pycnonotus cafer,Animalia,BULBULS_PYCNONOTIDAE,Red-vented Bulbul,,3,51.6111,25.1796,Asia,Qatar,QA,,Qatar - Al Wakrah,2017-03-20,15:00
Sylvia mystacea,Animalia,OLD_WORLD_WARBLERS_SYLVIIDAE,Menetries's Warbler,,1,51.5161,24.8617,Asia,Qatar,QA,,Qatar - Al Wakrah,2017-03-20,12:00
Phoenicurus phoenicurus,Animalia,OLD_WORLD_FLYCATCHERS_MUSCICAPIDAE,Common Redstart,,1,51.5161,24.8617,Asia,Qatar,QA,,Qatar - Al Wakrah,2017-03-20,12:00
Pastor roseus,Animalia,STARLINGS_STURNIDAE,Rosy Starling,,1,51.5161,24.8617,Asia,Qatar,QA,,Qatar - Al Wakrah,2017-03-20,12:00
Sylvia atricapilla,Animalia,OLD_WORLD_WARBLERS_SYLVIIDAE,Eurasian Blackcap,,2,51.179,25.0118,Asia,Qatar,QA,,Qatar - Al Rayyan,2017-03-21,11:00
Phoenicurus phoenicurus,Animalia,OLD_WORLD_FLYCATCHERS_MUSCICAPIDAE,Common Redstart,,1,51.179,25.0118,Asia,Qatar,QA,,Qatar - Al Rayyan,2017-03-21,11:00
Passer hispaniolensis,Animalia,OLD_WORLD_SPARROWS_PASSERIDAE,Spanish Sparrow,,1,51.179,25.0118,Asia,Qatar,QA,,Qatar - Al Rayyan,2017-03-21,11:00
Oenanthe pleschanka,Animalia,OLD_WORLD_FLYCATCHERS_MUSCICAPIDAE,Pied Wheatear,,1,51.6155,25.1801,Asia,Qatar,QA,,Qatar - Al Wakrah,2017-03-20,16:00
Numenius arquata,Animalia,SANDPIPERS_AND_ALLIES_SCOLOPACIDAE,Eurasian Curlew,,1,51.6171,25.1795,Asia,Qatar,QA,,Qatar - Al Wakrah,2017-03-20,16:00
Charadrius alexandrinus,Animalia,PLOVERS_CHARADRIIDAE,Kentish Plover,,1,51.6171,25.1795,Asia,Qatar,QA,,Qatar - Al Wakrah,2017-03-20,16:00
Calidris alba,Animalia,SANDPIPERS_AND_ALLIES_SCOLOPACIDAE,Sanderling,,1,51.6171,25.1795,Asia,Qatar,QA,,Qatar - Al Wakrah,2017-03-20,16:00
Limosa lapponica,Animalia,SANDPIPERS_AND_ALLIES_SCOLOPACIDAE,Bar-tailed Godwit,,20,51.61806827,25.17900006,Asia,Qatar,QA,,Qatar - Al Wakrah,2017-03-21,15:30
Anthus campestris,Animalia,PIPITS_EN_WAGTAILS_MOTACILLIDAE,Tawny Pipit,,2,51.179,25.0118,Asia,Qatar,QA,,Qatar - Al Rayyan,2017-03-21,11:00
Upupa epops,Animalia,HOOPOES_UPUPIDAE,Eurasian Hoopoe,,5,51.179,25.0118,Asia,Qatar,QA,,Qatar - Al Rayyan,2017-03-21,11:00
Lanius excubitor aucheri,Animalia,SHRIKES_LANIIDAE,Levant Grey Shrike,,1,51.179,25.0118,Asia,Qatar,QA,,Qatar - Al Rayyan,2017-03-21,11:00
Lanius phoenicuroides,Animalia,SHRIKES_LANIIDAE,Red-tailed Shrike,,1,51.179,25.0118,Asia,Qatar,QA,,Qatar - Al Rayyan,2017-03-21,11:00
Coturnix coturnix,Animalia,FRANCOLINS_QUAILS_PARTRIDGES_AND_PHEASANTS_PHASIANIDAE,Common Quail,,3,51.179,25.0118,Asia,Qatar,QA,,Qatar - Al Rayyan,2017-03-21,11:00
Bubulcus ibis,Animalia,HERONS_ARDEIDAE,Western Cattle Egret,,3,51.179,25.0118,Asia,Qatar,QA,,Qatar - Al Rayyan,2017-03-21,11:00
Falco tinnunculus,Animalia,CARACAS_AND_FALCONS_FALCONIDAE,Common Kestrel,,1,51.179,25.0118,Asia,Qatar,QA,,Qatar - Al Rayyan,2017-03-21,11:00
Circus macrourus,Animalia,HAWKS_AND_EAGLES_ACCIPITRIDAE,Pallid Harrier,,1,51.179,25.0118,Asia,Qatar,QA,,Qatar - Al Rayyan,2017-03-21,11:00
Oenanthe pleschanka,Animalia,OLD_WORLD_FLYCATCHERS_MUSCICAPIDAE,Pied Wheatear,,1,51.179,25.0118,Asia,Qatar,QA,,Qatar - Al Rayyan,2017-03-21,11:00
Pycnonotus leucotis,Animalia,BULBULS_PYCNONOTIDAE,White-eared Bulbul,,1,51.179,25.0118,Asia,Qatar,QA,,Qatar - Al Rayyan,2017-03-21,11:00
Cercotrichas galactotes,Animalia,OLD_WORLD_FLYCATCHERS_MUSCICAPIDAE,Rufous-tailed Scrub Robin,,1,51.179,25.0118,Asia,Qatar,QA,,Qatar - Al Rayyan,2017-03-21,11:00
Oena capensis,Animalia,PIGEONS_AND_DOVES_COLUMBIDAE,Namaqua Dove,,4,51.179,25.0118,Asia,Qatar,QA,,Qatar - Al Rayyan,2017-03-21,11:00
Turdus philomelos,Animalia,THRUSHES_TURDIDAE,Song Thrush,,1,51.179,25.0118,Asia,Qatar,QA,,Qatar - Al Rayyan,2017-03-21,11:00
Emberiza calandra,Animalia,BUNTINGS_EMBERIZIDAE,Corn Bunting,,2,51.179,25.0118,Asia,Qatar,QA,,Qatar - Al Rayyan,2017-03-21,11:00
Colias crocea,Animalia,WHITES_PIERIDAE,Clouded Yellow,,1,51.179,25.0118,Asia,Qatar,QA,,Qatar - Al Rayyan,2017-03-21,11:00
Buteo rufinus,Animalia,HAWKS_AND_EAGLES_ACCIPITRIDAE,Long-legged Buzzard,,1,51.179,25.0118,Asia,Qatar,QA,,Qatar - Al Rayyan,2017-03-21,11:00
Oenanthe oenanthe,Animalia,OLD_WORLD_FLYCATCHERS_MUSCICAPIDAE,Northern Wheatear,,1,51.179,25.0118,Asia,Qatar,QA,,Qatar - Al Rayyan,2017-03-21,11:00
Spilopelia senegalensis cambayensis,Animalia,PIGEONS_AND_DOVES_COLUMBIDAE,Laughing Dove ssp cambayensis,,1,51.6171,25.1793,Asia,Qatar,QA,,Qatar - Al Wakrah,2017-03-21,15:00
Acridotheres tristis,Animalia,STARLINGS_STURNIDAE,Common Myna,,2,51.6171,25.1793,Asia,Qatar,QA,,Qatar - Al Wakrah,2017-03-21,15:00
Pycnonotus leucotis,Animalia,BULBULS_PYCNONOTIDAE,White-eared Bulbul,,2,51.6171,25.1793,Asia,Qatar,QA,,Qatar - Al Wakrah,2017-03-21,15:00
Euodice malabarica,Animalia,WAXBILLS_MUNIAS_ALLIES_ESTRILDIDAE,Indian Silverbill,,2,51.6171,25.1793,Asia,Qatar,QA,,Qatar - Al Wakrah,2017-03-21,15:00
Alcedo atthis,Animalia,KINGFISHERS_ALCEDINIDAE,Common Kingfisher,,1,51.6171,25.1793,Asia,Qatar,QA,,Qatar - Al Wakrah,2017-03-21,15:00
Butorides striata,Animalia,HERONS_ARDEIDAE,Striated Heron,,1,51.6171,25.1793,Asia,Qatar,QA,,Qatar - Al Wakrah,2017-03-21,15:00
Calidris alpina,Animalia,SANDPIPERS_AND_ALLIES_SCOLOPACIDAE,Dunlin,,5,51.6181,25.1804,Asia,Qatar,QA,,Qatar - Al Wakrah,2017-03-21,15:00
Calidris alba,Animalia,SANDPIPERS_AND_ALLIES_SCOLOPACIDAE,Sanderling,,2,51.6181,25.1804,Asia,Qatar,QA,,Qatar - Al Wakrah,2017-03-21,15:00
Charadrius alexandrinus,Animalia,PLOVERS_CHARADRIIDAE,Kentish Plover,,1,51.6181,25.1804,Asia,Qatar,QA,,Qatar - Al Wakrah,2017-03-21,15:00
Haematopus ostralegus,Animalia,OYSTERCATCHERS_HAEMATOPODIDAE,Eurasian Oystercatcher,,5,51.6181,25.1804,Asia,Qatar,QA,,Qatar - Al Wakrah,2017-03-21,15:00
Chroicocephalus genei,Animalia,GULLS_TERNS_AND_SKIMMERS_LARIDAE,Slender-billed Gull,,1,51.6181,25.1804,Asia,Qatar,QA,,Qatar - Al Wakrah,2017-03-21,15:00
Emberiza calandra,Animalia,BUNTINGS_EMBERIZIDAE,Corn Bunting,,2,51.179,25.0118,Asia,Qatar,QA,,Qatar - Al Rayyan,2017-03-21,11:00
Sylvia atricapilla,Animalia,OLD_WORLD_WARBLERS_SYLVIIDAE,Eurasian Blackcap,,1,51.18440151,25.00470864,Asia,Qatar,QA,,Qatar - Al Rayyan,2017-03-21,
Colias crocea,Animalia,WHITES_PIERIDAE,Clouded Yellow,,1,51.179,25.0118,Asia,Qatar,QA,,Qatar - Al Rayyan,2017-03-21,11:00
Buteo rufinus,Animalia,HAWKS_AND_EAGLES_ACCIPITRIDAE,Long-legged Buzzard,,1,51.1905,25.0007,Asia,Qatar,QA,,Qatar - Al Rayyan,2017-03-18,13:00
Buteo rufinus,Animalia,HAWKS_AND_EAGLES_ACCIPITRIDAE,Long-legged Buzzard,,1,51.179,25.0118,Asia,Qatar,QA,,Qatar - Al Rayyan,2017-03-21,11:00
Junonia orithya,Animalia,BRUSHFOOTED_BUTTERFLIES_NYMPHALIDAE,Blue Pansy,,1,51.179,25.0118,Asia,Qatar,QA,,Qatar - Al Rayyan,2017-03-21,11:00
Oenanthe oenanthe,Animalia,OLD_WORLD_FLYCATCHERS_MUSCICAPIDAE,Northern Wheatear,,1,51.179,25.0118,Asia,Qatar,QA,,Qatar - Al Rayyan,2017-03-21,11:00
Spilopelia senegalensis cambayensis,Animalia,PIGEONS_AND_DOVES_COLUMBIDAE,Laughing Dove ssp cambayensis,,1,51.6171,25.1793,Asia,Qatar,QA,,Qatar - Al Wakrah,2017-03-21,15:00
Acridotheres tristis,Animalia,STARLINGS_STURNIDAE,Common Myna,,2,51.6171,25.1793,Asia,Qatar,QA,,Qatar - Al Wakrah,2017-03-21,15:00
Pycnonotus leucotis,Animalia,BULBULS_PYCNONOTIDAE,White-eared Bulbul,,2,51.6171,25.1793,Asia,Qatar,QA,,Qatar - Al Wakrah,2017-03-21,15:00
Euodice malabarica,Animalia,WAXBILLS_MUNIAS_ALLIES_ESTRILDIDAE,Indian Silverbill,,2,51.6171,25.1793,Asia,Qatar,QA,,Qatar - Al Wakrah,2017-03-21,15:00
Alcedo atthis,Animalia,KINGFISHERS_ALCEDINIDAE,Common Kingfisher,,1,51.6171,25.1793,Asia,Qatar,QA,,Qatar - Al Wakrah,2017-03-21,15:00
Butorides striata,Animalia,HERONS_ARDEIDAE,Striated Heron,,1,51.6171,25.1793,Asia,Qatar,QA,,Qatar - Al Wakrah,2017-03-21,15:00
Calidris alpina,Animalia,SANDPIPERS_AND_ALLIES_SCOLOPACIDAE,Dunlin,,5,51.6181,25.1804,Asia,Qatar,QA,,Qatar - Al Wakrah,2017-03-21,15:00
Pluvialis squatarola,Animalia,PLOVERS_CHARADRIIDAE,Grey Plover,,1,51.6181,25.1804,Asia,Qatar,QA,,Qatar - Al Wakrah,2017-03-21,15:00
Calidris alba,Animalia,SANDPIPERS_AND_ALLIES_SCOLOPACIDAE,Sanderling,,2,51.6181,25.1804,Asia,Qatar,QA,,Qatar - Al Wakrah,2017-03-21,15:00
Charadrius alexandrinus,Animalia,PLOVERS_CHARADRIIDAE,Kentish Plover,,1,51.6181,25.1804,Asia,Qatar,QA,,Qatar - Al Wakrah,2017-03-21,15:00
Haematopus ostralegus,Animalia,OYSTERCATCHERS_HAEMATOPODIDAE,Eurasian Oystercatcher,,5,51.6181,25.1804,Asia,Qatar,QA,,Qatar - Al Wakrah,2017-03-21,15:00
Chroicocephalus genei,Animalia,GULLS_TERNS_AND_SKIMMERS_LARIDAE,Slender-billed Gull,,1,51.6181,25.1804,Asia,Qatar,QA,,Qatar - Al Wakrah,2017-03-21,15:00
Columba livia domestica,Animalia,PIGEONS_AND_DOVES_COLUMBIDAE,Feral Pigeon,,3,51.5652,25.2478,Asia,Qatar,QA,,Qatar - Doha,2017-03-21,12:56
Columba livia domestica,Animalia,PIGEONS_AND_DOVES_COLUMBIDAE,Feral Pigeon,,1,51.5652,25.2478,Asia,Qatar,QA,,Qatar - Doha,2017-03-21,12:55
Anthus campestris,Animalia,PIPITS_EN_WAGTAILS_MOTACILLIDAE,Tawny Pipit,,2,51.179,25.0118,Asia,Qatar,QA,,Qatar - Al Rayyan,2017-03-21,11:00
Upupa epops,Animalia,HOOPOES_UPUPIDAE,Eurasian Hoopoe,,5,51.179,25.0118,Asia,Qatar,QA,,Qatar - Al Rayyan,2017-03-21,11:00
Lanius excubitor aucheri,Animalia,SHRIKES_LANIIDAE,Levant Grey Shrike,,1,51.179,25.0118,Asia,Qatar,QA,,Qatar - Al Rayyan,2017-03-21,11:00
Lanius phoenicuroides,Animalia,SHRIKES_LANIIDAE,Red-tailed Shrike,,1,51.179,25.0118,Asia,Qatar,QA,,Qatar - Al Rayyan,2017-03-21,11:00
Coturnix coturnix,Animalia,FRANCOLINS_QUAILS_PARTRIDGES_AND_PHEASANTS_PHASIANIDAE,Common Quail,,3,51.179,25.0118,Asia,Qatar,QA,,Qatar - Al Rayyan,2017-03-21,11:00
Bubulcus ibis,Animalia,HERONS_ARDEIDAE,Western Cattle Egret,,3,51.179,25.0118,Asia,Qatar,QA,,Qatar - Al Rayyan,2017-03-21,11:00
Hirundo rustica,Animalia,SWALLOWS_HIRUNDINIDAE,Barn Swallow,,1,51.179,25.0118,Asia,Qatar,QA,,Qatar - Al Rayyan,2017-03-21,11:00
Falco tinnunculus,Animalia,CARACAS_AND_FALCONS_FALCONIDAE,Common Kestrel,,1,51.179,25.0118,Asia,Qatar,QA,,Qatar - Al Rayyan,2017-03-21,11:00
Circus macrourus,Animalia,HAWKS_AND_EAGLES_ACCIPITRIDAE,Pallid Harrier,,1,51.179,25.0118,Asia,Qatar,QA,,Qatar - Al Rayyan,2017-03-21,11:00
Oenanthe isabellina,Animalia,OLD_WORLD_FLYCATCHERS_MUSCICAPIDAE,Isabelline Wheatear,,1,51.179,25.0118,Asia,Qatar,QA,,Qatar - Al Rayyan,2017-03-21,11:00
Oenanthe pleschanka,Animalia,OLD_WORLD_FLYCATCHERS_MUSCICAPIDAE,Pied Wheatear,,1,51.179,25.0118,Asia,Qatar,QA,,Qatar - Al Rayyan,2017-03-21,11:00
Pycnonotus leucotis,Animalia,BULBULS_PYCNONOTIDAE,White-eared Bulbul,,1,51.179,25.0118,Asia,Qatar,QA,,Qatar - Al Rayyan,2017-03-21,11:00
Euodice malabarica,Animalia,WAXBILLS_MUNIAS_ALLIES_ESTRILDIDAE,Indian Silverbill,,2,51.179,25.0118,Asia,Qatar,QA,,Qatar - Al Rayyan,2017-03-21,11:00
Cercotrichas galactotes,Animalia,OLD_WORLD_FLYCATCHERS_MUSCICAPIDAE,Rufous-tailed Scrub Robin,,1,51.179,25.0118,Asia,Qatar,QA,,Qatar - Al Rayyan,2017-03-21,11:00
Galerida cristata,Animalia,LARKS_ALAUDIDAE,Crested Lark,,1,51.179,25.0118,Asia,Qatar,QA,,Qatar - Al Rayyan,2017-03-21,11:00
Spilopelia senegalensis cambayensis,Animalia,PIGEONS_AND_DOVES_COLUMBIDAE,Laughing Dove ssp cambayensis,,5,51.179,25.0118,Asia,Qatar,QA,,Qatar - Al Rayyan,2017-03-21,11:00
Turdus philomelos,Animalia,THRUSHES_TURDIDAE,Song Thrush,,1,51.179,25.0118,Asia,Qatar,QA,,Qatar - Al Rayyan,2017-03-21,11:00
Sylvia mystacea,Animalia,OLD_WORLD_WARBLERS_SYLVIIDAE,Menetries's Warbler,,1,51.179,25.0118,Asia,Qatar,QA,,Qatar - Al Rayyan,2017-03-21,11:00
Sylvia atricapilla,Animalia,OLD_WORLD_WARBLERS_SYLVIIDAE,Eurasian Blackcap,,2,51.179,25.0118,Asia,Qatar,QA,,Qatar - Al Rayyan,2017-03-21,11:00
Phoenicurus phoenicurus,Animalia,OLD_WORLD_FLYCATCHERS_MUSCICAPIDAE,Common Redstart,,1,51.179,25.0118,Asia,Qatar,QA,,Qatar - Al Rayyan,2017-03-21,11:00
Passer hispaniolensis,Animalia,OLD_WORLD_SPARROWS_PASSERIDAE,Spanish Sparrow,,1,51.179,25.0118,Asia,Qatar,QA,,Qatar - Al Rayyan,2017-03-21,11:00
Acridotheres tristis,Animalia,STARLINGS_STURNIDAE,Common Myna,,1,51.4957,25.2636,Asia,Qatar,QA,,Qatar - Doha,2017-03-21,09:01
Streptopelia decaocto,Animalia,PIGEONS_AND_DOVES_COLUMBIDAE,Eurasian Collared Dove,,1,51.5028,25.2571,Asia,Qatar,QA,,Qatar - Doha,2017-03-21,08:42
Spilopelia senegalensis cambayensis,Animalia,PIGEONS_AND_DOVES_COLUMBIDAE,Laughing Dove ssp cambayensis,,1,51.5043,25.2564,Asia,Qatar,QA,,Qatar - Doha,2017-03-21,08:38
Spilopelia senegalensis cambayensis,Animalia,PIGEONS_AND_DOVES_COLUMBIDAE,Laughing Dove ssp cambayensis,,1,51.5568,25.2464,Asia,Qatar,QA,,Qatar - Doha,2017-03-21,08:15
Acridotheres tristis,Animalia,STARLINGS_STURNIDAE,Common Myna,,1,51.5568,25.2464,Asia,Qatar,QA,,Qatar - Doha,2017-03-21,08:15
Oenanthe pleschanka,Animalia,OLD_WORLD_FLYCATCHERS_MUSCICAPIDAE,Pied Wheatear,,1,51.18719275,25.00763102,Asia,Qatar,QA,,Qatar - Al Rayyan,2017-03-18,
Egretta gularis schistacea,Animalia,HERONS_ARDEIDAE,Red Sea Reef Heron,,1,51.6175,25.1785,Asia,Qatar,QA,,Qatar - Al Wakrah,2017-03-20,16:00
Oenanthe pleschanka,Animalia,OLD_WORLD_FLYCATCHERS_MUSCICAPIDAE,Pied Wheatear,,1,51.6155,25.1801,Asia,Qatar,QA,,Qatar - Al Wakrah,2017-03-20,16:00
Numenius arquata,Animalia,SANDPIPERS_AND_ALLIES_SCOLOPACIDAE,Eurasian Curlew,,1,51.6171,25.1795,Asia,Qatar,QA,,Qatar - Al Wakrah,2017-03-20,16:00
Pluvialis squatarola,Animalia,PLOVERS_CHARADRIIDAE,Grey Plover,,1,51.6171,25.1795,Asia,Qatar,QA,,Qatar - Al Wakrah,2017-03-20,16:00
Charadrius alexandrinus,Animalia,PLOVERS_CHARADRIIDAE,Kentish Plover,,1,51.6171,25.1795,Asia,Qatar,QA,,Qatar - Al Wakrah,2017-03-20,16:00
Calidris alba,Animalia,SANDPIPERS_AND_ALLIES_SCOLOPACIDAE,Sanderling,,1,51.6171,25.1795,Asia,Qatar,QA,,Qatar - Al Wakrah,2017-03-20,16:00
Calidris alpina,Animalia,SANDPIPERS_AND_ALLIES_SCOLOPACIDAE,Dunlin,,15,51.6171,25.1795,Asia,Qatar,QA,,Qatar - Al Wakrah,2017-03-20,16:00
Chroicocephalus genei,Animalia,GULLS_TERNS_AND_SKIMMERS_LARIDAE,Slender-billed Gull,,1,51.6171,25.1795,Asia,Qatar,QA,,Qatar - Al Wakrah,2017-03-20,16:00
Actitis hypoleucos,Animalia,SANDPIPERS_AND_ALLIES_SCOLOPACIDAE,Common Sandpiper,,2,51.6171,25.1795,Asia,Qatar,QA,,Qatar - Al Wakrah,2017-03-20,16:00
Tringa nebularia,Animalia,SANDPIPERS_AND_ALLIES_SCOLOPACIDAE,Common Greenshank,,1,51.6171,25.1795,Asia,Qatar,QA,,Qatar - Al Wakrah,2017-03-20,16:00
Alcedo atthis,Animalia,KINGFISHERS_ALCEDINIDAE,Common Kingfisher,,1,51.6171,25.1795,Asia,Qatar,QA,,Qatar - Al Wakrah,2017-03-20,16:00
Butorides striata,Animalia,HERONS_ARDEIDAE,Striated Heron,,1,51.6171,25.1795,Asia,Qatar,QA,,Qatar - Al Wakrah,2017-03-20,16:00
Passer domesticus,Animalia,OLD_WORLD_SPARROWS_PASSERIDAE,House Sparrow,,3,51.6111,25.1796,Asia,Qatar,QA,,Qatar - Al Wakrah,2017-03-20,15:00
Acridotheres tristis,Animalia,STARLINGS_STURNIDAE,Common Myna,,2,51.6111,25.1796,Asia,Qatar,QA,,Qatar - Al Wakrah,2017-03-20,15:00
Spilopelia senegalensis cambayensis,Animalia,PIGEONS_AND_DOVES_COLUMBIDAE,Laughing Dove ssp cambayensis,,3,51.6111,25.1796,Asia,Qatar,QA,,Qatar - Al Wakrah,2017-03-20,15:00
Pycnonotus leucotis,Animalia,BULBULS_PYCNONOTIDAE,White-eared Bulbul,,10,51.6111,25.1796,Asia,Qatar,QA,,Qatar - Al Wakrah,2017-03-20,15:00
Pycnonotus cafer,Animalia,BULBULS_PYCNONOTIDAE,Red-vented Bulbul,,3,51.6111,25.1796,Asia,Qatar,QA,,Qatar - Al Wakrah,2017-03-20,15:00
Sylvia mystacea,Animalia,OLD_WORLD_WARBLERS_SYLVIIDAE,Menetries's Warbler,,1,51.5161,24.8617,Asia,Qatar,QA,,Qatar - Al Wakrah,2017-03-20,12:00
Phoenicurus phoenicurus,Animalia,OLD_WORLD_FLYCATCHERS_MUSCICAPIDAE,Common Redstart,,1,51.5161,24.8617,Asia,Qatar,QA,,Qatar - Al Wakrah,2017-03-20,12:00
Pastor roseus,Animalia,STARLINGS_STURNIDAE,Rosy Starling,,1,51.5161,24.8617,Asia,Qatar,QA,,Qatar - Al Wakrah,2017-03-20,12:00
Lanius nubicus,Animalia,SHRIKES_LANIIDAE,Masked Shrike,,1,51.5161,24.8617,Asia,Qatar,QA,,Qatar - Al Wakrah,2017-03-20,12:00
Lanius senator,Animalia,SHRIKES_LANIIDAE,Woodchat Shrike,,1,51.5161,24.8617,Asia,Qatar,QA,,Qatar - Al Wakrah,2017-03-20,12:00
Ardea cinerea,Animalia,HERONS_ARDEIDAE,Grey Heron,,1,51.6103,25.163,Asia,Qatar,QA,,Qatar - Al Wakrah,2017-03-19,11:55
Phoenicopterus roseus,Animalia,FLAMINGOS_PHOENICOPTERIDAE,Greater Flamingo,,34,51.5503,25.0095,Asia,Qatar,QA,,Qatar - Mesaieed,2017-03-20,09:35
Pluvialis squatarola,Animalia,PLOVERS_CHARADRIIDAE,Grey Plover,,1,51.6181,25.1365,Asia,Qatar,QA,,Qatar - Al Wakrah,2017-03-19,10:38
Numenius arquata,Animalia,SANDPIPERS_AND_ALLIES_SCOLOPACIDAE,Eurasian Curlew,,1,51.6181,25.1365,Asia,Qatar,QA,,Qatar - Al Wakrah,2017-03-19,10:38
Sternula albifrons,Animalia,GULLS_TERNS_AND_SKIMMERS_LARIDAE,Little Tern,,2,51.6181,25.1365,Asia,Qatar,QA,,Qatar - Al Wakrah,2017-03-19,10:38
Tringa nebularia,Animalia,SANDPIPERS_AND_ALLIES_SCOLOPACIDAE,Common Greenshank,,1,51.6181,25.1365,Asia,Qatar,QA,,Qatar - Al Wakrah,2017-03-19,10:38
Lanius senator,Animalia,SHRIKES_LANIIDAE,Woodchat Shrike,,1,51.6147,25.1396,Asia,Qatar,QA,,Qatar - Al Wakrah,2017-03-19,10:49
Haematopus ostralegus,Animalia,OYSTERCATCHERS_HAEMATOPODIDAE,Eurasian Oystercatcher,,1,51.6181,25.1365,Asia,Qatar,QA,,Qatar - Al Wakrah,2017-03-19,10:38
Brephidium exilis,Animalia,GOSSAMERWINGED_BUTTERFLIES_LYCAENIDAE,Western Pygmy-Blue,,5,51.6166,25.1351,Asia,Qatar,QA,,Qatar - Al Wakrah,2017-03-19,10:13
Chroicocephalus ridibundus,Animalia,GULLS_TERNS_AND_SKIMMERS_LARIDAE,Black-headed Gull,,7,51.6163,25.1337,Asia,Qatar,QA,,Qatar - Al Wakrah,2017-03-19,10:06
Passer domesticus,Animalia,OLD_WORLD_SPARROWS_PASSERIDAE,House Sparrow,,1,51.616,25.1296,Asia,Qatar,QA,,Qatar - Al Wakrah,2017-03-19,09:52
Larus fuscus heuglini,Animalia,GULLS_TERNS_AND_SKIMMERS_LARIDAE,Heuglin's Gull,,1,51.6179,25.1372,Asia,Qatar,QA,,Qatar - Al Wakrah,2017-03-19,15:00
Calidris alpina,Animalia,SANDPIPERS_AND_ALLIES_SCOLOPACIDAE,Dunlin,,1,51.6169,25.1368,Asia,Qatar,QA,,Qatar - Al Wakrah,2017-03-19,15:00
Charadrius alexandrinus,Animalia,PLOVERS_CHARADRIIDAE,Kentish Plover,,2,51.6169,25.1368,Asia,Qatar,QA,,Qatar - Al Wakrah,2017-03-19,15:00
Charadrius leschenaultii,Animalia,PLOVERS_CHARADRIIDAE,Greater Sand Plover,,2,51.6169,25.1368,Asia,Qatar,QA,,Qatar - Al Wakrah,2017-03-19,15:00
Hydroprogne caspia,Animalia,GULLS_TERNS_AND_SKIMMERS_LARIDAE,Caspian Tern,,1,51.6103,25.163,Asia,Qatar,QA,,Qatar - Al Wakrah,2017-03-19,11:55
Butorides striata,Animalia,HERONS_ARDEIDAE,Striated Heron,,1,51.6169,25.1794,Asia,Qatar,QA,,Qatar - Al Wakrah,2017-03-19,12:28
Ichthyaetus hemprichii,Animalia,GULLS_TERNS_AND_SKIMMERS_LARIDAE,Sooty Gull,,2,51.6103,25.163,Asia,Qatar,QA,,Qatar - Al Wakrah,2017-03-19,11:55
Xenus cinereus,Animalia,SANDPIPERS_AND_ALLIES_SCOLOPACIDAE,Terek Sandpiper,,1,51.6123,25.158,Asia,Qatar,QA,,Qatar - Al Wakrah,2017-03-19,11:33
Sylvia nana,Animalia,OLD_WORLD_WARBLERS_SYLVIIDAE,Asian Desert Warbler,,1,51.6163,25.1513,Asia,Qatar,QA,,Qatar - Al Wakrah,2017-03-19,11:19
Egretta gularis schistacea,Animalia,HERONS_ARDEIDAE,Red Sea Reef Heron,,1,51.6185,25.1497,Asia,Qatar,QA,,Qatar - Al Wakrah,2017-03-19,11:09
Haematopus ostralegus,Animalia,OYSTERCATCHERS_HAEMATOPODIDAE,Eurasian Oystercatcher,,1,51.6202,25.1442,Asia,Qatar,QA,,Qatar - Al Wakrah,2017-03-19,11:03
Oenanthe pleschanka,Animalia,OLD_WORLD_FLYCATCHERS_MUSCICAPIDAE,Pied Wheatear,,1,51.6185,25.1422,Asia,Qatar,QA,,Qatar - Al Wakrah,2017-03-19,10:58
Larus fuscus heuglini,Animalia,GULLS_TERNS_AND_SKIMMERS_LARIDAE,Heuglin's Gull,,1,51.6179,25.1372,Asia,Qatar,QA,,Qatar - Al Wakrah,2017-03-19,15:00
Calidris ferruginea,Animalia,SANDPIPERS_AND_ALLIES_SCOLOPACIDAE,Curlew Sandpiper,,1,51.6169,25.1368,Asia,Qatar,QA,,Qatar - Al Wakrah,2017-03-19,15:00
Charadrius alexandrinus,Animalia,PLOVERS_CHARADRIIDAE,Kentish Plover,,2,51.6169,25.1368,Asia,Qatar,QA,,Qatar - Al Wakrah,2017-03-19,15:00
Charadrius leschenaultii,Animalia,PLOVERS_CHARADRIIDAE,Greater Sand Plover,,2,51.6169,25.1368,Asia,Qatar,QA,,Qatar - Al Wakrah,2017-03-19,15:00
Charadrius mongolus,Animalia,PLOVERS_CHARADRIIDAE,Lesser Sand Plover,,2,51.6169,25.1368,Asia,Qatar,QA,,Qatar - Al Wakrah,2017-03-19,15:00
Pluvialis squatarola,Animalia,PLOVERS_CHARADRIIDAE,Grey Plover,,1,51.6181,25.1365,Asia,Qatar,QA,,Qatar - Al Wakrah,2017-03-19,10:38
Numenius arquata,Animalia,SANDPIPERS_AND_ALLIES_SCOLOPACIDAE,Eurasian Curlew,,1,51.6181,25.1365,Asia,Qatar,QA,,Qatar - Al Wakrah,2017-03-19,10:38
Larus fuscus heuglini,Animalia,GULLS_TERNS_AND_SKIMMERS_LARIDAE,Heuglin's Gull,,1,51.61966503,25.18043734,Asia,Qatar,QA,,Qatar - Al Wakrah,2015-10-28,
Sternula saundersi,Animalia,GULLS_TERNS_AND_SKIMMERS_LARIDAE,Saunders's Tern,,1,51.61966503,25.18043734,Asia,Qatar,QA,,Qatar - Al Wakrah,2016-08-12,
Hydroprogne caspia,Animalia,GULLS_TERNS_AND_SKIMMERS_LARIDAE,Caspian Tern,,1,51.6103,25.163,Asia,Qatar,QA,,Qatar - Al Wakrah,2017-03-19,11:55
Sternula albifrons,Animalia,GULLS_TERNS_AND_SKIMMERS_LARIDAE,Little Tern,,2,51.6181,25.1365,Asia,Qatar,QA,,Qatar - Al Wakrah,2017-03-19,10:38
Tringa nebularia,Animalia,SANDPIPERS_AND_ALLIES_SCOLOPACIDAE,Common Greenshank,,1,51.6181,25.1365,Asia,Qatar,QA,,Qatar - Al Wakrah,2017-03-19,10:38
Streptopelia decaocto,Animalia,PIGEONS_AND_DOVES_COLUMBIDAE,Eurasian Collared Dove,,1,51.6169,25.1794,Asia,Qatar,QA,,Qatar - Al Wakrah,2017-03-19,12:28
Butorides striata,Animalia,HERONS_ARDEIDAE,Striated Heron,,1,51.6169,25.1794,Asia,Qatar,QA,,Qatar - Al Wakrah,2017-03-19,12:28
Spilopelia senegalensis cambayensis,Animalia,PIGEONS_AND_DOVES_COLUMBIDAE,Laughing Dove ssp cambayensis,,1,51.6164,25.1805,Asia,Qatar,QA,,Qatar - Al Wakrah,2017-03-19,12:13
Ichthyaetus hemprichii,Animalia,GULLS_TERNS_AND_SKIMMERS_LARIDAE,Sooty Gull,,2,51.6103,25.163,Asia,Qatar,QA,,Qatar - Al Wakrah,2017-03-19,11:55
Xenus cinereus,Animalia,SANDPIPERS_AND_ALLIES_SCOLOPACIDAE,Terek Sandpiper,,1,51.6123,25.158,Asia,Qatar,QA,,Qatar - Al Wakrah,2017-03-19,11:33
Sylvia nana,Animalia,OLD_WORLD_WARBLERS_SYLVIIDAE,Asian Desert Warbler,,1,51.6163,25.1513,Asia,Qatar,QA,,Qatar - Al Wakrah,2017-03-19,11:19
Oenanthe isabellina,Animalia,OLD_WORLD_FLYCATCHERS_MUSCICAPIDAE,Isabelline Wheatear,,1,51.6168,25.1485,Asia,Qatar,QA,,Qatar - Al Wakrah,2017-03-19,11:14
Egretta gularis schistacea,Animalia,HERONS_ARDEIDAE,Red Sea Reef Heron,,1,51.6185,25.1497,Asia,Qatar,QA,,Qatar - Al Wakrah,2017-03-19,11:09
Streptopelia decaocto,Animalia,PIGEONS_AND_DOVES_COLUMBIDAE,Eurasian Collared Dove,,2,51.6197,25.1472,Asia,Qatar,QA,,Qatar - Al Wakrah,2017-03-19,11:06
Haematopus ostralegus,Animalia,OYSTERCATCHERS_HAEMATOPODIDAE,Eurasian Oystercatcher,,1,51.6202,25.1442,Asia,Qatar,QA,,Qatar - Al Wakrah,2017-03-19,11:03
Galerida cristata,Animalia,LARKS_ALAUDIDAE,Crested Lark,,1,51.6185,25.1425,Asia,Qatar,QA,,Qatar - Al Wakrah,2017-03-19,10:59
Oenanthe pleschanka,Animalia,OLD_WORLD_FLYCATCHERS_MUSCICAPIDAE,Pied Wheatear,,1,51.6185,25.1422,Asia,Qatar,QA,,Qatar - Al Wakrah,2017-03-19,10:58
Pycnonotus leucotis,Animalia,BULBULS_PYCNONOTIDAE,White-eared Bulbul,,1,51.6147,25.1396,Asia,Qatar,QA,,Qatar - Al Wakrah,2017-03-19,10:51
Lanius senator,Animalia,SHRIKES_LANIIDAE,Woodchat Shrike,,1,51.6147,25.1396,Asia,Qatar,QA,,Qatar - Al Wakrah,2017-03-19,10:49
Arenaria interpres,Animalia,SANDPIPERS_AND_ALLIES_SCOLOPACIDAE,Ruddy Turnstone,,2,51.6181,25.1365,Asia,Qatar,QA,,Qatar - Al Wakrah,2017-03-19,10:38
Haematopus ostralegus,Animalia,OYSTERCATCHERS_HAEMATOPODIDAE,Eurasian Oystercatcher,,1,51.6181,25.1365,Asia,Qatar,QA,,Qatar - Al Wakrah,2017-03-19,10:38
Brephidium exilis,Animalia,GOSSAMERWINGED_BUTTERFLIES_LYCAENIDAE,Western Pygmy-Blue,,5,51.6166,25.1351,Asia,Qatar,QA,,Qatar - Al Wakrah,2017-03-19,10:13
Acridotheres tristis,Animalia,STARLINGS_STURNIDAE,Common Myna,,1,51.6163,25.1324,Asia,Qatar,QA,,Qatar - Al Wakrah,2017-03-19,10:07
Chroicocephalus ridibundus,Animalia,GULLS_TERNS_AND_SKIMMERS_LARIDAE,Black-headed Gull,,7,51.6163,25.1337,Asia,Qatar,QA,,Qatar - Al Wakrah,2017-03-19,10:06
Passer domesticus,Animalia,OLD_WORLD_SPARROWS_PASSERIDAE,House Sparrow,,1,51.616,25.1296,Asia,Qatar,QA,,Qatar - Al Wakrah,2017-03-19,09:52
Passer domesticus,Animalia,OLD_WORLD_SPARROWS_PASSERIDAE,House Sparrow,,3,51.6158,25.1313,Asia,Qatar,QA,,Qatar - Al Wakrah,2017-03-19,09:41
Pycnonotus leucotis,Animalia,BULBULS_PYCNONOTIDAE,White-eared Bulbul,,1,51.6158,25.1313,Asia,Qatar,QA,,Qatar - Al Wakrah,2017-03-19,09:41
Spilopelia senegalensis cambayensis,Animalia,PIGEONS_AND_DOVES_COLUMBIDAE,Laughing Dove ssp cambayensis,,1,51.6114,25.1441,Asia,Qatar,QA,,Qatar - Al Wakrah,2017-03-19,09:38
Spilopelia senegalensis cambayensis,Animalia,PIGEONS_AND_DOVES_COLUMBIDAE,Laughing Dove ssp cambayensis,,1,51.6054,25.1573,Asia,Qatar,QA,,Qatar - Al Wakrah,2017-03-19,09:35
Spilopelia senegalensis cambayensis,Animalia,PIGEONS_AND_DOVES_COLUMBIDAE,Laughing Dove ssp cambayensis,,2,51.6074,25.1813,Asia,Qatar,QA,,Qatar - Al Wakrah,2017-03-19,09:30
Columba livia domestica,Animalia,PIGEONS_AND_DOVES_COLUMBIDAE,Feral Pigeon,,2,51.6067,25.1816,Asia,Qatar,QA,,Qatar - Al Wakrah,2017-03-19,09:30
Ammomanes deserti,Animalia,LARKS_ALAUDIDAE,Desert Lark,,2,51.132,24.9357,Asia,Qatar,QA,,Qatar - Al Wakrah,2017-03-18,13:26
Oenanthe isabellina,Animalia,OLD_WORLD_FLYCATCHERS_MUSCICAPIDAE,Isabelline Wheatear,,1,51.132,24.9357,Asia,Qatar,QA,,Qatar - Al Wakrah,2017-03-18,13:26
Sylvia nana,Animalia,OLD_WORLD_WARBLERS_SYLVIIDAE,Asian Desert Warbler,,1,51.132,24.9357,Asia,Qatar,QA,,Qatar - Al Wakrah,2017-03-18,13:26
Eremopterix nigriceps,Animalia,LARKS_ALAUDIDAE,Black-crowned Sparrow-Lark,,1,51.127,24.9114,Asia,Qatar,QA,,Qatar - Al Wakrah,2017-03-18,12:29
Oenanthe pleschanka,Animalia,OLD_WORLD_FLYCATCHERS_MUSCICAPIDAE,Pied Wheatear,,1,51.1307,24.9212,Asia,Qatar,QA,,Qatar - Al Wakrah,2017-03-18,12:19
Oenanthe pleschanka,Animalia,OLD_WORLD_FLYCATCHERS_MUSCICAPIDAE,Pied Wheatear,,1,51.1418,24.9206,Asia,Qatar,QA,,Qatar - Al Wakrah,2017-03-18,12:13
Hirundo rustica,Animalia,SWALLOWS_HIRUNDINIDAE,Barn Swallow,,1,51.19537443,25.0019472,Asia,Qatar,QA,,Qatar - Al Rayyan,2017-03-18,15:00
Circus macrourus,Animalia,HAWKS_AND_EAGLES_ACCIPITRIDAE,Pallid Harrier,,1,51.19537443,25.0019472,Asia,Qatar,QA,,Qatar - Al Rayyan,2017-03-18,15:00
Circus aeruginosus,Animalia,HAWKS_AND_EAGLES_ACCIPITRIDAE,Western Marsh Harrier,,2,51.19537443,25.0019472,Asia,Qatar,QA,,Qatar - Al Rayyan,2017-03-18,15:00
Turdus philomelos,Animalia,THRUSHES_TURDIDAE,Song Thrush,,1,51.19387692,25.00664963,Asia,Qatar,QA,,Qatar - Al Rayyan,2017-03-18,15:08
Lanius excubitor aucheri,Animalia,SHRIKES_LANIIDAE,Levant Grey Shrike,,1,51.19056791,25.00039144,Asia,Qatar,QA,,Qatar - Al Rayyan,2017-03-18,15:08
Motacilla alba,Animalia,PIPITS_EN_WAGTAILS_MOTACILLIDAE,White Wagtail,,1,51.1785,24.999,Asia,Qatar,QA,,Qatar - Al Rayyan,2017-03-18,16:23
Passer hispaniolensis,Animalia,OLD_WORLD_SPARROWS_PASSERIDAE,Spanish Sparrow,,10,51.1782,24.9876,Asia,Qatar,QA,,Qatar - Al Wakrah,2017-03-18,16:17
Upupa epops,Animalia,HOOPOES_UPUPIDAE,Eurasian Hoopoe,,4,51.2014,24.988,Asia,Qatar,QA,,Qatar - Al Wakrah,2017-03-18,15:43
Coturnix coturnix,Animalia,FRANCOLINS_QUAILS_PARTRIDGES_AND_PHEASANTS_PHASIANIDAE,Common Quail,,1,51.2014,24.988,Asia,Qatar,QA,,Qatar - Al Wakrah,2017-03-18,15:43
Coturnix coturnix,Animalia,FRANCOLINS_QUAILS_PARTRIDGES_AND_PHEASANTS_PHASIANIDAE,Common Quail,,1,51.1902,25.0035,Asia,Qatar,QA,,Qatar - Al Rayyan,2017-03-18,15:08
Falco tinnunculus,Animalia,CARACAS_AND_FALCONS_FALCONIDAE,Common Kestrel,,1,51.19,25.0042,Asia,Qatar,QA,,Qatar - Al Rayyan,2017-03-18,15:08
Merops persicus,Animalia,BEEEATERS_MEROPIDAE,Blue-cheeked Bee-eater,,4,51.1828,25.0054,Asia,Qatar,QA,,Qatar - Al Rayyan,2017-03-18,14:58
Galerida cristata,Animalia,LARKS_ALAUDIDAE,Crested Lark,,1,51.181,25.0162,Asia,Qatar,QA,,Qatar - Al Rayyan,2017-03-18,14:50
Oenanthe pleschanka,Animalia,OLD_WORLD_FLYCATCHERS_MUSCICAPIDAE,Pied Wheatear,,1,51.0923,25.0092,Asia,Qatar,QA,,Qatar - Al Rayyan,2017-03-18,14:18
Galerida cristata,Animalia,LARKS_ALAUDIDAE,Crested Lark,,1,51.0964,24.991,Asia,Qatar,QA,,Qatar - Al Rayyan,2017-03-18,14:08
Ammomanes deserti,Animalia,LARKS_ALAUDIDAE,Desert Lark,,2,51.132,24.9357,Asia,Qatar,QA,,Qatar - Al Wakrah,2017-03-18,13:26
Oenanthe isabellina,Animalia,OLD_WORLD_FLYCATCHERS_MUSCICAPIDAE,Isabelline Wheatear,,1,51.132,24.9357,Asia,Qatar,QA,,Qatar - Al Wakrah,2017-03-18,13:26
Pycnonotus leucotis,Animalia,BULBULS_PYCNONOTIDAE,White-eared Bulbul,,1,51.1828,25.0054,Asia,Qatar,QA,,Qatar - Al Rayyan,2017-03-18,14:58
Hirundo rustica,Animalia,SWALLOWS_HIRUNDINIDAE,Barn Swallow,,1,51.19537443,25.0019472,Asia,Qatar,QA,,Qatar - Al Rayyan,2017-03-18,15:00
Circus macrourus,Animalia,HAWKS_AND_EAGLES_ACCIPITRIDAE,Pallid Harrier,,1,51.19537443,25.0019472,Asia,Qatar,QA,,Qatar - Al Rayyan,2017-03-18,15:00
Circus aeruginosus,Animalia,HAWKS_AND_EAGLES_ACCIPITRIDAE,Western Marsh Harrier,,2,51.19537443,25.0019472,Asia,Qatar,QA,,Qatar - Al Rayyan,2017-03-18,15:00
Turdus philomelos,Animalia,THRUSHES_TURDIDAE,Song Thrush,,1,51.19387692,25.00664963,Asia,Qatar,QA,,Qatar - Al Rayyan,2017-03-18,15:08
Lanius excubitor aucheri,Animalia,SHRIKES_LANIIDAE,Levant Grey Shrike,,1,51.19056791,25.00039144,Asia,Qatar,QA,,Qatar - Al Rayyan,2017-03-18,15:08
Lanius phoenicuroides,Animalia,SHRIKES_LANIIDAE,Red-tailed Shrike,,1,51.1599,24.9116,Asia,Qatar,QA,,Qatar - Al Wakrah,2017-03-18,12:04
Carpospiza brachydactyla,Animalia,OLD_WORLD_SPARROWS_PASSERIDAE,Pale Rockfinch,,12,51.1596,24.9121,Asia,Qatar,QA,,Qatar - Al Wakrah,2017-03-18,
Motacilla alba,Animalia,PIPITS_EN_WAGTAILS_MOTACILLIDAE,White Wagtail,,1,51.1785,24.999,Asia,Qatar,QA,,Qatar - Al Rayyan,2017-03-18,16:23
Passer hispaniolensis,Animalia,OLD_WORLD_SPARROWS_PASSERIDAE,Spanish Sparrow,,10,51.1782,24.9876,Asia,Qatar,QA,,Qatar - Al Wakrah,2017-03-18,16:17
Upupa epops,Animalia,HOOPOES_UPUPIDAE,Eurasian Hoopoe,,4,51.2014,24.988,Asia,Qatar,QA,,Qatar - Al Wakrah,2017-03-18,15:43
Coturnix coturnix,Animalia,FRANCOLINS_QUAILS_PARTRIDGES_AND_PHEASANTS_PHASIANIDAE,Common Quail,,1,51.2014,24.988,Asia,Qatar,QA,,Qatar - Al Wakrah,2017-03-18,15:43
Falco tinnunculus,Animalia,CARACAS_AND_FALCONS_FALCONIDAE,Common Kestrel,,1,51.19,25.0042,Asia,Qatar,QA,,Qatar - Al Rayyan,2017-03-18,15:08
Galerida cristata,Animalia,LARKS_ALAUDIDAE,Crested Lark,,1,51.181,25.0162,Asia,Qatar,QA,,Qatar - Al Rayyan,2017-03-18,14:50
Oenanthe pleschanka,Animalia,OLD_WORLD_FLYCATCHERS_MUSCICAPIDAE,Pied Wheatear,,1,51.0923,25.0092,Asia,Qatar,QA,,Qatar - Al Rayyan,2017-03-18,14:18
Galerida cristata,Animalia,LARKS_ALAUDIDAE,Crested Lark,,1,51.0964,24.991,Asia,Qatar,QA,,Qatar - Al Rayyan,2017-03-18,14:08
Sylvia nana,Animalia,OLD_WORLD_WARBLERS_SYLVIIDAE,Asian Desert Warbler,,1,51.132,24.9357,Asia,Qatar,QA,,Qatar - Al Wakrah,2017-03-18,13:26
Eremopterix nigriceps,Animalia,LARKS_ALAUDIDAE,Black-crowned Sparrow-Lark,,1,51.127,24.9114,Asia,Qatar,QA,,Qatar - Al Wakrah,2017-03-18,12:29
Oenanthe pleschanka,Animalia,OLD_WORLD_FLYCATCHERS_MUSCICAPIDAE,Pied Wheatear,,1,51.1307,24.9212,Asia,Qatar,QA,,Qatar - Al Wakrah,2017-03-18,12:19
Oenanthe pleschanka,Animalia,OLD_WORLD_FLYCATCHERS_MUSCICAPIDAE,Pied Wheatear,,1,51.1418,24.9206,Asia,Qatar,QA,,Qatar - Al Wakrah,2017-03-18,12:13
Oenanthe pleschanka,Animalia,OLD_WORLD_FLYCATCHERS_MUSCICAPIDAE,Pied Wheatear,,1,51.2673,24.9568,Asia,Qatar,QA,,Qatar - Al Wakrah,2017-03-18,11:38
Lanius excubitor pallidirostris,Animalia,SHRIKES_LANIIDAE,Steppe Grey Shrike,,1,51.3255,25.0651,Asia,Qatar,QA,,Qatar - Al Wakrah,2017-03-18,11:29
Passer domesticus,Animalia,OLD_WORLD_SPARROWS_PASSERIDAE,House Sparrow,,2,51.5991,25.1722,Asia,Qatar,QA,,Qatar - Al Wakrah,2017-03-18,10:55
Carpospiza brachydactyla,Animalia,OLD_WORLD_SPARROWS_PASSERIDAE,Pale Rockfinch,,12,51.1596,24.9121,Asia,Qatar,QA,,Qatar - Al Wakrah,2017-03-18,
Athene noctua lilith,Animalia,OWLS_STRIGIDAE,Little Owl ssp lilith,,1,51.18440151,25.00503923,Asia,Qatar,QA,,Qatar - Al Rayyan,2017-03-18,
Merops persicus,Animalia,BEEEATERS_MEROPIDAE,Blue-cheeked Bee-eater,,1,51.18440151,25.00503923,Asia,Qatar,QA,,Qatar - Al Rayyan,2017-03-18,
Acridotheres tristis,Animalia,STARLINGS_STURNIDAE,Common Myna,,1,51.54163613,25.2948166,Asia,Qatar,QA,,Qatar - Doha,2017-03-17,
Pycnonotus leucotis mesopotamia,Animalia,BULBULS_PYCNONOTIDAE,White-eared Bulbul ssp mesopotamia,,1,51.54252652,25.29391021,Asia,Qatar,QA,,Qatar - Doha,2017-03-17,
Spilopelia senegalensis,Animalia,PIGEONS_AND_DOVES_COLUMBIDAE,Laughing Dove,,1,51.61521084,25.18521384,Asia,Qatar,QA,,Qatar - Al Wakrah,2017-03-17,
Sylvia nana,Animalia,OLD_WORLD_WARBLERS_SYLVIIDAE,Asian Desert Warbler,,1,51.61666996,25.18588375,Asia,Qatar,QA,,Qatar - Al Wakrah,2017-03-17,
Oenanthe isabellina,Animalia,OLD_WORLD_FLYCATCHERS_MUSCICAPIDAE,Isabelline Wheatear,,1,51.61635883,25.18553423,Asia,Qatar,QA,,Qatar - Al Wakrah,2017-03-17,
Alcedo atthis,Animalia,KINGFISHERS_ALCEDINIDAE,Common Kingfisher,,1,51.61700256,25.17853392,Asia,Qatar,QA,,Qatar - Al Wakrah,2017-03-17,
Actitis hypoleucos,Animalia,SANDPIPERS_AND_ALLIES_SCOLOPACIDAE,Common Sandpiper,,2,51.54283411,25.2964078,Asia,Qatar,QA,,Qatar - Doha,2017-03-17,
Corvus splendens,Animalia,CROWS_AND_JAYS_CORVIDAE,House Crow,,2,51.54,25.29,Asia,Qatar,QA,,Qatar - Doha,2017-03-17,
Spilopelia senegalensis cambayensis,Animalia,PIGEONS_AND_DOVES_COLUMBIDAE,Laughing Dove ssp cambayensis,,1,51.54396064,25.29452598,Asia,Qatar,QA,,Qatar - Doha,2017-03-17,
Egretta gularis schistacea,Animalia,HERONS_ARDEIDAE,Red Sea Reef Heron,,1,51.54183633,25.29825079,Asia,Qatar,QA,,Qatar - Doha,2017-03-17,
Streptopelia decaocto,Animalia,PIGEONS_AND_DOVES_COLUMBIDAE,Eurasian Collared Dove,,1,51.54171832,25.29481698,Asia,Qatar,QA,,Qatar - Doha,2017-03-17,
Spilopelia senegalensis,Animalia,PIGEONS_AND_DOVES_COLUMBIDAE,Laughing Dove,,2,51.54343493,25.29433197,Asia,Qatar,QA,,Qatar - Doha,2017-03-17,
Chroicocephalus ridibundus,Animalia,GULLS_TERNS_AND_SKIMMERS_LARIDAE,Black-headed Gull,,5,51.54018409,25.2966115,Asia,Qatar,QA,,Qatar - Doha,2017-03-17,
Acridotheres tristis,Animalia,STARLINGS_STURNIDAE,Common Myna,,1,51.54366024,25.29465208,Asia,Qatar,QA,,Qatar - Doha,2017-03-17,
Motacilla alba,Animalia,PIPITS_EN_WAGTAILS_MOTACILLIDAE,White Wagtail,,1,51.54254444,25.29516939,Asia,Qatar,QA,,Qatar - Doha,2017-03-17,
Spilopelia senegalensis cambayensis,Animalia,PIGEONS_AND_DOVES_COLUMBIDAE,Laughing Dove ssp cambayensis,,1,51.61521084,25.18521384,Asia,Qatar,QA,,Qatar - Al Wakrah,2017-03-17,
Sylvia nana,Animalia,OLD_WORLD_WARBLERS_SYLVIIDAE,Asian Desert Warbler,,1,51.61666996,25.18588375,Asia,Qatar,QA,,Qatar - Al Wakrah,2017-03-17,
Oenanthe isabellina,Animalia,OLD_WORLD_FLYCATCHERS_MUSCICAPIDAE,Isabelline Wheatear,,1,51.61635883,25.18553423,Asia,Qatar,QA,,Qatar - Al Wakrah,2017-03-17,
Egretta gularis schistacea,Animalia,HERONS_ARDEIDAE,Red Sea Reef Heron,,1,51.61682017,25.17856305,Asia,Qatar,QA,,Qatar - Al Wakrah,2017-03-17,
Actitis hypoleucos,Animalia,SANDPIPERS_AND_ALLIES_SCOLOPACIDAE,Common Sandpiper,,2,51.54283411,25.2964078,Asia,Qatar,QA,,Qatar - Doha,2017-03-17,
Corvus splendens,Animalia,CROWS_AND_JAYS_CORVIDAE,House Crow,,2,51.54,25.29,Asia,Qatar,QA,,Qatar - Doha,2017-03-17,
Spilopelia senegalensis cambayensis,Animalia,PIGEONS_AND_DOVES_COLUMBIDAE,Laughing Dove ssp cambayensis,,1,51.54396064,25.29452598,Asia,Qatar,QA,,Qatar - Doha,2017-03-17,
Egretta gularis schistacea,Animalia,HERONS_ARDEIDAE,Red Sea Reef Heron,,1,51.54183633,25.29825079,Asia,Qatar,QA,,Qatar - Doha,2017-03-17,
Spilopelia senegalensis cambayensis,Animalia,PIGEONS_AND_DOVES_COLUMBIDAE,Laughing Dove ssp cambayensis,,2,51.54343493,25.29433197,Asia,Qatar,QA,,Qatar - Doha,2017-03-17,
Chroicocephalus ridibundus,Animalia,GULLS_TERNS_AND_SKIMMERS_LARIDAE,Black-headed Gull,,5,51.54018409,25.2966115,Asia,Qatar,QA,,Qatar - Doha,2017-03-17,
Acridotheres tristis,Animalia,STARLINGS_STURNIDAE,Common Myna,,1,51.54366024,25.29465208,Asia,Qatar,QA,,Qatar - Doha,2017-03-17,
Pycnonotus leucotis mesopotamia,Animalia,BULBULS_PYCNONOTIDAE,White-eared Bulbul ssp mesopotamia,,2,51.54366024,25.29465208,Asia,Qatar,QA,,Qatar - Doha,2017-03-17,
Motacilla alba alba,Animalia,PIPITS_EN_WAGTAILS_MOTACILLIDAE,White Wagtail ssp alba,,1,51.54254444,25.29516939,Asia,Qatar,QA,,Qatar - Doha,2017-03-17,
Phoenicurus ochruros,Animalia,OLD_WORLD_FLYCATCHERS_MUSCICAPIDAE,Black Redstart,,1,51.18691206,25.00488366,Asia,Qatar,QA,,Qatar - Al Rayyan,2017-03-12,
Monticola solitarius,Animalia,OLD_WORLD_FLYCATCHERS_MUSCICAPIDAE,Blue Rock Thrush,,1,51.18691206,25.00488366,Asia,Qatar,QA,,Qatar - Al Rayyan,2017-03-12,
Phoenicurus phoenicurus samamisicus,Animalia,OLD_WORLD_FLYCATCHERS_MUSCICAPIDAE,Common Redstart ssp samamisicus,,1,51.18691206,25.00488366,Asia,Qatar,QA,,Qatar - Al Rayyan,2017-03-12,
Oenanthe melanoleuca,Animalia,OLD_WORLD_FLYCATCHERS_MUSCICAPIDAE,Eastern Black-eared Wheatear,,1,51.18691206,25.00488366,Asia,Qatar,QA,,Qatar - Al Rayyan,2017-03-12,
Chroicocephalus ridibundus,Animalia,GULLS_TERNS_AND_SKIMMERS_LARIDAE,Black-headed Gull,,50,51.55091377,25.30215992,Asia,Qatar,QA,,Qatar - Doha,2016-12-28,09:21
Phoenicopterus roseus,Animalia,FLAMINGOS_PHOENICOPTERIDAE,Greater Flamingo,,35,51.55054115,25.00958931,Asia,Qatar,QA,,Qatar - Al Wakrah,2017-02-24,16:30
Sylvia curruca,Animalia,OLD_WORLD_WARBLERS_SYLVIIDAE,Lesser Whitethroat,,1,51.61605142,25.13386143,Asia,Qatar,QA,,Qatar - Al Wakrah,2017-02-23,
Circaetus gallicus,Animalia,HAWKS_AND_EAGLES_ACCIPITRIDAE,Short-toed Snake Eagle,,1,51.18440151,24.99718261,Asia,Qatar,QA,,Qatar - Al Rayyan,2017-02-20,
Circus macrourus,Animalia,HAWKS_AND_EAGLES_ACCIPITRIDAE,Pallid Harrier,,1,51.18440151,24.99718261,Asia,Qatar,QA,,Qatar - Al Rayyan,2017-02-20,
Ichthyaetus hemprichii,Animalia,GULLS_TERNS_AND_SKIMMERS_LARIDAE,Sooty Gull,,1,51.61877722,25.15064072,Asia,Qatar,QA,,Qatar - Al Wakrah,2017-02-23,
Elanus caeruleus vociferus,Animalia,HAWKS_AND_EAGLES_ACCIPITRIDAE,Black-winged Kite ssp vociferus,,1,51.20098293,24.98698187,Asia,Qatar,QA,,Qatar - Al Wakrah,2017-02-24,
Chroicocephalus genei,Animalia,GULLS_TERNS_AND_SKIMMERS_LARIDAE,Slender-billed Gull,,200,51.51546657,24.85808949,Asia,Qatar,QA,,Qatar - Al Wakrah,2017-02-24,13:15
Haematopus ostralegus,Animalia,OYSTERCATCHERS_HAEMATOPODIDAE,Eurasian Oystercatcher,,2,51.51546657,24.85808949,Asia,Qatar,QA,,Qatar - Al Wakrah,2017-02-24,13:30
Actitis hypoleucos,Animalia,SANDPIPERS_AND_ALLIES_SCOLOPACIDAE,Common Sandpiper,,10,51.52775293,25.29325556,Asia,Qatar,QA,,Qatar - Doha,2017-02-21,12:30
Pandion haliaetus,Animalia,OSPREY_PANDIONIDAE,Western Osprey,,1,51.61488717,25.17777666,Asia,Qatar,QA,,Qatar - Al Wakrah,2017-01-29,
Alcedo atthis,Animalia,KINGFISHERS_ALCEDINIDAE,Common Kingfisher,,1,51.61709731,25.17897093,Asia,Qatar,QA,,Qatar - Al Wakrah,2017-01-29,
Butorides striata,Animalia,HERONS_ARDEIDAE,Striated Heron,,2,51.61709731,25.17897093,Asia,Qatar,QA,,Qatar - Al Wakrah,2017-01-29,
Sylvia mystacea,Animalia,OLD_WORLD_WARBLERS_SYLVIIDAE,Menetries's Warbler,,4,51.1283,25.7808,Asia,Qatar,QA,,Qatar - Al Khor,2017-01-28,
Pterocles alchata,Animalia,SANDGROUSE_PTEROCLIDAE,Pin-tailed Sandgrouse,,12,51.1701,25.7846,Asia,Qatar,QA,,Qatar - Al Khor,2017-01-28,
Sylvia mystacea,Animalia,OLD_WORLD_WARBLERS_SYLVIIDAE,Menetries's Warbler,,1,51.20190024,24.98510499,Asia,Qatar,QA,,Qatar - Al Wakrah,2017-01-24,
Francolinus pondicerianus,Animalia,FRANCOLINS_QUAILS_PARTRIDGES_AND_PHEASANTS_PHASIANIDAE,Grey Francolin,,1,51.17992759,25.01093137,Asia,Qatar,QA,,Qatar - Al Rayyan,2017-01-24,
Corvus ruficollis,Animalia,CROWS_AND_JAYS_CORVIDAE,Brown-necked Raven,,1,50.96706748,25.26982716,Asia,Qatar,QA,,Qatar - Al Rayyan,2017-01-22,
Buteo rufinus,Animalia,HAWKS_AND_EAGLES_ACCIPITRIDAE,Long-legged Buzzard,,1,51.18278682,25.00440722,Asia,Qatar,QA,,Qatar - Al Rayyan,2017-01-16,
Buteo rufinus,Animalia,HAWKS_AND_EAGLES_ACCIPITRIDAE,Long-legged Buzzard,,1,51.19411647,24.99149403,Asia,Qatar,QA,,Qatar - Al Wakrah,2017-01-16,
Falco tinnunculus,Animalia,CARACAS_AND_FALCONS_FALCONIDAE,Common Kestrel,,5,51.17918193,24.99896206,Asia,Qatar,QA,,Qatar - Al Rayyan,2017-01-16,
Buteo rufinus,Animalia,HAWKS_AND_EAGLES_ACCIPITRIDAE,Long-legged Buzzard,,1,51.17729366,25.00300706,Asia,Qatar,QA,,Qatar - Al Rayyan,2017-01-16,
Oenanthe oenanthe,Animalia,OLD_WORLD_FLYCATCHERS_MUSCICAPIDAE,Northern Wheatear,,1,51.61631595,25.13430884,Asia,Qatar,QA,,Qatar - Al Wakrah,2016-09-20,
Luscinia megarhynchos,Animalia,OLD_WORLD_FLYCATCHERS_MUSCICAPIDAE,Common Nightingale,,1,51.18084691,25.01168852,Asia,Qatar,QA,,Qatar - Al Rayyan,2016-09-16,
Chlidonias leucopterus,Animalia,GULLS_TERNS_AND_SKIMMERS_LARIDAE,White-winged Tern,,8,51.16115749,25.00502951,Asia,Qatar,QA,,Qatar - Al Rayyan,2017-01-13,
Oenanthe chrysopygia,Animalia,OLD_WORLD_FLYCATCHERS_MUSCICAPIDAE,Red-tailed Wheatear,,1,50.80324218,25.19103701,Asia,Qatar,QA,,Qatar - Al Rayyan,2017-01-13,
Vanellus leucurus,Animalia,PLOVERS_CHARADRIIDAE,White-tailed Lapwing,,1,51.34569347,25.17992275,Asia,Qatar,QA,,Qatar - Al Rayyan,2016-10-08,
Upupa epops,Animalia,HOOPOES_UPUPIDAE,Eurasian Hoopoe,,9,51.61323678,25.18080569,Asia,Qatar,QA,,Qatar - Al Wakrah,2016-09-15,
Psittacula krameri,Animalia,PSITTACULIDAE,Rose-ringed Parakeet,,4,51.61198184,25.18013636,Asia,Qatar,QA,,Qatar - Al Wakrah,2017-01-07,
Euodice malabarica,Animalia,WAXBILLS_MUNIAS_ALLIES_ESTRILDIDAE,Indian Silverbill,,1,51.61198184,25.18013636,Asia,Qatar,QA,,Qatar - Al Wakrah,2017-01-07,
Lanius excubitor aucheri,Animalia,SHRIKES_LANIIDAE,Levant Grey Shrike,,1,51.61198184,25.18013636,Asia,Qatar,QA,,Qatar - Al Wakrah,2017-01-07,
Lanius nubicus,Animalia,SHRIKES_LANIIDAE,Masked Shrike,,1,51.61198184,25.18013636,Asia,Qatar,QA,,Qatar - Al Wakrah,2017-01-07,
Turdus philomelos,Animalia,THRUSHES_TURDIDAE,Song Thrush,,1,51.61198184,25.18013636,Asia,Qatar,QA,,Qatar - Al Wakrah,2017-01-07,
Upupa epops,Animalia,HOOPOES_UPUPIDAE,Eurasian Hoopoe,,1,51.61198184,25.18013636,Asia,Qatar,QA,,Qatar - Al Wakrah,2017-01-07,
Pycnonotus cafer,Animalia,BULBULS_PYCNONOTIDAE,Red-vented Bulbul,,10,51.61198184,25.18013636,Asia,Qatar,QA,,Qatar - Al Wakrah,2017-01-07,
Pycnonotus leucotis,Animalia,BULBULS_PYCNONOTIDAE,White-eared Bulbul,,20,51.61198184,25.18013636,Asia,Qatar,QA,,Qatar - Al Wakrah,2017-01-07,
Streptopelia decaocto,Animalia,PIGEONS_AND_DOVES_COLUMBIDAE,Eurasian Collared Dove,,1,51.61198184,25.18013636,Asia,Qatar,QA,,Qatar - Al Wakrah,2017-01-07,
Spilopelia senegalensis,Animalia,PIGEONS_AND_DOVES_COLUMBIDAE,Laughing Dove,,1,51.61198184,25.18013636,Asia,Qatar,QA,,Qatar - Al Wakrah,2017-01-07,
Podiceps nigricollis,Animalia,GREBES_PODICIPEDIDAE,Black-necked Grebe,,2,51.50522321,25.38248969,Asia,Qatar,QA,,Qatar - Doha,2016-12-12,
Euodice malabarica,Animalia,WAXBILLS_MUNIAS_ALLIES_ESTRILDIDAE,Indian Silverbill,,30,51.50522321,25.38248969,Asia,Qatar,QA,,Qatar - Doha,2016-12-12,
Francolinus pondicerianus,Animalia,FRANCOLINS_QUAILS_PARTRIDGES_AND_PHEASANTS_PHASIANIDAE,Grey Francolin,,20,51.50522321,25.38248969,Asia,Qatar,QA,,Qatar - Doha,2016-12-12,
Ardeola ralloides,Animalia,HERONS_ARDEIDAE,Squacco Heron,,2,51.50522321,25.38248969,Asia,Qatar,QA,,Qatar - Doha,2016-12-12,
Spatula clypeata,Animalia,DUCKS_GEESE_AND_SWANS_ANATIDAE,Northern Shoveler,,2,51.50522321,25.38248969,Asia,Qatar,QA,,Qatar - Doha,2016-12-12,
Lanius nubicus,Animalia,SHRIKES_LANIIDAE,Masked Shrike,,2,51.50522321,25.38248969,Asia,Qatar,QA,,Qatar - Doha,2016-12-12,
Ardeola grayii,Animalia,HERONS_ARDEIDAE,Indian Pond Heron,,1,51.50522321,25.38248969,Asia,Qatar,QA,,Qatar - Doha,2016-12-12,
Vulpes vulpes,Animalia,DOGS_CANIDAE,Red Fox,,1,51.15,24.95,Asia,Qatar,QA,,Qatar - Al Rayyan,2016-12-10,
Anas crecca,Animalia,DUCKS_GEESE_AND_SWANS_ANATIDAE,Eurasian Teal,,2,51.34370327,25.20486349,Asia,Qatar,QA,,Qatar - Al Rayyan,2016-12-10,
Anser anser rubrirostris,Animalia,DUCKS_GEESE_AND_SWANS_ANATIDAE,Greylag Goose ssp rubrirostris,,8,51.34370327,25.20486349,Asia,Qatar,QA,,Qatar - Al Rayyan,2016-12-10,
Vanellus gregarius,Animalia,PLOVERS_CHARADRIIDAE,Sociable Lapwing,,1,51.20396018,25.00253061,Asia,Qatar,QA,,Qatar - Al Rayyan,2016-12-10,
Larus fuscus barabensis,Animalia,GULLS_TERNS_AND_SKIMMERS_LARIDAE,Lesser Black-backed Gull ssp barabensis,,1,51.61520183,25.15490892,Asia,Qatar,QA,,Qatar - Al Wakrah,2016-10-09,
Tyto alba,Animalia,BARN_OWLS_TYTONIDAE,Western Barn Owl,,1,51.1807,25.0116,Asia,Qatar,QA,,Qatar - Al Rayyan,2016-12-05,11:12
Junonia orithya,Animalia,BRUSHFOOTED_BUTTERFLIES_NYMPHALIDAE,Blue Pansy,,1,51.17142767,25.00705678,Asia,Qatar,QA,,Qatar - Al Rayyan,2016-12-01,
Lanius excubitor aucheri,Animalia,SHRIKES_LANIIDAE,Levant Grey Shrike,,1,51.17142767,25.00705678,Asia,Qatar,QA,,Qatar - Al Rayyan,2016-12-01,
Luscinia svecica,Animalia,OLD_WORLD_FLYCATCHERS_MUSCICAPIDAE,Bluethroat,,1,51.16009802,25.00448987,Asia,Qatar,QA,,Qatar - Al Rayyan,2016-12-01,
Sturnus vulgaris,Animalia,STARLINGS_STURNIDAE,Common Starling,,1,51.16833776,25.01265714,Asia,Qatar,QA,,Qatar - Al Rayyan,2016-12-01,
Turdus philomelos,Animalia,THRUSHES_TURDIDAE,Song Thrush,,1,51.16833776,25.01265714,Asia,Qatar,QA,,Qatar - Al Rayyan,2016-12-01,
Turdus atrogularis,Animalia,THRUSHES_TURDIDAE,Black-throated Thrush,,1,51.16833776,25.01265714,Asia,Qatar,QA,,Qatar - Al Rayyan,2016-12-01,
Porphyrio poliocephalus,Animalia,RAILS_RALLIDAE,Grey-headed Swamphen,,1,51.15,24.95,Asia,Qatar,QA,,Qatar - Al Rayyan,2016-12-01,
Buteo rufinus,Animalia,HAWKS_AND_EAGLES_ACCIPITRIDAE,Long-legged Buzzard,,1,51.1899,24.9912,Asia,Qatar,QA,,Qatar - Al Wakrah,2016-11-29,
Turdus philomelos,Animalia,THRUSHES_TURDIDAE,Song Thrush,,2,51.1692,25.0124,Asia,Qatar,QA,,Qatar - Al Rayyan,2016-11-29,
Sturnus vulgaris / unicolor,Animalia,STARLINGS_STURNIDAE,Common Starling / Spotless Starling,,6,51.1692,25.0124,Asia,Qatar,QA,,Qatar - Al Rayyan,2016-11-29,
Gallinago gallinago,Animalia,SANDPIPERS_AND_ALLIES_SCOLOPACIDAE,Common Snipe,,2,51.2051,25.0053,Asia,Qatar,QA,,Qatar - Al Rayyan,2016-11-29,
Tadorna ferruginea,Animalia,DUCKS_GEESE_AND_SWANS_ANATIDAE,Ruddy Shelduck,,1,51.2051,25.0053,Asia,Qatar,QA,,Qatar - Al Rayyan,2016-11-29,
Vanellus vanellus,Animalia,PLOVERS_CHARADRIIDAE,Northern Lapwing,,31,51.2051,25.0053,Asia,Qatar,QA,,Qatar - Al Rayyan,2016-11-29,
Pastor roseus,Animalia,STARLINGS_STURNIDAE,Rosy Starling,,1,51.2051,25.0053,Asia,Qatar,QA,,Qatar - Al Rayyan,2016-11-29,
Calandrella brachydactyla,Animalia,LARKS_ALAUDIDAE,Greater Short-toed Lark,,6,51.33522213,25.21720092,Asia,Qatar,QA,,Qatar - Al Rayyan,2016-10-08,
Tringa ochropus,Animalia,SANDPIPERS_AND_ALLIES_SCOLOPACIDAE,Green Sandpiper,,1,51.184331774712,25.004407218316,Asia,Qatar,QA,,Qatar - Al Rayyan,2016-11-20,
Circaetus gallicus,Animalia,HAWKS_AND_EAGLES_ACCIPITRIDAE,Short-toed Snake Eagle,,1,51.183988451958,25.012807843982,Asia,Qatar,QA,,Qatar - Al Rayyan,2016-11-20,
Lonchura punctulata,Animalia,WAXBILLS_MUNIAS_ALLIES_ESTRILDIDAE,Scaly-breasted Munia,,1,51.185077428818,25.003464056646,Asia,Qatar,QA,,Qatar - Al Rayyan,2016-10-26,
Sylvia nana,Animalia,OLD_WORLD_WARBLERS_SYLVIIDAE,Asian Desert Warbler,,3,51.6165179573,25.151044963509,Asia,Qatar,QA,,Qatar - Al Wakrah,2016-10-19,
Sylvia curruca,Animalia,OLD_WORLD_WARBLERS_SYLVIIDAE,Lesser Whitethroat,,1,51.615,25.1851,Asia,Qatar,QA,,Qatar - Al Wakrah,2016-10-17,15:37
Chlidonias leucopterus,Animalia,GULLS_TERNS_AND_SKIMMERS_LARIDAE,White-winged Tern,,14,51.1635,24.9976,Asia,Qatar,QA,,Qatar - Al Rayyan,2016-10-04,
Calidris alpina,Animalia,SANDPIPERS_AND_ALLIES_SCOLOPACIDAE,Dunlin,,1,51.17987042293,26.126581964536,Asia,Qatar,QA,,Qatar - Madinat ash Shamal,2016-10-06,
Thalasseus sandvicensis,Animalia,GULLS_TERNS_AND_SKIMMERS_LARIDAE,Sandwich Tern,,1,51.619665026665,25.180699495125,Asia,Qatar,QA,,Qatar - Al Wakrah,2016-09-01,
Charadrius leschenaultii,Animalia,PLOVERS_CHARADRIIDAE,Greater Sand Plover,,1,51.1796,26.1264,Asia,Qatar,QA,,Qatar - Madinat ash Shamal,2016-10-06,
Nycticorax nycticorax,Animalia,HERONS_ARDEIDAE,Black-crowned Night Heron,,1,51.178869120777,25.012583615995,Asia,Qatar,QA,,Qatar - Al Rayyan,2016-10-04,
Sylvia communis,Animalia,OLD_WORLD_WARBLERS_SYLVIIDAE,Common Whitethroat,,1,51.190138757229,24.991498887596,Asia,Qatar,QA,,Qatar - Al Wakrah,2016-10-04,
Columba livia domestica,Animalia,PIGEONS_AND_DOVES_COLUMBIDAE,Feral Pigeon,,1,51.537373093888,25.27227689804,Asia,Qatar,QA,,Qatar - Doha,2013-07-01,
Pycnonotus leucotis mesopotamia,Animalia,BULBULS_PYCNONOTIDAE,White-eared Bulbul ssp mesopotamia,,1,51.537373093888,25.27227689804,Asia,Qatar,QA,,Qatar - Doha,2013-07-01,
Ixobrychus minutus,Animalia,HERONS_ARDEIDAE,Little Bittern,,1,51.6015,25.1716,Asia,Qatar,QA,,Qatar - Al Wakrah,2016-09-28,12:10
Francolinus pondicerianus,Animalia,FRANCOLINS_QUAILS_PARTRIDGES_AND_PHEASANTS_PHASIANIDAE,Grey Francolin,,6,51.21256839484,26.124703291456,Asia,Qatar,QA,,Qatar - Madinat ash Shamal,2016-09-25,
Charadrius asiaticus,Animalia,PLOVERS_CHARADRIIDAE,Caspian Plover,,1,51.15,25.0,Asia,Qatar,QA,,Qatar - Al Rayyan,2016-09-16,
Monticola solitarius,Animalia,OLD_WORLD_FLYCATCHERS_MUSCICAPIDAE,Blue Rock Thrush,,1,51.2111,26.1241,Asia,Qatar,QA,,Qatar - Madinat ash Shamal,2016-09-18,
Cuculus canorus,Animalia,CUCKOOS_AND_COUCALS_CUCULIDAE,Common Cuckoo,,1,51.2111,26.1241,Asia,Qatar,QA,,Qatar - Madinat ash Shamal,2016-09-18,
Emberiza hortulana,Animalia,BUNTINGS_EMBERIZIDAE,Ortolan Bunting,,1,51.616348139942,25.129190450061,Asia,Qatar,QA,,Qatar - Al Wakrah,2016-09-17,
Anas platyrhynchos,Animalia,DUCKS_GEESE_AND_SWANS_ANATIDAE,Mallard,,1,51.183186471462,25.004726870693,Asia,Qatar,QA,,Qatar - Al Rayyan,2016-09-16,
Muscicapa striata,Animalia,OLD_WORLD_FLYCATCHERS_MUSCICAPIDAE,Spotted Flycatcher,,1,51.181928515434,25.011726198427,Asia,Qatar,QA,,Qatar - Al Rayyan,2016-09-16,
Ammomanes deserti,Animalia,LARKS_ALAUDIDAE,Desert Lark,,1,51.191267967224,24.999730232159,Asia,Qatar,QA,,Qatar - Al Rayyan,2016-09-16,
Riparia riparia,Animalia,SWALLOWS_HIRUNDINIDAE,Sand Martin,,6,51.191267967224,24.999730232159,Asia,Qatar,QA,,Qatar - Al Rayyan,2016-09-16,
Motacilla flava,Animalia,PIPITS_EN_WAGTAILS_MOTACILLIDAE,Western Yellow Wagtail,,25,51.196525096893,24.99227196704,Asia,Qatar,QA,,Qatar,2016-09-16,
Hirundo rustica,Animalia,SWALLOWS_HIRUNDINIDAE,Barn Swallow,,50,51.196525096893,24.99227196704,Asia,Qatar,QA,,Qatar,2016-09-16,
Coturnix coturnix,Animalia,FRANCOLINS_QUAILS_PARTRIDGES_AND_PHEASANTS_PHASIANIDAE,Common Quail,,4,51.196525096893,24.99227196704,Asia,Qatar,QA,,Qatar,2016-09-16,
Coracias garrulus,Animalia,ROLLERS_CORACIIDAE,European Roller,,2,51.182105541229,25.00845203573,Asia,Qatar,QA,,Qatar - Al Rayyan,2016-09-16,
Plegadis falcinellus,Animalia,IBISSES_AND_SPOONBILLS_THRESKIORNITHIDAE,Glossy Ibis,,6,51.137473583221,25.011563343103,Asia,Qatar,QA,,Qatar - Al Rayyan,2016-09-16,
Streptopelia turtur,Animalia,PIGEONS_AND_DOVES_COLUMBIDAE,European Turtle Dove,,1,51.182105541229,25.001606882088,Asia,Qatar,QA,,Qatar - Al Rayyan,2016-09-16,
Galerida cristata,Animalia,LARKS_ALAUDIDAE,Crested Lark,,1,51.19028,25.003193333333,Asia,Qatar,QA,,Qatar - Al Rayyan,2016-08-13,11:28
Cercotrichas galactotes,Animalia,OLD_WORLD_FLYCATCHERS_MUSCICAPIDAE,Rufous-tailed Scrub Robin,,1,51.19074,25.004336666667,Asia,Qatar,QA,,Qatar - Al Rayyan,2016-08-13,11:24
Oena capensis,Animalia,PIGEONS_AND_DOVES_COLUMBIDAE,Namaqua Dove,,1,51.193936666667,25.00619,Asia,Qatar,QA,,Qatar - Al Rayyan,2016-08-13,11:07
Hirundo rustica,Animalia,SWALLOWS_HIRUNDINIDAE,Barn Swallow,,1,51.194383333333,25.006608333333,Asia,Qatar,QA,,Qatar - Al Rayyan,2016-08-13,10:59
Oena capensis,Animalia,PIGEONS_AND_DOVES_COLUMBIDAE,Namaqua Dove,,1,51.163648333333,25.013125,Asia,Qatar,QA,,Qatar - Al Rayyan,2016-08-13,10:31
Glareola pratincola,Animalia,COURSERS_AND_PRATINCOLES_GLAREOLIDAE,Collared Pratincole,,1,51.166036666667,24.999766666667,Asia,Qatar,QA,,Qatar - Al Rayyan,2016-08-13,10:12
Cursorius cursor,Animalia,COURSERS_AND_PRATINCOLES_GLAREOLIDAE,Cream-colored Courser,,1,51.16606,24.999858333333,Asia,Qatar,QA,,Qatar - Al Rayyan,2016-08-13,10:00
Himantopus himantopus,Animalia,STILTS_AND_AVOCETS_RECURVIROSTRIDAE,Black-winged Stilt,,1,51.165576666667,25.000023333333,Asia,Qatar,QA,,Qatar - Al Rayyan,2016-08-13,09:50
Eremopterix nigriceps,Animalia,LARKS_ALAUDIDAE,Black-crowned Sparrow-Lark,,1,51.161326666667,25.00794,Asia,Qatar,QA,,Qatar - Al Rayyan,2016-08-13,09:21
Vanellus indicus,Animalia,PLOVERS_CHARADRIIDAE,Red-wattled Lapwing,,1,51.176558333333,25.013116666667,Asia,Qatar,QA,,Qatar - Al Rayyan,2016-08-13,08:21
Coracias garrulus,Animalia,ROLLERS_CORACIIDAE,European Roller,,1,51.18921,25.023458333333,Asia,Qatar,QA,,Qatar - Al Rayyan,2016-08-13,07:53
Xenus cinereus,Animalia,SANDPIPERS_AND_ALLIES_SCOLOPACIDAE,Terek Sandpiper,,5,51.619150042534,25.177289063032,Asia,Qatar,QA,,Qatar - Al Wakrah,2016-08-10,
Calidris ferruginea,Animalia,SANDPIPERS_AND_ALLIES_SCOLOPACIDAE,Curlew Sandpiper,,1,51.619150042534,25.177289063032,Asia,Qatar,QA,,Qatar - Al Wakrah,2016-08-10,
Sterna hirundo,Animalia,GULLS_TERNS_AND_SKIMMERS_LARIDAE,Common Tern,,10,51.619150042534,25.177289063032,Asia,Qatar,QA,,Qatar - Al Wakrah,2016-08-10,
Thalasseus bengalensis,Animalia,GULLS_TERNS_AND_SKIMMERS_LARIDAE,Lesser Crested Tern,,50,51.618350744247,25.177908045341,Asia,Qatar,QA,,Qatar - Al Wakrah,2016-08-10,
Calidris alba,Animalia,SANDPIPERS_AND_ALLIES_SCOLOPACIDAE,Sanderling,,3,51.618291735649,25.181483516912,Asia,Qatar,QA,,Qatar - Al Wakrah,2016-08-10,
Onychoprion anaethetus,Animalia,GULLS_TERNS_AND_SKIMMERS_LARIDAE,Bridled Tern,,8,51.345177143812,24.558793985443,Asia,Qatar,QA,,Qatar - Al Wakrah,2016-05-01,
Monticola saxatilis,Animalia,OLD_WORLD_FLYCATCHERS_MUSCICAPIDAE,Common Rock Thrush,,1,50.8498,25.574,Asia,Qatar,QA,,Qatar - Al Rayyan,2016-04-23,
Pandion haliaetus,Animalia,OSPREY_PANDIONIDAE,Western Osprey,,1,50.7984,25.595,Asia,Qatar,QA,,Qatar - Al Rayyan,2016-04-23,
Pluvialis squatarola,Animalia,PLOVERS_CHARADRIIDAE,Grey Plover,,1,51.619206368923,25.17938752169,Asia,Qatar,QA,,Qatar - Al Wakrah,2016-03-25,
Thalasseus bengalensis,Animalia,GULLS_TERNS_AND_SKIMMERS_LARIDAE,Lesser Crested Tern,,200,51.621437966824,25.171231366348,Asia,Qatar,QA,,Qatar - Al Wakrah,2016-03-27,
Sternula albifrons,Animalia,GULLS_TERNS_AND_SKIMMERS_LARIDAE,Little Tern,,2,51.622926592827,25.140309486557,Asia,Qatar,QA,,Qatar - Al Wakrah,2016-03-27,
Limosa lapponica,Animalia,SANDPIPERS_AND_ALLIES_SCOLOPACIDAE,Bar-tailed Godwit,,1,51.618948876858,25.177989362391,Asia,Qatar,QA,,Qatar - Al Wakrah,2016-03-25,
Tringa totanus,Animalia,SANDPIPERS_AND_ALLIES_SCOLOPACIDAE,Common Redshank,,1,51.618948876858,25.177989362391,Asia,Qatar,QA,,Qatar - Al Wakrah,2016-03-25,
Tringa nebularia,Animalia,SANDPIPERS_AND_ALLIES_SCOLOPACIDAE,Common Greenshank,,1,51.618948876858,25.177989362391,Asia,Qatar,QA,,Qatar - Al Wakrah,2016-03-25,
Calidris minuta,Animalia,SANDPIPERS_AND_ALLIES_SCOLOPACIDAE,Little Stint,,1,51.618948876858,25.177989362391,Asia,Qatar,QA,,Qatar - Al Wakrah,2016-03-25,
Phoenicurus phoenicurus,Animalia,OLD_WORLD_FLYCATCHERS_MUSCICAPIDAE,Common Redstart,,1,51.6166,25.1301,Asia,Qatar,QA,,Qatar - Al Wakrah,2016-03-18,12:26
Anthus cervinus,Animalia,PIPITS_EN_WAGTAILS_MOTACILLIDAE,Red-throated Pipit,,1,51.6166,25.1301,Asia,Qatar,QA,,Qatar - Al Wakrah,2016-03-18,12:24
Oenanthe pleschanka,Animalia,OLD_WORLD_FLYCATCHERS_MUSCICAPIDAE,Pied Wheatear,,1,51.186794042587,24.991032120295,Asia,Qatar,QA,,Qatar,2016-03-20,
Charadrius alexandrinus,Animalia,PLOVERS_CHARADRIIDAE,Kentish Plover,,1,51.188853979111,25.030856549798,Asia,Qatar,QA,,Qatar - Al Rayyan,2016-03-20,
Corvus splendens,Animalia,CROWS_AND_JAYS_CORVIDAE,House Crow,,1,51.17,25.0,Asia,Qatar,QA,,Qatar - Al Rayyan,2016-03-20,
Euodice malabarica,Animalia,WAXBILLS_MUNIAS_ALLIES_ESTRILDIDAE,Indian Silverbill,,2,51.171687841415,25.002234046269,Asia,Qatar,QA,,Qatar - Al Rayyan,2016-03-20,
Oena capensis,Animalia,PIGEONS_AND_DOVES_COLUMBIDAE,Namaqua Dove,,1,51.171687841415,25.002234046269,Asia,Qatar,QA,,Qatar - Al Rayyan,2016-03-20,
Lanius senator,Animalia,SHRIKES_LANIIDAE,Woodchat Shrike,,1,51.185077428818,25.048275675335,Asia,Qatar,QA,,Qatar - Al Rayyan,2016-03-20,
Lanius nubicus,Animalia,SHRIKES_LANIIDAE,Masked Shrike,,1,51.180270910263,25.001922895447,Asia,Qatar,QA,,Qatar - Al Rayyan,2016-03-20,
Upupa epops epops,Animalia,HOOPOES_UPUPIDAE,Eurasian Hoopoe ssp epops,,3,51.592427194118,25.791853096838,Asia,Qatar,QA,,Qatar - Al Khor,2016-03-03,
Oenanthe isabellina,Animalia,OLD_WORLD_FLYCATCHERS_MUSCICAPIDAE,Isabelline Wheatear,,3,51.614228188992,25.09974458792,Asia,Qatar,QA,,Qatar - Al Wakrah,2016-03-08,
Oenanthe pleschanka,Animalia,OLD_WORLD_FLYCATCHERS_MUSCICAPIDAE,Pied Wheatear,,5,51.614228188992,25.09974458792,Asia,Qatar,QA,,Qatar - Al Wakrah,2016-03-08,
Euodice malabarica,Animalia,WAXBILLS_MUNIAS_ALLIES_ESTRILDIDAE,Indian Silverbill,,1,51.614228188992,25.09974458792,Asia,Qatar,QA,,Qatar - Al Wakrah,2016-03-08,
Acridotheres tristis,Animalia,STARLINGS_STURNIDAE,Common Myna,,1,51.6095,25.26,Asia,Qatar,QA,,Qatar - Doha,2016-03-03,10:46
Acridotheres tristis,Animalia,STARLINGS_STURNIDAE,Common Myna,,3,51.5469308,25.2861056,Asia,Qatar,QA,,Qatar - Doha,2016-03-02,06:00
Ardea purpurea,Animalia,HERONS_ARDEIDAE,Purple Heron,,2,51.17540538311,25.013437381615,Asia,Qatar,QA,,Qatar - Al Rayyan,2016-02-29,
Tringa glareola,Animalia,SANDPIPERS_AND_ALLIES_SCOLOPACIDAE,Wood Sandpiper,,1,51.169813983142,25.012856305126,Asia,Qatar,QA,,Qatar - Al Rayyan,2016-02-21,
Calidris pugnax,Animalia,SANDPIPERS_AND_ALLIES_SCOLOPACIDAE,Ruff,,30,51.169813983142,25.012856305126,Asia,Qatar,QA,,Qatar - Al Rayyan,2016-02-21,
Clanga clanga,Animalia,HAWKS_AND_EAGLES_ACCIPITRIDAE,Greater Spotted Eagle,,1,51.17821097374,25.002234046269,Asia,Qatar,QA,,Qatar - Al Rayyan,2016-02-22,
Xenus cinereus,Animalia,SANDPIPERS_AND_ALLIES_SCOLOPACIDAE,Terek Sandpiper,,1,51.618463397026,25.181949558432,Asia,Qatar,QA,,Qatar - Al Wakrah,2016-02-19,
Tringa glareola,Animalia,SANDPIPERS_AND_ALLIES_SCOLOPACIDAE,Wood Sandpiper,,1,51.187148094177,25.002219461092,Asia,Qatar,QA,,Qatar - Al Rayyan,2016-02-21,
Fulica atra,Animalia,RAILS_RALLIDAE,Eurasian Coot,,6,51.187148094177,25.002219461092,Asia,Qatar,QA,,Qatar - Al Rayyan,2016-02-21,
Gallinago gallinago,Animalia,SANDPIPERS_AND_ALLIES_SCOLOPACIDAE,Common Snipe,,1,51.187148094177,25.002219461092,Asia,Qatar,QA,,Qatar - Al Rayyan,2016-02-21,
Charadrius hiaticula,Animalia,PLOVERS_CHARADRIIDAE,Common Ringed Plover,,1,51.187148094177,25.002219461092,Asia,Qatar,QA,,Qatar - Al Rayyan,2016-02-21,
Ardeola ralloides,Animalia,HERONS_ARDEIDAE,Squacco Heron,,1,51.187148094177,25.002219461092,Asia,Qatar,QA,,Qatar - Al Rayyan,2016-02-21,
Chroicocephalus ridibundus,Animalia,GULLS_TERNS_AND_SKIMMERS_LARIDAE,Black-headed Gull,,15,51.625699996948,25.097996960395,Asia,Qatar,QA,,Qatar - Al Wakrah,2016-02-10,
Ichthyaetus ichthyaetus,Animalia,GULLS_TERNS_AND_SKIMMERS_LARIDAE,Pallas's Gull,,1,51.6198,25.1331,Asia,Qatar,QA,,Qatar - Al Wakrah,2016-02-04,15:25
Podiceps nigricollis,Animalia,GREBES_PODICIPEDIDAE,Black-necked Grebe,,1,51.18267416954,25.008145762149,Asia,Qatar,QA,,Qatar - Al Rayyan,2016-02-05,
Passer hispaniolensis,Animalia,OLD_WORLD_SPARROWS_PASSERIDAE,Spanish Sparrow,,20,51.18267416954,25.008145762149,Asia,Qatar,QA,,Qatar - Al Rayyan,2016-02-05,
Luscinia svecica,Animalia,OLD_WORLD_FLYCATCHERS_MUSCICAPIDAE,Bluethroat,,1,51.18267416954,25.008145762149,Asia,Qatar,QA,,Qatar - Al Rayyan,2016-02-05,
Saxicola rubicola,Animalia,OLD_WORLD_FLYCATCHERS_MUSCICAPIDAE,European Stonechat,,1,51.1878,25.0028,Asia,Qatar,QA,,Qatar - Al Rayyan,2016-01-23,14:49
Falco tinnunculus,Animalia,CARACAS_AND_FALCONS_FALCONIDAE,Common Kestrel,,1,51.1878,25.0028,Asia,Qatar,QA,,Qatar - Al Rayyan,2016-01-23,14:45
Lanius excubitor aucheri,Animalia,SHRIKES_LANIIDAE,Levant Grey Shrike,,1,51.1878,25.0028,Asia,Qatar,QA,,Qatar - Al Rayyan,2016-01-23,14:44
Lanius excubitor pallidirostris,Animalia,SHRIKES_LANIIDAE,Steppe Grey Shrike,,1,51.1878,25.0028,Asia,Qatar,QA,,Qatar - Al Rayyan,2016-01-23,14:43
Falco tinnunculus,Animalia,CARACAS_AND_FALCONS_FALCONIDAE,Common Kestrel,,1,51.1878,25.0028,Asia,Qatar,QA,,Qatar - Al Rayyan,2016-01-23,14:41
Apus pallidus,Animalia,SWIFTS_APODIDAE,Pallid Swift,,1,51.3160014153,24.6632326492,Asia,Qatar,QA,,Qatar - Khor Al Adaid,2016-01-19,14:41
Hydroprogne caspia,Animalia,GULLS_TERNS_AND_SKIMMERS_LARIDAE,Caspian Tern,,1,51.6199,25.1447,Asia,Qatar,QA,,Qatar - Al Wakrah,2016-01-20,14:38
Columba livia domestica,Animalia,PIGEONS_AND_DOVES_COLUMBIDAE,Feral Pigeon,,1,51.6008771583,25.1716985091,Asia,Qatar,QA,,Qatar - Al Wakrah,2015-12-02,
Spoladea recurvalis,Animalia,Crambidae,,,3,51.3370808959,25.2201601088,Asia,Qatar,QA,,Qatar - Al Rayyan,2015-12-02,
Aythya ferina,Animalia,DUCKS_GEESE_AND_SWANS_ANATIDAE,Common Pochard,,5,51.3370808959,25.2201601088,Asia,Qatar,QA,,Qatar - Al Rayyan,2015-12-02,
Actitis hypoleucos,Animalia,SANDPIPERS_AND_ALLIES_SCOLOPACIDAE,Common Sandpiper,,1,51.3370808959,25.2201601088,Asia,Qatar,QA,,Qatar - Al Rayyan,2015-12-02,
Motacilla cinerea,Animalia,PIPITS_EN_WAGTAILS_MOTACILLIDAE,Grey Wagtail,,1,51.3370808959,25.2201601088,Asia,Qatar,QA,,Qatar - Al Rayyan,2015-12-02,
Limosa limosa,Animalia,SANDPIPERS_AND_ALLIES_SCOLOPACIDAE,Black-tailed Godwit,,1,51.3370808959,25.2201601088,Asia,Qatar,QA,,Qatar - Al Rayyan,2015-12-02,
Spatula clypeata,Animalia,DUCKS_GEESE_AND_SWANS_ANATIDAE,Northern Shoveler,,1,51.3370808959,25.2201601088,Asia,Qatar,QA,,Qatar - Al Rayyan,2015-12-02,
Recurvirostra avosetta,Animalia,STILTS_AND_AVOCETS_RECURVIROSTRIDAE,Pied Avocet,,1,51.3370808959,25.2201601088,Asia,Qatar,QA,,Qatar - Al Rayyan,2015-12-02,
Ardea alba,Animalia,HERONS_ARDEIDAE,Great Egret,,1,51.3370808959,25.2201601088,Asia,Qatar,QA,,Qatar - Al Rayyan,2015-12-02,
Aythya fuligula,Animalia,DUCKS_GEESE_AND_SWANS_ANATIDAE,Tufted Duck,,3,51.3370808959,25.2201601088,Asia,Qatar,QA,,Qatar - Al Rayyan,2015-12-02,
Larus fuscus barabensis,Animalia,GULLS_TERNS_AND_SKIMMERS_LARIDAE,Lesser Black-backed Gull ssp barabensis,,1,51.3370808959,25.2201601088,Asia,Qatar,QA,,Qatar - Al Rayyan,2015-12-02,
Chlidonias leucopterus,Animalia,GULLS_TERNS_AND_SKIMMERS_LARIDAE,White-winged Tern,,1,51.3370808959,25.2201601088,Asia,Qatar,QA,,Qatar - Al Rayyan,2015-12-02,
Motacilla flava,Animalia,PIPITS_EN_WAGTAILS_MOTACILLIDAE,Western Yellow Wagtail,,1,51.3370808959,25.2201601088,Asia,Qatar,QA,,Qatar - Al Rayyan,2015-12-02,
Lanius collurio,Animalia,SHRIKES_LANIIDAE,Red-backed Shrike,,1,51.1871373653,25.0016117438,Asia,Qatar,QA,,Qatar - Al Rayyan,2015-11-06,
Saxicola rubetra,Animalia,OLD_WORLD_FLYCATCHERS_MUSCICAPIDAE,Whinchat,,1,51.1871373653,25.0016117438,Asia,Qatar,QA,,Qatar - Al Rayyan,2015-11-06,
Chroicocephalus genei,Animalia,GULLS_TERNS_AND_SKIMMERS_LARIDAE,Slender-billed Gull,,1,51.6180074215,25.143104225,Asia,Qatar,QA,,Qatar - Al Wakrah,2015-11-03,
Larus cachinnans,Animalia,GULLS_TERNS_AND_SKIMMERS_LARIDAE,Caspian Gull,,1,51.6180074215,25.143104225,Asia,Qatar,QA,,Qatar - Al Wakrah,2015-11-03,
Lanius excubitor pallidirostris,Animalia,SHRIKES_LANIIDAE,Steppe Grey Shrike,,1,51.6180074215,25.143104225,Asia,Qatar,QA,,Qatar - Al Wakrah,2015-11-22,
Alaemon alaudipes,Animalia,LARKS_ALAUDIDAE,Greater Hoopoe-Lark,,1,51.6180074215,25.143104225,Asia,Qatar,QA,,Qatar - Al Wakrah,2015-11-27,
Charadrius alexandrinus,Animalia,PLOVERS_CHARADRIIDAE,Kentish Plover,,10,51.6180074215,25.143104225,Asia,Qatar,QA,,Qatar - Al Wakrah,2015-11-27,
Lanius excubitor pallidirostris,Animalia,SHRIKES_LANIIDAE,Steppe Grey Shrike,,1,51.6180074215,25.143104225,Asia,Qatar,QA,,Qatar - Al Wakrah,2015-11-30,
Acridotheres tristis,Animalia,STARLINGS_STURNIDAE,Common Myna,,1,51.5976628661,25.172163526,Asia,Qatar,QA,,Qatar - Al Wakrah,2015-11-30,
Arenaria interpres,Animalia,SANDPIPERS_AND_ALLIES_SCOLOPACIDAE,Ruddy Turnstone,,3,51.6235005856,25.146522897,Asia,Qatar,QA,,Qatar - Al Wakrah,2015-12-08,
Phoenicopterus roseus,Animalia,FLAMINGOS_PHOENICOPTERIDAE,Greater Flamingo,,1,51.6190373898,25.1791508552,Asia,Qatar,QA,,Qatar - Al Wakrah,2015-12-07,
Pycnonotus leucotis,Animalia,BULBULS_PYCNONOTIDAE,White-eared Bulbul,,1,51.1829584837,25.006436936,Asia,Qatar,QA,,Qatar - Al Rayyan,2015-12-05,
Circus aeruginosus,Animalia,HAWKS_AND_EAGLES_ACCIPITRIDAE,Western Marsh Harrier,,1,51.1829584837,25.006436936,Asia,Qatar,QA,,Qatar - Al Rayyan,2015-12-05,
Anthus campestris,Animalia,PIPITS_EN_WAGTAILS_MOTACILLIDAE,Tawny Pipit,,1,51.1829584837,25.006436936,Asia,Qatar,QA,,Qatar - Al Rayyan,2015-12-05,
Tringa erythropus,Animalia,SANDPIPERS_AND_ALLIES_SCOLOPACIDAE,Spotted Redshank,,1,51.1829584837,25.006436936,Asia,Qatar,QA,,Qatar - Al Rayyan,2015-12-05,
Oena capensis,Animalia,PIGEONS_AND_DOVES_COLUMBIDAE,Namaqua Dove,,1,51.1829584837,25.006436936,Asia,Qatar,QA,,Qatar - Al Rayyan,2015-12-05,
Oena capensis,Animalia,PIGEONS_AND_DOVES_COLUMBIDAE,Namaqua Dove,,1,51.1829584837,25.006436936,Asia,Qatar,QA,,Qatar - Al Rayyan,2015-12-05,
Euodice malabarica,Animalia,WAXBILLS_MUNIAS_ALLIES_ESTRILDIDAE,Indian Silverbill,,6,51.1829584837,25.006436936,Asia,Qatar,QA,,Qatar - Al Rayyan,2015-12-05,
Oenanthe deserti,Animalia,OLD_WORLD_FLYCATCHERS_MUSCICAPIDAE,Desert Wheatear,,1,51.1829584837,25.006436936,Asia,Qatar,QA,,Qatar - Al Rayyan,2015-12-05,
Emberiza calandra,Animalia,BUNTINGS_EMBERIZIDAE,Corn Bunting,,6,51.1829584837,25.006436936,Asia,Qatar,QA,,Qatar - Al Rayyan,2015-12-05,
Gallinula chloropus,Animalia,RAILS_RALLIDAE,Common Moorhen,,10,51.1829584837,25.006436936,Asia,Qatar,QA,,Qatar - Al Rayyan,2015-12-05,
Vanellus indicus,Animalia,PLOVERS_CHARADRIIDAE,Red-wattled Lapwing,,1,51.2242269516,25.1253731841,Asia,Qatar,QA,,Qatar - Al Rayyan,2015-11-24,
Galerida cristata,Animalia,LARKS_ALAUDIDAE,Crested Lark,,1,51.2173604965,25.1129390376,Asia,Qatar,QA,,Qatar - Al Rayyan,2015-11-24,
Alaemon alaudipes,Animalia,LARKS_ALAUDIDAE,Greater Hoopoe-Lark,,1,51.6191205382,25.1449726091,Asia,Qatar,QA,,Qatar - Al Wakrah,2015-11-22,
Agrius convolvuli,Animalia,Sphingidae,Convolvulus Hawkmoth,,1,51.1795842648,25.0034786417,Asia,Qatar,QA,,Qatar - Al Rayyan,2015-11-10,
Psittacula krameri,Animalia,PSITTACULIDAE,Rose-ringed Parakeet,,8,51.5964612365,25.1683571625,Asia,Qatar,QA,,Qatar - Al Wakrah,2015-11-20,
Papilio demoleus,Animalia,SWALLOWTAILS_PAPILIONIDAE,Lemon Butterfly,,7,51.6014671605,25.1713927576,Asia,Qatar,QA,,Qatar - Al Wakrah,2015-11-17,
Aythya nyroca,Animalia,DUCKS_GEESE_AND_SWANS_ANATIDAE,Ferruginous Duck,,1,51.1861073971,25.0028563455,Asia,Qatar,QA,,Qatar - Al Rayyan,2015-11-13,
Anas platyrhynchos,Animalia,DUCKS_GEESE_AND_SWANS_ANATIDAE,Mallard,,30,51.1861073971,25.0028563455,Asia,Qatar,QA,,Qatar - Al Rayyan,2015-11-13,
Lanius excubitor pallidirostris,Animalia,SHRIKES_LANIIDAE,Steppe Grey Shrike,,1,51.1861073971,25.0028563455,Asia,Qatar,QA,,Qatar - Al Rayyan,2015-11-13,
Motacilla alba,Animalia,PIPITS_EN_WAGTAILS_MOTACILLIDAE,White Wagtail,,1,51.1861073971,25.0028563455,Asia,Qatar,QA,,Qatar - Al Rayyan,2015-11-13,
Circus aeruginosus,Animalia,HAWKS_AND_EAGLES_ACCIPITRIDAE,Western Marsh Harrier,,1,51.1861073971,25.0028563455,Asia,Qatar,QA,,Qatar - Al Rayyan,2015-11-13,
Vanellus indicus,Animalia,PLOVERS_CHARADRIIDAE,Red-wattled Lapwing,,1,51.1861073971,25.0028563455,Asia,Qatar,QA,,Qatar - Al Rayyan,2015-11-13,
Anthus spinoletta,Animalia,PIPITS_EN_WAGTAILS_MOTACILLIDAE,Water Pipit,,1,51.1861073971,25.0028563455,Asia,Qatar,QA,,Qatar - Al Rayyan,2015-11-13,
Saxicola rubicola,Animalia,OLD_WORLD_FLYCATCHERS_MUSCICAPIDAE,European Stonechat,,1,51.1861073971,25.0028563455,Asia,Qatar,QA,,Qatar - Al Rayyan,2015-11-13,
Galerida cristata,Animalia,LARKS_ALAUDIDAE,Crested Lark,,10,51.1861073971,25.0028563455,Asia,Qatar,QA,,Qatar - Al Rayyan,2015-11-13,
Gallinula chloropus,Animalia,RAILS_RALLIDAE,Common Moorhen,,2,51.1861073971,25.0028563455,Asia,Qatar,QA,,Qatar - Al Rayyan,2015-11-13,
Himantopus himantopus,Animalia,STILTS_AND_AVOCETS_RECURVIROSTRIDAE,Black-winged Stilt,,2,51.1861073971,25.0028563455,Asia,Qatar,QA,,Qatar - Al Rayyan,2015-11-13,
Hirundo rustica,Animalia,SWALLOWS_HIRUNDINIDAE,Barn Swallow,,6,51.1861073971,25.0028563455,Asia,Qatar,QA,,Qatar - Al Rayyan,2015-11-13,
Oenanthe lugens,Animalia,OLD_WORLD_FLYCATCHERS_MUSCICAPIDAE,Mourning Wheatear,,1,50.8101689816,25.6161388519,Asia,Qatar,QA,,Qatar - Al Rayyan,2015-11-15,
Phoenicopterus roseus,Animalia,FLAMINGOS_PHOENICOPTERIDAE,Greater Flamingo,,30,50.8101689816,25.6161388519,Asia,Qatar,QA,,Qatar - Al Rayyan,2015-11-15,
Phalacrocorax carbo,Animalia,CORMORANTS_PHALACROCORACIDAE,Great Cormorant,,50,50.8101689816,25.6161388519,Asia,Qatar,QA,,Qatar - Al Rayyan,2015-11-15,
Athene noctua lilith,Animalia,OWLS_STRIGIDAE,Little Owl ssp lilith,,1,51.17626369,25.0097038603,Asia,Qatar,QA,,Qatar - Al Rayyan,2015-11-10,
Athene noctua lilith,Animalia,OWLS_STRIGIDAE,Little Owl ssp lilith,,1,51.17626369,25.0097038603,Asia,Qatar,QA,,Qatar - Al Rayyan,2015-11-10,
Upupa epops,Animalia,HOOPOES_UPUPIDAE,Eurasian Hoopoe,,1,51.6126269102,25.1799300323,Asia,Qatar,QA,,Qatar - Al Wakrah,2015-11-06,
Alcedo atthis,Animalia,KINGFISHERS_ALCEDINIDAE,Common Kingfisher,,3,51.6163162887,25.1788055641,Asia,Qatar,QA,,Qatar - Al Wakrah,2015-10-28,
Orthetrum sabina,Animalia,SKIMMERS_LIBELLULIDAE,Slender Skimmer,,10,51.1878240108,25.0062789352,Asia,Qatar,QA,,Qatar - Al Rayyan,2015-10-31,
Vanessa cardui,Animalia,BRUSHFOOTED_BUTTERFLIES_NYMPHALIDAE,Painted Lady,,1,51.1878240108,25.0062789352,Asia,Qatar,QA,,Qatar - Al Rayyan,2015-10-31,
Junonia oenone,Animalia,BRUSHFOOTED_BUTTERFLIES_NYMPHALIDAE,Dark Blue Pansy,,5,51.1878240108,25.0062789352,Asia,Qatar,QA,,Qatar - Al Rayyan,2015-10-31,
Motacilla citreola,Animalia,PIPITS_EN_WAGTAILS_MOTACILLIDAE,Citrine Wagtail,,1,51.1878240108,25.0062789352,Asia,Qatar,QA,,Qatar - Al Rayyan,2015-10-31,
Vanellus indicus,Animalia,PLOVERS_CHARADRIIDAE,Red-wattled Lapwing,,3,51.1878240108,25.0062789352,Asia,Qatar,QA,,Qatar - Al Rayyan,2015-10-31,
Motacilla alba,Animalia,PIPITS_EN_WAGTAILS_MOTACILLIDAE,White Wagtail,,1,51.1878240108,25.0062789352,Asia,Qatar,QA,,Qatar - Al Rayyan,2015-10-31,
Circus aeruginosus,Animalia,HAWKS_AND_EAGLES_ACCIPITRIDAE,Western Marsh Harrier,,1,51.1878240108,25.0062789352,Asia,Qatar,QA,,Qatar - Al Rayyan,2015-10-31,
Anthus campestris,Animalia,PIPITS_EN_WAGTAILS_MOTACILLIDAE,Tawny Pipit,,2,51.1878240108,25.0062789352,Asia,Qatar,QA,,Qatar - Al Rayyan,2015-10-31,
Lanius excubitor aucheri,Animalia,SHRIKES_LANIIDAE,Levant Grey Shrike,,1,51.1878240108,25.0062789352,Asia,Qatar,QA,,Qatar - Al Rayyan,2015-10-31,
Ardeola ralloides,Animalia,HERONS_ARDEIDAE,Squacco Heron,,3,51.1878240108,25.0062789352,Asia,Qatar,QA,,Qatar - Al Rayyan,2015-10-31,
Gallinula chloropus,Animalia,RAILS_RALLIDAE,Common Moorhen,,1,51.1878240108,25.0062789352,Asia,Qatar,QA,,Qatar - Al Rayyan,2015-10-31,
Bubulcus ibis,Animalia,HERONS_ARDEIDAE,Western Cattle Egret,,30,51.1878240108,25.0062789352,Asia,Qatar,QA,,Qatar - Al Rayyan,2015-10-31,
Merops persicus,Animalia,BEEEATERS_MEROPIDAE,Blue-cheeked Bee-eater,,12,51.1878240108,25.0062789352,Asia,Qatar,QA,,Qatar - Al Rayyan,2015-10-31,
Sympetrum fonscolombii,Animalia,SKIMMERS_LIBELLULIDAE,Red-veined Darter,,1,50.8066249453,25.5914377184,Asia,Qatar,QA,,Qatar - Al Rayyan,2015-10-26,
Danaus chrysippus,Animalia,BRUSHFOOTED_BUTTERFLIES_NYMPHALIDAE,African Monarch,,1,50.8065570518,25.5914811861,Asia,Qatar,QA,,Qatar - Al Rayyan,2015-10-26,
Calidris alpina,Animalia,SANDPIPERS_AND_ALLIES_SCOLOPACIDAE,Dunlin,,1,51.6202363372,25.0926713397,Asia,Qatar,QA,,Qatar - Al Wakrah,2015-10-21,
Tringa totanus,Animalia,SANDPIPERS_AND_ALLIES_SCOLOPACIDAE,Common Redshank,,1,51.6162837669,25.1790681736,Asia,Qatar,QA,,Qatar - Al Wakrah,2015-10-21,
Butorides striata,Animalia,HERONS_ARDEIDAE,Striated Heron,,1,51.6162837669,25.1790681736,Asia,Qatar,QA,,Qatar - Al Wakrah,2015-10-21,
Galerida cristata,Animalia,LARKS_ALAUDIDAE,Crested Lark,,1,51.6162837669,25.1790681736,Asia,Qatar,QA,,Qatar - Al Wakrah,2015-10-21,
Sterna hirundo,Animalia,GULLS_TERNS_AND_SKIMMERS_LARIDAE,Common Tern,,25,51.6162837669,25.1790681736,Asia,Qatar,QA,,Qatar - Al Wakrah,2015-10-21,
Phoenicopterus roseus,Animalia,FLAMINGOS_PHOENICOPTERIDAE,Greater Flamingo,,6,51.6162837669,25.1790681736,Asia,Qatar,QA,,Qatar - Al Wakrah,2015-10-22,
Alcedo atthis,Animalia,KINGFISHERS_ALCEDINIDAE,Common Kingfisher,,3,51.6162837669,25.1790681736,Asia,Qatar,QA,,Qatar - Al Wakrah,2015-10-22,
Pycnonotus cafer,Animalia,BULBULS_PYCNONOTIDAE,Red-vented Bulbul,,12,51.6162837669,25.1790681736,Asia,Qatar,QA,,Qatar - Al Wakrah,2015-10-22,
Butorides striata,Animalia,HERONS_ARDEIDAE,Striated Heron,,1,51.6162837669,25.1790681736,Asia,Qatar,QA,,Qatar - Al Wakrah,2015-10-22,
Asio flammeus,Animalia,OWLS_STRIGIDAE,Short-eared Owl,,1,51.6151249688,25.1852166157,Asia,Qatar,QA,,Qatar - Al Wakrah,2015-10-24,
Pandion haliaetus,Animalia,OSPREY_PANDIONIDAE,Western Osprey,,1,51.6152608395,25.1530491869,Asia,Qatar,QA,,Qatar - Al Wakrah,2015-10-20,
Egretta garzetta,Animalia,HERONS_ARDEIDAE,Little Egret,,1,51.6151723266,25.1772126003,Asia,Qatar,QA,,Qatar - Al Wakrah,2015-10-19,
Egretta gularis,Animalia,HERONS_ARDEIDAE,Western Reef Heron,,1,51.6151723266,25.1772126003,Asia,Qatar,QA,,Qatar - Al Wakrah,2015-10-19,
Nymphicus hollandicus,Animalia,COCKATOOS_CACATUIDAE,Cockatiel,,1,51.6035878658,25.1110883787,Asia,Qatar,QA,,Qatar - Al Wakrah,2015-10-19,
Haematopus ostralegus,Animalia,OYSTERCATCHERS_HAEMATOPODIDAE,Eurasian Oystercatcher,,1,51.6146922112,25.0930514886,Asia,Qatar,QA,,Qatar - Al Wakrah,2015-10-19,
Arenaria interpres,Animalia,SANDPIPERS_AND_ALLIES_SCOLOPACIDAE,Ruddy Turnstone,,4,51.6146922112,25.0930514886,Asia,Qatar,QA,,Qatar - Al Wakrah,2015-10-19,
Passer domesticus,Animalia,OLD_WORLD_SPARROWS_PASSERIDAE,House Sparrow,,8,51.6146922112,25.0930514886,Asia,Qatar,QA,,Qatar - Al Wakrah,2015-10-19,
Gelochelidon nilotica,Animalia,GULLS_TERNS_AND_SKIMMERS_LARIDAE,Gull-billed Tern,,4,51.6146922112,25.0930514886,Asia,Qatar,QA,,Qatar - Al Wakrah,2015-10-19,
Larus fuscus barabensis,Animalia,GULLS_TERNS_AND_SKIMMERS_LARIDAE,Lesser Black-backed Gull ssp barabensis,,2,51.6156148911,25.0942854462,Asia,Qatar,QA,,Qatar - Al Wakrah,2015-10-18,
Charadrius mongolus,Animalia,PLOVERS_CHARADRIIDAE,Lesser Sand Plover,,5,51.6156148911,25.0942854462,Asia,Qatar,QA,,Qatar - Al Wakrah,2015-10-18,
Oenanthe pleschanka,Animalia,OLD_WORLD_FLYCATCHERS_MUSCICAPIDAE,Pied Wheatear,,1,51.6085124016,25.0930514886,Asia,Qatar,QA,,Qatar - Al Wakrah,2015-10-17,
Calidris alpina,Animalia,SANDPIPERS_AND_ALLIES_SCOLOPACIDAE,Dunlin,,10,51.6183507442,25.0924345051,Asia,Qatar,QA,,Qatar - Al Wakrah,2015-10-16,
Chroicocephalus genei,Animalia,GULLS_TERNS_AND_SKIMMERS_LARIDAE,Slender-billed Gull,,1,51.4872014523,24.7985734787,Asia,Qatar,QA,,Qatar - Al Wakrah,2015-10-17,
Haematopus ostralegus,Animalia,OYSTERCATCHERS_HAEMATOPODIDAE,Eurasian Oystercatcher,,1,51.4872014523,24.7985734787,Asia,Qatar,QA,,Qatar - Al Wakrah,2015-10-17,
Numenius arquata,Animalia,SANDPIPERS_AND_ALLIES_SCOLOPACIDAE,Eurasian Curlew,,1,51.6179484129,25.1457483625,Asia,Qatar,QA,,Qatar - Al Wakrah,2015-10-17,
Streptopelia decaocto,Animalia,PIGEONS_AND_DOVES_COLUMBIDAE,Eurasian Collared Dove,,5,51.6179484129,25.1457483625,Asia,Qatar,QA,,Qatar - Al Wakrah,2015-10-17,
Pluvialis squatarola,Animalia,PLOVERS_CHARADRIIDAE,Grey Plover,,2,51.6179484129,25.1457483625,Asia,Qatar,QA,,Qatar - Al Wakrah,2015-10-17,
Oenanthe isabellina,Animalia,OLD_WORLD_FLYCATCHERS_MUSCICAPIDAE,Isabelline Wheatear,,1,51.6179484129,25.1457483625,Asia,Qatar,QA,,Qatar - Al Wakrah,2015-10-17,
Spilopelia senegalensis,Animalia,PIGEONS_AND_DOVES_COLUMBIDAE,Laughing Dove,,1,51.6179484129,25.1457483625,Asia,Qatar,QA,,Qatar - Al Wakrah,2015-10-17,
Egretta gularis,Animalia,HERONS_ARDEIDAE,Western Reef Heron,,1,51.6179484129,25.1457483625,Asia,Qatar,QA,,Qatar - Al Wakrah,2015-10-17,
Pycnonotus leucotis,Animalia,BULBULS_PYCNONOTIDAE,White-eared Bulbul,,20,51.6127217934,25.1802041692,Asia,Qatar,QA,,Qatar - Al Wakrah,2015-10-18,
Numenius phaeopus,Animalia,SANDPIPERS_AND_ALLIES_SCOLOPACIDAE,Eurasian Whimbrel,,1,51.6157583892,25.179659991,Asia,Qatar,QA,,Qatar - Al Wakrah,2015-10-18,
Oenanthe isabellina,Animalia,OLD_WORLD_FLYCATCHERS_MUSCICAPIDAE,Isabelline Wheatear,,1,51.6105723381,25.0955388236,Asia,Qatar,QA,,Qatar - Al Wakrah,2015-10-18,
Ardea cinerea,Animalia,HERONS_ARDEIDAE,Grey Heron,,1,51.6157583892,25.1793881285,Asia,Qatar,QA,,Qatar - Al Wakrah,2015-10-18,
Alaemon alaudipes,Animalia,LARKS_ALAUDIDAE,Greater Hoopoe-Lark,,1,51.4093852043,25.0376952124,Asia,Qatar,QA,,Qatar - Al Wakrah,2015-10-18,
Oenanthe deserti,Animalia,OLD_WORLD_FLYCATCHERS_MUSCICAPIDAE,Desert Wheatear,,1,51.4096212387,25.0358191141,Asia,Qatar,QA,,Qatar - Al Wakrah,2015-10-18,
Passer domesticus,Animalia,OLD_WORLD_SPARROWS_PASSERIDAE,House Sparrow,,25,51.6133189201,25.0930514886,Asia,Qatar,QA,,Qatar - Al Wakrah,2015-10-18,
Oenanthe isabellina,Animalia,OLD_WORLD_FLYCATCHERS_MUSCICAPIDAE,Isabelline Wheatear,,1,51.6190373898,25.1238335557,Asia,Qatar,QA,,Qatar - Al Wakrah,2015-10-16,
Tringa nebularia,Animalia,SANDPIPERS_AND_ALLIES_SCOLOPACIDAE,Common Greenshank,,1,51.6176748275,25.1334547008,Asia,Qatar,QA,,Qatar - Al Wakrah,2015-10-16,
Egretta gularis,Animalia,HERONS_ARDEIDAE,Western Reef Heron,,1,51.6032552719,25.10672149,Asia,Qatar,QA,,Qatar - Al Wakrah,2015-10-16,
Alaemon alaudipes,Animalia,LARKS_ALAUDIDAE,Greater Hoopoe-Lark,,1,51.6133135557,25.1230588773,Asia,Qatar,QA,,Qatar - Al Wakrah,2015-10-16,
Phoenicopterus roseus,Animalia,FLAMINGOS_PHOENICOPTERIDAE,Greater Flamingo,,40,51.3656651974,25.1555353007,Asia,Qatar,QA,,Qatar,2015-04-17,
Oenanthe isabellina,Animalia,OLD_WORLD_FLYCATCHERS_MUSCICAPIDAE,Isabelline Wheatear,,2,51.1827,25.0051,Asia,Qatar,QA,,Qatar - Al Rayyan,2015-10-07,17:00
Oenanthe pleschanka,Animalia,OLD_WORLD_FLYCATCHERS_MUSCICAPIDAE,Pied Wheatear,,1,51.1795,25.0077,Asia,Qatar,QA,,Qatar - Al Rayyan,2015-10-07,17:00
Oenanthe isabellina,Animalia,OLD_WORLD_FLYCATCHERS_MUSCICAPIDAE,Isabelline Wheatear,,2,51.1827,25.0051,Asia,Qatar,QA,,Qatar - Al Rayyan,2015-10-07,17:00
Oenanthe pleschanka,Animalia,OLD_WORLD_FLYCATCHERS_MUSCICAPIDAE,Pied Wheatear,,1,51.1795,25.0077,Asia,Qatar,QA,,Qatar - Al Rayyan,2015-10-07,17:00
Pycnonotus leucotis mesopotamia,Animalia,BULBULS_PYCNONOTIDAE,White-eared Bulbul ssp mesopotamia,,5,51.6116525978,25.1796214569,Asia,Qatar,QA,,Qatar - Al Wakrah,2015-10-08,
Muscicapa striata,Animalia,OLD_WORLD_FLYCATCHERS_MUSCICAPIDAE,Spotted Flycatcher,,1,51.1790944263,25.0071490004,Asia,Qatar,QA,,Qatar - Al Rayyan,2015-10-07,17:00
Muscicapa striata,Animalia,OLD_WORLD_FLYCATCHERS_MUSCICAPIDAE,Spotted Flycatcher,,1,51.1790944263,25.0071490004,Asia,Qatar,QA,,Qatar - Al Rayyan,2015-10-07,17:00
Alaemon alaudipes,Animalia,LARKS_ALAUDIDAE,Greater Hoopoe-Lark,,1,51.6158,25.1213,Asia,Qatar,QA,,Qatar - Al Wakrah,2015-10-07,13:57
Lanius excubitor aucheri,Animalia,SHRIKES_LANIIDAE,Levant Grey Shrike,,1,51.1828,25.0048,Asia,Qatar,QA,,Qatar - Al Rayyan,2015-10-07,17:00
Spilopelia senegalensis cambayensis,Animalia,PIGEONS_AND_DOVES_COLUMBIDAE,Laughing Dove ssp cambayensis,,2,51.1828,25.0048,Asia,Qatar,QA,,Qatar - Al Rayyan,2015-10-07,17:00
Upupa epops epops,Animalia,HOOPOES_UPUPIDAE,Eurasian Hoopoe ssp epops,,2,51.1828,25.0048,Asia,Qatar,QA,,Qatar - Al Rayyan,2015-10-07,17:00
Motacilla flava,Animalia,PIPITS_EN_WAGTAILS_MOTACILLIDAE,Western Yellow Wagtail,,2,51.1795,25.0102,Asia,Qatar,QA,,Qatar - Al Rayyan,2015-10-07,17:00
Gallinula chloropus,Animalia,RAILS_RALLIDAE,Common Moorhen,,1,51.1829,25.0048,Asia,Qatar,QA,,Qatar - Al Rayyan,2015-10-07,17:00
Falco tinnunculus,Animalia,CARACAS_AND_FALCONS_FALCONIDAE,Common Kestrel,,1,51.1848,25.0035,Asia,Qatar,QA,,Qatar - Al Rayyan,2015-10-07,17:00
Circus aeruginosus,Animalia,HAWKS_AND_EAGLES_ACCIPITRIDAE,Western Marsh Harrier,,1,51.1848,25.0035,Asia,Qatar,QA,,Qatar - Al Rayyan,2015-10-07,17:00
Oenanthe deserti,Animalia,OLD_WORLD_FLYCATCHERS_MUSCICAPIDAE,Desert Wheatear,,1,51.1795,25.0102,Asia,Qatar,QA,,Qatar - Al Rayyan,2015-10-07,17:00
Galerida cristata,Animalia,LARKS_ALAUDIDAE,Crested Lark,,8,51.1795,25.0102,Asia,Qatar,QA,,Qatar - Al Rayyan,2015-10-07,17:00
Merops apiaster,Animalia,BEEEATERS_MEROPIDAE,European Bee-eater,,4,51.1795,25.0102,Asia,Qatar,QA,,Qatar - Al Rayyan,2015-10-07,17:00
Coturnix coturnix,Animalia,FRANCOLINS_QUAILS_PARTRIDGES_AND_PHEASANTS_PHASIANIDAE,Common Quail,,3,51.1852,25.0058,Asia,Qatar,QA,,Qatar - Al Rayyan,2015-10-07,17:26
Hirundo rustica,Animalia,SWALLOWS_HIRUNDINIDAE,Barn Swallow,,1,51.1794,25.0132,Asia,Qatar,QA,,Qatar - Al Rayyan,2015-10-07,16:07
Acridotheres tristis,Animalia,STARLINGS_STURNIDAE,Common Myna,,1,51.6018,25.1719,Asia,Qatar,QA,,Qatar - Al Wakrah,2015-10-07,14:28
Spilopelia senegalensis cambayensis,Animalia,PIGEONS_AND_DOVES_COLUMBIDAE,Laughing Dove ssp cambayensis,,2,51.6146,25.1425,Asia,Qatar,QA,,Qatar - Al Wakrah,2015-10-07,14:18
Alaemon alaudipes,Animalia,LARKS_ALAUDIDAE,Greater Hoopoe-Lark,,1,51.6188,25.1401,Asia,Qatar,QA,,Qatar - Al Wakrah,2015-10-07,14:16
Ardea cinerea,Animalia,HERONS_ARDEIDAE,Grey Heron,,4,51.6188,25.1401,Asia,Qatar,QA,,Qatar - Al Wakrah,2015-10-07,14:16
Lanius excubitor aucheri,Animalia,SHRIKES_LANIIDAE,Levant Grey Shrike,,1,51.1828,25.0048,Asia,Qatar,QA,,Qatar - Al Rayyan,2015-10-07,17:00
Spilopelia senegalensis cambayensis,Animalia,PIGEONS_AND_DOVES_COLUMBIDAE,Laughing Dove ssp cambayensis,,2,51.1828,25.0048,Asia,Qatar,QA,,Qatar - Al Rayyan,2015-10-07,17:00
Upupa epops epops,Animalia,HOOPOES_UPUPIDAE,Eurasian Hoopoe ssp epops,,2,51.1828,25.0048,Asia,Qatar,QA,,Qatar - Al Rayyan,2015-10-07,17:00
Motacilla flava,Animalia,PIPITS_EN_WAGTAILS_MOTACILLIDAE,Western Yellow Wagtail,,2,51.1795,25.0102,Asia,Qatar,QA,,Qatar - Al Rayyan,2015-10-07,17:00
Gallinula chloropus,Animalia,RAILS_RALLIDAE,Common Moorhen,,1,51.1829,25.0048,Asia,Qatar,QA,,Qatar - Al Rayyan,2015-10-07,17:00
Falco tinnunculus,Animalia,CARACAS_AND_FALCONS_FALCONIDAE,Common Kestrel,,1,51.1848,25.0035,Asia,Qatar,QA,,Qatar - Al Rayyan,2015-10-07,17:00
Circus aeruginosus,Animalia,HAWKS_AND_EAGLES_ACCIPITRIDAE,Western Marsh Harrier,,1,51.1848,25.0035,Asia,Qatar,QA,,Qatar - Al Rayyan,2015-10-07,17:00
Oenanthe deserti,Animalia,OLD_WORLD_FLYCATCHERS_MUSCICAPIDAE,Desert Wheatear,,1,51.1795,25.0102,Asia,Qatar,QA,,Qatar - Al Rayyan,2015-10-07,17:00
Galerida cristata,Animalia,LARKS_ALAUDIDAE,Crested Lark,,8,51.1795,25.0102,Asia,Qatar,QA,,Qatar - Al Rayyan,2015-10-07,17:00
Merops apiaster,Animalia,BEEEATERS_MEROPIDAE,European Bee-eater,,4,51.1795,25.0102,Asia,Qatar,QA,,Qatar - Al Rayyan,2015-10-07,17:00
Coturnix coturnix,Animalia,FRANCOLINS_QUAILS_PARTRIDGES_AND_PHEASANTS_PHASIANIDAE,Common Quail,,3,51.1852,25.0058,Asia,Qatar,QA,,Qatar - Al Rayyan,2015-10-07,17:26
Acridotheres tristis,Animalia,STARLINGS_STURNIDAE,Common Myna,,1,51.6018,25.1719,Asia,Qatar,QA,,Qatar - Al Wakrah,2015-10-07,14:28
Spilopelia senegalensis cambayensis,Animalia,PIGEONS_AND_DOVES_COLUMBIDAE,Laughing Dove ssp cambayensis,,2,51.6146,25.1425,Asia,Qatar,QA,,Qatar - Al Wakrah,2015-10-07,14:18
Alaemon alaudipes,Animalia,LARKS_ALAUDIDAE,Greater Hoopoe-Lark,,1,51.6188,25.1401,Asia,Qatar,QA,,Qatar - Al Wakrah,2015-10-07,14:16
Ardea cinerea,Animalia,HERONS_ARDEIDAE,Grey Heron,,4,51.6188,25.1401,Asia,Qatar,QA,,Qatar - Al Wakrah,2015-10-07,14:16
Alaemon alaudipes,Animalia,LARKS_ALAUDIDAE,Greater Hoopoe-Lark,,1,51.6158,25.1213,Asia,Qatar,QA,,Qatar - Al Wakrah,2015-10-07,13:57
Phalacrocorax nigrogularis,Animalia,CORMORANTS_PHALACROCORACIDAE,Socotra Cormorant,,1,50.7564801257,25.4024776823,Asia,Qatar,QA,,Qatar - Al Rayyan,2013-03-19,
Pandion haliaetus,Animalia,OSPREY_PANDIONIDAE,Western Osprey,,1,51.3590830564,24.5763167563,Asia,Qatar,QA,,Qatar - Khor Al Adaid,2011-05-04,
Phoenicopterus roseus,Animalia,FLAMINGOS_PHOENICOPTERIDAE,Greater Flamingo,,10,51.3266095519,24.5963765361,Asia,Qatar,QA,,Qatar - Khor Al Adaid,2012-02-14,
Egretta gularis schistacea,Animalia,HERONS_ARDEIDAE,Red Sea Reef Heron,,1,51.6191500425,25.1109353703,Asia,Qatar,QA,,Qatar - Al Wakrah,2013-11-12,
Merops apiaster,Animalia,BEEEATERS_MEROPIDAE,European Bee-eater,,2,51.1777,25.0116,Asia,Qatar,QA,,Qatar - Al Rayyan,2015-10-06,16:00
Merops persicus persicus,Animalia,BEEEATERS_MEROPIDAE,Blue-cheeked Bee-eater ssp persicus,,2,51.182,25.0089,Asia,Qatar,QA,,Qatar - Al Rayyan,2015-10-06,16:00
Muscicapa striata,Animalia,OLD_WORLD_FLYCATCHERS_MUSCICAPIDAE,Spotted Flycatcher,,1,51.1806,25.012,Asia,Qatar,QA,,Qatar - Al Rayyan,2015-10-06,14:02
Upupa epops epops,Animalia,HOOPOES_UPUPIDAE,Eurasian Hoopoe ssp epops,,1,51.182,25.0089,Asia,Qatar,QA,,Qatar - Al Rayyan,2015-10-06,16:00
Galerida cristata,Animalia,LARKS_ALAUDIDAE,Crested Lark,,10,51.1795,25.0103,Asia,Qatar,QA,,Qatar - Al Rayyan,2015-10-06,16:00
Lanius excubitor aucheri,Animalia,SHRIKES_LANIIDAE,Levant Grey Shrike,,1,51.1808,25.0117,Asia,Qatar,QA,,Qatar - Al Rayyan,2015-10-06,16:00
Circus aeruginosus,Animalia,HAWKS_AND_EAGLES_ACCIPITRIDAE,Western Marsh Harrier,,2,51.182,25.0089,Asia,Qatar,QA,,Qatar - Al Rayyan,2015-10-06,16:00
Francolinus pondicerianus,Animalia,FRANCOLINS_QUAILS_PARTRIDGES_AND_PHEASANTS_PHASIANIDAE,Grey Francolin,,1,51.18,25.0107,Asia,Qatar,QA,,Qatar - Al Rayyan,2015-10-06,15:08
Galerida cristata,Animalia,LARKS_ALAUDIDAE,Crested Lark,,1,51.1853,25.0225,Asia,Qatar,QA,,Qatar - Al Rayyan,2015-10-06,17:10
Muscicapa striata,Animalia,OLD_WORLD_FLYCATCHERS_MUSCICAPIDAE,Spotted Flycatcher,,1,51.1798,25.0072,Asia,Qatar,QA,,Qatar - Al Rayyan,2015-10-06,16:40
Pycnonotus leucotis,Animalia,BULBULS_PYCNONOTIDAE,White-eared Bulbul,,1,51.1798,25.0072,Asia,Qatar,QA,,Qatar - Al Rayyan,2015-10-06,16:39
Spilopelia senegalensis cambayensis,Animalia,PIGEONS_AND_DOVES_COLUMBIDAE,Laughing Dove ssp cambayensis,,1,51.1799,25.0071,Asia,Qatar,QA,,Qatar - Al Rayyan,2015-10-06,16:39
Nycticorax nycticorax,Animalia,HERONS_ARDEIDAE,Black-crowned Night Heron,,1,51.1808,25.0117,Asia,Qatar,QA,,Qatar - Al Rayyan,2015-10-06,16:00
Pycnonotus leucotis,Animalia,BULBULS_PYCNONOTIDAE,White-eared Bulbul,,1,51.18,25.0111,Asia,Qatar,QA,,Qatar - Al Rayyan,2015-10-06,14:35
Columba livia domestica,Animalia,PIGEONS_AND_DOVES_COLUMBIDAE,Feral Pigeon,,3,51.4909,25.228,Asia,Qatar,QA,,Qatar - Doha,2015-10-06,12:58
Felis catus,Animalia,CATS_FELIDAE,Domesticated Cat,,1,51.6013,25.1715,Asia,Qatar,QA,,Qatar - Al Wakrah,2015-10-05,23:54
Pycnonotus leucotis,Animalia,BULBULS_PYCNONOTIDAE,White-eared Bulbul,,1,51.6127,25.1807,Asia,Qatar,QA,,Qatar - Al Wakrah,2015-10-05,17:33
Pycnonotus leucotis,Animalia,BULBULS_PYCNONOTIDAE,White-eared Bulbul,,2,51.6111,25.1806,Asia,Qatar,QA,,Qatar - Al Wakrah,2015-10-05,17:31
Pycnonotus leucotis,Animalia,BULBULS_PYCNONOTIDAE,White-eared Bulbul,,3,51.611,25.1799,Asia,Qatar,QA,,Qatar - Al Wakrah,2015-10-05,17:24
Streptopelia decaocto,Animalia,PIGEONS_AND_DOVES_COLUMBIDAE,Eurasian Collared Dove,,1,51.6111,25.1798,Asia,Qatar,QA,,Qatar - Al Wakrah,2015-10-05,17:20
Pycnonotus leucotis,Animalia,BULBULS_PYCNONOTIDAE,White-eared Bulbul,,4,51.6113,25.1796,Asia,Qatar,QA,,Qatar - Al Wakrah,2015-10-05,17:20
Pycnonotus leucotis,Animalia,BULBULS_PYCNONOTIDAE,White-eared Bulbul,,3,51.6124,25.1794,Asia,Qatar,QA,,Qatar - Al Wakrah,2015-10-05,17:15
Pycnonotus cafer,Animalia,BULBULS_PYCNONOTIDAE,Red-vented Bulbul,,3,51.6123,25.1794,Asia,Qatar,QA,,Qatar - Al Wakrah,2015-10-05,17:15
Felis catus,Animalia,CATS_FELIDAE,Domesticated Cat,,1,51.6128,25.1794,Asia,Qatar,QA,,Qatar - Al Wakrah,2015-10-05,17:14
Streptopelia decaocto,Animalia,PIGEONS_AND_DOVES_COLUMBIDAE,Eurasian Collared Dove,,1,51.6131,25.1796,Asia,Qatar,QA,,Qatar - Al Wakrah,2015-10-05,17:12
Spilopelia senegalensis cambayensis,Animalia,PIGEONS_AND_DOVES_COLUMBIDAE,Laughing Dove ssp cambayensis,,1,51.6131,25.1797,Asia,Qatar,QA,,Qatar - Al Wakrah,2015-10-05,17:12
Pycnonotus leucotis,Animalia,BULBULS_PYCNONOTIDAE,White-eared Bulbul,,3,51.6131,25.1796,Asia,Qatar,QA,,Qatar - Al Wakrah,2015-10-05,17:12
Pycnonotus cafer,Animalia,BULBULS_PYCNONOTIDAE,Red-vented Bulbul,,1,51.6131,25.1795,Asia,Qatar,QA,,Qatar - Al Wakrah,2015-10-05,17:12
Pycnonotus leucotis,Animalia,BULBULS_PYCNONOTIDAE,White-eared Bulbul,,1,51.6133,25.1785,Asia,Qatar,QA,,Qatar - Al Wakrah,2015-10-05,17:00
Passer domesticus,Animalia,OLD_WORLD_SPARROWS_PASSERIDAE,House Sparrow,,1,51.6133,25.1785,Asia,Qatar,QA,,Qatar - Al Wakrah,2015-10-05,17:00
Pycnonotus leucotis,Animalia,BULBULS_PYCNONOTIDAE,White-eared Bulbul,,3,51.6114,25.1773,Asia,Qatar,QA,,Qatar - Al Wakrah,2015-10-05,16:55
Felis catus,Animalia,CATS_FELIDAE,Domesticated Cat,,1,51.6114,25.1776,Asia,Qatar,QA,,Qatar - Al Wakrah,2015-10-05,16:42
Passer domesticus,Animalia,OLD_WORLD_SPARROWS_PASSERIDAE,House Sparrow,,5,51.6109,25.1776,Asia,Qatar,QA,,Qatar - Al Wakrah,2015-10-05,16:41
Felis catus,Animalia,CATS_FELIDAE,Domesticated Cat,,3,51.6084,25.1777,Asia,Qatar,QA,,Qatar - Al Wakrah,2015-10-05,16:39
Psittacula krameri,Animalia,PSITTACULIDAE,Rose-ringed Parakeet,,3,51.6085,25.1777,Asia,Qatar,QA,,Qatar - Al Wakrah,2015-10-05,16:39
Spilopelia senegalensis cambayensis,Animalia,PIGEONS_AND_DOVES_COLUMBIDAE,Laughing Dove ssp cambayensis,,1,51.6066,25.1777,Asia,Qatar,QA,,Qatar - Al Wakrah,2015-10-05,16:35
Passer domesticus,Animalia,OLD_WORLD_SPARROWS_PASSERIDAE,House Sparrow,,3,51.6066,25.1777,Asia,Qatar,QA,,Qatar - Al Wakrah,2015-10-05,16:35
Felis catus,Animalia,CATS_FELIDAE,Domesticated Cat,,1,51.6066,25.1777,Asia,Qatar,QA,,Qatar - Al Wakrah,2015-10-05,16:34
Felis catus,Animalia,CATS_FELIDAE,Domesticated Cat,,1,51.6046,25.1758,Asia,Qatar,QA,,Qatar - Al Wakrah,2015-10-05,16:29
Spilopelia senegalensis cambayensis,Animalia,PIGEONS_AND_DOVES_COLUMBIDAE,Laughing Dove ssp cambayensis,,2,51.6033,25.176,Asia,Qatar,QA,,Qatar - Al Wakrah,2015-10-05,16:24
Spilopelia senegalensis cambayensis,Animalia,PIGEONS_AND_DOVES_COLUMBIDAE,Laughing Dove ssp cambayensis,,1,51.6015,25.1717,Asia,Qatar,QA,,Qatar - Al Wakrah,2015-10-05,16:17
Columba livia domestica,Animalia,PIGEONS_AND_DOVES_COLUMBIDAE,Feral Pigeon,,1,51.6013,25.1716,Asia,Qatar,QA,,Qatar - Al Wakrah,2015-10-05,13:31
Passer domesticus,Animalia,OLD_WORLD_SPARROWS_PASSERIDAE,House Sparrow,,2,51.6015,25.1713,Asia,Qatar,QA,,Qatar - Al Wakrah,2015-10-05,13:30
Spilopelia senegalensis cambayensis,Animalia,PIGEONS_AND_DOVES_COLUMBIDAE,Laughing Dove ssp cambayensis,,1,51.6012,25.1716,Asia,Qatar,QA,,Qatar - Al Wakrah,2015-10-05,13:30
Pycnonotus leucotis,Animalia,BULBULS_PYCNONOTIDAE,White-eared Bulbul,,1,51.6012,25.1716,Asia,Qatar,QA,,Qatar - Al Wakrah,2015-10-05,13:30
Columba livia domestica,Animalia,PIGEONS_AND_DOVES_COLUMBIDAE,Feral Pigeon,,1,51.6012,25.1717,Asia,Qatar,QA,,Qatar - Al Wakrah,2015-10-05,11:14
Spilopelia senegalensis cambayensis,Animalia,PIGEONS_AND_DOVES_COLUMBIDAE,Laughing Dove ssp cambayensis,,2,51.5376,25.2524,Asia,Qatar,QA,,Qatar - Doha,2015-10-04,15:09
Streptopelia decaocto,Animalia,PIGEONS_AND_DOVES_COLUMBIDAE,Eurasian Collared Dove,,1,51.6084,25.1697,Asia,Qatar,QA,,Qatar - Al Wakrah,2015-10-04,17:24
Felis catus,Animalia,CATS_FELIDAE,Domesticated Cat,,2,51.6153,25.1648,Asia,Qatar,QA,,Qatar - Al Wakrah,2015-10-04,17:12
Passer domesticus,Animalia,OLD_WORLD_SPARROWS_PASSERIDAE,House Sparrow,,1,51.6108,25.1678,Asia,Qatar,QA,,Qatar - Al Wakrah,2015-10-04,16:57
Acridotheres tristis,Animalia,STARLINGS_STURNIDAE,Common Myna,,2,51.6108,25.1678,Asia,Qatar,QA,,Qatar - Al Wakrah,2015-10-04,16:57
Acridotheres tristis,Animalia,STARLINGS_STURNIDAE,Common Myna,,2,51.5548,25.2834,Asia,Qatar,QA,,Qatar - Doha,2015-10-04,15:41
Acridotheres tristis,Animalia,STARLINGS_STURNIDAE,Common Myna,,1,51.5535,25.2834,Asia,Qatar,QA,,Qatar - Doha,2015-10-04,15:41
Acridotheres tristis,Animalia,STARLINGS_STURNIDAE,Common Myna,,3,51.5546,25.2654,Asia,Qatar,QA,,Qatar - Doha,2015-10-04,15:38
Acridotheres tristis,Animalia,STARLINGS_STURNIDAE,Common Myna,,4,51.5377,25.2516,Asia,Qatar,QA,,Qatar - Doha,2015-10-04,15:28
Pycnonotus cafer,Animalia,BULBULS_PYCNONOTIDAE,Red-vented Bulbul,,2,51.5369,25.2526,Asia,Qatar,QA,,Qatar - Doha,2015-10-04,15:22
Upupa epops epops,Animalia,HOOPOES_UPUPIDAE,Eurasian Hoopoe ssp epops,,1,51.5367651545,25.2524153012,Asia,Qatar,QA,,Qatar - Doha,2015-10-04,15:21
Acridotheres tristis,Animalia,STARLINGS_STURNIDAE,Common Myna,,1,51.5369,25.2524,Asia,Qatar,QA,,Qatar - Doha,2015-10-04,15:21
Pycnonotus cafer,Animalia,BULBULS_PYCNONOTIDAE,Red-vented Bulbul,,1,51.5367,25.2533,Asia,Qatar,QA,,Qatar - Doha,2015-10-04,15:18
Spilopelia senegalensis cambayensis,Animalia,PIGEONS_AND_DOVES_COLUMBIDAE,Laughing Dove ssp cambayensis,,1,51.5367,25.2531,Asia,Qatar,QA,,Qatar - Doha,2015-10-04,15:17
Spilopelia senegalensis cambayensis,Animalia,PIGEONS_AND_DOVES_COLUMBIDAE,Laughing Dove ssp cambayensis,,1,51.5379,25.2516,Asia,Qatar,QA,,Qatar - Doha,2015-10-04,14:29
Pycnonotus leucotis mesopotamia,Animalia,BULBULS_PYCNONOTIDAE,White-eared Bulbul ssp mesopotamia,,3,51.5378,25.2515,Asia,Qatar,QA,,Qatar - Doha,2015-10-04,14:17
Upupa epops epops,Animalia,HOOPOES_UPUPIDAE,Eurasian Hoopoe ssp epops,,1,51.5367401764,25.2524394842,Asia,Qatar,QA,,Qatar - Doha,2015-10-04,13:11
Pycnonotus cafer,Animalia,BULBULS_PYCNONOTIDAE,Red-vented Bulbul,,1,51.5371,25.2526,Asia,Qatar,QA,,Qatar - Doha,2015-10-04,13:10
Spilopelia senegalensis cambayensis,Animalia,PIGEONS_AND_DOVES_COLUMBIDAE,Laughing Dove ssp cambayensis,,1,51.5367,25.2526,Asia,Qatar,QA,,Qatar - Doha,2015-10-04,12:53
Acridotheres tristis,Animalia,STARLINGS_STURNIDAE,Common Myna,,2,51.5372,25.2527,Asia,Qatar,QA,,Qatar - Doha,2015-10-04,12:52
Columba livia domestica,Animalia,PIGEONS_AND_DOVES_COLUMBIDAE,Feral Pigeon,,1,51.5371,25.2527,Asia,Qatar,QA,,Qatar - Doha,2015-10-04,12:52
Muscicapa striata,Animalia,OLD_WORLD_FLYCATCHERS_MUSCICAPIDAE,Spotted Flycatcher,,1,51.5383,25.2526,Asia,Qatar,QA,,Qatar - Doha,2015-10-04,12:14
Spilopelia senegalensis cambayensis,Animalia,PIGEONS_AND_DOVES_COLUMBIDAE,Laughing Dove ssp cambayensis,,2,51.5383,25.2526,Asia,Qatar,QA,,Qatar - Doha,2015-10-04,11:42
Spilopelia senegalensis cambayensis,Animalia,PIGEONS_AND_DOVES_COLUMBIDAE,Laughing Dove ssp cambayensis,,2,51.5382,25.2531,Asia,Qatar,QA,,Qatar - Doha,2015-10-04,11:26
Streptopelia decaocto,Animalia,PIGEONS_AND_DOVES_COLUMBIDAE,Eurasian Collared Dove,,1,51.6077,25.162,Asia,Qatar,QA,,Qatar - Al Wakrah,2015-10-04,10:45
Spilopelia senegalensis cambayensis,Animalia,PIGEONS_AND_DOVES_COLUMBIDAE,Laughing Dove ssp cambayensis,,3,51.6015,25.1717,Asia,Qatar,QA,,Qatar - Al Wakrah,2015-10-03,14:28
Acridotheres tristis,Animalia,STARLINGS_STURNIDAE,Common Myna,,1,51.6104,25.265,Asia,Qatar,QA,,Qatar - Doha,2015-09-27,15:11
Passer domesticus,Animalia,OLD_WORLD_SPARROWS_PASSERIDAE,House Sparrow,,2,51.6018,25.1712,Asia,Qatar,QA,,Qatar - Al Wakrah,2015-10-02,17:00
Calidris alpina,Animalia,SANDPIPERS_AND_ALLIES_SCOLOPACIDAE,Dunlin,,1,51.6208,25.1817,Asia,Qatar,QA,,Qatar - Al Wakrah,2015-10-02,15:01
Charadrius mongolus,Animalia,PLOVERS_CHARADRIIDAE,Lesser Sand Plover,,3,51.6208,25.1817,Asia,Qatar,QA,,Qatar - Al Wakrah,2015-10-02,15:01
Charadrius alexandrinus,Animalia,PLOVERS_CHARADRIIDAE,Kentish Plover,,2,51.6208,25.1817,Asia,Qatar,QA,,Qatar - Al Wakrah,2015-10-02,15:01
Tringa nebularia,Animalia,SANDPIPERS_AND_ALLIES_SCOLOPACIDAE,Common Greenshank,,1,51.6208,25.1817,Asia,Qatar,QA,,Qatar - Al Wakrah,2015-10-02,15:01
Felis catus,Animalia,CATS_FELIDAE,Domesticated Cat,,1,51.6032,25.1772,Asia,Qatar,QA,,Qatar - Al Wakrah,2015-10-02,21:17
Felis catus,Animalia,CATS_FELIDAE,Domesticated Cat,,2,51.6035,25.1775,Asia,Qatar,QA,,Qatar - Al Wakrah,2015-10-02,21:16
Felis catus,Animalia,CATS_FELIDAE,Domesticated Cat,,6,51.6034,25.1787,Asia,Qatar,QA,,Qatar - Al Wakrah,2015-10-02,21:14
Felis catus,Animalia,CATS_FELIDAE,Domesticated Cat,,1,51.6005,25.1801,Asia,Qatar,QA,,Qatar - Al Wakrah,2015-10-02,21:08
Felis catus,Animalia,CATS_FELIDAE,Domesticated Cat,,1,51.6003,25.1805,Asia,Qatar,QA,,Qatar - Al Wakrah,2015-10-02,20:59
Passer domesticus,Animalia,OLD_WORLD_SPARROWS_PASSERIDAE,House Sparrow,,3,51.6154,25.1807,Asia,Qatar,QA,,Qatar - Al Wakrah,2015-10-02,16:27
Acridotheres tristis,Animalia,STARLINGS_STURNIDAE,Common Myna,,7,51.6154,25.1808,Asia,Qatar,QA,,Qatar - Al Wakrah,2015-10-02,16:27
Passer domesticus,Animalia,OLD_WORLD_SPARROWS_PASSERIDAE,House Sparrow,,1,51.6166,25.1801,Asia,Qatar,QA,,Qatar - Al Wakrah,2015-10-02,15:58
Pycnonotus leucotis,Animalia,BULBULS_PYCNONOTIDAE,White-eared Bulbul,,10,51.6166,25.1801,Asia,Qatar,QA,,Qatar - Al Wakrah,2015-10-02,15:58
Spilopelia senegalensis cambayensis,Animalia,PIGEONS_AND_DOVES_COLUMBIDAE,Laughing Dove ssp cambayensis,,2,51.6167,25.1801,Asia,Qatar,QA,,Qatar - Al Wakrah,2015-10-02,15:58
Streptopelia decaocto,Animalia,PIGEONS_AND_DOVES_COLUMBIDAE,Eurasian Collared Dove,,1,51.6166,25.1801,Asia,Qatar,QA,,Qatar - Al Wakrah,2015-10-02,15:58
Pycnonotus leucotis,Animalia,BULBULS_PYCNONOTIDAE,White-eared Bulbul,,1,51.6158,25.1814,Asia,Qatar,QA,,Qatar - Al Wakrah,2015-10-02,14:44
Spilopelia senegalensis,Animalia,PIGEONS_AND_DOVES_COLUMBIDAE,Laughing Dove,,2,51.6021,25.1737,Asia,Qatar,QA,,Qatar - Al Wakrah,2015-10-02,14:42
Columba livia domestica,Animalia,PIGEONS_AND_DOVES_COLUMBIDAE,Feral Pigeon,,2,51.6019,25.1729,Asia,Qatar,QA,,Qatar - Al Wakrah,2015-10-02,14:41
Pluvialis squatarola,Animalia,PLOVERS_CHARADRIIDAE,Grey Plover,,1,51.6203,25.1335,Asia,Qatar,QA,,Qatar - Al Wakrah,2015-10-01,15:39
Calidris alba,Animalia,SANDPIPERS_AND_ALLIES_SCOLOPACIDAE,Sanderling,,6,51.6203,25.1335,Asia,Qatar,QA,,Qatar - Al Wakrah,2015-10-01,15:39
Calidris alpina,Animalia,SANDPIPERS_AND_ALLIES_SCOLOPACIDAE,Dunlin,,5,51.6203,25.1335,Asia,Qatar,QA,,Qatar - Al Wakrah,2015-10-01,15:39
Charadrius leschenaultii,Animalia,PLOVERS_CHARADRIIDAE,Greater Sand Plover,,1,51.6203,25.1335,Asia,Qatar,QA,,Qatar - Al Wakrah,2015-10-01,15:39
Charadrius mongolus,Animalia,PLOVERS_CHARADRIIDAE,Lesser Sand Plover,,5,51.6203,25.1335,Asia,Qatar,QA,,Qatar - Al Wakrah,2015-10-01,15:39
Charadrius alexandrinus,Animalia,PLOVERS_CHARADRIIDAE,Kentish Plover,,10,51.6203,25.1335,Asia,Qatar,QA,,Qatar - Al Wakrah,2015-10-01,15:39
Limosa lapponica,Animalia,SANDPIPERS_AND_ALLIES_SCOLOPACIDAE,Bar-tailed Godwit,,1,51.6203,25.1335,Asia,Qatar,QA,,Qatar - Al Wakrah,2015-10-01,15:39
Tringa totanus,Animalia,SANDPIPERS_AND_ALLIES_SCOLOPACIDAE,Common Redshank,,1,51.6203,25.1335,Asia,Qatar,QA,,Qatar - Al Wakrah,2015-10-01,15:39
Spilopelia senegalensis cambayensis,Animalia,PIGEONS_AND_DOVES_COLUMBIDAE,Laughing Dove ssp cambayensis,,1,51.6132,25.1434,Asia,Qatar,QA,,Qatar - Al Wakrah,2015-10-01,15:03
Streptopelia decaocto,Animalia,PIGEONS_AND_DOVES_COLUMBIDAE,Eurasian Collared Dove,,1,51.6013,25.1718,Asia,Qatar,QA,,Qatar - Al Wakrah,2015-10-01,14:56
Passer domesticus,Animalia,OLD_WORLD_SPARROWS_PASSERIDAE,House Sparrow,,1,51.6015,25.1715,Asia,Qatar,QA,,Qatar - Al Wakrah,2015-10-01,07:42
Spilopelia senegalensis cambayensis,Animalia,PIGEONS_AND_DOVES_COLUMBIDAE,Laughing Dove ssp cambayensis,,1,51.6014,25.1717,Asia,Qatar,QA,,Qatar - Al Wakrah,2015-10-01,07:42
Acridotheres tristis,Animalia,STARLINGS_STURNIDAE,Common Myna,,2,51.5983,25.2455,Asia,Qatar,QA,,Qatar - Doha,2015-10-01,06:42
Columba livia domestica,Animalia,PIGEONS_AND_DOVES_COLUMBIDAE,Feral Pigeon,,30,51.6105723171,25.2705623752,Asia,Qatar,QA,,Qatar - Doha,2015-09-09,06:00
Ichthyaetus ichthyaetus,Animalia,GULLS_TERNS_AND_SKIMMERS_LARIDAE,Pallas's Gull,,7,51.3790369025,26.0278437076,Asia,Qatar,QA,,Qatar - Madinat ash Shamal,2014-02-23,14:30
Galerida cristata,Animalia,LARKS_ALAUDIDAE,Crested Lark,,2,51.2526,25.171,Asia,Qatar,QA,,Qatar - Al Rayyan,2014-02-22,13:24
Motacilla alba,Animalia,PIPITS_EN_WAGTAILS_MOTACILLIDAE,White Wagtail,,5,51.3616063446,25.1478291541,Asia,Qatar,QA,,Qatar,2014-02-22,12:00
Spatula clypeata,Animalia,DUCKS_GEESE_AND_SWANS_ANATIDAE,Northern Shoveler,,16,51.362901181,25.152354814,Asia,Qatar,QA,,Qatar,2014-02-22,12:00
Aythya ferina,Animalia,DUCKS_GEESE_AND_SWANS_ANATIDAE,Common Pochard,,8,51.3623861969,25.1521994293,Asia,Qatar,QA,,Qatar,2014-02-22,12:00
Egretta garzetta,Animalia,HERONS_ARDEIDAE,Little Egret,,1,51.3637594879,25.148625527,Asia,Qatar,QA,,Qatar,2014-02-22,12:00
Ardea purpurea purpurea,Animalia,HERONS_ARDEIDAE,Purple Heron ssp purpurea,,2,51.3637594879,25.148625527,Asia,Qatar,QA,,Qatar,2014-02-22,12:00
Ardea cinerea,Animalia,HERONS_ARDEIDAE,Grey Heron,,2,51.3637594879,25.148625527,Asia,Qatar,QA,,Qatar,2014-02-22,12:00
Phalacrocorax carbo,Animalia,CORMORANTS_PHALACROCORACIDAE,Great Cormorant,,100,51.3638594002,25.1497132475,Asia,Qatar,QA,,Qatar,2014-02-22,12:00
Tachybaptus ruficollis,Animalia,GREBES_PODICIPEDIDAE,Little Grebe,,1,51.3622071594,25.1486449507,Asia,Qatar,QA,,Qatar,2014-02-22,12:00
Podiceps cristatus cristatus,Animalia,GREBES_PODICIPEDIDAE,Great Crested Grebe ssp cristatus,,10,51.3605083153,25.1501891222,Asia,Qatar,QA,,Qatar,2014-02-22,12:00
Diplacodes lefebvrii,Animalia,SKIMMERS_LIBELLULIDAE,Black Percher,,3,51.3589885086,25.1503542211,Asia,Qatar,QA,,Qatar,2014-02-22,
Crocothemis erythraea,Animalia,SKIMMERS_LIBELLULIDAE,Broad Scarlet,,3,51.3589885086,25.1503542211,Asia,Qatar,QA,,Qatar,2014-02-22,
Streptopelia decaocto,Animalia,PIGEONS_AND_DOVES_COLUMBIDAE,Eurasian Collared Dove,,1,51.5991,25.1729,Asia,Qatar,QA,,Qatar - Al Wakrah,2014-02-21,16:24
Spilopelia senegalensis cambayensis,Animalia,PIGEONS_AND_DOVES_COLUMBIDAE,Laughing Dove ssp cambayensis,,1,51.5991,25.1729,Asia,Qatar,QA,,Qatar - Al Wakrah,2014-02-21,16:23
Trigonella glabra,Plantae,Fabaceae,Egyptian fenugreek,,1,51.59874212,25.1728929845,Asia,Qatar,QA,,Qatar - Al Wakrah,2014-02-21,
Solanum villosum,Plantae,SOLANACEAE,Yellow Nightshade,,1,51.598806493,25.1729221142,Asia,Qatar,QA,,Qatar - Al Wakrah,2014-02-21,
Cenchrus ciliaris,Plantae,Poaceae,Buffel-grass,,1,51.5986061655,25.1788838464,Asia,Qatar,QA,,Qatar - Al Wakrah,2014-02-21,
Psittacula krameri,Animalia,PSITTACULIDAE,Rose-ringed Parakeet,,1,51.6038,25.1731194198,Asia,Qatar,QA,,Qatar - Al Wakrah,2014-02-20,16:25
Acridotheres tristis,Animalia,STARLINGS_STURNIDAE,Common Myna,,2,51.6120107288,25.1796048547,Asia,Qatar,QA,,Qatar - Al Wakrah,2014-02-20,15:47
Felis catus,Animalia,CATS_FELIDAE,Domesticated Cat,,3,51.6120107288,25.1796048547,Asia,Qatar,QA,,Qatar - Al Wakrah,2014-02-20,15:47
Vanessa cardui,Animalia,BRUSHFOOTED_BUTTERFLIES_NYMPHALIDAE,Painted Lady,,3,51.6113107288,25.1799242734,Asia,Qatar,QA,,Qatar - Al Wakrah,2014-02-20,15:39
Acridotheres tristis,Animalia,STARLINGS_STURNIDAE,Common Myna,,3,51.6108,25.18,Asia,Qatar,QA,,Qatar - Al Wakrah,2014-02-20,15:33
Passer domesticus,Animalia,OLD_WORLD_SPARROWS_PASSERIDAE,House Sparrow,,8,51.6109107288,25.1801,Asia,Qatar,QA,,Qatar - Al Wakrah,2014-02-20,15:33
Passer domesticus,Animalia,OLD_WORLD_SPARROWS_PASSERIDAE,House Sparrow,,1,51.6124214577,25.1807194186,Asia,Qatar,QA,,Qatar - Al Wakrah,2014-02-20,15:22
Pycnonotus leucotis,Animalia,BULBULS_PYCNONOTIDAE,White-eared Bulbul,,1,51.6124107288,25.1807097093,Asia,Qatar,QA,,Qatar - Al Wakrah,2014-02-20,15:22
Papilio demoleus,Animalia,SWALLOWTAILS_PAPILIONIDAE,Lemon Butterfly,,1,51.613,25.1805097093,Asia,Qatar,QA,,Qatar - Al Wakrah,2014-02-20,15:17
Pycnonotus cafer,Animalia,BULBULS_PYCNONOTIDAE,Red-vented Bulbul,,2,51.6131026822,25.1804048547,Asia,Qatar,QA,,Qatar - Al Wakrah,2014-02-20,15:09
Streptopelia decaocto,Animalia,PIGEONS_AND_DOVES_COLUMBIDAE,Eurasian Collared Dove,,4,51.6130892712,25.1803097093,Asia,Qatar,QA,,Qatar - Al Wakrah,2014-02-20,15:02
Pycnonotus leucotis,Animalia,BULBULS_PYCNONOTIDAE,White-eared Bulbul,,2,51.6131214577,25.1803194186,Asia,Qatar,QA,,Qatar - Al Wakrah,2014-02-20,15:01
Pycnonotus leucotis,Animalia,BULBULS_PYCNONOTIDAE,White-eared Bulbul,,2,51.6170239728,25.1800052797,Asia,Qatar,QA,,Qatar - Al Wakrah,2014-02-20,14:45
Chroicocephalus genei,Animalia,GULLS_TERNS_AND_SKIMMERS_LARIDAE,Slender-billed Gull,,10,51.6212858307,25.1814495324,Asia,Qatar,QA,,Qatar - Al Wakrah,2014-02-20,14:23
Acridotheres tristis,Animalia,STARLINGS_STURNIDAE,Common Myna,,2,51.5991107288,25.1796048547,Asia,Qatar,QA,,Qatar - Al Wakrah,2014-02-20,13:02
Columba livia domestica,Animalia,PIGEONS_AND_DOVES_COLUMBIDAE,Feral Pigeon,,3,51.5974107288,25.177919419,Asia,Qatar,QA,,Qatar - Al Wakrah,2014-02-20,12:46
Spilopelia senegalensis cambayensis,Animalia,PIGEONS_AND_DOVES_COLUMBIDAE,Laughing Dove ssp cambayensis,,1,51.6017026822,25.1713024275,Asia,Qatar,QA,,Qatar - Al Wakrah,2014-02-20,11:55
Passer domesticus,Animalia,OLD_WORLD_SPARROWS_PASSERIDAE,House Sparrow,,3,51.6016946356,25.1713024275,Asia,Qatar,QA,,Qatar - Al Wakrah,2014-02-20,11:55
Cistanche phelypaea,Plantae,OROBANCHACEAE,,,1,51.6155434773,25.1804179257,Asia,Qatar,QA,,Qatar - Al Wakrah,2014-02-20,
Canis familiaris,Animalia,DOGS_CANIDAE,Feral Dog,,1,51.6168416664,25.1801169369,Asia,Qatar,QA,,Qatar - Al Wakrah,2014-02-20,
Spilopelia senegalensis cambayensis,Animalia,PIGEONS_AND_DOVES_COLUMBIDAE,Laughing Dove ssp cambayensis,,2,51.6119635664,25.1799688696,Asia,Qatar,QA,,Qatar - Al Wakrah,2014-02-20,
Spilopelia senegalensis cambayensis,Animalia,PIGEONS_AND_DOVES_COLUMBIDAE,Laughing Dove ssp cambayensis,,1,51.6125697456,25.1804252077,Asia,Qatar,QA,,Qatar - Al Wakrah,2014-02-20,
