scientificName,kingdom,family,vernacularName,previousIdentifications,individualCount,longitudeDecimal,latitudeDecimal,continent,country,countryCode,stateProvince,locality,eventDate,eventTime
Cichladusa ruficauda,Animalia,OLD_WORLD_FLYCATCHERS_MUSCICAPIDAE,Rufous-tailed Palm Thrush,,2,15.2589301765,-4.28461788695,Africa,Republic of the Congo,CG,,Republic of the Congo - Pool,2015-02-12,
Naucrates ductor,Animalia,JACKS_AND_POMPANOS_CARANGIDAE,Pilot Fish,,10,11.8034362793,-4.75572974293,Africa,Republic of the Congo,CG,,Congo,2013-08-04,
Megaptera novaeangliae,Animalia,RORQUAL_WHALES_BALAENOPTERIDAE,Humpback Whale,,8,11.5768432617,-4.69961638009,Africa,Republic of the Congo,CG,,Republic of the Congo - Kouilou,2013-10-07,
Daphnis nerii,Animalia,Sphingidae,Oleander Hawk-moth,,1,11.8157958984,-4.75162404148,Africa,Republic of the Congo,CG,,Congo,2014-01-12,
Stenella attenuata,Animalia,DOLPHINS_DELPHINIDAE,Pantropical Spotted Dolphin,,20,10.5296716689,-4.90724101615,Africa,Republic of the Congo,CG,,Republic of the Congo - Conkouati-Douli NP,2012-06-11,07:30
Corvus albus,Animalia,CROWS_AND_JAYS_CORVIDAE,Pied Crow,,3,12.1319943164,-5.59620709783,Africa,Republic of the Congo,CG,,Republic of the Congo - Kouilou,2012-06-21,07:00
Anastomus lamelligerus,Animalia,STORKS_CICONIIDAE,African Openbill,,1,12.9130554199,-5.90701883332,Africa,Republic of the Congo,CG,,Republic of the Congo - Kouilou,2012-06-24,15:00
Syncerus caffer nanus,Animalia,BOVIDS_BOVIDAE,African Forest Buffalo,,1,14.929012682903856,0.8931450000000609,Africa,Republic of the Congo,CG,,Republic of the Congo - Odzala-Kokoua NP,2000-09-18,
Halcyon senegalensis,Animalia,KINGFISHERS_ALCEDINIDAE,Woodland Kingfisher,,4,15.275369073849255,-4.2676603516746265,Africa,Republic of the Congo,CG,,Republic of the Congo - Pool,2020-01-30,14:25
Corvus albus,Animalia,CROWS_AND_JAYS_CORVIDAE,Pied Crow,,1,15.275779941885068,-4.26776714384165,Africa,Republic of the Congo,CG,,Republic of the Congo - Pool,2020-01-30,14:01
Halcyon senegalensis,Animalia,KINGFISHERS_ALCEDINIDAE,Woodland Kingfisher,,1,15.275368470011642,-4.267836011737443,Africa,Republic of the Congo,CG,,Republic of the Congo - Pool,2020-01-30,13:33
Turdus pelios,Animalia,THRUSHES_TURDIDAE,African Thrush,,1,15.274839707772552,-4.268127403582033,Africa,Republic of the Congo,CG,,Republic of the Congo - Pool,2020-01-30,13:32
Cichladusa ruficauda,Animalia,OLD_WORLD_FLYCATCHERS_MUSCICAPIDAE,Rufous-tailed Palm Thrush,,1,15.268667349606071,-4.267506147738795,Africa,Republic of the Congo,CG,,Republic of the Congo - Pool,2020-01-17,07:28
Passer domesticus,Animalia,OLD_WORLD_SPARROWS_PASSERIDAE,House Sparrow,,9,15.268574897214089,-4.26761435810874,Africa,Republic of the Congo,CG,,Republic of the Congo - Pool,2020-01-16,11:38
Passer domesticus,Animalia,OLD_WORLD_SPARROWS_PASSERIDAE,House Sparrow,,1,15.268554613008414,-4.267538250427942,Africa,Republic of the Congo,CG,,Republic of the Congo - Pool,2020-01-16,07:32
Corvus albus,Animalia,CROWS_AND_JAYS_CORVIDAE,Pied Crow,,2,15.2488,-4.2589,Africa,Republic of the Congo,CG,,Republic of the Congo - Pool,2017-11-22,07:57
Cichladusa ruficauda,Animalia,OLD_WORLD_FLYCATCHERS_MUSCICAPIDAE,Rufous-tailed Palm Thrush,,1,15.2486,-4.2592,Africa,Republic of the Congo,CG,,Republic of the Congo - Pool,2017-11-22,07:56
Ploceus ocularis crocatus,Animalia,WEAVERS_PLOCEIDAE,Spectacled Weaver ssp crocatus,,1,16.54550336,-0.30360352,Africa,Republic of the Congo,CG,,Republic of the Congo - Cuvette,2015-03-04,
Lanius humeralis,Animalia,SHRIKES_LANIIDAE,Northern Fiscal,,1,11.9396352767,-4.93003953711,Africa,Republic of the Congo,CG,,Republic of the Congo - Kouilou,2015-11-14,
Upupa africana,Animalia,HOOPOES_UPUPIDAE,African Hoopoe,,1,11.9440340991,-4.934977903,Africa,Republic of the Congo,CG,,Republic of the Congo - Kouilou,2015-11-14,
Ispidina picta,Animalia,KINGFISHERS_ALCEDINIDAE,African Pygmy Kingfisher,,1,11.939191818,-4.92906753678,Africa,Republic of the Congo,CG,,Republic of the Congo - Kouilou,2015-11-14,
Butorides striata,Animalia,HERONS_ARDEIDAE,Striated Heron,,1,15.2742273174,-4.3061270396,Africa,Republic of the Congo,CG,,Republic of the Congo - Pool,2015-09-07,
Nycticorax nycticorax,Animalia,HERONS_ARDEIDAE,Black-crowned Night Heron,,1,15.2742273174,-4.3061270396,Africa,Republic of the Congo,CG,,Republic of the Congo - Pool,2015-09-07,
Hypolimnas misippus,Animalia,BRUSHFOOTED_BUTTERFLIES_NYMPHALIDAE,Danaid Eggfly,,1,11.9167327881,-4.69722119661,Africa,Republic of the Congo,CG,,Republic of the Congo - Kouilou,2013-10-06,
Terpsiphone viridis,Animalia,MONARCHS_MONARCHIDAE,African Paradise Flycatcher,,1,11.8240356445,-4.71604027342,Africa,Republic of the Congo,CG,,Republic of the Congo - Kouilou,2015-08-16,
Polyboroides typus,Animalia,HAWKS_AND_EAGLES_ACCIPITRIDAE,African Harrier-Hawk,,1,17.2585210204,-0.486998803506,Africa,Republic of the Congo,CG,,Republic of the Congo - Likouala,2015-03-16,
Milvus aegyptius,Animalia,HAWKS_AND_EAGLES_ACCIPITRIDAE,Yellow-billed Kite,,1,17.2585210204,-0.486998803506,Africa,Republic of the Congo,CG,,Republic of the Congo - Likouala,2015-03-15,
Charadrius marginatus,Animalia,PLOVERS_CHARADRIIDAE,White-fronted Plover,,1,17.2591218352,-0.485282251527,Africa,Republic of the Congo,CG,,Republic of the Congo - Likouala,2015-03-15,
Ciconia episcopus,Animalia,STORKS_CICONIIDAE,Woolly-necked Stork,,1,17.2588938475,-0.485111937361,Africa,Republic of the Congo,CG,,Republic of the Congo - Likouala,2015-03-15,
Psittacus erithacus,Animalia,PARROTS_PSITTACIDAE,Grey Parrot,,5,17.2582414001,-0.485581642363,Africa,Republic of the Congo,CG,,Republic of the Congo - Likouala,2015-03-15,
Glareola nuchalis,Animalia,COURSERS_AND_PRATINCOLES_GLAREOLIDAE,Rock Pratincole,,1,17.2584351897,-0.485024768692,Africa,Republic of the Congo,CG,,Republic of the Congo - Likouala,2015-03-15,
Tringa nebularia,Animalia,SANDPIPERS_AND_ALLIES_SCOLOPACIDAE,Common Greenshank,,1,17.2582487762,-0.485453236216,Africa,Republic of the Congo,CG,,Republic of the Congo - Likouala,2015-03-15,
Bostrychia hagedash,Animalia,IBISSES_AND_SPOONBILLS_THRESKIORNITHIDAE,Hadada Ibis,,1,17.2598084807,-0.486998803506,Africa,Republic of the Congo,CG,,Republic of the Congo - Likouala,2015-03-15,
Anhinga rufa,Animalia,ANHINGAS_ANHINGIDAE,African Darter,,1,17.2598084807,-0.486998803506,Africa,Republic of the Congo,CG,,Republic of the Congo - Likouala,2015-03-15,
Merops gularis,Animalia,BEEEATERS_MEROPIDAE,Black Bee-eater,,1,17.26079,-0.46543,Africa,Republic of the Congo,CG,,Republic of the Congo - Likouala,2015-03-15,
Lophoceros camurus,Animalia,HORNBILLS_BUCEROTIDAE,Red-billed Dwarf Hornbill,,1,17.26079,-0.46543,Africa,Republic of the Congo,CG,,Republic of the Congo - Likouala,2015-03-15,
Eichhornia crassipes,Plantae,PONTEDERIACEAE,Water Hyacinth,,1,17.2614,-0.46268,Africa,Republic of the Congo,CG,,Republic of the Congo - Likouala,2015-03-15,
Psittacus erithacus,Animalia,PARROTS_PSITTACIDAE,Grey Parrot,,1,17.28484,-0.4431,Africa,Republic of the Congo,CG,,Republic of the Congo - Likouala,2015-03-15,
Cercopithecus pogonias grayi,Animalia,OLD_WORLD_MONKEYS_CERCOPITHECIDAE,Gray's Crowned Monkey,,1,17.28478,-0.44307,Africa,Republic of the Congo,CG,,Republic of the Congo - Likouala,2015-03-15,
Cercopithecus nictitans nictitans,Animalia,OLD_WORLD_MONKEYS_CERCOPITHECIDAE,Eastern Putty-nosed Monkey,,1,17.28478,-0.44307,Africa,Republic of the Congo,CG,,Republic of the Congo - Likouala,2015-03-15,
Varanus ornatus,Animalia,Varanidae,Ornate monitor,,1,17.29575,-0.4312,Africa,Republic of the Congo,CG,,Republic of the Congo - Likouala,2015-03-14,
Cercopithecus nictitans nictitans,Animalia,OLD_WORLD_MONKEYS_CERCOPITHECIDAE,Eastern Putty-nosed Monkey,,1,17.29458,-0.43334,Africa,Republic of the Congo,CG,,Republic of the Congo - Likouala,2015-03-14,
Cercopithecus nictitans nictitans,Animalia,OLD_WORLD_MONKEYS_CERCOPITHECIDAE,Eastern Putty-nosed Monkey,,1,17.29221,-0.4339,Africa,Republic of the Congo,CG,,Republic of the Congo - Likouala,2015-03-14,
Psittacus erithacus,Animalia,PARROTS_PSITTACIDAE,Grey Parrot,,1,17.28901,-0.43652,Africa,Republic of the Congo,CG,,Republic of the Congo - Likouala,2015-03-14,
Cercopithecus pogonias grayi,Animalia,OLD_WORLD_MONKEYS_CERCOPITHECIDAE,Gray's Crowned Monkey,,1,17.29,-0.439,Africa,Republic of the Congo,CG,,Republic of the Congo - Likouala,2015-03-14,
Cercopithecus nictitans nictitans,Animalia,OLD_WORLD_MONKEYS_CERCOPITHECIDAE,Eastern Putty-nosed Monkey,,1,17.28825,-0.44193,Africa,Republic of the Congo,CG,,Republic of the Congo - Likouala,2015-03-13,
Bubulcus ibis,Animalia,HERONS_ARDEIDAE,Western Cattle Egret,,1,15.2660001442,-4.28095836951,Africa,Republic of the Congo,CG,,Republic of the Congo - Pool,2015-04-01,
Corvus albus,Animalia,CROWS_AND_JAYS_CORVIDAE,Pied Crow,,1,15.2660001442,-4.28095836951,Africa,Republic of the Congo,CG,,Republic of the Congo - Pool,2015-04-01,
Vanellus albiceps,Animalia,PLOVERS_CHARADRIIDAE,White-crowned Lapwing,,1,17.2586926818,-0.482621595099,Africa,Republic of the Congo,CG,,Republic of the Congo - Likouala,2015-03-13,
Ceryle rudis,Animalia,KINGFISHERS_ALCEDINIDAE,Pied Kingfisher,,1,17.2586926818,-0.482621595099,Africa,Republic of the Congo,CG,,Republic of the Congo - Likouala,2015-03-13,
Rynchops flavirostris,Animalia,GULLS_TERNS_AND_SKIMMERS_LARIDAE,African Skimmer,,2,17.2586926818,-0.482621595099,Africa,Republic of the Congo,CG,,Republic of the Congo - Likouala,2015-03-13,
Polyboroides typus,Animalia,HAWKS_AND_EAGLES_ACCIPITRIDAE,African Harrier-Hawk,,1,17.2582635283,-0.485368079136,Africa,Republic of the Congo,CG,,Republic of the Congo - Likouala,2015-03-13,
Cercopithecus nictitans nictitans,Animalia,OLD_WORLD_MONKEYS_CERCOPITHECIDAE,Eastern Putty-nosed Monkey,,1,17.2548303008,-0.485797217167,Africa,Republic of the Congo,CG,,Republic of the Congo - Likouala,2015-03-13,
Cercopithecus nictitans nictitans,Animalia,OLD_WORLD_MONKEYS_CERCOPITHECIDAE,Eastern Putty-nosed Monkey,,1,17.25943,-0.4874,Africa,Republic of the Congo,CG,,Republic of the Congo - Likouala,2015-03-12,
Psittacus erithacus,Animalia,PARROTS_PSITTACIDAE,Grey Parrot,,1,17.25943,-0.4874,Africa,Republic of the Congo,CG,,Republic of the Congo - Likouala,2015-03-12,
Ciconia episcopus,Animalia,STORKS_CICONIIDAE,Woolly-necked Stork,,1,17.25943,-0.4874,Africa,Republic of the Congo,CG,,Republic of the Congo - Likouala,2015-03-12,
Tringa nebularia,Animalia,SANDPIPERS_AND_ALLIES_SCOLOPACIDAE,Common Greenshank,,1,17.25766,-0.49006,Africa,Republic of the Congo,CG,,Republic of the Congo - Likouala,2015-03-12,
Eichhornia crassipes,Plantae,PONTEDERIACEAE,Water Hyacinth,,1,17.25608,-0.49208,Africa,Republic of the Congo,CG,,Republic of the Congo - Likouala,2015-03-12,
Rynchops flavirostris,Animalia,GULLS_TERNS_AND_SKIMMERS_LARIDAE,African Skimmer,,1,17.25608,-0.49208,Africa,Republic of the Congo,CG,,Republic of the Congo - Likouala,2015-03-12,
Vanellus albiceps,Animalia,PLOVERS_CHARADRIIDAE,White-crowned Lapwing,,1,17.25608,-0.49208,Africa,Republic of the Congo,CG,,Republic of the Congo - Likouala,2015-03-12,
Vanellus albiceps,Animalia,PLOVERS_CHARADRIIDAE,White-crowned Lapwing,,1,17.23506,-0.5011,Africa,Republic of the Congo,CG,,Republic of the Congo - Likouala,2015-03-12,
Hirundo albigularis,Animalia,SWALLOWS_HIRUNDINIDAE,White-throated Swallow,,1,17.23506,-0.5011,Africa,Republic of the Congo,CG,,Republic of the Congo - Likouala,2015-03-12,
Anhinga rufa,Animalia,ANHINGAS_ANHINGIDAE,African Darter,,1,17.22886,-0.50242,Africa,Republic of the Congo,CG,,Republic of the Congo - Likouala,2015-03-12,
Merops malimbicus,Animalia,BEEEATERS_MEROPIDAE,Rosy Bee-eater,,1,17.22316,-0.50329,Africa,Republic of the Congo,CG,,Republic of the Congo - Likouala,2015-03-12,
Ardea intermedia,Animalia,HERONS_ARDEIDAE,Intermediate Egret,,1,17.14763,-0.52064,Africa,Republic of the Congo,CG,,Republic of the Congo - Cuvette,2015-03-11,
Muscicapa cassini,Animalia,OLD_WORLD_FLYCATCHERS_MUSCICAPIDAE,Cassin's Flycatcher,,1,17.15924,-0.54305,Africa,Republic of the Congo,CG,,Republic of the Congo - Cuvette,2015-03-11,
Ceryle rudis,Animalia,KINGFISHERS_ALCEDINIDAE,Pied Kingfisher,,1,17.15987,-0.5457,Africa,Republic of the Congo,CG,,Republic of the Congo - Cuvette,2015-03-11,
Ceryle rudis,Animalia,KINGFISHERS_ALCEDINIDAE,Pied Kingfisher,,1,17.16391,-0.56297,Africa,Republic of the Congo,CG,,Republic of the Congo - Cuvette,2015-03-11,
Glareola cinerea,Animalia,COURSERS_AND_PRATINCOLES_GLAREOLIDAE,Grey Pratincole,,1,17.16324,-0.57398,Africa,Republic of the Congo,CG,,Republic of the Congo - Cuvette,2015-03-11,
Ceryle rudis,Animalia,KINGFISHERS_ALCEDINIDAE,Pied Kingfisher,,1,17.16324,-0.57398,Africa,Republic of the Congo,CG,,Republic of the Congo - Cuvette,2015-03-11,
Vanellus albiceps,Animalia,PLOVERS_CHARADRIIDAE,White-crowned Lapwing,,1,17.16324,-0.57398,Africa,Republic of the Congo,CG,,Republic of the Congo - Cuvette,2015-03-11,
Pseudhirundo griseopyga,Animalia,SWALLOWS_HIRUNDINIDAE,Grey-rumped Swallow,,1,17.16283,-0.57772,Africa,Republic of the Congo,CG,,Republic of the Congo - Cuvette,2015-03-11,
Charadrius marginatus,Animalia,PLOVERS_CHARADRIIDAE,White-fronted Plover,,1,17.16283,-0.57772,Africa,Republic of the Congo,CG,,Republic of the Congo - Cuvette,2015-03-11,
Glareola cinerea,Animalia,COURSERS_AND_PRATINCOLES_GLAREOLIDAE,Grey Pratincole,,1,17.16283,-0.57772,Africa,Republic of the Congo,CG,,Republic of the Congo - Cuvette,2015-03-11,
Vanellus albiceps,Animalia,PLOVERS_CHARADRIIDAE,White-crowned Lapwing,,1,17.16283,-0.57772,Africa,Republic of the Congo,CG,,Republic of the Congo - Cuvette,2015-03-11,
Rynchops flavirostris,Animalia,GULLS_TERNS_AND_SKIMMERS_LARIDAE,African Skimmer,,1,17.15891,-0.58846,Africa,Republic of the Congo,CG,,Republic of the Congo - Cuvette,2015-03-11,
Vanellus albiceps,Animalia,PLOVERS_CHARADRIIDAE,White-crowned Lapwing,,1,17.15891,-0.58846,Africa,Republic of the Congo,CG,,Republic of the Congo - Cuvette,2015-03-11,
Ceryle rudis,Animalia,KINGFISHERS_ALCEDINIDAE,Pied Kingfisher,,1,17.15643,-0.59928,Africa,Republic of the Congo,CG,,Republic of the Congo - Cuvette,2015-03-11,
Ceryle rudis,Animalia,KINGFISHERS_ALCEDINIDAE,Pied Kingfisher,,1,17.15788,-0.5895,Africa,Republic of the Congo,CG,,Republic of the Congo - Cuvette,2015-03-11,
Milvus aegyptius,Animalia,HAWKS_AND_EAGLES_ACCIPITRIDAE,Yellow-billed Kite,,1,17.16007,-0.62894,Africa,Republic of the Congo,CG,,Republic of the Congo - Cuvette,2015-03-11,
Glareola cinerea,Animalia,COURSERS_AND_PRATINCOLES_GLAREOLIDAE,Grey Pratincole,,1,17.15715,-0.64553,Africa,Republic of the Congo,CG,,Republic of the Congo - Cuvette,2015-03-11,
Microcarbo africanus,Animalia,CORMORANTS_PHALACROCORACIDAE,Reed Cormorant,,1,17.15352,-0.65228,Africa,Republic of the Congo,CG,,Republic of the Congo - Cuvette,2015-03-11,
Aves indet.,Animalia,unknown,Unidentified bird,,1,17.18003,-0.6852,Africa,Republic of the Congo,CG,,Republic of the Congo - Cuvette,2015-03-11,
Egretta garzetta,Animalia,HERONS_ARDEIDAE,Little Egret,,1,17.19498,-0.72848,Africa,Republic of the Congo,CG,,Republic of the Congo - Cuvette,2015-03-11,
Glareola cinerea,Animalia,COURSERS_AND_PRATINCOLES_GLAREOLIDAE,Grey Pratincole,,30,17.18375,-0.74167,Africa,Republic of the Congo,CG,,Republic of the Congo - Cuvette,2015-03-11,
Pseudhirundo griseopyga,Animalia,SWALLOWS_HIRUNDINIDAE,Grey-rumped Swallow,,1,17.16866,-0.74864,Africa,Republic of the Congo,CG,,Republic of the Congo - Cuvette,2015-03-11,
Vanellus albiceps,Animalia,PLOVERS_CHARADRIIDAE,White-crowned Lapwing,,2,17.16318,-0.74905,Africa,Republic of the Congo,CG,,Republic of the Congo - Cuvette,2015-03-11,
Microcarbo africanus,Animalia,CORMORANTS_PHALACROCORACIDAE,Reed Cormorant,,1,17.15553,-0.74947,Africa,Republic of the Congo,CG,,Republic of the Congo - Cuvette,2015-03-11,
Pandion haliaetus,Animalia,OSPREY_PANDIONIDAE,Western Osprey,,1,17.15108,-0.75028,Africa,Republic of the Congo,CG,,Republic of the Congo - Cuvette,2015-03-11,
Egretta garzetta,Animalia,HERONS_ARDEIDAE,Little Egret,,1,17.15108,-0.75028,Africa,Republic of the Congo,CG,,Republic of the Congo - Cuvette,2015-03-11,
Lophoceros fasciatus,Animalia,HORNBILLS_BUCEROTIDAE,African Pied Hornbill,,1,17.13568,-0.75663,Africa,Republic of the Congo,CG,,Republic of the Congo - Cuvette,2015-03-11,
Psittacus erithacus,Animalia,PARROTS_PSITTACIDAE,Grey Parrot,,2,17.13257,-0.75652,Africa,Republic of the Congo,CG,,Republic of the Congo - Cuvette,2015-03-11,
Vanellus albiceps,Animalia,PLOVERS_CHARADRIIDAE,White-crowned Lapwing,,1,17.12327,-0.76087,Africa,Republic of the Congo,CG,,Republic of the Congo - Cuvette,2015-03-11,
Pseudhirundo griseopyga,Animalia,SWALLOWS_HIRUNDINIDAE,Grey-rumped Swallow,,1,17.11954,-0.76183,Africa,Republic of the Congo,CG,,Republic of the Congo - Cuvette,2015-03-11,
Muscicapa cassini,Animalia,OLD_WORLD_FLYCATCHERS_MUSCICAPIDAE,Cassin's Flycatcher,,1,17.10836,-0.78162,Africa,Republic of the Congo,CG,,Republic of the Congo - Cuvette,2015-03-11,
Ceryle rudis,Animalia,KINGFISHERS_ALCEDINIDAE,Pied Kingfisher,,1,17.10999,-0.78535,Africa,Republic of the Congo,CG,,Republic of the Congo - Cuvette,2015-03-11,
Lophoceros fasciatus,Animalia,HORNBILLS_BUCEROTIDAE,African Pied Hornbill,,1,17.11199,-0.76625,Africa,Republic of the Congo,CG,,Republic of the Congo - Cuvette,2015-03-11,
Ciconia episcopus,Animalia,STORKS_CICONIIDAE,Woolly-necked Stork,,1,17.11034,-0.79457,Africa,Republic of the Congo,CG,,Republic of the Congo - Cuvette,2015-03-11,
Chrysococcyx caprius,Animalia,CUCKOOS_AND_COUCALS_CUCULIDAE,Diederik Cuckoo,,1,17.11081,-0.79732,Africa,Republic of the Congo,CG,,Republic of the Congo - Cuvette,2015-03-11,
Pseudhirundo griseopyga,Animalia,SWALLOWS_HIRUNDINIDAE,Grey-rumped Swallow,,1,17.11132,-0.8,Africa,Republic of the Congo,CG,,Republic of the Congo - Cuvette,2015-03-11,
Lophoceros fasciatus,Animalia,HORNBILLS_BUCEROTIDAE,African Pied Hornbill,,1,17.11269,-0.80834,Africa,Republic of the Congo,CG,,Republic of the Congo - Cuvette,2015-03-11,
Psittacus erithacus,Animalia,PARROTS_PSITTACIDAE,Grey Parrot,,2,17.11272,-0.81689,Africa,Republic of the Congo,CG,,Republic of the Congo - Cuvette,2015-03-11,
Lophoceros fasciatus,Animalia,HORNBILLS_BUCEROTIDAE,African Pied Hornbill,,1,17.11272,-0.81689,Africa,Republic of the Congo,CG,,Republic of the Congo - Cuvette,2015-03-11,
Lophoceros fasciatus,Animalia,HORNBILLS_BUCEROTIDAE,African Pied Hornbill,,1,17.11285,-0.82102,Africa,Republic of the Congo,CG,,Republic of the Congo - Cuvette,2015-03-11,
Scopus umbretta,Animalia,HAMERKOP_SCOPIDAE,Hamerkop,,1,17.11563,-0.84009,Africa,Republic of the Congo,CG,,Republic of the Congo - Cuvette,2015-03-11,
Egretta garzetta,Animalia,HERONS_ARDEIDAE,Little Egret,,1,17.11563,-0.84009,Africa,Republic of the Congo,CG,,Republic of the Congo - Cuvette,2015-03-11,
Ceryle rudis,Animalia,KINGFISHERS_ALCEDINIDAE,Pied Kingfisher,,1,17.11913,-0.84718,Africa,Republic of the Congo,CG,,Republic of the Congo - Cuvette,2015-03-11,
Milvus aegyptius,Animalia,HAWKS_AND_EAGLES_ACCIPITRIDAE,Yellow-billed Kite,,1,17.12599,-0.87457,Africa,Republic of the Congo,CG,,Republic of the Congo - Cuvette,2015-03-11,
Lophoceros fasciatus,Animalia,HORNBILLS_BUCEROTIDAE,African Pied Hornbill,,3,17.12599,-0.87457,Africa,Republic of the Congo,CG,,Republic of the Congo - Cuvette,2015-03-11,
Eichhornia crassipes,Plantae,PONTEDERIACEAE,Water Hyacinth,,1,17.12081,-0.85181,Africa,Republic of the Congo,CG,,Republic of the Congo - Cuvette,2015-03-11,
Actophilornis africanus,Animalia,JACANAS_JACANIDAE,African Jacana,,1,17.12611,-0.86568,Africa,Republic of the Congo,CG,,Republic of the Congo - Cuvette,2015-03-11,
Ceryle rudis,Animalia,KINGFISHERS_ALCEDINIDAE,Pied Kingfisher,,1,17.1263,-0.86854,Africa,Republic of the Congo,CG,,Republic of the Congo - Cuvette,2015-03-11,
Lophoceros fasciatus,Animalia,HORNBILLS_BUCEROTIDAE,African Pied Hornbill,,8,17.12615,-0.87293,Africa,Republic of the Congo,CG,,Republic of the Congo - Cuvette,2015-03-11,
Ploceus ocularis,Animalia,WEAVERS_PLOCEIDAE,Spectacled Weaver,,1,17.1259984374,-0.877585814692,Africa,Republic of the Congo,CG,,Republic of the Congo - Cuvette,2015-03-10,
Vidua macroura,Animalia,INDIGOBIRDS_AND_WHYDAHS_VIDUIDAE,Pin-tailed Whydah,,1,17.12563,-0.87332,Africa,Republic of the Congo,CG,,Republic of the Congo - Cuvette,2015-03-10,
Milvus aegyptius,Animalia,HAWKS_AND_EAGLES_ACCIPITRIDAE,Yellow-billed Kite,,1,17.1289019287,-0.890844406483,Africa,Republic of the Congo,CG,,Republic of the Congo - Cuvette,2015-03-10,
Ploceus cucullatus,Animalia,WEAVERS_PLOCEIDAE,Village Weaver,,1,17.1290566772,-0.892093124816,Africa,Republic of the Congo,CG,,Republic of the Congo - Cuvette,2015-03-10,
Allenopithecus nigroviridis,Animalia,OLD_WORLD_MONKEYS_CERCOPITHECIDAE,Allen's Swamp Monkey,,1,17.1290566772,-0.892093124816,Africa,Republic of the Congo,CG,,Republic of the Congo - Cuvette,2015-03-10,
Tragelaphus spekii,Animalia,BOVIDS_BOVIDAE,Sitatunga,,1,17.1290566772,-0.892093124816,Africa,Republic of the Congo,CG,,Republic of the Congo - Cuvette,2015-03-10,
Muscicapa cassini,Animalia,OLD_WORLD_FLYCATCHERS_MUSCICAPIDAE,Cassin's Flycatcher,,1,17.12811,-0.90103,Africa,Republic of the Congo,CG,,Republic of the Congo - Cuvette,2015-03-09,
Corythornis cristatus,Animalia,KINGFISHERS_ALCEDINIDAE,Malachite Kingfisher,,1,17.12135,-0.91714,Africa,Republic of the Congo,CG,,Republic of the Congo - Cuvette,2015-03-09,
Muscicapa cassini,Animalia,OLD_WORLD_FLYCATCHERS_MUSCICAPIDAE,Cassin's Flycatcher,,1,17.11891,-0.92024,Africa,Republic of the Congo,CG,,Republic of the Congo - Cuvette,2015-03-09,
Ceryle rudis,Animalia,KINGFISHERS_ALCEDINIDAE,Pied Kingfisher,,1,17.11508,-0.93598,Africa,Republic of the Congo,CG,,Republic of the Congo - Cuvette,2015-03-09,
Milvus aegyptius,Animalia,HAWKS_AND_EAGLES_ACCIPITRIDAE,Yellow-billed Kite,,1,17.11416,-0.93933,Africa,Republic of the Congo,CG,,Republic of the Congo - Cuvette,2015-03-09,
Ploceus pelzelni,Animalia,WEAVERS_PLOCEIDAE,Slender-billed Weaver,,1,17.11416,-0.93933,Africa,Republic of the Congo,CG,,Republic of the Congo - Cuvette,2015-03-09,
Merops variegatus,Animalia,BEEEATERS_MEROPIDAE,Blue-breasted Bee-eater,,1,17.11451,-0.94068,Africa,Republic of the Congo,CG,,Republic of the Congo - Cuvette,2015-03-09,
Actophilornis africanus,Animalia,JACANAS_JACANIDAE,African Jacana,,1,17.11418,-0.94432,Africa,Republic of the Congo,CG,,Republic of the Congo - Cuvette,2015-03-09,
Eichhornia crassipes,Plantae,PONTEDERIACEAE,Water Hyacinth,,1,17.11418,-0.94432,Africa,Republic of the Congo,CG,,Republic of the Congo - Cuvette,2015-03-09,
Egretta garzetta,Animalia,HERONS_ARDEIDAE,Little Egret,,1,17.1143107116,-1.04034019129,Africa,Republic of the Congo,CG,,Republic of the Congo - Cuvette,2015-03-08,
Ardea purpurea,Animalia,HERONS_ARDEIDAE,Purple Heron,,2,17.1143107116,-1.04034019129,Africa,Republic of the Congo,CG,,Republic of the Congo - Cuvette,2015-03-08,
Ceryle rudis,Animalia,KINGFISHERS_ALCEDINIDAE,Pied Kingfisher,,1,17.06403,-1.0537,Africa,Republic of the Congo,CG,,Republic of the Congo - Cuvette,2015-03-07,
Egretta garzetta,Animalia,HERONS_ARDEIDAE,Little Egret,,1,17.06403,-1.0537,Africa,Republic of the Congo,CG,,Republic of the Congo - Cuvette,2015-03-07,
Ceryle rudis,Animalia,KINGFISHERS_ALCEDINIDAE,Pied Kingfisher,,1,17.0457,-1.06907,Africa,Republic of the Congo,CG,,Republic of the Congo - Cuvette,2015-03-07,
Egretta garzetta,Animalia,HERONS_ARDEIDAE,Little Egret,,1,16.9191,-1.15445,Africa,Republic of the Congo,CG,,Republic of the Congo - Cuvette,2015-03-07,
Ardea purpurea,Animalia,HERONS_ARDEIDAE,Purple Heron,,1,16.85293,-1.20626,Africa,Republic of the Congo,CG,,Republic of the Congo - Cuvette,2015-03-07,
Egretta garzetta,Animalia,HERONS_ARDEIDAE,Little Egret,,1,16.8484642357,-1.20967255327,Africa,Republic of the Congo,CG,,Republic of the Congo - Cuvette,2015-03-07,
Ceryle rudis,Animalia,KINGFISHERS_ALCEDINIDAE,Pied Kingfisher,,1,16.81446,-1.18021,Africa,Republic of the Congo,CG,,Republic of the Congo - Cuvette,2015-03-06,
Ardea purpurea,Animalia,HERONS_ARDEIDAE,Purple Heron,,1,16.81003,-1.19244,Africa,Republic of the Congo,CG,,Republic of the Congo - Cuvette,2015-03-06,
Ardea purpurea,Animalia,HERONS_ARDEIDAE,Purple Heron,,1,16.80283,-1.15223,Africa,Republic of the Congo,CG,,Republic of the Congo - Cuvette,2015-03-06,
Ardea purpurea,Animalia,HERONS_ARDEIDAE,Purple Heron,,1,16.79412,-1.12478,Africa,Republic of the Congo,CG,,Republic of the Congo - Cuvette,2015-03-06,
Anhinga rufa,Animalia,ANHINGAS_ANHINGIDAE,African Darter,,1,16.78217,-1.06948,Africa,Republic of the Congo,CG,,Republic of the Congo - Cuvette,2015-03-06,
Gypohierax angolensis,Animalia,HAWKS_AND_EAGLES_ACCIPITRIDAE,Palm-nut Vulture,,1,16.75564,-0.98718,Africa,Republic of the Congo,CG,,Republic of the Congo - Cuvette,2015-03-06,
Ardea purpurea,Animalia,HERONS_ARDEIDAE,Purple Heron,,1,16.74836,-0.89945,Africa,Republic of the Congo,CG,,Republic of the Congo - Cuvette,2015-03-06,
Gypohierax angolensis,Animalia,HAWKS_AND_EAGLES_ACCIPITRIDAE,Palm-nut Vulture,,1,16.74836,-0.89945,Africa,Republic of the Congo,CG,,Republic of the Congo - Cuvette,2015-03-06,
Vanellus albiceps,Animalia,PLOVERS_CHARADRIIDAE,White-crowned Lapwing,,1,16.71754,-0.83781,Africa,Republic of the Congo,CG,,Republic of the Congo - Cuvette,2015-03-06,
Merops persicus,Animalia,BEEEATERS_MEROPIDAE,Blue-cheeked Bee-eater,,1,16.67283,-0.78282,Africa,Republic of the Congo,CG,,Republic of the Congo - Cuvette,2015-03-06,
Scopus umbretta,Animalia,HAMERKOP_SCOPIDAE,Hamerkop,,1,16.6365341842,-0.769320928955,Africa,Republic of the Congo,CG,,Republic of the Congo - Cuvette,2015-03-06,
Ardea purpurea,Animalia,HERONS_ARDEIDAE,Purple Heron,,1,16.6503,-0.78393,Africa,Republic of the Congo,CG,,Republic of the Congo - Cuvette,2015-03-06,
Actophilornis africanus,Animalia,JACANAS_JACANIDAE,African Jacana,,1,16.63676,-0.7705,Africa,Republic of the Congo,CG,,Republic of the Congo - Cuvette,2015-03-06,
Ardea purpurea,Animalia,HERONS_ARDEIDAE,Purple Heron,,1,16.63676,-0.7705,Africa,Republic of the Congo,CG,,Republic of the Congo - Cuvette,2015-03-06,
Ploceus melanocephalus,Animalia,WEAVERS_PLOCEIDAE,Black-headed Weaver,,1,16.63676,-0.7705,Africa,Republic of the Congo,CG,,Republic of the Congo - Cuvette,2015-03-06,
Ardea purpurea,Animalia,HERONS_ARDEIDAE,Purple Heron,,1,16.64039,-0.69478,Africa,Republic of the Congo,CG,,Republic of the Congo - Cuvette,2015-03-05,
Scopus umbretta,Animalia,HAMERKOP_SCOPIDAE,Hamerkop,,1,16.63563,-0.68974,Africa,Republic of the Congo,CG,,Republic of the Congo - Cuvette,2015-03-05,
Ardea purpurea,Animalia,HERONS_ARDEIDAE,Purple Heron,,1,16.61773,-0.63823,Africa,Republic of the Congo,CG,,Republic of the Congo - Cuvette,2015-03-05,
Gypohierax angolensis,Animalia,HAWKS_AND_EAGLES_ACCIPITRIDAE,Palm-nut Vulture,,1,16.62036,-0.62918,Africa,Republic of the Congo,CG,,Republic of the Congo - Cuvette,2015-03-05,
Brachycope anomala,Animalia,WEAVERS_PLOCEIDAE,Bob-tailed Weaver,,1,16.62256,-0.55095,Africa,Republic of the Congo,CG,,Republic of the Congo - Cuvette,2015-03-05,
Lophoceros fasciatus,Animalia,HORNBILLS_BUCEROTIDAE,African Pied Hornbill,,1,16.61936,-0.60399,Africa,Republic of the Congo,CG,,Republic of the Congo - Cuvette,2015-03-05,
Scopus umbretta,Animalia,HAMERKOP_SCOPIDAE,Hamerkop,,1,16.61967,-0.54501,Africa,Republic of the Congo,CG,,Republic of the Congo - Cuvette,2015-03-05,
Cyperus papyrus,Plantae,CYPERACEAE,Papyrus,,1,16.57407,-0.43935,Africa,Republic of the Congo,CG,,Republic of the Congo - Cuvette,2015-03-05,
Eichhornia crassipes,Plantae,PONTEDERIACEAE,Water Hyacinth,,1,16.57407,-0.43935,Africa,Republic of the Congo,CG,,Republic of the Congo - Cuvette,2015-03-05,
Ardea purpurea,Animalia,HERONS_ARDEIDAE,Purple Heron,,7,16.54353,-0.41952,Africa,Republic of the Congo,CG,,Republic of the Congo - Cuvette,2015-03-05,
Ardea purpurea,Animalia,HERONS_ARDEIDAE,Purple Heron,,1,16.56887,-0.37668,Africa,Republic of the Congo,CG,,Republic of the Congo - Cuvette,2015-03-05,
Brachycope anomala,Animalia,WEAVERS_PLOCEIDAE,Bob-tailed Weaver,,1,16.56698,-0.35163,Africa,Republic of the Congo,CG,,Republic of the Congo - Cuvette,2015-03-05,
Ardea purpurea,Animalia,HERONS_ARDEIDAE,Purple Heron,,1,16.55506,-0.30317,Africa,Republic of the Congo,CG,,Republic of the Congo - Cuvette,2015-03-05,
Brachycope anomala,Animalia,WEAVERS_PLOCEIDAE,Bob-tailed Weaver,,1,16.55506,-0.30317,Africa,Republic of the Congo,CG,,Republic of the Congo - Cuvette,2015-03-05,
Milvus aegyptius,Animalia,HAWKS_AND_EAGLES_ACCIPITRIDAE,Yellow-billed Kite,,1,16.54515,-0.2735,Africa,Republic of the Congo,CG,,Republic of the Congo - Cuvette,2015-03-04,
Ceryle rudis,Animalia,KINGFISHERS_ALCEDINIDAE,Pied Kingfisher,,1,16.53718,-0.27053,Africa,Republic of the Congo,CG,,Republic of the Congo - Cuvette,2015-03-04,
Anhinga rufa,Animalia,ANHINGAS_ANHINGIDAE,African Darter,,1,16.53873,-0.25659,Africa,Republic of the Congo,CG,,Republic of the Congo - Cuvette,2015-03-04,
Anhinga rufa,Animalia,ANHINGAS_ANHINGIDAE,African Darter,,1,16.54391,-0.25129,Africa,Republic of the Congo,CG,,Republic of the Congo - Cuvette,2015-03-04,
Scopus umbretta,Animalia,HAMERKOP_SCOPIDAE,Hamerkop,,1,16.53416,-0.24243,Africa,Republic of the Congo,CG,,Republic of the Congo - Cuvette,2015-03-04,
Milvus aegyptius,Animalia,HAWKS_AND_EAGLES_ACCIPITRIDAE,Yellow-billed Kite,,1,16.53416,-0.24243,Africa,Republic of the Congo,CG,,Republic of the Congo - Cuvette,2015-03-04,
Ploceus melanocephalus,Animalia,WEAVERS_PLOCEIDAE,Black-headed Weaver,,1,16.5211,-0.21296,Africa,Republic of the Congo,CG,,Republic of the Congo - Cuvette,2015-03-04,
Bostrychia hagedash,Animalia,IBISSES_AND_SPOONBILLS_THRESKIORNITHIDAE,Hadada Ibis,,1,16.5211,-0.21296,Africa,Republic of the Congo,CG,,Republic of the Congo - Cuvette,2015-03-04,
Milvus aegyptius,Animalia,HAWKS_AND_EAGLES_ACCIPITRIDAE,Yellow-billed Kite,,1,16.51614,-0.21615,Africa,Republic of the Congo,CG,,Republic of the Congo - Cuvette,2015-03-04,
Anhinga rufa,Animalia,ANHINGAS_ANHINGIDAE,African Darter,,1,16.47921,-0.19591,Africa,Republic of the Congo,CG,,Republic of the Congo - Cuvette,2015-03-04,
Anhinga rufa,Animalia,ANHINGAS_ANHINGIDAE,African Darter,,1,16.47833,-0.18926,Africa,Republic of the Congo,CG,,Republic of the Congo - Cuvette,2015-03-04,
Pycnonotus tricolor,Animalia,BULBULS_PYCNONOTIDAE,Dark-capped Bulbul,,1,16.4849,-0.16398,Africa,Republic of the Congo,CG,,Republic of the Congo - Cuvette,2015-03-04,
Merops variegatus,Animalia,BEEEATERS_MEROPIDAE,Blue-breasted Bee-eater,,1,16.4849,-0.16398,Africa,Republic of the Congo,CG,,Republic of the Congo - Cuvette,2015-03-04,
Cyperus papyrus,Plantae,CYPERACEAE,Papyrus,,1,16.43792,-0.12944,Africa,Republic of the Congo,CG,,Republic of the Congo - Cuvette,2015-03-04,
Cercopithecus nictitans nictitans,Animalia,OLD_WORLD_MONKEYS_CERCOPITHECIDAE,Eastern Putty-nosed Monkey,,1,16.38543,-0.0647,Africa,Republic of the Congo,CG,,Republic of the Congo - Cuvette,2015-03-04,
Ardea purpurea,Animalia,HERONS_ARDEIDAE,Purple Heron,,1,16.32386,0.08056,Africa,Republic of the Congo,CG,,Republic of the Congo - Sangha,2015-03-03,
Gypohierax angolensis,Animalia,HAWKS_AND_EAGLES_ACCIPITRIDAE,Palm-nut Vulture,,1,16.30466,0.13582,Africa,Republic of the Congo,CG,,Republic of the Congo - Sangha,2015-03-03,
Ardea purpurea,Animalia,HERONS_ARDEIDAE,Purple Heron,,1,16.24895,0.22191,Africa,Republic of the Congo,CG,,Republic of the Congo - Sangha,2015-03-03,
Gypohierax angolensis,Animalia,HAWKS_AND_EAGLES_ACCIPITRIDAE,Palm-nut Vulture,,1,16.24571,0.22519,Africa,Republic of the Congo,CG,,Republic of the Congo - Sangha,2015-03-03,
Osteolaemus tetraspis,Animalia,Crocodylidae,Dwarf Crocodile,,1,16.2371653318,0.26401158127,Africa,Republic of the Congo,CG,,Republic of the Congo - Sangha,2015-03-03,
Cercopithecus nictitans nictitans,Animalia,OLD_WORLD_MONKEYS_CERCOPITHECIDAE,Eastern Putty-nosed Monkey,,1,16.21395,0.29606,Africa,Republic of the Congo,CG,,Republic of the Congo - Sangha,2015-03-02,
Cercopithecus nictitans nictitans,Animalia,OLD_WORLD_MONKEYS_CERCOPITHECIDAE,Eastern Putty-nosed Monkey,,1,16.23706,0.2755,Africa,Republic of the Congo,CG,,Republic of the Congo - Sangha,2015-03-01,
Cercopithecus nictitans nictitans,Animalia,OLD_WORLD_MONKEYS_CERCOPITHECIDAE,Eastern Putty-nosed Monkey,,1,16.23267,0.28044,Africa,Republic of the Congo,CG,,Republic of the Congo - Sangha,2015-02-28,
Cercopithecus nictitans nictitans,Animalia,OLD_WORLD_MONKEYS_CERCOPITHECIDAE,Eastern Putty-nosed Monkey,,1,16.23642,0.28192,Africa,Republic of the Congo,CG,,Republic of the Congo - Sangha,2015-02-28,
Cercopithecus nictitans nictitans,Animalia,OLD_WORLD_MONKEYS_CERCOPITHECIDAE,Eastern Putty-nosed Monkey,,1,16.2367,0.27343,Africa,Republic of the Congo,CG,,Republic of the Congo - Sangha,2015-02-28,
Lophoceros fasciatus,Animalia,HORNBILLS_BUCEROTIDAE,African Pied Hornbill,,1,16.24835,0.23603,Africa,Republic of the Congo,CG,,Republic of the Congo - Sangha,2015-02-28,
Ardea purpurea,Animalia,HERONS_ARDEIDAE,Purple Heron,,1,16.24629,0.23152,Africa,Republic of the Congo,CG,,Republic of the Congo - Sangha,2015-02-28,
Ardea purpurea,Animalia,HERONS_ARDEIDAE,Purple Heron,,1,16.24499,0.22253,Africa,Republic of the Congo,CG,,Republic of the Congo - Sangha,2015-02-28,
Ardea purpurea,Animalia,HERONS_ARDEIDAE,Purple Heron,,1,16.25088,0.21892,Africa,Republic of the Congo,CG,,Republic of the Congo - Sangha,2015-02-28,
Ardea purpurea,Animalia,HERONS_ARDEIDAE,Purple Heron,,1,16.26096,0.211,Africa,Republic of the Congo,CG,,Republic of the Congo - Sangha,2015-02-28,
Ardea purpurea,Animalia,HERONS_ARDEIDAE,Purple Heron,,1,16.27022,0.18207,Africa,Republic of the Congo,CG,,Republic of the Congo - Sangha,2015-02-28,
Ardea purpurea,Animalia,HERONS_ARDEIDAE,Purple Heron,,1,16.27258,0.17277,Africa,Republic of the Congo,CG,,Republic of the Congo - Sangha,2015-02-28,
Varanus ornatus,Animalia,Varanidae,Ornate monitor,,1,16.24618,0.25321,Africa,Republic of the Congo,CG,,Republic of the Congo - Sangha,2015-02-28,
Gypohierax angolensis,Animalia,HAWKS_AND_EAGLES_ACCIPITRIDAE,Palm-nut Vulture,,1,16.2485,0.23672,Africa,Republic of the Congo,CG,,Republic of the Congo - Sangha,2015-02-28,
Butorides striata,Animalia,HERONS_ARDEIDAE,Striated Heron,,1,16.26554,0.20274,Africa,Republic of the Congo,CG,,Republic of the Congo - Sangha,2015-02-28,
Microcarbo africanus,Animalia,CORMORANTS_PHALACROCORACIDAE,Reed Cormorant,,1,16.26554,0.20274,Africa,Republic of the Congo,CG,,Republic of the Congo - Sangha,2015-02-28,
Osteolaemus tetraspis,Animalia,Crocodylidae,Dwarf Crocodile,,1,16.2781628966,0.169771512275,Africa,Republic of the Congo,CG,,Republic of the Congo - Sangha,2015-02-28,
Estrilda astrild,Animalia,WAXBILLS_MUNIAS_ALLIES_ESTRILDIDAE,Common Waxbill,,1,16.274214685,0.165994978195,Africa,Republic of the Congo,CG,,Republic of the Congo - Sangha,2015-02-28,
Aves indet.,Animalia,unknown,Unidentified bird,,1,16.274214685,0.165994978195,Africa,Republic of the Congo,CG,,Republic of the Congo - Sangha,2015-02-28,
Treron calvus,Animalia,PIGEONS_AND_DOVES_COLUMBIDAE,African Green Pigeon,,2,16.274214685,0.165994978195,Africa,Republic of the Congo,CG,,Republic of the Congo - Sangha,2015-02-28,
Bycanistes fistulator,Animalia,HORNBILLS_BUCEROTIDAE,Piping Hornbill,,2,16.274214685,0.165994978195,Africa,Republic of the Congo,CG,,Republic of the Congo - Sangha,2015-02-28,
Corythaeola cristata,Animalia,TURACOS_MUSOPHAGIDAE,Great Blue Turaco,,1,16.27135,0.15136,Africa,Republic of the Congo,CG,,Republic of the Congo - Sangha,2015-02-27,
Chloropicus xantholophus,Animalia,WOODPECKERS_PICIDAE,Yellow-crested Woodpecker,,1,16.27135,0.15136,Africa,Republic of the Congo,CG,,Republic of the Congo - Sangha,2015-02-27,
Lophoceros fasciatus,Animalia,HORNBILLS_BUCEROTIDAE,African Pied Hornbill,,1,16.27544,0.16297,Africa,Republic of the Congo,CG,,Republic of the Congo - Sangha,2015-02-27,
Estrilda astrild,Animalia,WAXBILLS_MUNIAS_ALLIES_ESTRILDIDAE,Common Waxbill,,1,16.27544,0.16297,Africa,Republic of the Congo,CG,,Republic of the Congo - Sangha,2015-02-27,
Gymnobucco bonapartei,Animalia,Lybiidae,Grey-throated Barbet,,1,16.27544,0.16297,Africa,Republic of the Congo,CG,,Republic of the Congo - Sangha,2015-02-27,
Platysteira castanea,Animalia,WATTLEEYES_BATISES_PLATYSTEIRIDAE,Chestnut Wattle-eye,,1,16.27544,0.16297,Africa,Republic of the Congo,CG,,Republic of the Congo - Sangha,2015-02-27,
Aves indet.,Animalia,unknown,Unidentified bird,,1,16.274,0.165,Africa,Republic of the Congo,CG,,Republic of the Congo - Sangha,2015-02-27,
Merops gularis,Animalia,BEEEATERS_MEROPIDAE,Black Bee-eater,,1,16.274,0.165,Africa,Republic of the Congo,CG,,Republic of the Congo - Sangha,2015-02-27,
Corythaeola cristata,Animalia,TURACOS_MUSOPHAGIDAE,Great Blue Turaco,,1,16.274,0.165,Africa,Republic of the Congo,CG,,Republic of the Congo - Sangha,2015-02-27,
Lophoceros fasciatus,Animalia,HORNBILLS_BUCEROTIDAE,African Pied Hornbill,,4,16.28027,0.1641,Africa,Republic of the Congo,CG,,Republic of the Congo - Sangha,2015-02-26,
Ardea purpurea,Animalia,HERONS_ARDEIDAE,Purple Heron,,1,16.286,0.15196,Africa,Republic of the Congo,CG,,Republic of the Congo - Sangha,2015-02-26,
Ardea purpurea,Animalia,HERONS_ARDEIDAE,Purple Heron,,1,16.30357,0.13676,Africa,Republic of the Congo,CG,,Republic of the Congo - Sangha,2015-02-26,
Halcyon senegalensis,Animalia,KINGFISHERS_ALCEDINIDAE,Woodland Kingfisher,,1,16.30487,0.12933,Africa,Republic of the Congo,CG,,Republic of the Congo - Sangha,2015-02-26,
Ardea purpurea,Animalia,HERONS_ARDEIDAE,Purple Heron,,1,16.30587,0.11125,Africa,Republic of the Congo,CG,,Republic of the Congo - Sangha,2015-02-26,
Ardea purpurea,Animalia,HERONS_ARDEIDAE,Purple Heron,,1,16.31846,0.09383,Africa,Republic of the Congo,CG,,Republic of the Congo - Sangha,2015-02-26,
Scopus umbretta,Animalia,HAMERKOP_SCOPIDAE,Hamerkop,,1,16.31799,0.09165,Africa,Republic of the Congo,CG,,Republic of the Congo - Sangha,2015-02-26,
Butorides striata,Animalia,HERONS_ARDEIDAE,Striated Heron,,1,16.31799,0.09165,Africa,Republic of the Congo,CG,,Republic of the Congo - Sangha,2015-02-26,
Gypohierax angolensis,Animalia,HAWKS_AND_EAGLES_ACCIPITRIDAE,Palm-nut Vulture,,1,16.32411,0.07818,Africa,Republic of the Congo,CG,,Republic of the Congo - Sangha,2015-02-26,
Halcyon senegalensis,Animalia,KINGFISHERS_ALCEDINIDAE,Woodland Kingfisher,,1,16.32411,0.07818,Africa,Republic of the Congo,CG,,Republic of the Congo - Sangha,2015-02-26,
Ardea purpurea,Animalia,HERONS_ARDEIDAE,Purple Heron,,1,16.32513,0.07347,Africa,Republic of the Congo,CG,,Republic of the Congo - Sangha,2015-02-26,
Halcyon senegalensis,Animalia,KINGFISHERS_ALCEDINIDAE,Woodland Kingfisher,,1,16.32517,0.06421,Africa,Republic of the Congo,CG,,Republic of the Congo - Cuvette,2015-02-26,
Merops albicollis,Animalia,BEEEATERS_MEROPIDAE,White-throated Bee-eater,,1,16.3537234068,0.00926703210605,Africa,Republic of the Congo,CG,,Republic of the Congo - Cuvette,2015-02-25,
Hirundo rustica,Animalia,SWALLOWS_HIRUNDINIDAE,Barn Swallow,,100,16.356375441,0.00654425470598,Africa,Republic of the Congo,CG,,Republic of the Congo - Cuvette,2015-02-25,
Lonchura bicolor,Animalia,WAXBILLS_MUNIAS_ALLIES_ESTRILDIDAE,Black-and-white Mannikin,,1,16.356375441,0.00654425470598,Africa,Republic of the Congo,CG,,Republic of the Congo - Cuvette,2015-02-25,
Chrysococcyx caprius,Animalia,CUCKOOS_AND_COUCALS_CUCULIDAE,Diederik Cuckoo,,1,16.356375441,0.00654425470598,Africa,Republic of the Congo,CG,,Republic of the Congo - Cuvette,2015-02-25,
Gypohierax angolensis,Animalia,HAWKS_AND_EAGLES_ACCIPITRIDAE,Palm-nut Vulture,,1,16.356375441,0.00654425470598,Africa,Republic of the Congo,CG,,Republic of the Congo - Cuvette,2015-02-25,
Passer griseus,Animalia,OLD_WORLD_SPARROWS_PASSERIDAE,Northern Grey-headed Sparrow,,1,16.356375441,0.00654425470598,Africa,Republic of the Congo,CG,,Republic of the Congo - Cuvette,2015-02-25,
Aves indet.,Animalia,unknown,Unidentified bird,,1,16.356375441,0.00654425470598,Africa,Republic of the Congo,CG,,Republic of the Congo - Cuvette,2015-02-25,
Merops albicollis,Animalia,BEEEATERS_MEROPIDAE,White-throated Bee-eater,,1,16.356375441,0.00654425470598,Africa,Republic of the Congo,CG,,Republic of the Congo - Cuvette,2015-02-25,
Pycnonotus tricolor,Animalia,BULBULS_PYCNONOTIDAE,Dark-capped Bulbul,,1,16.356375441,0.00654425470598,Africa,Republic of the Congo,CG,,Republic of the Congo - Cuvette,2015-02-25,
Aves indet.,Animalia,unknown,Unidentified bird,,1,16.35335,0.00998,Africa,Republic of the Congo,CG,,Republic of the Congo - Cuvette,2015-02-25,
Halcyon senegalensis,Animalia,KINGFISHERS_ALCEDINIDAE,Woodland Kingfisher,,1,16.35335,0.00998,Africa,Republic of the Congo,CG,,Republic of the Congo - Cuvette,2015-02-22,
Pycnonotus tricolor,Animalia,BULBULS_PYCNONOTIDAE,Dark-capped Bulbul,,1,16.35335,0.00998,Africa,Republic of the Congo,CG,,Republic of the Congo - Cuvette,2015-02-22,
Passer griseus,Animalia,OLD_WORLD_SPARROWS_PASSERIDAE,Northern Grey-headed Sparrow,,1,16.35335,0.00998,Africa,Republic of the Congo,CG,,Republic of the Congo - Cuvette,2015-02-22,
Aves indet.,Animalia,unknown,Unidentified bird,,1,16.35335,0.00998,Africa,Republic of the Congo,CG,,Republic of the Congo - Cuvette,2015-02-25,
Estrilda melpoda,Animalia,WAXBILLS_MUNIAS_ALLIES_ESTRILDIDAE,Orange-cheeked Waxbill,,1,16.35335,0.00998,Africa,Republic of the Congo,CG,,Republic of the Congo - Cuvette,2015-02-22,
Brachycope anomala,Animalia,WEAVERS_PLOCEIDAE,Bob-tailed Weaver,,1,16.35335,0.00998,Africa,Republic of the Congo,CG,,Republic of the Congo - Cuvette,2015-02-22,
Chrysococcyx cupreus,Animalia,CUCKOOS_AND_COUCALS_CUCULIDAE,African Emerald Cuckoo,,1,16.35335,0.00998,Africa,Republic of the Congo,CG,,Republic of the Congo - Cuvette,2015-02-22,
Ploceus nigricollis,Animalia,WEAVERS_PLOCEIDAE,Black-necked Weaver,,1,16.35335,0.00998,Africa,Republic of the Congo,CG,,Republic of the Congo - Cuvette,2015-02-22,
Aves indet.,Animalia,unknown,Unidentified bird,,1,16.35335,0.00998,Africa,Republic of the Congo,CG,,Republic of the Congo - Cuvette,2015-02-22,
Cecropis abyssinica,Animalia,SWALLOWS_HIRUNDINIDAE,Lesser Striped Swallow,,1,16.35335,0.00998,Africa,Republic of the Congo,CG,,Republic of the Congo - Cuvette,2015-02-22,
Actophilornis africanus,Animalia,JACANAS_JACANIDAE,African Jacana,,1,16.05734,0.09769,Africa,Republic of the Congo,CG,,Republic of the Congo - Cuvette,2015-02-21,
Eichhornia crassipes,Plantae,PONTEDERIACEAE,Water Hyacinth,,1,15.86694,0.0356,Africa,Republic of the Congo,CG,,Republic of the Congo - Cuvette,2015-02-21,
Bubulcus ibis,Animalia,HERONS_ARDEIDAE,Western Cattle Egret,,1,15.86694,0.0356,Africa,Republic of the Congo,CG,,Republic of the Congo - Cuvette,2015-02-21,
Milvus aegyptius,Animalia,HAWKS_AND_EAGLES_ACCIPITRIDAE,Yellow-billed Kite,,1,15.84286,0.02392,Africa,Republic of the Congo,CG,,Republic of the Congo - Cuvette,2015-02-21,
Ardea purpurea,Animalia,HERONS_ARDEIDAE,Purple Heron,,1,15.82772,0.0151,Africa,Republic of the Congo,CG,,Republic of the Congo - Cuvette,2015-02-21,
Lophoceros fasciatus,Animalia,HORNBILLS_BUCEROTIDAE,African Pied Hornbill,,1,15.82217,0.01639,Africa,Republic of the Congo,CG,,Republic of the Congo - Cuvette,2015-02-21,
Lophoceros fasciatus,Animalia,HORNBILLS_BUCEROTIDAE,African Pied Hornbill,,1,15.73645,0.02638,Africa,Republic of the Congo,CG,,Republic of the Congo - Cuvette,2015-02-21,
Ardea purpurea,Animalia,HERONS_ARDEIDAE,Purple Heron,,1,15.81307,0.01587,Africa,Republic of the Congo,CG,,Republic of the Congo - Cuvette,2015-02-21,
Ardea purpurea,Animalia,HERONS_ARDEIDAE,Purple Heron,,1,15.77839,0.01925,Africa,Republic of the Congo,CG,,Republic of the Congo - Cuvette,2015-02-21,
Ardea purpurea,Animalia,HERONS_ARDEIDAE,Purple Heron,,2,15.76033,0.01402,Africa,Republic of the Congo,CG,,Republic of the Congo - Cuvette,2015-02-21,
Milvus aegyptius,Animalia,HAWKS_AND_EAGLES_ACCIPITRIDAE,Yellow-billed Kite,,1,15.73909,0.02629,Africa,Republic of the Congo,CG,,Republic of the Congo - Cuvette,2015-02-21,
Ardea purpurea,Animalia,HERONS_ARDEIDAE,Purple Heron,,1,15.72699,0.03837,Africa,Republic of the Congo,CG,,Republic of the Congo - Cuvette,2015-02-21,
Lophoceros fasciatus,Animalia,HORNBILLS_BUCEROTIDAE,African Pied Hornbill,,1,15.71555,0.02206,Africa,Republic of the Congo,CG,,Republic of the Congo - Cuvette,2015-02-21,
Milvus aegyptius,Animalia,HAWKS_AND_EAGLES_ACCIPITRIDAE,Yellow-billed Kite,,1,15.69932,0.00776,Africa,Republic of the Congo,CG,,Republic of the Congo - Cuvette,2015-02-21,
Merops albicollis,Animalia,BEEEATERS_MEROPIDAE,White-throated Bee-eater,,1,15.65994,0.01155,Africa,Republic of the Congo,CG,,Republic of the Congo - Cuvette,2015-02-21,
Merops albicollis,Animalia,BEEEATERS_MEROPIDAE,White-throated Bee-eater,,1,15.63306,0.00199,Africa,Republic of the Congo,CG,,Republic of the Congo - Cuvette,2015-02-21,
Ploceus cucullatus,Animalia,WEAVERS_PLOCEIDAE,Village Weaver,,1,15.61747,-0.00644,Africa,Republic of the Congo,CG,,Republic of the Congo - Cuvette,2015-02-21,
Merops albicollis,Animalia,BEEEATERS_MEROPIDAE,White-throated Bee-eater,,1,15.71546,-0.13737,Africa,Republic of the Congo,CG,,Republic of the Congo - Cuvette,2015-02-20,
Hypsignathus monstrosus,Animalia,OLD_WORLD_FRUITEATING_BATS_PTEROPODIDAE,Hammer-headed Fruit Bat,,1,17.1439,-0.52849,Africa,Republic of the Congo,CG,,Republic of the Congo - Cuvette,2015-03-18,
Cercopithecus nictitans nictitans,Animalia,OLD_WORLD_MONKEYS_CERCOPITHECIDAE,Eastern Putty-nosed Monkey,,1,16.19983,0.30771,Africa,Republic of the Congo,CG,,Republic of the Congo - Sangha,2015-03-02,
