scientificName,kingdom,family,vernacularName,previousIdentifications,individualCount,longitudeDecimal,latitudeDecimal,continent,country,countryCode,stateProvince,locality,eventDate,eventTime
Polistes olivaceus,Animalia,Vespidae,Yellow Oriental Paper Wasp,,1,55.4459971189,-20.8753357022,Africa,Reunion,RE,,Reunion,2014-04-17,
Nesoenas picturatus,Animalia,PIGEONS_AND_DOVES_COLUMBIDAE,Malagasy Turtle Dove,,2,55.4690694809,-20.8793630206,Africa,Reunion,RE,,Reunion,2014-04-17,
Acridotheres tristis,Animalia,STARLINGS_STURNIDAE,Common Myna,,1,55.4338145256,-20.8787114394,Africa,Reunion,RE,,Reunion,2014-04-05,
Hedychium gardnerianum,Plantae,ZINGIBERACEAE,Kahili ginger,,1,55.4338145256,-20.8787114394,Africa,Reunion,RE,,Reunion,2014-04-05,
Zosterops borbonicus,Animalia,WHITEEYES_ZOSTEROPIDAE,Reunion Grey White-eye,,1,55.4338145256,-20.8787114394,Africa,Reunion,RE,,Reunion,2014-04-04,
Geopelia striata,Animalia,PIGEONS_AND_DOVES_COLUMBIDAE,Zebra Dove,,1,55.4338145256,-20.8787114394,Africa,Reunion,RE,,Reunion,2014-04-04,
Saxicola tectes,Animalia,OLD_WORLD_FLYCATCHERS_MUSCICAPIDAE,Reunion Stonechat,,2,55.523986809421,-21.074932368359,Africa,Reunion,RE,,Reunion,2012-09-11,
Puffinus bailloni bailloni,Animalia,PETRELS_AND_SHEARWATERS_PROCELLARIIDAE,Tropical Shearwater ssp bailloni,,20,55.644392967006,-21.387836663333,Africa,Reunion,RE,,Reunion,2012-09-15,
Acridotheres tristis,Animalia,STARLINGS_STURNIDAE,Common Myna,,1,55.449028015137,-20.879984526165,Africa,Reunion,RE,,Reunion,2012-02-15,
Geopelia striata,Animalia,PIGEONS_AND_DOVES_COLUMBIDAE,Zebra Dove,,1,55.449028015137,-20.879984526165,Africa,Reunion,RE,,Reunion,2012-02-15,
Puffinus bailloni,Animalia,PETRELS_AND_SHEARWATERS_PROCELLARIIDAE,Tropical Shearwater,,1,55.4457473755,-21.3477005607,Africa,Reunion,RE,,Reunion,2004-09-11,
Lalage newtoni,Animalia,CUCKOOSHRIKES_CAMPEPHAGIDAE,Reunion Cuckooshrike,,1,55.3872299194,-20.9861239404,Africa,Reunion,RE,,Reunion,2004-09-12,
Zosterops borbonicus,Animalia,WHITEEYES_ZOSTEROPIDAE,Reunion Grey White-eye,,1,55.45189261,-20.90404584,Africa,Reunion,RE,,Reunion,2012-02-15,
Nesoenas picturatus,Animalia,PIGEONS_AND_DOVES_COLUMBIDAE,Malagasy Turtle Dove,,1,55.45189261,-20.90404584,Africa,Reunion,RE,,Reunion,2012-02-15,
Acridotheres tristis,Animalia,STARLINGS_STURNIDAE,Common Myna,,1,55.422191,-21.077995,Africa,Reunion,RE,,Reunion,2016-11-09,07:23
Ploceus cucullatus,Animalia,WEAVERS_PLOCEIDAE,Village Weaver,,1,55.477266,-21.027446,Africa,Reunion,RE,,Reunion,2016-11-06,15:04
Pycnonotus jocosus,Animalia,BULBULS_PYCNONOTIDAE,Red-whiskered Bulbul,,1,55.4773,-21.028906,Africa,Reunion,RE,,Reunion,2016-11-06,14:59
Saxicola tectes,Animalia,OLD_WORLD_FLYCATCHERS_MUSCICAPIDAE,Reunion Stonechat,,1,55.417628,-21.066778,Africa,Reunion,RE,,Reunion,2016-11-08,12:32
Saxicola tectes,Animalia,OLD_WORLD_FLYCATCHERS_MUSCICAPIDAE,Reunion Stonechat,,1,55.422961,-21.077655,Africa,Reunion,RE,,Reunion,2016-11-09,06:55
Foudia madagascariensis,Animalia,WEAVERS_PLOCEIDAE,Red Fody,,1,55.478991,-21.125721,Africa,Reunion,RE,,Reunion,2016-11-14,13:07
Saxicola tectes,Animalia,OLD_WORLD_FLYCATCHERS_MUSCICAPIDAE,Reunion Stonechat,,1,55.434795,-21.103451,Africa,Reunion,RE,,Reunion,2016-11-09,12:54
Saxicola tectes,Animalia,OLD_WORLD_FLYCATCHERS_MUSCICAPIDAE,Reunion Stonechat,,1,55.424226,-21.088851,Africa,Reunion,RE,,Reunion,2016-11-10,12:45
Pycnonotus jocosus,Animalia,BULBULS_PYCNONOTIDAE,Red-whiskered Bulbul,,6,55.3935546875,-20.9878787994385,Africa,Reunion,RE,,Reunion,2019-08-01,07:41
Saxicola tectes,Animalia,OLD_WORLD_FLYCATCHERS_MUSCICAPIDAE,Reunion Stonechat,,4,55.3935585021973,-20.9877986907959,Africa,Reunion,RE,,Reunion,2019-08-01,07:41
Saxicola tectes,Animalia,OLD_WORLD_FLYCATCHERS_MUSCICAPIDAE,Reunion Stonechat,,3,55.3941459655762,-20.9877319335938,Africa,Reunion,RE,,Reunion,2019-08-01,08:19
Zosterops borbonicus,Animalia,WHITEEYES_ZOSTEROPIDAE,Reunion Grey White-eye,,5,55.3932228088379,-20.9893245697021,Africa,Reunion,RE,,Reunion,2019-08-01,09:48
Saxicola tectes,Animalia,OLD_WORLD_FLYCATCHERS_MUSCICAPIDAE,Reunion Stonechat,,1,55.4755325317383,-21.1257648468018,Africa,Reunion,RE,,Reunion,2019-08-02,12:47
Saxicola tectes,Animalia,OLD_WORLD_FLYCATCHERS_MUSCICAPIDAE,Reunion Stonechat,,1,55.4795799255371,-21.1683464050293,Africa,Reunion,RE,,Reunion,2019-08-03,10:32
Foudia madagascariensis,Animalia,WEAVERS_PLOCEIDAE,Red Fody,,1,55.480712890625,-21.1700973510742,Africa,Reunion,RE,,Reunion,2019-08-03,11:06
Hypsipetes borbonicus,Animalia,BULBULS_PYCNONOTIDAE,Reunion Bulbul,,3,55.5679130554199,-21.1200466156006,Africa,Reunion,RE,,Reunion,2019-08-06,14:55
Circus maillardi,Animalia,HAWKS_AND_EAGLES_ACCIPITRIDAE,Reunion Harrier,,1,55.5679130554199,-21.1200466156006,Africa,Reunion,RE,,Reunion,2019-08-06,14:55
Saxicola tectes,Animalia,OLD_WORLD_FLYCATCHERS_MUSCICAPIDAE,Reunion Stonechat,,3,55.5678672790527,-21.1200714111328,Africa,Reunion,RE,,Reunion,2019-08-06,14:56
Saxicola tectes,Animalia,OLD_WORLD_FLYCATCHERS_MUSCICAPIDAE,Reunion Stonechat,,2,55.6170120239258,-21.1378078460693,Africa,Reunion,RE,,Reunion,2019-08-08,09:40
Hypsipetes borbonicus,Animalia,BULBULS_PYCNONOTIDAE,Reunion Bulbul,,3,55.6170043945313,-21.1378002166748,Africa,Reunion,RE,,Reunion,2019-08-08,09:41
Saxicola tectes,Animalia,OLD_WORLD_FLYCATCHERS_MUSCICAPIDAE,Reunion Stonechat,,20,55.3875923156738,-21.0688362121582,Africa,Reunion,RE,,Reunion,2019-07-30,08:26
Saxicola tectes,Animalia,OLD_WORLD_FLYCATCHERS_MUSCICAPIDAE,Reunion Stonechat,,2,55.42295717,-20.91093768,Africa,Reunion,RE,,Reunion,2018-06-11,06:08
Acridotheres tristis,Animalia,STARLINGS_STURNIDAE,Common Myna,,5,55.42256397,-20.91127707,Africa,Reunion,RE,,Reunion,2018-06-11,06:14
Zosterops olivaceus,Animalia,WHITEEYES_ZOSTEROPIDAE,Reunion Olive White-eye,,1,55.4143894,-20.91857228,Africa,Reunion,RE,,Reunion,2018-06-11,07:03
Zosterops olivaceus,Animalia,WHITEEYES_ZOSTEROPIDAE,Reunion Olive White-eye,,1,55.41263106,-20.92288398,Africa,Reunion,RE,,Reunion,2018-06-11,07:39
Zosterops olivaceus,Animalia,WHITEEYES_ZOSTEROPIDAE,Reunion Olive White-eye,,1,55.41224551,-20.92611954,Africa,Reunion,RE,,Reunion,2018-06-11,08:25
Zosterops borbonicus,Animalia,WHITEEYES_ZOSTEROPIDAE,Reunion Grey White-eye,,4,55.41225306,-20.92612464,Africa,Reunion,RE,,Reunion,2018-06-11,08:25
Zosterops olivaceus,Animalia,WHITEEYES_ZOSTEROPIDAE,Reunion Olive White-eye,,2,55.41169451,-20.96035278,Africa,Reunion,RE,,Reunion,2018-06-11,12:58
Zosterops borbonicus,Animalia,WHITEEYES_ZOSTEROPIDAE,Reunion Grey White-eye,,5,55.40421982,-20.94856463,Africa,Reunion,RE,,Reunion,2018-06-11,13:48
Saxicola tectes,Animalia,OLD_WORLD_FLYCATCHERS_MUSCICAPIDAE,Reunion Stonechat,,2,55.40418874,-20.94857136,Africa,Reunion,RE,,Reunion,2018-06-11,13:48
Zosterops olivaceus,Animalia,WHITEEYES_ZOSTEROPIDAE,Reunion Olive White-eye,,2,55.44015213,-20.96658529,Africa,Reunion,RE,,Reunion,2018-06-13,08:02
Zosterops borbonicus,Animalia,WHITEEYES_ZOSTEROPIDAE,Reunion Grey White-eye,,14,55.44015192,-20.96658524,Africa,Reunion,RE,,Reunion,2018-06-13,08:02
Lalage newtoni,Animalia,CUCKOOSHRIKES_CAMPEPHAGIDAE,Reunion Cuckooshrike,,1,55.44272334,-20.97372514,Africa,Reunion,RE,,Reunion,2018-06-13,11:27
Lalage newtoni,Animalia,CUCKOOSHRIKES_CAMPEPHAGIDAE,Reunion Cuckooshrike,,1,55.4415064,-20.97302513,Africa,Reunion,RE,,Reunion,2018-06-13,11:42
Lalage newtoni,Animalia,CUCKOOSHRIKES_CAMPEPHAGIDAE,Reunion Cuckooshrike,,1,55.4415045,-20.97302507,Africa,Reunion,RE,,Reunion,2018-06-13,11:42
Zosterops borbonicus,Animalia,WHITEEYES_ZOSTEROPIDAE,Reunion Grey White-eye,,3,55.43786474,-20.95434374,Africa,Reunion,RE,,Reunion,2017-12-02,05:51
Saxicola tectes,Animalia,OLD_WORLD_FLYCATCHERS_MUSCICAPIDAE,Reunion Stonechat,,4,55.43789403,-20.95431491,Africa,Reunion,RE,,Reunion,2017-12-02,05:52
Zosterops olivaceus,Animalia,WHITEEYES_ZOSTEROPIDAE,Reunion Olive White-eye,,1,55.43915309,-20.95823459,Africa,Reunion,RE,,Reunion,2017-12-02,06:05
Lalage newtoni,Animalia,CUCKOOSHRIKES_CAMPEPHAGIDAE,Reunion Cuckooshrike,,1,55.43996139,-20.96999621,Africa,Reunion,RE,,Reunion,2017-12-02,09:32
Lalage newtoni,Animalia,CUCKOOSHRIKES_CAMPEPHAGIDAE,Reunion Cuckooshrike,,1,55.44045038,-20.96816931,Africa,Reunion,RE,,Reunion,2017-12-02,09:54
Pterodroma baraui,Animalia,PETRELS_AND_SHEARWATERS_PROCELLARIIDAE,Barau's Petrel,,100,55.33307813,-21.26913999,Africa,Reunion,RE,,Réunion Island,2017-10-30,
Zosterops olivaceus,Animalia,WHITEEYES_ZOSTEROPIDAE,Reunion Olive White-eye,,20,55.4421,-20.9733,Africa,Reunion,RE,,Reunion,2017-10-29,08:42
Saxicola tectes,Animalia,OLD_WORLD_FLYCATCHERS_MUSCICAPIDAE,Reunion Stonechat,,4,55.5871,-21.1409,Africa,Reunion,RE,,Reunion,2017-10-30,07:49
Hypsipetes borbonicus,Animalia,BULBULS_PYCNONOTIDAE,Reunion Bulbul,,1,55.5884,-21.1423,Africa,Reunion,RE,,Reunion,2017-10-30,10:15
Circus maillardi,Animalia,HAWKS_AND_EAGLES_ACCIPITRIDAE,Reunion Harrier,,1,55.5871,-21.1409,Africa,Reunion,RE,,Reunion,2017-10-30,09:59
Pterodroma baraui,Animalia,PETRELS_AND_SHEARWATERS_PROCELLARIIDAE,Barau's Petrel,,20,55.2132,-21.2241,Africa,Reunion,RE,,Réunion Island,2017-10-29,17:08
Saxicola tectes,Animalia,OLD_WORLD_FLYCATCHERS_MUSCICAPIDAE,Reunion Stonechat,,10,55.4403,-20.9685,Africa,Reunion,RE,,Reunion,2017-10-29,08:03
Lalage newtoni,Animalia,CUCKOOSHRIKES_CAMPEPHAGIDAE,Reunion Cuckooshrike,,1,55.4405,-20.9685,Africa,Reunion,RE,,Reunion,2017-10-29,07:58
Zosterops borbonicus,Animalia,WHITEEYES_ZOSTEROPIDAE,Reunion Grey White-eye,,1,55.43748164,-20.96493614,Africa,Reunion,RE,,Reunion,2017-10-08,
Saxicola tectes,Animalia,OLD_WORLD_FLYCATCHERS_MUSCICAPIDAE,Reunion Stonechat,,5,55.3872,-21.0715,Africa,Reunion,RE,,Reunion,2017-10-09,09:22
Megaptera novaeangliae,Animalia,RORQUAL_WHALES_BALAENOPTERIDAE,Humpback Whale,,2,55.32409802,-21.27622293,Africa,Reunion,RE,,Réunion Island,2017-10-08,17:34
Pterodroma baraui,Animalia,PETRELS_AND_SHEARWATERS_PROCELLARIIDAE,Barau's Petrel,,100,55.32962724,-21.27721789,Africa,Reunion,RE,,Réunion Island,2017-10-08,16:42
Zosterops olivaceus,Animalia,WHITEEYES_ZOSTEROPIDAE,Reunion Olive White-eye,,1,55.44,-20.9653,Africa,Reunion,RE,,Reunion,2017-10-08,10:18
Pterodroma macroptera,Animalia,PETRELS_AND_SHEARWATERS_PROCELLARIIDAE,Great-winged Petrel,,1,54.9901914063,-21.9261430102,Africa,Reunion,RE,,Réunion Island,2015-12-10,
Argemone mexicana,Plantae,PAPAVERACEAE,Mexican Poppy,,1,55.442276895,-20.8896087634,Africa,Reunion,RE,,Reunion,2015-12-30,11:00
Acridotheres tristis,Animalia,STARLINGS_STURNIDAE,Common Myna,,1,55.4525,-20.8887,Africa,Reunion,RE,,Reunion,2015-12-30,17:26
Geopelia striata,Animalia,PIGEONS_AND_DOVES_COLUMBIDAE,Zebra Dove,,1,55.4525,-20.8887,Africa,Reunion,RE,,Reunion,2015-12-30,16:18
Psittacula krameri,Animalia,PSITTACULIDAE,Rose-ringed Parakeet,,2,55.4525,-20.8887,Africa,Reunion,RE,,Reunion,2015-12-30,15:51
Gallinula chloropus,Animalia,RAILS_RALLIDAE,Common Moorhen,,1,55.4456,-20.881,Africa,Reunion,RE,,Reunion,2015-12-30,13:42
Junonia rhadama,Animalia,BRUSHFOOTED_BUTTERFLIES_NYMPHALIDAE,Brilliant blue,,1,55.453,-20.88,Africa,Reunion,RE,,Reunion,2015-12-07,
