scientificName,kingdom,family,vernacularName,previousIdentifications,individualCount,longitudeDecimal,latitudeDecimal,continent,country,countryCode,stateProvince,locality,eventDate,eventTime
Pytilia melba,Animalia,WAXBILLS_MUNIAS_ALLIES_ESTRILDIDAE,Green-winged Pytilia,,1,30.240730159,-2.19363977205,Africa,Rwanda,RW,,Rwanda - Gashora,2015-01-22,15:00
Pytilia melba,Animalia,WAXBILLS_MUNIAS_ALLIES_ESTRILDIDAE,Green-winged Pytilia,,1,30.0947338343,-1.92278821734,Africa,Rwanda,RW,,Rwanda - Rubungo,2015-02-01,15:00
Cossypha heuglini,Animalia,OLD_WORLD_FLYCATCHERS_MUSCICAPIDAE,White-browed Robin-Chat,,2,30.0947391987,-1.92278285594,Africa,Rwanda,RW,,Rwanda - Rubungo,2015-02-01,15:00
Cinnyris venustus,Animalia,SUNBIRDS_NECTARINIIDAE,Variable Sunbird,,2,30.0947391987,-1.92278285594,Africa,Rwanda,RW,,Rwanda - Rubungo,2015-02-01,15:00
Terpsiphone viridis,Animalia,MONARCHS_MONARCHIDAE,African Paradise Flycatcher,,1,30.0947391987,-1.92278285594,Africa,Rwanda,RW,,Rwanda - Rubungo,2015-02-01,15:00
Chalcomitra senegalensis,Animalia,SUNBIRDS_NECTARINIIDAE,Scarlet-chested Sunbird,,3,30.0947391987,-1.92278285594,Africa,Rwanda,RW,,Rwanda - Rubungo,2015-02-01,15:00
Terpsiphone viridis,Animalia,MONARCHS_MONARCHIDAE,African Paradise Flycatcher,,1,30.0947284698,-1.92279357874,Africa,Rwanda,RW,,Rwanda - Rubungo,2015-01-22,07:00
Cinnyris stuhlmanni,Animalia,SUNBIRDS_NECTARINIIDAE,Rwenzori Double-collared Sunbird,,1,29.0595674515,-2.47866051769,Africa,Rwanda,RW,,Rwanda - Karengera,2015-01-27,14:00
Cyanomitra verticalis,Animalia,SUNBIRDS_NECTARINIIDAE,Green-headed Sunbird,,2,29.0595674515,-2.47866051769,Africa,Rwanda,RW,,Rwanda - Karengera,2015-01-27,14:00
Corythaeola cristata,Animalia,TURACOS_MUSOPHAGIDAE,Great Blue Turaco,,1,29.2119598389,-2.48144740227,Africa,Rwanda,RW,,Rwanda - Karengera,2015-01-30,10:00
Lanius humeralis,Animalia,SHRIKES_LANIIDAE,Northern Fiscal,,1,29.3312644958,-2.2742591272,Africa,Rwanda,RW,,Rwanda - Gisovu,2015-01-29,10:00
Melaenornis fischeri,Animalia,OLD_WORLD_FLYCATCHERS_MUSCICAPIDAE,White-eyed Slaty Flycatcher,,1,29.3312644958,-2.2742591272,Africa,Rwanda,RW,,Rwanda - Gisovu,2015-01-29,10:00
Apalis porphyrolaema,Animalia,CISTICOLAS_AND_ALLIES_CISTICOLIDAE,Chestnut-throated Apalis,,1,29.1970252991,-2.48573490554,Africa,Rwanda,RW,,Rwanda - Karengera,2015-01-28,16:00
Melaniparus fasciiventer,Animalia,TITS_PARIDAE,Stripe-breasted Tit,,2,29.1970252991,-2.48573490554,Africa,Rwanda,RW,,Rwanda - Karengera,2015-01-28,16:00
Ceblepyris caesius,Animalia,CUCKOOSHRIKES_CAMPEPHAGIDAE,Grey Cuckooshrike,,1,29.1970252991,-2.48573490554,Africa,Rwanda,RW,,Rwanda - Karengera,2015-01-28,16:00
Batis diops,Animalia,WATTLEEYES_BATISES_PLATYSTEIRIDAE,Rwenzori Batis,,1,29.1525650024,-2.48942214721,Africa,Rwanda,RW,,Rwanda - Karengera,2015-01-28,11:30
Cryptospiza jacksoni,Animalia,WAXBILLS_MUNIAS_ALLIES_ESTRILDIDAE,Dusky Crimsonwing,,3,29.1525650024,-2.48942214721,Africa,Rwanda,RW,,Rwanda - Karengera,2015-01-28,11:30
Pogoniulus bilineatus,Animalia,Lybiidae,Yellow-rumped Tinkerbird,,1,29.112739563,-2.48796440174,Africa,Rwanda,RW,,Rwanda - Karengera,2015-01-28,09:30
Merops oreobates,Animalia,BEEEATERS_MEROPIDAE,Cinnamon-chested Bee-eater,,1,29.112739563,-2.48796440174,Africa,Rwanda,RW,,Rwanda - Karengera,2015-01-28,09:30
Cisticola chubbi,Animalia,CISTICOLAS_AND_ALLIES_CISTICOLIDAE,Chubb's Cisticola,,1,29.112739563,-2.48796440174,Africa,Rwanda,RW,,Rwanda - Karengera,2015-01-28,09:30
Pycnonotus tricolor,Animalia,BULBULS_PYCNONOTIDAE,Dark-capped Bulbul,,2,29.112739563,-2.48796440174,Africa,Rwanda,RW,,Rwanda - Karengera,2015-01-28,09:30
Muscicapa adusta,Animalia,OLD_WORLD_FLYCATCHERS_MUSCICAPIDAE,African Dusky Flycatcher,,1,29.112739563,-2.48796440174,Africa,Rwanda,RW,,Rwanda - Karengera,2015-01-28,09:30
Prinia bairdii,Animalia,CISTICOLAS_AND_ALLIES_CISTICOLIDAE,Banded Prinia,,2,29.112739563,-2.48796440174,Africa,Rwanda,RW,,Rwanda - Karengera,2015-01-28,09:30
Nigrita canicapillus,Animalia,WAXBILLS_MUNIAS_ALLIES_ESTRILDIDAE,Grey-headed Nigrita,,1,29.112739563,-2.48796440174,Africa,Rwanda,RW,,Rwanda - Karengera,2015-01-28,09:30
Dryoscopus gambensis,Animalia,HELMETSHRIKES_BUSHSHRIKES_MALACONOTIDAE,Northern Puffback,,1,29.112739563,-2.48796440174,Africa,Rwanda,RW,,Rwanda - Karengera,2015-01-28,09:30
Melaenornis ardesiacus,Animalia,OLD_WORLD_FLYCATCHERS_MUSCICAPIDAE,Yellow-eyed Black Flycatcher,,4,29.112739563,-2.48796440174,Africa,Rwanda,RW,,Rwanda - Karengera,2015-01-28,09:30
Chamaetylas poliophrys,Animalia,OLD_WORLD_FLYCATCHERS_MUSCICAPIDAE,Red-throated Alethe,,1,29.112739563,-2.48796440174,Africa,Rwanda,RW,,Rwanda - Karengera,2015-01-28,09:30
Buteo oreophilus,Animalia,HAWKS_AND_EAGLES_ACCIPITRIDAE,Mountain Buzzard,,1,29.2289113998,-2.47578787667,Africa,Rwanda,RW,,Rwanda - Karengera,2015-01-27,10:30
Buteo augur,Animalia,HAWKS_AND_EAGLES_ACCIPITRIDAE,Augur Buzzard,,2,29.4302272797,-2.5216636332,Africa,Rwanda,RW,,Rwanda - Mudasomwa,2015-01-27,09:30
Cecropis abyssinica,Animalia,SWALLOWS_HIRUNDINIDAE,Lesser Striped Swallow,,1,30.0916975737,-1.92936127812,Africa,Rwanda,RW,,Rwanda - Rubungo,2015-01-26,09:00
Crithagra sulphurata,Animalia,FINCHES_FRINGILLIDAE,Brimstone Canary,,3,30.0916975737,-1.92936127812,Africa,Rwanda,RW,,Rwanda - Rubungo,2015-01-26,09:00
Chalcomitra senegalensis,Animalia,SUNBIRDS_NECTARINIIDAE,Scarlet-chested Sunbird,,1,30.0916975737,-1.92936127812,Africa,Rwanda,RW,,Rwanda - Rubungo,2015-01-26,09:00
Cinnyris venustus,Animalia,SUNBIRDS_NECTARINIIDAE,Variable Sunbird,,4,30.0916975737,-1.92936127812,Africa,Rwanda,RW,,Rwanda - Rubungo,2015-01-26,09:00
Ploceus baglafecht,Animalia,WEAVERS_PLOCEIDAE,Baglafecht Weaver,,6,30.0916975737,-1.92936127812,Africa,Rwanda,RW,,Rwanda - Rubungo,2015-01-26,09:00
Pycnonotus tricolor,Animalia,BULBULS_PYCNONOTIDAE,Dark-capped Bulbul,,6,30.0916975737,-1.92936127812,Africa,Rwanda,RW,,Rwanda - Rubungo,2015-01-26,09:00
Cossypha heuglini,Animalia,OLD_WORLD_FLYCATCHERS_MUSCICAPIDAE,White-browed Robin-Chat,,2,30.0916975737,-1.92936127812,Africa,Rwanda,RW,,Rwanda - Rubungo,2015-01-26,09:00
Vanellus coronatus,Animalia,PLOVERS_CHARADRIIDAE,Crowned Lapwing,,2,30.5844783783,-1.43854283904,Africa,Rwanda,RW,,Rwanda - Akagera NP,2015-01-24,15:00
Lophaetus occipitalis,Animalia,HAWKS_AND_EAGLES_ACCIPITRIDAE,Long-crested Eagle,,1,30.6285095215,-1.52271462403,Africa,Rwanda,RW,,Rwanda - Akagera NP,2015-01-24,15:00
Lanius excubitoroides,Animalia,SHRIKES_LANIIDAE,Grey-backed Fiscal,,3,30.6285095215,-1.52271462403,Africa,Rwanda,RW,,Rwanda - Akagera NP,2015-01-24,15:00
Balearica regulorum,Animalia,CRANES_GRUIDAE,Grey Crowned Crane,,2,30.6648159027,-1.51627958602,Africa,Rwanda,RW,,Rwanda - Akagera NP,2015-01-24,14:00
Vanellus senegallus,Animalia,PLOVERS_CHARADRIIDAE,African Wattled Lapwing,,2,30.7346177101,-1.53575624207,Africa,Rwanda,RW,,Rwanda - Akagera NP,2015-01-24,12:00
Haliaeetus vocifer,Animalia,HAWKS_AND_EAGLES_ACCIPITRIDAE,African Fish Eagle,,1,30.7363128662,-1.53163784494,Africa,Rwanda,RW,,Rwanda - Akagera NP,2015-01-24,12:00
Alopochen aegyptiaca,Animalia,DUCKS_GEESE_AND_SWANS_ANATIDAE,Egyptian Goose,,8,30.7295751572,-1.53901663417,Africa,Rwanda,RW,,Rwanda - Akagera NP,2015-01-24,12:00
Phalacrocorax lucidus,Animalia,CORMORANTS_PHALACROCORACIDAE,White-breasted Cormorant,,1,30.7422780991,-1.72901131629,Africa,Rwanda,RW,,Rwanda - Akagera NP,2015-01-24,11:00
Pternistis hildebrandti,Animalia,FRANCOLINS_QUAILS_PARTRIDGES_AND_PHEASANTS_PHASIANIDAE,Hildebrandt's Spurfowl,,1,30.7368278503,-1.87982680172,Africa,Rwanda,RW,,Rwanda - Akagera NP,2015-01-24,10:00
Lophoceros nasutus,Animalia,HORNBILLS_BUCEROTIDAE,African Grey Hornbill,,1,30.7368278503,-1.87982680172,Africa,Rwanda,RW,,Rwanda - Akagera NP,2015-01-24,10:00
Lamprotornis purpuroptera,Animalia,STARLINGS_STURNIDAE,Rüppell's Starling,,6,30.7368278503,-1.87982680172,Africa,Rwanda,RW,,Rwanda - Akagera NP,2015-01-24,10:00
Corythaixoides personatus,Animalia,TURACOS_MUSOPHAGIDAE,Bare-faced Go-away-bird,,2,30.734167099,-1.88926307082,Africa,Rwanda,RW,,Rwanda - Akagera NP,2015-01-24,09:00
Passer griseus,Animalia,OLD_WORLD_SPARROWS_PASSERIDAE,Northern Grey-headed Sparrow,,1,29.2729452252,-1.7342606832,Africa,Rwanda,RW,,Rwanda - Nyamyumba,2014-03-02,07:45
Lagonosticta senegala,Animalia,WAXBILLS_MUNIAS_ALLIES_ESTRILDIDAE,Red-billed Firefinch,,1,29.2729452252,-1.7342606832,Africa,Rwanda,RW,,Rwanda - Nyamyumba,2014-03-02,07:45
Colius striatus,Animalia,MOUSEBIRDS_COLIIDAE,Speckled Mousebird,,2,29.2729452252,-1.7342606832,Africa,Rwanda,RW,,Rwanda - Nyamyumba,2014-03-02,07:45
Corvus albus,Animalia,CROWS_AND_JAYS_CORVIDAE,Pied Crow,,2,29.2729452252,-1.7342606832,Africa,Rwanda,RW,,Rwanda - Nyamyumba,2014-03-02,08:15
Phalacrocorax lucidus,Animalia,CORMORANTS_PHALACROCORACIDAE,White-breasted Cormorant,,1,29.2729452252,-1.7342606832,Africa,Rwanda,RW,,Rwanda - Nyamyumba,2014-03-02,08:30
Ceryle rudis,Animalia,KINGFISHERS_ALCEDINIDAE,Pied Kingfisher,,1,29.2729452252,-1.7342606832,Africa,Rwanda,RW,,Rwanda - Nyamyumba,2014-03-02,08:30
Emberiza flaviventris,Animalia,BUNTINGS_EMBERIZIDAE,Golden-breasted Bunting,,1,29.7869468294,-2.0489854711,Africa,Rwanda,RW,,Rwanda - Nyamabuye,2014-02-28,08:32
Terpsiphone viridis,Animalia,MONARCHS_MONARCHIDAE,African Paradise Flycatcher,,1,30.0997299515,-1.92650910698,Africa,Rwanda,RW,,Rwanda - Rubungo,2014-02-26,10:46
Ploceus baglafecht stuhlmanni,Animalia,WEAVERS_PLOCEIDAE,Baglafecht Weaver ssp stuhlmanni,,1,30.0997299515,-1.92650910698,Africa,Rwanda,RW,,Rwanda - Rubungo,2014-02-26,10:42
Milvus aegyptius parasitus,Animalia,HAWKS_AND_EAGLES_ACCIPITRIDAE,Yellow-billed Kite ssp parasitus,,1,30.0997299515,-1.92650910698,Africa,Rwanda,RW,,Rwanda - Rubungo,2014-02-26,10:30
Lagonosticta senegala senegala,Animalia,WAXBILLS_MUNIAS_ALLIES_ESTRILDIDAE,Red-billed Firefinch ssp senegala,,1,30.0997299515,-1.92650910698,Africa,Rwanda,RW,,Rwanda - Rubungo,2014-02-21,10:40
Milvus aegyptius parasitus,Animalia,HAWKS_AND_EAGLES_ACCIPITRIDAE,Yellow-billed Kite ssp parasitus,,5,30.0997299515,-1.92650910698,Africa,Rwanda,RW,,Rwanda - Rubungo,2014-02-21,10:40
Ardea melanocephala,Animalia,HERONS_ARDEIDAE,Black-headed Heron,,1,30.0997299515,-1.92650910698,Africa,Rwanda,RW,,Rwanda - Rubungo,2014-02-21,10:40
Ploceus ocularis,Animalia,WEAVERS_PLOCEIDAE,Spectacled Weaver,,1,30.0997299515,-1.92650910698,Africa,Rwanda,RW,,Rwanda - Rubungo,2014-02-21,10:40
Terpsiphone viridis,Animalia,MONARCHS_MONARCHIDAE,African Paradise Flycatcher,,1,30.0997299515,-1.92650910698,Africa,Rwanda,RW,,Rwanda - Rubungo,2014-02-21,10:40
Cossypha heuglini,Animalia,OLD_WORLD_FLYCATCHERS_MUSCICAPIDAE,White-browed Robin-Chat,,1,30.0997299515,-1.92650910698,Africa,Rwanda,RW,,Rwanda - Rubungo,2014-02-20,13:45
Cinnyris venustus,Animalia,SUNBIRDS_NECTARINIIDAE,Variable Sunbird,,1,30.0997299515,-1.92650910698,Africa,Rwanda,RW,,Rwanda - Rubungo,2014-02-20,13:45
Pycnonotus tricolor,Animalia,BULBULS_PYCNONOTIDAE,Dark-capped Bulbul,,1,30.0997299515,-1.92650910698,Africa,Rwanda,RW,,Rwanda - Rubungo,2014-02-20,13:21
Scopus umbretta,Animalia,HAMERKOP_SCOPIDAE,Hamerkop,,4,29.27287817,-1.73434647457,Africa,Rwanda,RW,,Rwanda - Nyamyumba,2014-03-02,05:21
Pogonocichla stellata,Animalia,OLD_WORLD_FLYCATCHERS_MUSCICAPIDAE,White-starred Robin,,1,29.1214232147,-2.48234844904,Africa,Rwanda,RW,,Rwanda - Karengera,2014-02-18,09:35
Arizelocichla nigriceps nigriceps,Animalia,BULBULS_PYCNONOTIDAE,Mountain Greenbul ssp nigriceps,,2,29.1170606017,-2.48093424079,Africa,Rwanda,RW,,Rwanda - Karengera,2014-02-18,08:12
Saxicola torquatus,Animalia,OLD_WORLD_FLYCATCHERS_MUSCICAPIDAE,African Stonechat,,1,29.0521719307,-2.44969834445,Africa,Rwanda,RW,,Rwanda - Karengera,2014-02-14,13:45
Vidua macroura,Animalia,INDIGOBIRDS_AND_WHYDAHS_VIDUIDAE,Pin-tailed Whydah,,1,29.0521719307,-2.44969834445,Africa,Rwanda,RW,,Rwanda - Karengera,2014-02-14,13:45
Balearica regulorum,Animalia,CRANES_GRUIDAE,Grey Crowned Crane,,2,30.7399821281,-1.84127697076,Africa,Rwanda,RW,,Rwanda - Akagera NP,2014-02-15,15:30
Centropus superciliosus,Animalia,CUCKOOS_AND_COUCALS_CUCULIDAE,White-browed Coucal,,1,30.7399821281,-1.84127697076,Africa,Rwanda,RW,,Rwanda - Akagera NP,2014-02-15,15:30
Vanellus senegallus,Animalia,PLOVERS_CHARADRIIDAE,African Wattled Lapwing,,1,30.7399821281,-1.84127697076,Africa,Rwanda,RW,,Rwanda - Akagera NP,2014-02-15,15:15
Plectropterus gambensis,Animalia,DUCKS_GEESE_AND_SWANS_ANATIDAE,Spur-winged Goose,,2,30.7399821281,-1.84127697076,Africa,Rwanda,RW,,Rwanda - Akagera NP,2014-02-15,15:15
Lanius excubitoroides,Animalia,SHRIKES_LANIIDAE,Grey-backed Fiscal,,1,30.7399821281,-1.84127697076,Africa,Rwanda,RW,,Rwanda - Akagera NP,2014-02-15,15:00
Urocolius macrourus macrourus,Animalia,MOUSEBIRDS_COLIIDAE,Blue-naped Mousebird ssp macrourus,,1,30.7399821281,-1.84127697076,Africa,Rwanda,RW,,Rwanda - Akagera NP,2014-02-15,14:15
Buphagus africanus,Animalia,Buphagidae,Yellow-billed Oxpecker,,20,30.7399821281,-1.84127697076,Africa,Rwanda,RW,,Rwanda - Akagera NP,2014-02-15,13:15
Lamprotornis purpuroptera,Animalia,STARLINGS_STURNIDAE,Rüppell's Starling,,1,30.7399821281,-1.84127697076,Africa,Rwanda,RW,,Rwanda - Akagera NP,2014-02-15,12:55
Pternistis hildebrandti,Animalia,FRANCOLINS_QUAILS_PARTRIDGES_AND_PHEASANTS_PHASIANIDAE,Hildebrandt's Spurfowl,,2,30.7399821281,-1.84127697076,Africa,Rwanda,RW,,Rwanda - Akagera NP,2014-02-15,11:45
Lophoceros nasutus,Animalia,HORNBILLS_BUCEROTIDAE,African Grey Hornbill,,2,30.7399821281,-1.84127697076,Africa,Rwanda,RW,,Rwanda - Akagera NP,2014-02-15,11:45
Uraeginthus bengalus,Animalia,WAXBILLS_MUNIAS_ALLIES_ESTRILDIDAE,Red-cheeked Cordon-bleu,,1,30.0998470467,-1.92644740916,Africa,Rwanda,RW,,Rwanda - Rubungo,2014-02-14,13:35
Estrilda paludicola,Animalia,WAXBILLS_MUNIAS_ALLIES_ESTRILDIDAE,Fawn-breasted Waxbill,,15,29.0730294585,-2.45306378108,Africa,Rwanda,RW,,Rwanda - Gafunzo,2014-08-17,
Melaenornis ardesiacus,Animalia,OLD_WORLD_FLYCATCHERS_MUSCICAPIDAE,Yellow-eyed Black Flycatcher,,1,29.0702855587,-2.48281940483,Africa,Rwanda,RW,,Rwanda - Karengera,2014-08-17,
Pogonocichla stellata,Animalia,OLD_WORLD_FLYCATCHERS_MUSCICAPIDAE,White-starred Robin,,1,29.1522806883,-2.49259488179,Africa,Rwanda,RW,,Rwanda - Karengera,2014-08-17,
Cisticola chubbi,Animalia,CISTICOLAS_AND_ALLIES_CISTICOLIDAE,Chubb's Cisticola,,8,29.1536539793,-2.48179040305,Africa,Rwanda,RW,,Rwanda - Gafunzo,2014-08-17,
Nectarinia kilimensis,Animalia,SUNBIRDS_NECTARINIIDAE,Bronzy Sunbird,,1,29.6348404882,-1.57025322437,Africa,Rwanda,RW,,Rwanda - Nyakinama,2013-09-08,
Pycnonotus tricolor,Animalia,BULBULS_PYCNONOTIDAE,Dark-capped Bulbul,,1,29.6348404882,-1.57025322437,Africa,Rwanda,RW,,Rwanda - Nyakinama,2013-09-08,
Passer griseus,Animalia,OLD_WORLD_SPARROWS_PASSERIDAE,Northern Grey-headed Sparrow,,1,29.2764651773,-1.73529053694,Africa,Rwanda,RW,,Rwanda - Nyamyumba,2013-09-07,
Corvus albus,Animalia,CROWS_AND_JAYS_CORVIDAE,Pied Crow,,1,29.2764651773,-1.73529053694,Africa,Rwanda,RW,,Rwanda - Nyamyumba,2013-09-07,
Phalacrocorax lucidus,Animalia,CORMORANTS_PHALACROCORACIDAE,White-breasted Cormorant,,10,29.2764651773,-1.73529053694,Africa,Rwanda,RW,,Rwanda - Nyamyumba,2013-09-07,
Passer griseus,Animalia,OLD_WORLD_SPARROWS_PASSERIDAE,Northern Grey-headed Sparrow,,1,29.2549037936,-1.69922816881,Africa,Rwanda,RW,,Rwanda - Rubavu,2013-09-07,
Lanius humeralis,Animalia,SHRIKES_LANIIDAE,Northern Fiscal,,2,29.2549037936,-1.69922816881,Africa,Rwanda,RW,,Rwanda - Rubavu,2013-09-07,
Corvus albus,Animalia,CROWS_AND_JAYS_CORVIDAE,Pied Crow,,1,29.2549037936,-1.69922816881,Africa,Rwanda,RW,,Rwanda - Rubavu,2013-09-07,
Pycnonotus tricolor,Animalia,BULBULS_PYCNONOTIDAE,Dark-capped Bulbul,,1,29.2549037936,-1.69922816881,Africa,Rwanda,RW,,Rwanda - Rubavu,2013-09-07,
Colius striatus,Animalia,MOUSEBIRDS_COLIIDAE,Speckled Mousebird,,1,29.2549037936,-1.69922816881,Africa,Rwanda,RW,,Rwanda - Rubavu,2013-09-07,
Eidolon helvum,Animalia,OLD_WORLD_FRUITEATING_BATS_PTEROPODIDAE,African Straw-coloured Fruit Bat,,1,29.2565989497,-1.70134081893,Africa,Rwanda,RW,,Rwanda - Rubavu,2013-09-07,08:20
Corvus albus,Animalia,CROWS_AND_JAYS_CORVIDAE,Pied Crow,,1,29.2607188224,-1.70542133718,Africa,Rwanda,RW,,Rwanda - Rubavu,2013-09-07,08:45
Pycnonotus tricolor,Animalia,BULBULS_PYCNONOTIDAE,Dark-capped Bulbul,,1,29.2607188224,-1.70542133718,Africa,Rwanda,RW,,Rwanda - Rubavu,2013-09-07,08:45
Colius striatus,Animalia,MOUSEBIRDS_COLIIDAE,Speckled Mousebird,,1,29.2597156762,-1.70437037669,Africa,Rwanda,RW,,Rwanda - Rubavu,2013-09-07,08:45
Scopus umbretta,Animalia,HAMERKOP_SCOPIDAE,Hamerkop,,1,29.2607241868,-1.70544278535,Africa,Rwanda,RW,,Rwanda - Rubavu,2013-09-07,08:45
Phalacrocorax lucidus,Animalia,CORMORANTS_PHALACROCORACIDAE,White-breasted Cormorant,,1,29.2607241868,-1.70544278535,Africa,Rwanda,RW,,Rwanda - Rubavu,2013-09-07,08:45
Lagonosticta senegala,Animalia,WAXBILLS_MUNIAS_ALLIES_ESTRILDIDAE,Red-billed Firefinch,,2,29.2547339202,-1.69893093205,Africa,Rwanda,RW,,Rwanda - Rubavu,2013-09-06,
Passer griseus,Animalia,OLD_WORLD_SPARROWS_PASSERIDAE,Northern Grey-headed Sparrow,,1,29.2547339202,-1.69893093205,Africa,Rwanda,RW,,Rwanda - Rubavu,2013-09-06,
Pycnonotus tricolor,Animalia,BULBULS_PYCNONOTIDAE,Dark-capped Bulbul,,3,29.2547339202,-1.69893093205,Africa,Rwanda,RW,,Rwanda - Rubavu,2013-09-06,
Ceryle rudis,Animalia,KINGFISHERS_ALCEDINIDAE,Pied Kingfisher,,2,29.2547339202,-1.69893093205,Africa,Rwanda,RW,,Rwanda - Rubavu,2013-09-06,
Phalacrocorax lucidus,Animalia,CORMORANTS_PHALACROCORACIDAE,White-breasted Cormorant,,3,29.2547339202,-1.69893093205,Africa,Rwanda,RW,,Rwanda - Rubavu,2013-09-06,
Ruwenzorornis johnstoni,Animalia,TURACOS_MUSOPHAGIDAE,Rwenzori Turaco,,10,29.1968250266,-2.48369977204,Africa,Rwanda,RW,,Rwanda - Karengera,2013-09-04,
Melaenornis ardesiacus,Animalia,OLD_WORLD_FLYCATCHERS_MUSCICAPIDAE,Yellow-eyed Black Flycatcher,,3,29.1319155693,-2.49189316494,Africa,Rwanda,RW,,Rwanda - Karengera,2013-09-04,
Pycnonotus tricolor,Animalia,BULBULS_PYCNONOTIDAE,Dark-capped Bulbul,,1,29.1319155693,-2.49189316494,Africa,Rwanda,RW,,Rwanda - Karengera,2013-09-04,
Melaenornis ardesiacus,Animalia,OLD_WORLD_FLYCATCHERS_MUSCICAPIDAE,Yellow-eyed Black Flycatcher,,3,29.1515171527,-2.49093562778,Africa,Rwanda,RW,,Rwanda - Karengera,2013-09-04,
Corythaeola cristata,Animalia,TURACOS_MUSOPHAGIDAE,Great Blue Turaco,,5,29.1515171527,-2.49093562778,Africa,Rwanda,RW,,Rwanda - Karengera,2013-09-04,
Pycnonotus tricolor,Animalia,BULBULS_PYCNONOTIDAE,Dark-capped Bulbul,,1,29.1579008094,-2.48541477209,Africa,Rwanda,RW,,Rwanda - Karengera,2013-09-04,
Chamaetylas poliophrys,Animalia,OLD_WORLD_FLYCATCHERS_MUSCICAPIDAE,Red-throated Alethe,,2,29.2124891279,-2.47666824856,Africa,Rwanda,RW,,Rwanda - Kirambo,2013-09-03,
Ruwenzorornis johnstoni,Animalia,TURACOS_MUSOPHAGIDAE,Rwenzori Turaco,,3,29.2066955566,-2.47675828686,Africa,Rwanda,RW,,Rwanda - Kirambo,2013-09-03,
Corythaeola cristata,Animalia,TURACOS_MUSOPHAGIDAE,Great Blue Turaco,,2,29.2066526411,-2.47671112382,Africa,Rwanda,RW,,Rwanda - Kirambo,2013-09-03,
Pycnonotus tricolor,Animalia,BULBULS_PYCNONOTIDAE,Dark-capped Bulbul,,2,29.0867257118,-2.45386270405,Africa,Rwanda,RW,,Rwanda - Gafunzo,2013-09-03,
Pycnonotus tricolor,Animalia,BULBULS_PYCNONOTIDAE,Dark-capped Bulbul,,1,29.0922349691,-2.44017018602,Africa,Rwanda,RW,,Rwanda - Gafunzo,2013-09-03,
Ruwenzorornis johnstoni,Animalia,TURACOS_MUSOPHAGIDAE,Rwenzori Turaco,,1,29.2003118991,-2.47830179527,Africa,Rwanda,RW,,Rwanda - Karengera,2013-09-02,09:00
Pycnonotus tricolor,Animalia,BULBULS_PYCNONOTIDAE,Dark-capped Bulbul,,3,29.0951353314,-2.46076822194,Africa,Rwanda,RW,,Rwanda - Gafunzo,2013-09-02,07:40
Corythaeola cristata,Animalia,TURACOS_MUSOPHAGIDAE,Great Blue Turaco,,2,29.0951353314,-2.46076822194,Africa,Rwanda,RW,,Rwanda - Gafunzo,2013-09-02,07:40
Lanius humeralis,Animalia,SHRIKES_LANIIDAE,Northern Fiscal,,1,30.0066947933,-1.94998708459,Africa,Rwanda,RW,,Rwanda - Butamwa,2013-09-01,10:40
Lagonosticta senegala,Animalia,WAXBILLS_MUNIAS_ALLIES_ESTRILDIDAE,Red-billed Firefinch,,2,30.0037550925,-1.96136589356,Africa,Rwanda,RW,,Rwanda - Butamwa,2013-09-01,11:20
Passer griseus,Animalia,OLD_WORLD_SPARROWS_PASSERIDAE,Northern Grey-headed Sparrow,,3,30.0037550925,-1.96136589356,Africa,Rwanda,RW,,Rwanda - Butamwa,2013-09-01,11:20
Lanius humeralis,Animalia,SHRIKES_LANIIDAE,Northern Fiscal,,1,30.0037550925,-1.96136589356,Africa,Rwanda,RW,,Rwanda - Butamwa,2013-09-01,11:20
Ploceus baglafecht stuhlmanni,Animalia,WEAVERS_PLOCEIDAE,Baglafecht Weaver ssp stuhlmanni,,3,30.1080286502,-1.95923567889,Africa,Rwanda,RW,,Rwanda - Kanombe,2013-09-01,08:15
Cinnyris venustus,Animalia,SUNBIRDS_NECTARINIIDAE,Variable Sunbird,,2,30.1080286502,-1.95923567889,Africa,Rwanda,RW,,Rwanda - Kanombe,2013-09-01,08:15
Cossypha heuglini,Animalia,OLD_WORLD_FLYCATCHERS_MUSCICAPIDAE,White-browed Robin-Chat,,1,30.1080286502,-1.95923567889,Africa,Rwanda,RW,,Rwanda - Kanombe,2013-09-01,08:15
Pycnonotus tricolor,Animalia,BULBULS_PYCNONOTIDAE,Dark-capped Bulbul,,4,30.1080286502,-1.95923567889,Africa,Rwanda,RW,,Rwanda - Kanombe,2013-09-01,08:15
Syncerus caffer,Animalia,BOVIDS_BOVIDAE,African Buffalo,,1,30.7525777817,-1.84266027547,Africa,Rwanda,RW,,Rwanda - Akagera NP,2014-05-24,
Lanius excubitoroides,Animalia,SHRIKES_LANIIDAE,Grey-backed Fiscal,,1,30.7525777817,-1.84266027547,Africa,Rwanda,RW,,Rwanda - Akagera NP,2014-05-24,
Pycnonotus tricolor,Animalia,BULBULS_PYCNONOTIDAE,Dark-capped Bulbul,,1,30.7525777817,-1.84266027547,Africa,Rwanda,RW,,Rwanda - Akagera NP,2014-05-24,
Lophoceros nasutus,Animalia,HORNBILLS_BUCEROTIDAE,African Grey Hornbill,,1,30.7525777817,-1.84266027547,Africa,Rwanda,RW,,Rwanda - Akagera NP,2014-05-24,
Corythaixoides personatus,Animalia,TURACOS_MUSOPHAGIDAE,Bare-faced Go-away-bird,,1,30.7525777817,-1.84266027547,Africa,Rwanda,RW,,Rwanda - Akagera NP,2014-05-24,
Vanellus senegallus,Animalia,PLOVERS_CHARADRIIDAE,African Wattled Lapwing,,1,30.7525777817,-1.84266027547,Africa,Rwanda,RW,,Rwanda - Akagera NP,2014-05-24,
Plectropterus gambensis,Animalia,DUCKS_GEESE_AND_SWANS_ANATIDAE,Spur-winged Goose,,1,30.7525777817,-1.84266027547,Africa,Rwanda,RW,,Rwanda - Akagera NP,2014-05-24,
Phalacrocorax lucidus,Animalia,CORMORANTS_PHALACROCORACIDAE,White-breasted Cormorant,,1,30.75257778,-1.84266028,Africa,Rwanda,RW,,Rwanda - Akagera NP,2014-05-24,
Lanius humeralis,Animalia,SHRIKES_LANIIDAE,Northern Fiscal,,1,30.103456378,-1.95587576002,Africa,Rwanda,RW,,Rwanda - Rubungo,2014-05-23,
Terpsiphone viridis,Animalia,MONARCHS_MONARCHIDAE,African Paradise Flycatcher,,1,30.103456378,-1.95587576002,Africa,Rwanda,RW,,Rwanda - Rubungo,2014-05-23,
Cossypha heuglini,Animalia,OLD_WORLD_FLYCATCHERS_MUSCICAPIDAE,White-browed Robin-Chat,,1,30.103456378,-1.95587576002,Africa,Rwanda,RW,,Rwanda - Rubungo,2014-05-23,
Cecropis abyssinica,Animalia,SWALLOWS_HIRUNDINIDAE,Lesser Striped Swallow,,1,30.103456378,-1.95587576002,Africa,Rwanda,RW,,Rwanda - Rubungo,2014-05-23,
Ardea melanocephala,Animalia,HERONS_ARDEIDAE,Black-headed Heron,,1,30.103456378,-1.95587576002,Africa,Rwanda,RW,,Rwanda - Rubungo,2014-05-23,
Buphagus africanus,Animalia,Buphagidae,Yellow-billed Oxpecker,,20,30.7516765594,-1.79871570284,Africa,Rwanda,RW,,Rwanda - Akagera NP,2014-05-02,
Balearica regulorum,Animalia,CRANES_GRUIDAE,Grey Crowned Crane,,2,30.6720256805,-1.49671695331,Africa,Rwanda,RW,,Rwanda - Akagera NP,2014-05-03,
Milvus aegyptius parasitus,Animalia,HAWKS_AND_EAGLES_ACCIPITRIDAE,Yellow-billed Kite ssp parasitus,,15,29.2729210854,-1.73383708825,Africa,Rwanda,RW,,Rwanda - Nyamyumba,2014-03-02,07:00
Scopus umbretta,Animalia,HAMERKOP_SCOPIDAE,Hamerkop,,5,30.0996181369,-1.92662161231,Africa,Rwanda,RW,,Rwanda - Rubungo,2014-02-20,05:21
Serinus flavivertex,Animalia,FINCHES_FRINGILLIDAE,Yellow-crowned Canary,,20,29.5982556045,-1.4321075572,Africa,Rwanda,RW,,Rwanda - Kinigi,2014-01-02,
Pycnonotus tricolor,Animalia,BULBULS_PYCNONOTIDAE,Dark-capped Bulbul,,1,30.10779,-1.959277,Africa,Rwanda,RW,,Rwanda - Kanombe,2013-11-08,07:13
Cossypha heuglini,Animalia,OLD_WORLD_FLYCATCHERS_MUSCICAPIDAE,White-browed Robin-Chat,,1,30.10779,-1.959277,Africa,Rwanda,RW,,Rwanda - Kanombe,2013-11-08,07:13
Nectarinia kilimensis,Animalia,SUNBIRDS_NECTARINIIDAE,Bronzy Sunbird,,1,29.631244,-1.499819,Africa,Rwanda,RW,,Rwanda - Kigombe,2013-11-09,17:32
Ploceus insignis,Animalia,WEAVERS_PLOCEIDAE,Brown-capped Weaver,,5,29.1112241254,-2.44202195729,Africa,Rwanda,RW,,Rwanda - Gafunzo,2013-06-25,
Kobus ellipsiprymnus,Animalia,BOVIDS_BOVIDAE,Waterbuck,,1,30.741127847441724,-1.652974999999941,Africa,Rwanda,RW,,Rwanda - Akagera NP,2006-12-21,
Syncerus caffer,Animalia,BOVIDS_BOVIDAE,African Buffalo,,1,30.741127847441724,-1.652974999999941,Africa,Rwanda,RW,,Rwanda - Akagera NP,2006-12-21,
Aepyceros melampus,Animalia,BOVIDS_BOVIDAE,Impala,,1,30.741127847441724,-1.652974999999941,Africa,Rwanda,RW,,Rwanda - Akagera NP,2006-12-21,
Terathopius ecaudatus,Animalia,HAWKS_AND_EAGLES_ACCIPITRIDAE,Bateleur,,1,30.6562042097,-1.65920713864,Africa,Rwanda,RW,,Rwanda - Akagera NP,2006-12-21,
Corythaeola cristata,Animalia,TURACOS_MUSOPHAGIDAE,Great Blue Turaco,,2,29.171909093857,-2.4948243663746,Africa,Rwanda,RW,,Rwanda - Karengera,2013-06-26,
Ruwenzorornis johnstoni,Animalia,TURACOS_MUSOPHAGIDAE,Rwenzori Turaco,,2,29.171909093857,-2.4948243663746,Africa,Rwanda,RW,,Rwanda - Karengera,2013-06-26,
Colobus angolensis ruwenzorii,Animalia,OLD_WORLD_MONKEYS_CERCOPITHECIDAE,Adolf Friedrichs's Angolan Colobus,,5,29.086311087012,-2.4509842926224,Africa,Rwanda,RW,,Rwanda - Gafunzo,2013-06-24,
Lophocebus albigena,Animalia,OLD_WORLD_MONKEYS_CERCOPITHECIDAE,Grey-cheeked Mangabey,,5,29.06868159771,-2.474758869421,Africa,Rwanda,RW,,Rwanda - Karengera,2013-06-25,
Colobus angolensis ruwenzorii,Animalia,OLD_WORLD_MONKEYS_CERCOPITHECIDAE,Adolf Friedrichs's Angolan Colobus,,5,29.086311087012,-2.4509842926224,Africa,Rwanda,RW,,Rwanda - Gafunzo,2013-06-24,
Lophocebus albigena,Animalia,OLD_WORLD_MONKEYS_CERCOPITHECIDAE,Grey-cheeked Mangabey,,5,29.06868159771,-2.474758869421,Africa,Rwanda,RW,,Rwanda - Karengera,2013-06-25,
Cinnyris erythrocercus,Animalia,SUNBIRDS_NECTARINIIDAE,Red-chested Sunbird,,2,29.287717433919948,-1.6784589706404003,Africa,Rwanda,RW,,Rwanda - Rubavu,2013-05-03,
Crithagra striolata,Animalia,FINCHES_FRINGILLIDAE,Streaky Seedeater,,1,29.287717433919948,-1.6784589706404003,Africa,Rwanda,RW,,Rwanda - Rubavu,2013-05-03,
Buteo augur,Animalia,HAWKS_AND_EAGLES_ACCIPITRIDAE,Augur Buzzard,,1,29.28811969166017,-1.6762619706509794,Africa,Rwanda,RW,,Rwanda - Rubavu,2013-05-03,
Lophocebus albigena,Animalia,OLD_WORLD_MONKEYS_CERCOPITHECIDAE,Grey-cheeked Mangabey,,1,29.156802892685,-2.4830480682979,Africa,Rwanda,RW,,Rwanda - Gafunzo,2013-05-02,
Ruwenzorornis johnstoni,Animalia,TURACOS_MUSOPHAGIDAE,Rwenzori Turaco,,4,29.156802892685,-2.4830480682979,Africa,Rwanda,RW,,Rwanda - Gafunzo,2013-05-02,
Corythaeola cristata,Animalia,TURACOS_MUSOPHAGIDAE,Great Blue Turaco,,4,29.156802892685,-2.4830480682979,Africa,Rwanda,RW,,Rwanda - Gafunzo,2013-05-02,
Cryptospiza jacksoni,Animalia,WAXBILLS_MUNIAS_ALLIES_ESTRILDIDAE,Dusky Crimsonwing,,1,29.156802892685,-2.4830480682979,Africa,Rwanda,RW,,Rwanda - Gafunzo,2013-05-02,
Chamaetylas poliophrys,Animalia,OLD_WORLD_FLYCATCHERS_MUSCICAPIDAE,Red-throated Alethe,,3,29.156802892685,-2.4830480682979,Africa,Rwanda,RW,,Rwanda - Gafunzo,2013-05-02,
Plectropterus gambensis,Animalia,DUCKS_GEESE_AND_SWANS_ANATIDAE,Spur-winged Goose,,1,30.750732421875,-1.8625411403089,Africa,Rwanda,RW,,Rwanda - Akagera NP,2005-08-29,
Ardea alba,Animalia,HERONS_ARDEIDAE,Great Egret,,1,30.758800506592,-1.8390358003947,Africa,Rwanda,RW,,Rwanda - Akagera NP,2005-08-29,
Anhinga rufa,Animalia,ANHINGAS_ANHINGIDAE,African Darter,,1,30.758800506592,-1.8390358003947,Africa,Rwanda,RW,,Rwanda - Akagera NP,2005-08-29,
Leptoptilos crumenifer,Animalia,STORKS_CICONIIDAE,Marabou Stork,,1,30.71605682373,-1.8779824340695,Africa,Rwanda,RW,,Rwanda - Akagera NP,2005-08-29,
Laniarius major,Animalia,HELMETSHRIKES_BUSHSHRIKES_MALACONOTIDAE,Tropical Boubou,,1,30.71605682373,-1.8779824340695,Africa,Rwanda,RW,,Rwanda - Akagera NP,2005-08-29,
Laniarius major,Animalia,HELMETSHRIKES_BUSHSHRIKES_MALACONOTIDAE,Tropical Boubou,,1,30.066061019897,-1.9574171309773,Africa,Rwanda,RW,,Rwanda - Nyarugenge,2005-08-28,
Laniarius major,Animalia,HELMETSHRIKES_BUSHSHRIKES_MALACONOTIDAE,Tropical Boubou,,1,29.747629165649,-2.5882020348523,Africa,Rwanda,RW,,Rwanda - Ngoma,2005-08-25,
Laniarius major,Animalia,HELMETSHRIKES_BUSHSHRIKES_MALACONOTIDAE,Tropical Boubou,,1,29.272982776165,-1.734099824367,Africa,Rwanda,RW,,Rwanda - Nyamyumba,2005-08-24,
Actitis hypoleucos,Animalia,SANDPIPERS_AND_ALLIES_SCOLOPACIDAE,Common Sandpiper,,1,29.272982776165,-1.734099824367,Africa,Rwanda,RW,,Rwanda - Nyamyumba,2005-08-24,
Actitis hypoleucos,Animalia,SANDPIPERS_AND_ALLIES_SCOLOPACIDAE,Common Sandpiper,,1,29.272982776165,-1.734099824367,Africa,Rwanda,RW,,Rwanda - Nyamyumba,2005-08-23,
Laniarius major,Animalia,HELMETSHRIKES_BUSHSHRIKES_MALACONOTIDAE,Tropical Boubou,,1,29.272982776165,-1.734099824367,Africa,Rwanda,RW,,Rwanda - Nyamyumba,2005-08-23,
Actitis hypoleucos,Animalia,SANDPIPERS_AND_ALLIES_SCOLOPACIDAE,Common Sandpiper,,1,29.272982776165,-1.734099824367,Africa,Rwanda,RW,,Rwanda - Nyamyumba,2005-08-23,
Laniarius major,Animalia,HELMETSHRIKES_BUSHSHRIKES_MALACONOTIDAE,Tropical Boubou,,1,30.066404342651,-1.9573313503698,Africa,Rwanda,RW,,Rwanda - Nyarugenge,2005-08-21,
Phacochoerus africanus,Animalia,PIGS_SUIDAE,Common Warthog,,6,30.7354336035,-1.54214985846,Africa,Rwanda,RW,,Rwanda - Akagera NP,1987-05-03,
Anthreptes orientalis,Animalia,SUNBIRDS_NECTARINIIDAE,Eastern Violet-backed Sunbird,,4,30.23551814422669,-2.2190769705094886,Africa,Rwanda,RW,,Rwanda - Gashora,2011-04-02,
Pycnonotus tricolor,Animalia,BULBULS_PYCNONOTIDAE,Dark-capped Bulbul,,30,30.201573879509493,-2.0450794705171487,Africa,Rwanda,RW,,Rwanda - Kigali,2011-03-30,
Elanus caeruleus,Animalia,HAWKS_AND_EAGLES_ACCIPITRIDAE,Black-winged Kite,,2,30.23551814422669,-2.2190769705094886,Africa,Rwanda,RW,,Rwanda - Gashora,2011-04-02,
Phalacrocorax lucidus,Animalia,CORMORANTS_PHALACROCORACIDAE,White-breasted Cormorant,,10,30.74082912988974,-1.6549399999999252,Africa,Rwanda,RW,,Rwanda - Akagera NP,2011-04-01,
Motacilla aguimp,Animalia,PIPITS_EN_WAGTAILS_MOTACILLIDAE,African Pied Wagtail,,1,29.3479558646,-2.06126195541,Africa,Rwanda,RW,,Rwanda - Gitsi,2011-06-29,
Buteo augur,Animalia,HAWKS_AND_EAGLES_ACCIPITRIDAE,Augur Buzzard,,1,29.3479558646,-2.06126195541,Africa,Rwanda,RW,,Rwanda - Gitsi,2011-06-29,
Falco subbuteo,Animalia,CARACAS_AND_FALCONS_FALCONIDAE,Eurasian Hobby,,1,29.3479558646,-2.06126195541,Africa,Rwanda,RW,,Rwanda - Gitsi,2011-06-29,
Muscicapa caerulescens,Animalia,OLD_WORLD_FLYCATCHERS_MUSCICAPIDAE,Ashy Flycatcher,,1,29.3479558646,-2.06126195541,Africa,Rwanda,RW,,Rwanda - Gitsi,2011-06-29,
Turtur afer,Animalia,PIGEONS_AND_DOVES_COLUMBIDAE,Blue-spotted Wood Dove,,1,29.3479558646,-2.06126195541,Africa,Rwanda,RW,,Rwanda - Gitsi,2011-06-28,
Merops oreobates,Animalia,BEEEATERS_MEROPIDAE,Cinnamon-chested Bee-eater,,5,29.3498441398,-2.06100462994,Africa,Rwanda,RW,,Rwanda - Gitsi,2011-06-28,
Malaconotus blanchoti,Animalia,HELMETSHRIKES_BUSHSHRIKES_MALACONOTIDAE,Grey-headed Bushshrike,,1,29.3498441398,-2.06100462994,Africa,Rwanda,RW,,Rwanda - Gitsi,2011-06-28,
Cercopithecus mitis kandti,Animalia,OLD_WORLD_MONKEYS_CERCOPITHECIDAE,Golden Monkey,,50,29.5384227328,-1.42765644998,Africa,Rwanda,RW,,Rwanda - Kinigi,2011-06-28,
Motacilla capensis,Animalia,PIPITS_EN_WAGTAILS_MOTACILLIDAE,Cape Wagtail,,1,29.6311198764,-1.50021115252,Africa,Rwanda,RW,,Rwanda - Kigombe,2011-06-28,
Motacilla aguimp,Animalia,PIPITS_EN_WAGTAILS_MOTACILLIDAE,African Pied Wagtail,,1,29.6311198764,-1.50021115252,Africa,Rwanda,RW,,Rwanda - Kigombe,2011-06-28,
Nectarinia kilimensis,Animalia,SUNBIRDS_NECTARINIIDAE,Bronzy Sunbird,,1,29.6311198764,-1.50021115252,Africa,Rwanda,RW,,Rwanda - Kigombe,2011-06-27,
Crithagra striolata,Animalia,FINCHES_FRINGILLIDAE,Streaky Seedeater,,1,30.0691997209,-1.93623986313,Africa,Rwanda,RW,,Rwanda - Nyarugenge,2011-06-27,
Laniarius major,Animalia,HELMETSHRIKES_BUSHSHRIKES_MALACONOTIDAE,Tropical Boubou,,2,30.0691997209,-1.93623986313,Africa,Rwanda,RW,,Rwanda - Nyarugenge,2011-06-27,
Passer griseus,Animalia,OLD_WORLD_SPARROWS_PASSERIDAE,Northern Grey-headed Sparrow,,1,30.0621219138,-1.94600501135,Africa,Rwanda,RW,,Rwanda - Nyarugenge,2011-06-27,
Lagonosticta senegala,Animalia,WAXBILLS_MUNIAS_ALLIES_ESTRILDIDAE,Red-billed Firefinch,,2,30.0621219138,-1.94600501135,Africa,Rwanda,RW,,Rwanda - Nyarugenge,2011-06-27,
Corythornis cristatus,Animalia,KINGFISHERS_ALCEDINIDAE,Malachite Kingfisher,,1,29.7699451447,-1.39163963014,Africa,Rwanda,RW,,Rwanda - Kidaho,2010-03-20,14:00
Actitis hypoleucos,Animalia,SANDPIPERS_AND_ALLIES_SCOLOPACIDAE,Common Sandpiper,,1,29.2600269318,-1.71952328461,Africa,Rwanda,RW,,Rwanda - Nyamyumba,2004-04-10,
Pycnonotus tricolor,Animalia,BULBULS_PYCNONOTIDAE,Dark-capped Bulbul,,1,29.3396759033,-2.04268085287,Africa,Rwanda,RW,,Rwanda,1988-04-23,
Lanius humeralis,Animalia,SHRIKES_LANIIDAE,Northern Fiscal,,1,29.7524356842,-2.61109524366,Africa,Rwanda,RW,,Rwanda,,
Streptopelia capicola,Animalia,PIGEONS_AND_DOVES_COLUMBIDAE,Ring-necked Dove,,1,29.6363067627,-1.50014900682,Africa,Rwanda,RW,,Rwanda,2009-07-22,
Motacilla flava,Animalia,PIPITS_EN_WAGTAILS_MOTACILLIDAE,Western Yellow Wagtail,,1,29.6363067627,-1.50014900682,Africa,Rwanda,RW,,Rwanda,2009-07-22,
Corvus albus,Animalia,CROWS_AND_JAYS_CORVIDAE,Pied Crow,,1,29.7674560547,-1.48504793126,Africa,Rwanda,RW,,Rwanda,2009-07-22,
Milvus aegyptius,Animalia,HAWKS_AND_EAGLES_ACCIPITRIDAE,Yellow-billed Kite,,1,29.7715759277,-1.47063317194,Africa,Rwanda,RW,,Rwanda,2009-07-22,
Merops pusillus,Animalia,BEEEATERS_MEROPIDAE,Little Bee-eater,,1,29.7715759277,-1.47063317194,Africa,Rwanda,RW,,Rwanda,2009-07-22,
Terpsiphone viridis,Animalia,MONARCHS_MONARCHIDAE,African Paradise Flycatcher,,1,29.7715759277,-1.47063317194,Africa,Rwanda,RW,,Rwanda,2009-07-22,
Cinnyris regius,Animalia,SUNBIRDS_NECTARINIIDAE,Regal Sunbird,,1,29.7715759277,-1.47063317194,Africa,Rwanda,RW,,Rwanda,2009-07-22,
Zosterops senegalensis,Animalia,WHITEEYES_ZOSTEROPIDAE,Northern Yellow White-eye,,1,29.7715759277,-1.47063317194,Africa,Rwanda,RW,,Rwanda,2009-07-22,
Balearica regulorum,Animalia,CRANES_GRUIDAE,Grey Crowned Crane,,2,29.6315002441,-1.50220823635,Africa,Rwanda,RW,,Rwanda,2009-07-22,
Crithagra striolata,Animalia,FINCHES_FRINGILLIDAE,Streaky Seedeater,,1,29.6315002441,-1.50220823635,Africa,Rwanda,RW,,Rwanda,2009-07-22,
Nectarinia kilimensis,Animalia,SUNBIRDS_NECTARINIIDAE,Bronzy Sunbird,,1,29.6315002441,-1.50220823635,Africa,Rwanda,RW,,Rwanda,2009-07-22,
Passer griseus,Animalia,OLD_WORLD_SPARROWS_PASSERIDAE,Northern Grey-headed Sparrow,,1,29.6315002441,-1.50220823635,Africa,Rwanda,RW,,Rwanda,2009-07-22,
Elminia albicauda,Animalia,Stenostiridae,White-tailed Blue Flycatcher,,1,29.6315002441,-1.50220823635,Africa,Rwanda,RW,,Rwanda,2009-07-22,
Lagonosticta senegala,Animalia,WAXBILLS_MUNIAS_ALLIES_ESTRILDIDAE,Red-billed Firefinch,,1,30.0531005859,-1.9483243622,Africa,Rwanda,RW,,Rwanda,2009-07-22,
Hirundo smithii,Animalia,SWALLOWS_HIRUNDINIDAE,Wire-tailed Swallow,,1,30.055847168,-1.9483243622,Africa,Rwanda,RW,,Rwanda,2009-07-22,
Junonia oenone,Animalia,BRUSHFOOTED_BUTTERFLIES_NYMPHALIDAE,Dark Blue Pansy,,1,30.0489807129,-1.94489311592,Africa,Rwanda,RW,,Rwanda,2009-07-22,
Phylloscopus laetus laetus,Animalia,LEAF_WARBLERS_AND_ALLIES_PHYLLOSCOPIDAE,Red-faced Woodland Warbler ssp laetus,,1,29.328002929688,-2.5370123584,Africa,Rwanda,RW,,Rwanda,2008-02-17,
Merops pusillus meridionalis,Animalia,BEEEATERS_MEROPIDAE,Little Bee-eater ssp meridionalis,,1,29.632,-1.502,Africa,Rwanda,RW,,Rwanda - Kigombe,2009-07-22,
Crithagra striolata graueri,Animalia,FINCHES_FRINGILLIDAE,Streaky Seedeater ssp graueri,,1,29.632,-1.502,Africa,Rwanda,RW,,Rwanda - Kigombe,2009-07-22,
Passer griseus,Animalia,OLD_WORLD_SPARROWS_PASSERIDAE,Northern Grey-headed Sparrow,,1,30.11046052,-1.95518898,Africa,Rwanda,RW,,Rwanda - Rubungo,2019-04-21,
Corvus albus,Animalia,CROWS_AND_JAYS_CORVIDAE,Pied Crow,,2,30.11046052,-1.95518898,Africa,Rwanda,RW,,Rwanda - Rubungo,2019-04-21,
Ardea melanocephala,Animalia,HERONS_ARDEIDAE,Black-headed Heron,,2,30.11046052,-1.95518898,Africa,Rwanda,RW,,Rwanda - Rubungo,2019-04-21,
Turdus olivaceus,Animalia,THRUSHES_TURDIDAE,Olive Thrush,,1,29.64548349,-1.38597893,Africa,Rwanda,RW,,Rwanda - Kinigi,2019-04-22,
Buteo augur,Animalia,HAWKS_AND_EAGLES_ACCIPITRIDAE,Augur Buzzard,,1,29.73992228,-1.34135497,Africa,Rwanda,RW,,Rwanda - Kidaho,2019-04-21,
Crithagra striolata,Animalia,FINCHES_FRINGILLIDAE,Streaky Seedeater,,1,29.73978192,-1.34098528,Africa,Rwanda,RW,,Rwanda - Kidaho,2019-04-21,
Saxicola torquatus,Animalia,OLD_WORLD_FLYCATCHERS_MUSCICAPIDAE,African Stonechat,,2,29.73981142,-1.34099869,Africa,Rwanda,RW,,Rwanda - Kidaho,2019-04-21,
Motacilla aguimp,Animalia,PIPITS_EN_WAGTAILS_MOTACILLIDAE,African Pied Wagtail,,1,29.73997235,-1.34105589,Africa,Rwanda,RW,,Rwanda - Kidaho,2019-04-21,
Lagonosticta senegala,Animalia,WAXBILLS_MUNIAS_ALLIES_ESTRILDIDAE,Red-billed Firefinch,,2,29.7398302,-1.34091378,Africa,Rwanda,RW,,Rwanda - Kidaho,2019-04-21,
Bostrychia hagedash,Animalia,IBISSES_AND_SPOONBILLS_THRESKIORNITHIDAE,Hadada Ibis,,1,29.7398302,-1.34091378,Africa,Rwanda,RW,,Rwanda - Kidaho,2019-04-21,
Colobus angolensis,Animalia,OLD_WORLD_MONKEYS_CERCOPITHECIDAE,Angolan Colobus,,1,29.272660500000068,-2.555454999999938,Africa,Rwanda,RW,,Rwanda - Nyungwe NP,2006-08-14,
Papio anubis,Animalia,OLD_WORLD_MONKEYS_CERCOPITHECIDAE,Olive Baboon,,1,30.74082912988974,-1.6549399999999252,Africa,Rwanda,RW,,Rwanda - Akagera NP,2006-08-15,
Equus quagga,Animalia,HORSES_ASSES_AND_ZEBRAS_EQUIDAE,Plains Zebra,,1,30.74082912988974,-1.6549399999999252,Africa,Rwanda,RW,,Rwanda - Akagera NP,2006-08-15,
Aepyceros melampus,Animalia,BOVIDS_BOVIDAE,Impala,,1,30.74082912988974,-1.6549399999999252,Africa,Rwanda,RW,,Rwanda - Akagera NP,2006-08-15,
Damaliscus lunatus,Animalia,BOVIDS_BOVIDAE,Tsessebe s.l.,,1,30.74082912988974,-1.6549399999999252,Africa,Rwanda,RW,,Rwanda - Akagera NP,2006-08-15,
Merops oreobates,Animalia,BEEEATERS_MEROPIDAE,Cinnamon-chested Bee-eater,,1,30.73105574,-1.82068812,Africa,Rwanda,RW,,Rwanda - Akagera NP,1990-08-09,
Kobus ellipsiprymnus defassa,Animalia,BOVIDS_BOVIDAE,Defassa Waterbuck,,4,30.73105574,-1.82068812,Africa,Rwanda,RW,,Rwanda - Akagera NP,1990-08-08,
Ceryle rudis,Animalia,KINGFISHERS_ALCEDINIDAE,Pied Kingfisher,,1,30.7365489,-1.88725787,Africa,Rwanda,RW,,Rwanda - Akagera NP,1990-08-08,
Haliaeetus vocifer,Animalia,HAWKS_AND_EAGLES_ACCIPITRIDAE,African Fish Eagle,,1,30.76264143,-1.8268648,Africa,Rwanda,RW,,Rwanda - Akagera NP,1990-08-08,
Lophaetus occipitalis,Animalia,HAWKS_AND_EAGLES_ACCIPITRIDAE,Long-crested Eagle,,1,30.72762251,-1.8611793,Africa,Rwanda,RW,,Rwanda - Akagera NP,1990-08-08,
Aves indet.,Animalia,unknown,Unidentified bird,,1,29.35485755,-2.06736869,Africa,Rwanda,RW,,Rwanda - Gitsi,2019-05-05,13:35
Aves indet.,Animalia,unknown,Unidentified bird,,1,29.35585364,-2.06708064,Africa,Rwanda,RW,,Rwanda - Gitsi,2019-05-05,13:26
Aves indet.,Animalia,unknown,Unidentified bird,,1,29.32460636,-2.03193648,Africa,Rwanda,RW,,Rwanda - Mabanza,2019-05-04,09:09
Aves indet.,Animalia,unknown,Unidentified bird,,5,29.6883458,-1.84546295,Africa,Rwanda,RW,,Rwanda - Nyakabanda,2019-04-14,17:56
Cisticola chubbi,Animalia,CISTICOLAS_AND_ALLIES_CISTICOLIDAE,Chubb's Cisticola,,5,29.69574758,-1.84759226,Africa,Rwanda,RW,,Rwanda - Nyakabanda,2019-04-14,16:46
Cisticola chubbi,Animalia,CISTICOLAS_AND_ALLIES_CISTICOLIDAE,Chubb's Cisticola,,2,29.68911768,-1.84757022,Africa,Rwanda,RW,,Rwanda - Nyakabanda,2019-04-14,15:35
Cisticola chubbi,Animalia,CISTICOLAS_AND_ALLIES_CISTICOLIDAE,Chubb's Cisticola,,3,29.68732963,-1.85200042,Africa,Rwanda,RW,,Rwanda - Nyakabanda,2019-04-13,16:09
Cisticola chubbi,Animalia,CISTICOLAS_AND_ALLIES_CISTICOLIDAE,Chubb's Cisticola,,5,29.74887719,-2.10091588,Africa,Rwanda,RW,,Rwanda - Nyamabuye,2019-04-06,17:33
Aves indet.,Animalia,unknown,Unidentified bird,,1,29.74887719,-2.10091588,Africa,Rwanda,RW,,Rwanda - Nyamabuye,2019-04-06,17:29
Aves indet.,Animalia,unknown,Unidentified bird,,1,29.67987329,-1.85391564,Africa,Rwanda,RW,,Rwanda - Nyakabanda,2019-03-31,13:51
Lanius humeralis,Animalia,SHRIKES_LANIIDAE,Northern Fiscal,,1,29.67203638,-1.85387272,Africa,Rwanda,RW,,Rwanda - Nyakabanda,2019-03-31,10:47
Aves indet.,Animalia,unknown,Unidentified bird,,1,29.68335032,-1.85285624,Africa,Rwanda,RW,,Rwanda - Nyakabanda,2019-03-31,10:59
Ploceus superciliosus,Animalia,WEAVERS_PLOCEIDAE,Compact Weaver,,1,29.68335032,-1.85285624,Africa,Rwanda,RW,,Rwanda - Nyakabanda,2019-03-31,10:56
Lanius humeralis,Animalia,SHRIKES_LANIIDAE,Northern Fiscal,,2,29.68427896,-1.85204061,Africa,Rwanda,RW,,Rwanda - Nyakabanda,2019-03-29,17:09
Aves indet.,Animalia,unknown,Unidentified bird,,1,29.68739973,-1.84796857,Africa,Rwanda,RW,,Rwanda - Nyakabanda,2019-03-26,14:14
Meropidae spec.,Animalia,BEEEATERS_MEROPIDAE,Bee-eater unknown,,1,29.69055689,-1.84349767,Africa,Rwanda,RW,,Rwanda - Nyakabanda,2019-03-17,12:58
Lanius humeralis,Animalia,SHRIKES_LANIIDAE,Northern Fiscal,,1,29.67662074,-1.85365163,Africa,Rwanda,RW,,Rwanda - Nyakabanda,2019-03-16,11:29
Lanius humeralis,Animalia,SHRIKES_LANIIDAE,Northern Fiscal,,1,29.67843035,-1.85262686,Africa,Rwanda,RW,,Rwanda - Nyakabanda,2019-03-16,11:22
Cisticola chubbi,Animalia,CISTICOLAS_AND_ALLIES_CISTICOLIDAE,Chubb's Cisticola,,2,29.68775804,-1.85150248,Africa,Rwanda,RW,,Rwanda - Nyakabanda,2019-03-16,10:25
Ardea melanocephala,Animalia,HERONS_ARDEIDAE,Black-headed Heron,,1,30.07692991,-1.94381504,Africa,Rwanda,RW,,Rwanda - Nyarugenge,2019-02-27,16:43
Ardea melanocephala,Animalia,HERONS_ARDEIDAE,Black-headed Heron,,1,30.09548686,-1.93923188,Africa,Rwanda,RW,,Rwanda - Rubungo,2019-02-26,16:30
Bradypterus centralis centralis,Animalia,Locustellidae,Highland Rush Warbler ssp centralis,,2,30.6815795898438,-1.90853095054626,Africa,Rwanda,RW,,Rwanda - Rukara,2019-02-20,11:43
Bradypterus centralis centralis,Animalia,Locustellidae,Highland Rush Warbler ssp centralis,,1,30.2568302154541,-2.20690870285034,Africa,Rwanda,RW,,Rwanda - Gashora,2019-02-22,08:12
Corvus albus,Animalia,CROWS_AND_JAYS_CORVIDAE,Pied Crow,,10,30.06738435,-1.94842103,Africa,Rwanda,RW,,Rwanda - Nyarugenge,2019-02-23,17:53
Bradypterus centralis centralis,Animalia,Locustellidae,Highland Rush Warbler ssp centralis,,2,29.8365955352783,-1.42271745204926,Africa,Rwanda,RW,,Rwanda - Cyeru,2019-02-14,09:50
Bradypterus centralis centralis,Animalia,Locustellidae,Highland Rush Warbler ssp centralis,,1,29.1190319061279,-2.33844304084778,Africa,Rwanda,RW,,Rwanda - Kirambo,2019-02-10,08:59
Lanius humeralis,Animalia,SHRIKES_LANIIDAE,Northern Fiscal,,1,28.9036064147949,-2.43240213394165,Africa,Rwanda,RW,,Rwanda - Kamembe,2019-02-08,14:12
Corythaeola cristata,Animalia,TURACOS_MUSOPHAGIDAE,Great Blue Turaco,,4,29.1054210662842,-2.4695417881012,Africa,Rwanda,RW,,Rwanda - Gafunzo,2019-02-09,08:38
Ruwenzorornis johnstoni,Animalia,TURACOS_MUSOPHAGIDAE,Rwenzori Turaco,,1,29.1528720855713,-2.48993921279907,Africa,Rwanda,RW,,Rwanda - Karengera,2019-02-09,12:33
Ceblepyris caesius,Animalia,CUCKOOSHRIKES_CAMPEPHAGIDAE,Grey Cuckooshrike,,1,29.1551647186279,-2.4910261631012,Africa,Rwanda,RW,,Rwanda - Karengera,2019-02-09,13:05
Phoeniculus bollei,Animalia,WOOD_HOOPOES_PHOENICULIDAE,White-headed Wood Hoopoe,,1,29.1551647186279,-2.49102783203125,Africa,Rwanda,RW,,Rwanda - Karengera,2019-02-09,13:05
Muscicapa adusta,Animalia,OLD_WORLD_FLYCATCHERS_MUSCICAPIDAE,African Dusky Flycatcher,,2,29.1551761627197,-2.49100208282471,Africa,Rwanda,RW,,Rwanda - Karengera,2019-02-09,13:05
Pogonocichla stellata,Animalia,OLD_WORLD_FLYCATCHERS_MUSCICAPIDAE,White-starred Robin,,1,29.1525344848633,-2.48117208480835,Africa,Rwanda,RW,,Rwanda - Gafunzo,2019-02-09,15:13
Batis diops,Animalia,WATTLEEYES_BATISES_PLATYSTEIRIDAE,Rwenzori Batis,,2,29.1551780700684,-2.49082064628601,Africa,Rwanda,RW,,Rwanda - Karengera,2019-02-09,16:13
Cisticola chubbi,Animalia,CISTICOLAS_AND_ALLIES_CISTICOLIDAE,Chubb's Cisticola,,2,29.7551078796387,-2.10802340507507,Africa,Rwanda,RW,,Rwanda - Nyamabuye,2019-02-04,14:01
Serinus flavivertex,Animalia,FINCHES_FRINGILLIDAE,Yellow-crowned Canary,,1,29.4173336029053,-2.52621412277222,Africa,Rwanda,RW,,Rwanda - Mudasomwa,2019-02-05,09:39
Passer griseus,Animalia,OLD_WORLD_SPARROWS_PASSERIDAE,Northern Grey-headed Sparrow,,2,30.1235847473145,-1.97081327438354,Africa,Rwanda,RW,,Rwanda - Kanombe,2019-02-02,10:50
Pycnonotus tricolor,Animalia,BULBULS_PYCNONOTIDAE,Dark-capped Bulbul,,1,30.1235694885254,-1.9708399772644,Africa,Rwanda,RW,,Rwanda - Kanombe,2019-02-02,10:52
Bradypterus centralis centralis,Animalia,Locustellidae,Highland Rush Warbler ssp centralis,,1,30.0416412353516,-1.94155514240265,Africa,Rwanda,RW,,Rwanda - Nyarugenge,2019-02-03,09:23
Bradypterus centralis centralis,Animalia,Locustellidae,Highland Rush Warbler ssp centralis,,1,30.18971824646,-1.98745894432068,Africa,Rwanda,RW,,Rwanda - Kanombe,2019-02-03,14:45
Acraea disjuncta,Animalia,BRUSHFOOTED_BUTTERFLIES_NYMPHALIDAE,,,1,29.272660500000068,-2.555454999999938,Africa,Rwanda,RW,,Rwanda - Nyungwe NP,2011-08-02,
Anoba spec.,Animalia,EREBIDAE,,,1,29.272660500000068,-2.555454999999938,Africa,Rwanda,RW,,Rwanda - Nyungwe NP,2011-08-02,
Prasinocyma spec.,Animalia,Geometridae,,,1,29.272660500000068,-2.555454999999938,Africa,Rwanda,RW,,Rwanda - Nyungwe NP,2011-08-02,
Heterocera indet.,Animalia,MOTH_MACRO,Unidentified Moth,,1,29.272660500000068,-2.555454999999938,Africa,Rwanda,RW,,Rwanda - Nyungwe NP,2011-08-02,
Precis tugela,Animalia,BRUSHFOOTED_BUTTERFLIES_NYMPHALIDAE,African leaf butterfly,,1,29.272660500000068,-2.555454999999938,Africa,Rwanda,RW,,Rwanda - Nyungwe NP,2011-07-31,
Cleora spec.,Animalia,Geometridae,,,1,29.272660500000068,-2.555454999999938,Africa,Rwanda,RW,,Rwanda - Nyungwe NP,2011-07-31,
Pseudoclanis spec.,Animalia,Sphingidae,,,1,29.272660500000068,-2.555454999999938,Africa,Rwanda,RW,,Rwanda - Nyungwe NP,2011-07-31,
Acraea oreas,Animalia,BRUSHFOOTED_BUTTERFLIES_NYMPHALIDAE,,,1,29.272660500000068,-2.555454999999938,Africa,Rwanda,RW,,Rwanda - Nyungwe NP,2011-07-31,
Cleora spec.,Animalia,Geometridae,,,1,29.272660500000068,-2.555454999999938,Africa,Rwanda,RW,,Rwanda - Nyungwe NP,2011-07-31,
Dichromia mutilata,Animalia,EREBIDAE,,,1,29.272660500000068,-2.555454999999938,Africa,Rwanda,RW,,Rwanda - Nyungwe NP,2011-07-31,
Melinoessa spec.,Animalia,Geometridae,,,1,29.272660500000068,-2.555454999999938,Africa,Rwanda,RW,,Rwanda - Nyungwe NP,2011-07-31,
Prasinocyma spec.,Animalia,Geometridae,,,1,29.272660500000068,-2.555454999999938,Africa,Rwanda,RW,,Rwanda - Nyungwe NP,2011-07-31,
Pseudothyretes kamitugensis,Animalia,EREBIDAE,,,1,29.272660500000068,-2.555454999999938,Africa,Rwanda,RW,,Rwanda - Nyungwe NP,2011-07-31,
Cyana nussi,Animalia,EREBIDAE,,,1,29.272660500000068,-2.555454999999938,Africa,Rwanda,RW,,Rwanda - Nyungwe NP,2011-07-31,
Galtara spec.,Animalia,EREBIDAE,,,1,29.272660500000068,-2.555454999999938,Africa,Rwanda,RW,,Rwanda - Nyungwe NP,2011-07-31,
Ploceus insignis,Animalia,WEAVERS_PLOCEIDAE,Brown-capped Weaver,,5,29.1112241254,-2.44202195729,Africa,Rwanda,RW,,Rwanda - Gafunzo,2013-06-25,
Corythaeola cristata,Animalia,TURACOS_MUSOPHAGIDAE,Great Blue Turaco,,2,29.171909093857,-2.4948243663746,Africa,Rwanda,RW,,Rwanda - Karengera,2013-06-26,
Ruwenzorornis johnstoni,Animalia,TURACOS_MUSOPHAGIDAE,Rwenzori Turaco,,2,29.171909093857,-2.4948243663746,Africa,Rwanda,RW,,Rwanda - Karengera,2013-06-26,
Hemidactylus mabouia,Animalia,Gekkonidae,Tropical House Gecko,,1,29.23461378,-1.69672391,Africa,Rwanda,RW,,Rwanda,2017-02-21,
Leptoptilos crumenifer,Animalia,STORKS_CICONIIDAE,Marabou Stork,,1,29.21599474,-2.48978401,Africa,Rwanda,RW,,Rwanda - Karengera,2006-08-13,
Corythaeola cristata,Animalia,TURACOS_MUSOPHAGIDAE,Great Blue Turaco,,1,29.23556328,-2.50412814,Africa,Rwanda,RW,,Rwanda - Nyungwe NP,2016-06-17,
Catharanthus roseus,Plantae,APOCYNACEAE,Madagascar rosy periwinkle,,1,29.32385806,-2.03071622,Africa,Rwanda,RW,,Rwanda - Mabanza,2017-02-25,
Asystasia gangetica,Plantae,ACANTHACEAE,Philippine violet,,1,30.02895718,-1.98448078,Africa,Rwanda,RW,,Rwanda - Butamwa,2017-02-19,
Leonotis nepetifolia,Plantae,Lamiaceae,Christmas candlestick,,1,30.06587687,-1.97266997,Africa,Rwanda,RW,,Rwanda - Nyarugenge,2017-02-17,
Lantana camara,Plantae,VERBENACEAE,Largeleaf lantana,,1,30.02917176,-1.98464697,Africa,Rwanda,RW,,Rwanda - Butamwa,2017-02-19,
Phalacrocorax lucidus,Animalia,CORMORANTS_PHALACROCORACIDAE,White-breasted Cormorant,,1,29.33851015,-2.05856025,Africa,Rwanda,RW,,Rwanda - Gitsi,2017-02-25,
Balearica regulorum gibbericeps,Animalia,CRANES_GRUIDAE,Grey Crowned Crane ssp gibbericeps,,2,29.23457983,-1.69678561,Africa,Rwanda,RW,,Rwanda,2017-02-21,
Ardea melanocephala,Animalia,HERONS_ARDEIDAE,Black-headed Heron,,1,30.06679427,-1.94609422,Africa,Rwanda,RW,,Rwanda - Nyarugenge,2017-02-18,
Corvus albus,Animalia,CROWS_AND_JAYS_CORVIDAE,Pied Crow,,1,30.06025496,-1.9314603,Africa,Rwanda,RW,,Rwanda - Nyarugenge,2017-02-17,
Passer griseus,Animalia,OLD_WORLD_SPARROWS_PASSERIDAE,Northern Grey-headed Sparrow,,1,30.06582323,-1.97266193,Africa,Rwanda,RW,,Rwanda - Nyarugenge,2017-02-17,
Cossypha heuglini,Animalia,OLD_WORLD_FLYCATCHERS_MUSCICAPIDAE,White-browed Robin-Chat,,1,30.06582323,-1.97266193,Africa,Rwanda,RW,,Rwanda - Nyarugenge,2017-02-17,
Funisciurus carruthersi,Animalia,SQUIRRELS_CHIPMUNKS_AND_PRAIRIEDOGS_SCIURIDAE,Carruther's Mountain Squirrel,,1,29.21311855,-2.50136274,Africa,Rwanda,RW,,Rwanda - Karengera,2017-01-16,
Cecropis daurica,Animalia,SWALLOWS_HIRUNDINIDAE,Red-rumped Swallow,,1,29.09364223,-2.45334248,Africa,Rwanda,RW,,Rwanda - Gafunzo,2017-01-12,
Estrilda paludicola,Animalia,WAXBILLS_MUNIAS_ALLIES_ESTRILDIDAE,Fawn-breasted Waxbill,,2,29.09364223,-2.45334248,Africa,Rwanda,RW,,Rwanda - Gafunzo,2017-01-12,
Ploceus bicolor,Animalia,WEAVERS_PLOCEIDAE,Dark-backed Weaver,,1,29.2135638,-2.47304654,Africa,Rwanda,RW,,Rwanda - Kirambo,2017-01-16,
Laniarius poensis,Animalia,HELMETSHRIKES_BUSHSHRIKES_MALACONOTIDAE,Mountain Sooty Boubou,,1,29.2135638,-2.47304654,Africa,Rwanda,RW,,Rwanda - Kirambo,2017-01-16,
Hirundo angolensis,Animalia,SWALLOWS_HIRUNDINIDAE,Angolan Swallow,,1,29.09511745,-2.45932634,Africa,Rwanda,RW,,Rwanda - Gafunzo,2017-01-14,
Dryoscopus gambensis,Animalia,HELMETSHRIKES_BUSHSHRIKES_MALACONOTIDAE,Northern Puffback,,1,29.20034587,-2.47870607,Africa,Rwanda,RW,,Rwanda - Karengera,2017-01-15,
Apalis porphyrolaema,Animalia,CISTICOLAS_AND_ALLIES_CISTICOLIDAE,Chestnut-throated Apalis,,1,29.20034587,-2.47870607,Africa,Rwanda,RW,,Rwanda - Karengera,2017-01-15,
Paraxerus boehmi,Animalia,SQUIRRELS_CHIPMUNKS_AND_PRAIRIEDOGS_SCIURIDAE,Boehm's Bush Squirrel,,1,29.09975231,-2.46121288,Africa,Rwanda,RW,,Rwanda - Gafunzo,2017-01-14,
Cercopithecus mitis,Animalia,OLD_WORLD_MONKEYS_CERCOPITHECIDAE,Blue Monkey,,1,29.20005888,-2.47819023,Africa,Rwanda,RW,,Rwanda - Karengera,2017-01-15,
Telophorus dohertyi,Animalia,HELMETSHRIKES_BUSHSHRIKES_MALACONOTIDAE,Doherty's Bushshrike,,1,29.20005888,-2.47819023,Africa,Rwanda,RW,,Rwanda - Karengera,2017-01-15,
Cisticola chubbi,Animalia,CISTICOLAS_AND_ALLIES_CISTICOLIDAE,Chubb's Cisticola,,1,29.20005888,-2.47819023,Africa,Rwanda,RW,,Rwanda - Karengera,2017-01-14,
Ceblepyris caesius,Animalia,CUCKOOSHRIKES_CAMPEPHAGIDAE,Grey Cuckooshrike,,1,29.20005888,-2.47819023,Africa,Rwanda,RW,,Rwanda - Karengera,2017-01-14,
Crithagra frontalis,Animalia,FINCHES_FRINGILLIDAE,Western Citril,,1,29.09706473,-2.46052955,Africa,Rwanda,RW,,Rwanda - Gafunzo,2017-01-14,
Pogonocichla stellata,Animalia,OLD_WORLD_FLYCATCHERS_MUSCICAPIDAE,White-starred Robin,,1,29.199908,-2.47836073,Africa,Rwanda,RW,,Rwanda - Karengera,2017-01-14,
Corvus albicollis,Animalia,CROWS_AND_JAYS_CORVIDAE,White-necked Raven,,2,29.199908,-2.47836073,Africa,Rwanda,RW,,Rwanda - Karengera,2017-01-14,
Melaniparus fasciiventer,Animalia,TITS_PARIDAE,Stripe-breasted Tit,,1,29.199908,-2.47836073,Africa,Rwanda,RW,,Rwanda - Karengera,2017-01-14,
Nigrita canicapillus,Animalia,WAXBILLS_MUNIAS_ALLIES_ESTRILDIDAE,Grey-headed Nigrita,,1,29.09654707,-2.45160734,Africa,Rwanda,RW,,Rwanda - Gafunzo,2017-01-13,
Cryptospiza jacksoni,Animalia,WAXBILLS_MUNIAS_ALLIES_ESTRILDIDAE,Dusky Crimsonwing,,1,29.09654707,-2.45160734,Africa,Rwanda,RW,,Rwanda - Gafunzo,2017-01-13,
Merops oreobates,Animalia,BEEEATERS_MEROPIDAE,Cinnamon-chested Bee-eater,,1,29.104186,-2.47064417,Africa,Rwanda,RW,,Rwanda - Gafunzo,2017-01-13,
Prinia bairdii,Animalia,CISTICOLAS_AND_ALLIES_CISTICOLIDAE,Banded Prinia,,1,29.10075277,-2.4685004,Africa,Rwanda,RW,,Rwanda - Gafunzo,2017-01-13,
Arizelocichla kikuyuensis,Animalia,BULBULS_PYCNONOTIDAE,Olive-breasted Greenbul,,1,29.10075277,-2.4685004,Africa,Rwanda,RW,,Rwanda - Gafunzo,2017-01-13,
Eurillas latirostris,Animalia,BULBULS_PYCNONOTIDAE,Yellow-whiskered Greenbul,,1,29.10075277,-2.4685004,Africa,Rwanda,RW,,Rwanda - Gafunzo,2017-01-13,
Melaenornis ardesiacus,Animalia,OLD_WORLD_FLYCATCHERS_MUSCICAPIDAE,Yellow-eyed Black Flycatcher,,1,29.10075277,-2.4685004,Africa,Rwanda,RW,,Rwanda - Gafunzo,2017-01-13,
Cisticola chubbi,Animalia,CISTICOLAS_AND_ALLIES_CISTICOLIDAE,Chubb's Cisticola,,1,29.10058111,-2.46575636,Africa,Rwanda,RW,,Rwanda - Gafunzo,2017-01-13,
Estrilda nonnula,Animalia,WAXBILLS_MUNIAS_ALLIES_ESTRILDIDAE,Black-crowned Waxbill,,1,29.09465879,-2.46001102,Africa,Rwanda,RW,,Rwanda - Gafunzo,2017-01-13,
Ruwenzorornis johnstoni,Animalia,TURACOS_MUSOPHAGIDAE,Rwenzori Turaco,,1,29.10135359,-2.47295944,Africa,Rwanda,RW,,Rwanda - Gafunzo,2017-01-13,
Corythaeola cristata,Animalia,TURACOS_MUSOPHAGIDAE,Great Blue Turaco,,5,29.10135359,-2.47295944,Africa,Rwanda,RW,,Rwanda - Gafunzo,2017-01-13,
Muscicapa adusta,Animalia,OLD_WORLD_FLYCATCHERS_MUSCICAPIDAE,African Dusky Flycatcher,,1,29.09691855,-2.4519068,Africa,Rwanda,RW,,Rwanda - Gafunzo,2017-01-12,
Psalidoprocne pristoptera,Animalia,SWALLOWS_HIRUNDINIDAE,Black Saw-wing,,1,29.0909104,-2.44684741,Africa,Rwanda,RW,,Rwanda - Gafunzo,2017-01-12,
Crithagra striolata,Animalia,FINCHES_FRINGILLIDAE,Streaky Seedeater,,1,29.09219787,-2.44024446,Africa,Rwanda,RW,,Rwanda - Gafunzo,2017-01-12,
Merops oreobates,Animalia,BEEEATERS_MEROPIDAE,Cinnamon-chested Bee-eater,,1,29.09219787,-2.44024446,Africa,Rwanda,RW,,Rwanda - Gafunzo,2017-01-12,
Melaenornis fischeri toruensis,Animalia,OLD_WORLD_FLYCATCHERS_MUSCICAPIDAE,White-eyed Slaty Flycatcher ssp toruensis,,5,29.09219787,-2.44024446,Africa,Rwanda,RW,,Rwanda - Gafunzo,2017-01-12,
Phoeniculus bollei,Animalia,WOOD_HOOPOES_PHOENICULIDAE,White-headed Wood Hoopoe,,5,29.09683272,-2.45126366,Africa,Rwanda,RW,,Rwanda - Gafunzo,2017-01-12,
Cyanomitra verticalis,Animalia,SUNBIRDS_NECTARINIIDAE,Green-headed Sunbird,,1,29.09224078,-2.43994433,Africa,Rwanda,RW,,Rwanda - Gafunzo,2017-01-12,
Oriolus percivali,Animalia,ORIOLES_AND_FIG_BIRDS_ORIOLIDAE,Mountain Oriole,,1,29.09224078,-2.43994433,Africa,Rwanda,RW,,Rwanda - Gafunzo,2017-01-12,
Batis diops,Animalia,WATTLEEYES_BATISES_PLATYSTEIRIDAE,Rwenzori Batis,,1,29.09666106,-2.45079202,Africa,Rwanda,RW,,Rwanda - Gafunzo,2017-01-12,
Pogoniulus bilineatus,Animalia,Lybiidae,Yellow-rumped Tinkerbird,,1,29.09670398,-2.45049189,Africa,Rwanda,RW,,Rwanda - Gafunzo,2017-01-12,
Saxicola torquatus,Animalia,OLD_WORLD_FLYCATCHERS_MUSCICAPIDAE,African Stonechat,,2,29.09558818,-2.44984875,Africa,Rwanda,RW,,Rwanda - Gafunzo,2017-01-12,
Bubulcus ibis,Animalia,HERONS_ARDEIDAE,Western Cattle Egret,,2,29.25358057,-1.69814968,Africa,Rwanda,RW,,Rwanda - Rubavu,2004-04-10,
Motacilla aguimp,Animalia,PIPITS_EN_WAGTAILS_MOTACILLIDAE,African Pied Wagtail,,1,29.263204983401902,-1.7351709706449125,Africa,Rwanda,RW,,Rwanda - Nyamyumba,2004-04-10,
Plectropterus gambensis,Animalia,DUCKS_GEESE_AND_SWANS_ANATIDAE,Spur-winged Goose,,1,30.719375606859,-1.8750314501515,Africa,Rwanda,RW,,Rwanda - Akagera NP,2006-08-15,
Lophoceros alboterminatus,Animalia,HORNBILLS_BUCEROTIDAE,Crowned Hornbill,,1,30.719375606859,-1.8750314501515,Africa,Rwanda,RW,,Rwanda - Akagera NP,2006-08-15,
Anhinga rufa,Animalia,ANHINGAS_ANHINGIDAE,African Darter,,1,30.71937561,-1.87503145,Africa,Rwanda,RW,,Rwanda - Akagera NP,2006-08-15,
Ardea alba,Animalia,HERONS_ARDEIDAE,Great Egret,,1,30.719375606859,-1.8750314501515,Africa,Rwanda,RW,,Rwanda - Akagera NP,2006-08-15,
Leptoptilos crumenifer,Animalia,STORKS_CICONIIDAE,Marabou Stork,,1,30.719375606859,-1.8750314501515,Africa,Rwanda,RW,,Rwanda - Akagera NP,2006-08-15,
Corythaixoides personatus,Animalia,TURACOS_MUSOPHAGIDAE,Bare-faced Go-away-bird,,1,30.719375606859,-1.8750314501515,Africa,Rwanda,RW,,Rwanda - Akagera NP,2006-08-15,
Circaetus cinereus,Animalia,HAWKS_AND_EAGLES_ACCIPITRIDAE,Brown Snake Eagle,,1,30.719375606859,-1.8750314501515,Africa,Rwanda,RW,,Rwanda - Akagera NP,2006-08-15,
Halcyon senegalensis,Animalia,KINGFISHERS_ALCEDINIDAE,Woodland Kingfisher,,1,30.719375606859,-1.8750314501515,Africa,Rwanda,RW,,Rwanda - Akagera NP,2006-08-15,
Lophoceros nasutus,Animalia,HORNBILLS_BUCEROTIDAE,African Grey Hornbill,,1,30.719375606859,-1.8750314501515,Africa,Rwanda,RW,,Rwanda - Akagera NP,2006-08-15,
Gyps rueppelli,Animalia,HAWKS_AND_EAGLES_ACCIPITRIDAE,Rüppell's Vulture,,1,30.719375606859,-1.8750314501515,Africa,Rwanda,RW,,Rwanda - Akagera NP,2006-08-15,
Merops oreobates,Animalia,BEEEATERS_MEROPIDAE,Cinnamon-chested Bee-eater,,1,29.27604673896,-2.5426373288854,Africa,Rwanda,RW,,Rwanda - Karengera,2006-08-13,
Nectarinia famosa,Animalia,SUNBIRDS_NECTARINIIDAE,Malachite Sunbird,,1,29.506,-1.4582,Africa,Rwanda,RW,,Rwanda - Kinigi,2015-11-18,09:20
Lanius humeralis,Animalia,SHRIKES_LANIIDAE,Northern Fiscal,,1,29.3967,-2.0309,Africa,Rwanda,RW,,Rwanda - Mabanza,2015-11-16,09:25
Streptopelia decipiens,Animalia,PIGEONS_AND_DOVES_COLUMBIDAE,Mourning Collared Dove,,1,29.3529,-2.0661,Africa,Rwanda,RW,,Rwanda - Gitsi,2015-11-15,08:12
Phalacrocorax lucidus,Animalia,CORMORANTS_PHALACROCORACIDAE,White-breasted Cormorant,,1,29.3566,-2.0668,Africa,Rwanda,RW,,Rwanda - Gitsi,2015-11-15,06:41
Lanius humeralis,Animalia,SHRIKES_LANIIDAE,Northern Fiscal,,1,30.0106,-1.9622,Africa,Rwanda,RW,,Rwanda - Butamwa,2015-11-10,18:17
Cecropis abyssinica,Animalia,SWALLOWS_HIRUNDINIDAE,Lesser Striped Swallow,,1,30.0175,-1.9476,Africa,Rwanda,RW,,Rwanda - Butamwa,2015-11-10,11:16
Terpsiphone viridis,Animalia,MONARCHS_MONARCHIDAE,African Paradise Flycatcher,,1,30.0925,-1.9462,Africa,Rwanda,RW,,Rwanda - Rubungo,2015-11-08,22:20
Pycnonotus tricolor,Animalia,BULBULS_PYCNONOTIDAE,Dark-capped Bulbul,,1,30.0924,-1.9463,Africa,Rwanda,RW,,Rwanda - Rubungo,2015-11-08,11:45
Cossypha heuglini,Animalia,OLD_WORLD_FLYCATCHERS_MUSCICAPIDAE,White-browed Robin-Chat,,1,30.0923,-1.9462,Africa,Rwanda,RW,,Rwanda - Rubungo,2015-11-08,11:44
Chalcomitra senegalensis,Animalia,SUNBIRDS_NECTARINIIDAE,Scarlet-chested Sunbird,,1,30.0924,-1.9462,Africa,Rwanda,RW,,Rwanda - Rubungo,2015-11-08,11:43
Passer griseus,Animalia,OLD_WORLD_SPARROWS_PASSERIDAE,Northern Grey-headed Sparrow,,3,30.0926,-1.9467,Africa,Rwanda,RW,,Rwanda - Rubungo,2015-11-08,09:37
Lanius humeralis,Animalia,SHRIKES_LANIIDAE,Northern Fiscal,,1,29.9261891842,-1.73935453911,Africa,Rwanda,RW,,Rwanda - Mbogo,2015-08-12,
Chalcomitra senegalensis,Animalia,SUNBIRDS_NECTARINIIDAE,Scarlet-chested Sunbird,,1,30.0926980376,-1.94618117442,Africa,Rwanda,RW,,Rwanda - Rubungo,2015-08-12,
Pycnonotus tricolor,Animalia,BULBULS_PYCNONOTIDAE,Dark-capped Bulbul,,1,30.0250071287,-1.95004266337,Africa,Rwanda,RW,,Rwanda - Butamwa,2015-08-12,
Paraxerus boehmi,Animalia,SQUIRRELS_CHIPMUNKS_AND_PRAIRIEDOGS_SCIURIDAE,Boehm's Bush Squirrel,,1,29.1182474792,-2.48582132538,Africa,Rwanda,RW,,Rwanda - Karengera,2015-08-21,
Cercopithecus mitis,Animalia,OLD_WORLD_MONKEYS_CERCOPITHECIDAE,Blue Monkey,,10,29.1182474792,-2.48582132538,Africa,Rwanda,RW,,Rwanda - Karengera,2015-08-21,
Melaniparus fasciiventer,Animalia,TITS_PARIDAE,Stripe-breasted Tit,,1,29.1182474792,-2.48582132538,Africa,Rwanda,RW,,Rwanda - Karengera,2015-08-21,
Corvus albicollis,Animalia,CROWS_AND_JAYS_CORVIDAE,White-necked Raven,,1,29.1182474792,-2.48582132538,Africa,Rwanda,RW,,Rwanda - Karengera,2015-08-21,
Ruwenzorornis johnstoni,Animalia,TURACOS_MUSOPHAGIDAE,Rwenzori Turaco,,2,29.1182474792,-2.48582132538,Africa,Rwanda,RW,,Rwanda - Karengera,2015-08-21,
Muscicapa adusta,Animalia,OLD_WORLD_FLYCATCHERS_MUSCICAPIDAE,African Dusky Flycatcher,,1,29.1182474792,-2.48582132538,Africa,Rwanda,RW,,Rwanda - Karengera,2015-08-21,
Oriolus percivali,Animalia,ORIOLES_AND_FIG_BIRDS_ORIOLIDAE,Mountain Oriole,,1,29.1182474792,-2.48582132538,Africa,Rwanda,RW,,Rwanda - Karengera,2015-08-21,
Pogoniulus bilineatus,Animalia,Lybiidae,Yellow-rumped Tinkerbird,,1,29.1182474792,-2.48582132538,Africa,Rwanda,RW,,Rwanda - Karengera,2015-08-21,
Estrilda nonnula,Animalia,WAXBILLS_MUNIAS_ALLIES_ESTRILDIDAE,Black-crowned Waxbill,,1,29.1182474792,-2.48582132538,Africa,Rwanda,RW,,Rwanda - Karengera,2015-08-21,
Merops oreobates,Animalia,BEEEATERS_MEROPIDAE,Cinnamon-chested Bee-eater,,1,29.1182474792,-2.48582132538,Africa,Rwanda,RW,,Rwanda - Karengera,2015-08-21,
Corythaeola cristata,Animalia,TURACOS_MUSOPHAGIDAE,Great Blue Turaco,,1,29.1182474792,-2.48582132538,Africa,Rwanda,RW,,Rwanda - Karengera,2015-08-21,
Dryoscopus gambensis,Animalia,HELMETSHRIKES_BUSHSHRIKES_MALACONOTIDAE,Northern Puffback,,1,29.1182474792,-2.48582132538,Africa,Rwanda,RW,,Rwanda - Karengera,2015-08-21,
Melaenornis ardesiacus,Animalia,OLD_WORLD_FLYCATCHERS_MUSCICAPIDAE,Yellow-eyed Black Flycatcher,,1,29.1182474792,-2.48582132538,Africa,Rwanda,RW,,Rwanda - Karengera,2015-08-21,
Batis diops,Animalia,WATTLEEYES_BATISES_PLATYSTEIRIDAE,Rwenzori Batis,,1,29.1182474792,-2.48582132538,Africa,Rwanda,RW,,Rwanda - Karengera,2015-08-21,
Phoeniculus bollei,Animalia,WOOD_HOOPOES_PHOENICULIDAE,White-headed Wood Hoopoe,,1,29.1182474792,-2.48582132538,Africa,Rwanda,RW,,Rwanda - Karengera,2015-08-21,
Chamaetylas poliophrys,Animalia,OLD_WORLD_FLYCATCHERS_MUSCICAPIDAE,Red-throated Alethe,,1,29.1182474792,-2.48582132538,Africa,Rwanda,RW,,Rwanda - Karengera,2015-08-21,
Apalis porphyrolaema,Animalia,CISTICOLAS_AND_ALLIES_CISTICOLIDAE,Chestnut-throated Apalis,,1,29.1182474792,-2.48582132538,Africa,Rwanda,RW,,Rwanda - Karengera,2015-08-21,
Cisticola chubbi,Animalia,CISTICOLAS_AND_ALLIES_CISTICOLIDAE,Chubb's Cisticola,,1,29.1182474792,-2.48582132538,Africa,Rwanda,RW,,Rwanda - Karengera,2015-08-21,
Pogonocichla stellata,Animalia,OLD_WORLD_FLYCATCHERS_MUSCICAPIDAE,White-starred Robin,,1,29.1182474792,-2.48582132538,Africa,Rwanda,RW,,Rwanda - Karengera,2015-08-21,
Terpsiphone viridis,Animalia,MONARCHS_MONARCHIDAE,African Paradise Flycatcher,,1,30.0610975921,-1.93095427649,Africa,Rwanda,RW,,Rwanda - Nyarugenge,2015-08-10,
Ardea melanocephala,Animalia,HERONS_ARDEIDAE,Black-headed Heron,,1,30.0212862343,-1.95006176304,Africa,Rwanda,RW,,Rwanda - Butamwa,2015-08-10,
Scopus umbretta,Animalia,HAMERKOP_SCOPIDAE,Hamerkop,,1,30.0857739151,-1.94746722145,Africa,Rwanda,RW,,Rwanda - Nyarugenge,2015-08-10,
Ploceus baglafecht,Animalia,WEAVERS_PLOCEIDAE,Baglafecht Weaver,,1,30.0925257057,-1.94618016918,Africa,Rwanda,RW,,Rwanda - Rubungo,2015-08-10,
Cossypha heuglini,Animalia,OLD_WORLD_FLYCATCHERS_MUSCICAPIDAE,White-browed Robin-Chat,,4,30.0925257057,-1.94618016918,Africa,Rwanda,RW,,Rwanda - Rubungo,2015-08-10,
Chalcomitra senegalensis,Animalia,SUNBIRDS_NECTARINIIDAE,Scarlet-chested Sunbird,,1,30.098863095,-1.94099073497,Africa,Rwanda,RW,,Rwanda - Rubungo,2015-09-08,13:00
Syncerus caffer,Animalia,BOVIDS_BOVIDAE,African Buffalo,,20,30.7163100227,-1.81635800312,Africa,Rwanda,RW,,Rwanda - Akagera NP,2014-02-15,
