scientificName,kingdom,family,vernacularName,previousIdentifications,individualCount,longitudeDecimal,latitudeDecimal,continent,country,countryCode,stateProvince,locality,eventDate,eventTime
Sylvia buryi,Animalia,OLD_WORLD_WARBLERS_SYLVIIDAE,Yemen Warbler,,2,42.1622597103,18.8866038984,Asia,Saudi Arabia,SA,,Saudi Arabia - Asir NP,2014-01-24,14:22
Ptyonoprogne obsoleta,Animalia,SWALLOWS_HIRUNDINIDAE,Pale Crag Martin,,3,42.131458,18.963355,Asia,Saudi Arabia,SA,,Saudi Arabia - Asir NP,2014-01-24,09:20
Monticola rufocinereus,Animalia,OLD_WORLD_FLYCATCHERS_MUSCICAPIDAE,Little Rock Thrush,,1,42.130484,18.965798,Asia,Saudi Arabia,SA,,Saudi Arabia - Asir NP,2014-01-24,09:14
Dendrocoptes dorae,Animalia,WOODPECKERS_PICIDAE,Arabian Woodpecker,,1,42.130352,18.964724,Asia,Saudi Arabia,SA,,Saudi Arabia - Asir NP,2014-01-24,07:27
Onychognathus tristramii,Animalia,STARLINGS_STURNIDAE,Tristram's Starling,,200,42.4059491376,18.2147031747,Asia,Saudi Arabia,SA,,Saudi Arabia - Raydah Protected Area,2014-01-23,12:50
Oenanthe melanura,Animalia,OLD_WORLD_FLYCATCHERS_MUSCICAPIDAE,Blackstart,,2,42.980439,17.023464,Asia,Saudi Arabia,SA,,Saudi Arabia - Jazan,2014-01-22,16:22
Oena capensis,Animalia,PIGEONS_AND_DOVES_COLUMBIDAE,Namaqua Dove,,2,42.9620721693,17.0536681423,Asia,Saudi Arabia,SA,,Saudi Arabia - Jazan,2014-01-22,14:08
Pelecanus rufescens,Animalia,PELICANS_PELECANIDAE,Pink-backed Pelican,,1,42.1381018493,17.5755368016,Asia,Saudi Arabia,SA,,Saudi Arabia - Jazan,2014-01-21,07:55
Butorides striata,Animalia,HERONS_ARDEIDAE,Striated Heron,,1,42.1399689554,17.5792201356,Asia,Saudi Arabia,SA,,Saudi Arabia - Jazan,2014-01-21,07:57
Egretta gularis,Animalia,HERONS_ARDEIDAE,Western Reef Heron,,1,41.50069501,18.25206566,Asia,Saudi Arabia,SA,,Saudi Arabia - Mecca,2014-01-20,14:00
Ichthyaetus leucophthalmus,Animalia,GULLS_TERNS_AND_SKIMMERS_LARIDAE,White-eyed Gull,,2,41.50069501,18.25206566,Asia,Saudi Arabia,SA,,Saudi Arabia - Mecca,2014-01-20,14:00
Alaemon alaudipes,Animalia,LARKS_ALAUDIDAE,Greater Hoopoe-Lark,,1,40.95603192,19.51363181,Asia,Saudi Arabia,SA,,Saudi Arabia - Mecca,2014-01-19,11:24
Ichthyaetus leucophthalmus,Animalia,GULLS_TERNS_AND_SKIMMERS_LARIDAE,White-eyed Gull,,2,39.1306132078,21.2602586288,Asia,Saudi Arabia,SA,,Saudi Arabia - Mecca,2014-01-18,11:50
Galerida cristata,Animalia,LARKS_ALAUDIDAE,Crested Lark,,2,50.05292189,26.59350171,Asia,Saudi Arabia,SA,,Saudi Arabia - Ash Sharquiyah,2014-01-15,15:33
Oenanthe deserti,Animalia,OLD_WORLD_FLYCATCHERS_MUSCICAPIDAE,Desert Wheatear,,1,49.501554,27.086036,Asia,Saudi Arabia,SA,,Saudi Arabia - Ash Sharquiyah,2014-01-12,16:38
Hydroprogne caspia,Animalia,GULLS_TERNS_AND_SKIMMERS_LARIDAE,Caspian Tern,,1,49.496579,27.059813,Asia,Saudi Arabia,SA,,Saudi Arabia - Ash Sharquiyah,2014-01-12,14:12
Hydroprogne caspia,Animalia,GULLS_TERNS_AND_SKIMMERS_LARIDAE,Caspian Tern,,3,49.481488,27.047302,Asia,Saudi Arabia,SA,,Saudi Arabia - Ash Sharquiyah,2014-01-12,12:15
Brachythemis impartita,Animalia,SKIMMERS_LIBELLULIDAE,Northern Banded Groundling,,200,42.962,17.052,Asia,Saudi Arabia,SA,,Saudi Arabia - Jazan,2014-01-22,12:50
Oena capensis,Animalia,PIGEONS_AND_DOVES_COLUMBIDAE,Namaqua Dove,,1,42.947914,17.051499,Asia,Saudi Arabia,SA,,Saudi Arabia - Jazan,2014-01-22,12:33
Lanius excubitor aucheri,Animalia,SHRIKES_LANIIDAE,Levant Grey Shrike,,1,42.952551,17.062713,Asia,Saudi Arabia,SA,,Saudi Arabia - Jazan,2014-01-22,13:57
Oena capensis,Animalia,PIGEONS_AND_DOVES_COLUMBIDAE,Namaqua Dove,,1,42.957479,17.064746,Asia,Saudi Arabia,SA,,Saudi Arabia - Jazan,2014-01-22,14:01
Oena capensis,Animalia,PIGEONS_AND_DOVES_COLUMBIDAE,Namaqua Dove,,1,42.938011,17.063064,Asia,Saudi Arabia,SA,,Saudi Arabia - Jazan,2014-01-22,14:25
Pelecanus rufescens,Animalia,PELICANS_PELECANIDAE,Pink-backed Pelican,,33,42.2070938773,17.5310051153,Asia,Saudi Arabia,SA,,Saudi Arabia - Jazan,2014-01-21,12:15
Pelecanus rufescens,Animalia,PELICANS_PELECANIDAE,Pink-backed Pelican,,10,42.219295043,17.5259155958,Asia,Saudi Arabia,SA,,Saudi Arabia - Jazan,2014-01-21,11:10
Phoenicopterus roseus,Animalia,FLAMINGOS_PHOENICOPTERIDAE,Greater Flamingo,,5,42.219295043,17.5259155958,Asia,Saudi Arabia,SA,,Saudi Arabia - Jazan,2014-01-21,11:10
Thalasseus bergii,Animalia,GULLS_TERNS_AND_SKIMMERS_LARIDAE,Greater Crested Tern,,31,42.1356030331,17.6031994158,Asia,Saudi Arabia,SA,,Saudi Arabia - Jazan,2014-01-21,07:48
Hydroprogne caspia,Animalia,GULLS_TERNS_AND_SKIMMERS_LARIDAE,Caspian Tern,,1,42.1356030331,17.6031994158,Asia,Saudi Arabia,SA,,Saudi Arabia - Jazan,2014-01-21,07:48
Butorides striata,Animalia,HERONS_ARDEIDAE,Striated Heron,,1,42.1356030331,17.6031994158,Asia,Saudi Arabia,SA,,Saudi Arabia - Jazan,2014-01-21,07:48
Papio hamadryas,Animalia,OLD_WORLD_MONKEYS_CERCOPITHECIDAE,Western Baboon,,40,42.130698,18.963554,Asia,Saudi Arabia,SA,,Saudi Arabia - Asir NP,2014-01-25,08:28
Oena capensis,Animalia,PIGEONS_AND_DOVES_COLUMBIDAE,Namaqua Dove,,1,42.803282,17.18152,Asia,Saudi Arabia,SA,,Saudi Arabia - Jazan,2014-01-21,16:44
Oena capensis,Animalia,PIGEONS_AND_DOVES_COLUMBIDAE,Namaqua Dove,,1,42.80216,17.180849,Asia,Saudi Arabia,SA,,Saudi Arabia - Jazan,2014-01-21,16:28
Upupa epops,Animalia,HOOPOES_UPUPIDAE,Eurasian Hoopoe,,1,42.130484,18.965798,Asia,Saudi Arabia,SA,,Saudi Arabia - Asir NP,2014-01-24,07:56
Monticola rufocinereus,Animalia,OLD_WORLD_FLYCATCHERS_MUSCICAPIDAE,Little Rock Thrush,,1,42.131199,18.963858,Asia,Saudi Arabia,SA,,Saudi Arabia - Asir NP,2014-01-24,07:17
Papio hamadryas,Animalia,OLD_WORLD_MONKEYS_CERCOPITHECIDAE,Western Baboon,,20,42.107367,19.03829,Asia,Saudi Arabia,SA,,Saudi Arabia - Asir NP,2014-01-25,10:09
Ptyonoprogne obsoleta,Animalia,SWALLOWS_HIRUNDINIDAE,Pale Crag Martin,,4,42.131106,18.962639,Asia,Saudi Arabia,SA,,Saudi Arabia - Asir NP,2014-01-25,08:36
Papio hamadryas,Animalia,OLD_WORLD_MONKEYS_CERCOPITHECIDAE,Western Baboon,,40,42.130698,18.963554,Asia,Saudi Arabia,SA,,Saudi Arabia - Asir NP,2014-01-25,08:28
Dendrocoptes dorae,Animalia,WOODPECKERS_PICIDAE,Arabian Woodpecker,,2,42.134336,18.965495,Asia,Saudi Arabia,SA,,Saudi Arabia - Asir NP,2014-01-25,07:41
Cinnyris habessinicus,Animalia,SUNBIRDS_NECTARINIIDAE,Shining Sunbird,,1,42.387729,17.847493,Asia,Saudi Arabia,SA,,Saudi Arabia - Asir NP,2014-01-23,09:30
Spilopelia senegalensis,Animalia,PIGEONS_AND_DOVES_COLUMBIDAE,Laughing Dove,,5,42.387738,17.847488,Asia,Saudi Arabia,SA,,Saudi Arabia - Asir NP,2014-01-23,09:30
Ichthyaetus hemprichii,Animalia,GULLS_TERNS_AND_SKIMMERS_LARIDAE,Sooty Gull,,5,41.696,17.941,Asia,Saudi Arabia,SA,,Saudi Arabia - Jazan,2014-01-20,13:56
Monticola rufocinereus,Animalia,OLD_WORLD_FLYCATCHERS_MUSCICAPIDAE,Little Rock Thrush,,4,42.132191,18.962053,Asia,Saudi Arabia,SA,,Saudi Arabia - Asir NP,2014-01-24,07:02
Dendrocoptes dorae,Animalia,WOODPECKERS_PICIDAE,Arabian Woodpecker,,1,42.132225,18.962448,Asia,Saudi Arabia,SA,,Saudi Arabia - Asir NP,2014-01-24,06:41
Papio hamadryas,Animalia,OLD_WORLD_MONKEYS_CERCOPITHECIDAE,Western Baboon,,7,42.130669,18.963601,Asia,Saudi Arabia,SA,,Saudi Arabia - Asir NP,2014-01-24,06:28
Platalea leucorodia,Animalia,IBISSES_AND_SPOONBILLS_THRESKIORNITHIDAE,Eurasian Spoonbill,,15,41.696,17.941,Asia,Saudi Arabia,SA,,Saudi Arabia - Jazan,2014-01-20,13:56
Hydroprogne caspia,Animalia,GULLS_TERNS_AND_SKIMMERS_LARIDAE,Caspian Tern,,6,41.6743052063,17.9536340275,Asia,Saudi Arabia,SA,,Saudi Arabia - Jazan,2014-01-20,11:20
Ichthyaetus hemprichii,Animalia,GULLS_TERNS_AND_SKIMMERS_LARIDAE,Sooty Gull,,67,41.6743052063,17.9536340275,Asia,Saudi Arabia,SA,,Saudi Arabia - Jazan,2014-01-20,11:20
Platalea leucorodia,Animalia,IBISSES_AND_SPOONBILLS_THRESKIORNITHIDAE,Eurasian Spoonbill,,2,41.6743052063,17.9536340275,Asia,Saudi Arabia,SA,,Saudi Arabia - Jazan,2014-01-20,11:20
Cercotrichas podobe,Animalia,OLD_WORLD_FLYCATCHERS_MUSCICAPIDAE,Black Scrub Robin,,1,41.61453866,18.0964308717,Asia,Saudi Arabia,SA,,Saudi Arabia - Jazan,2014-01-20,09:15
Milvus aegyptius,Animalia,HAWKS_AND_EAGLES_ACCIPITRIDAE,Yellow-billed Kite,,2,41.888361,17.806733,Asia,Saudi Arabia,SA,,Saudi Arabia - Asir NP,2014-01-20,16:04
Chroicocephalus genei,Animalia,GULLS_TERNS_AND_SKIMMERS_LARIDAE,Slender-billed Gull,,467,41.6861700317,17.9442857948,Asia,Saudi Arabia,SA,,Saudi Arabia - Jazan,2014-01-20,11:20
Cercotrichas podobe,Animalia,OLD_WORLD_FLYCATCHERS_MUSCICAPIDAE,Black Scrub Robin,,1,41.622939,18.065427,Asia,Saudi Arabia,SA,,Saudi Arabia - Jazan,2014-01-20,09:44
Platalea leucorodia,Animalia,IBISSES_AND_SPOONBILLS_THRESKIORNITHIDAE,Eurasian Spoonbill,,9,41.681682,17.948789,Asia,Saudi Arabia,SA,,Saudi Arabia - Jazan,2014-01-20,11:04
Ichthyaetus hemprichii,Animalia,GULLS_TERNS_AND_SKIMMERS_LARIDAE,Sooty Gull,,5,39.106548,21.297896,Asia,Saudi Arabia,SA,,Saudi Arabia - Mecca,2014-01-18,10:29
Gelochelidon nilotica,Animalia,GULLS_TERNS_AND_SKIMMERS_LARIDAE,Gull-billed Tern,,4,50.029,26.69,Asia,Saudi Arabia,SA,,Saudi Arabia - Ash Sharquiyah,2014-01-16,12:30
Numenius arquata,Animalia,SANDPIPERS_AND_ALLIES_SCOLOPACIDAE,Eurasian Curlew,,2,50.029,26.69,Asia,Saudi Arabia,SA,,Saudi Arabia - Ash Sharquiyah,2014-01-16,12:30
Tringa totanus,Animalia,SANDPIPERS_AND_ALLIES_SCOLOPACIDAE,Common Redshank,,5,50.029,26.69,Asia,Saudi Arabia,SA,,Saudi Arabia - Ash Sharquiyah,2014-01-16,12:30
Xenus cinereus,Animalia,SANDPIPERS_AND_ALLIES_SCOLOPACIDAE,Terek Sandpiper,,9,50.029,26.69,Asia,Saudi Arabia,SA,,Saudi Arabia - Ash Sharquiyah,2014-01-16,12:30
Gelochelidon nilotica,Animalia,GULLS_TERNS_AND_SKIMMERS_LARIDAE,Gull-billed Tern,,80,49.994836,26.660263,Asia,Saudi Arabia,SA,,Saudi Arabia - Ash Sharquiyah,2014-01-16,07:15
Tringa totanus,Animalia,SANDPIPERS_AND_ALLIES_SCOLOPACIDAE,Common Redshank,,800,49.994845,26.660279,Asia,Saudi Arabia,SA,,Saudi Arabia - Ash Sharquiyah,2014-01-16,07:26
Calidris alpina,Animalia,SANDPIPERS_AND_ALLIES_SCOLOPACIDAE,Dunlin,,1900,49.994838,26.66027,Asia,Saudi Arabia,SA,,Saudi Arabia - Ash Sharquiyah,2014-01-16,07:26
Xenus cinereus,Animalia,SANDPIPERS_AND_ALLIES_SCOLOPACIDAE,Terek Sandpiper,,25,49.994863,26.6602,Asia,Saudi Arabia,SA,,Saudi Arabia - Ash Sharquiyah,2014-01-16,08:21
Calidris ferruginea,Animalia,SANDPIPERS_AND_ALLIES_SCOLOPACIDAE,Curlew Sandpiper,,50,49.994837,26.660244,Asia,Saudi Arabia,SA,,Saudi Arabia - Ash Sharquiyah,2014-01-16,08:25
Calidris alpina,Animalia,SANDPIPERS_AND_ALLIES_SCOLOPACIDAE,Dunlin,,13,50.084,26.558,Asia,Saudi Arabia,SA,,Saudi Arabia - Ash Sharquiyah,2014-01-15,13:21
Phoenicopterus roseus,Animalia,FLAMINGOS_PHOENICOPTERIDAE,Greater Flamingo,,85,50.084,26.558,Asia,Saudi Arabia,SA,,Saudi Arabia - Ash Sharquiyah,2014-01-15,13:21
Phoenicopterus roseus,Animalia,FLAMINGOS_PHOENICOPTERIDAE,Greater Flamingo,,27,50.079487,26.544341,Asia,Saudi Arabia,SA,,Saudi Arabia - Ash Sharquiyah,2014-01-15,12:12
Phoenicopterus roseus,Animalia,FLAMINGOS_PHOENICOPTERIDAE,Greater Flamingo,,27,50.07952,26.544269,Asia,Saudi Arabia,SA,,Saudi Arabia - Ash Sharquiyah,2014-01-15,12:31
Calidris alpina,Animalia,SANDPIPERS_AND_ALLIES_SCOLOPACIDAE,Dunlin,,48,50.079515,26.544248,Asia,Saudi Arabia,SA,,Saudi Arabia - Ash Sharquiyah,2014-01-15,12:32
Calidris alpina,Animalia,SANDPIPERS_AND_ALLIES_SCOLOPACIDAE,Dunlin,,22,50.0800137619,26.548813318,Asia,Saudi Arabia,SA,,Saudi Arabia - Ash Sharquiyah,2014-01-15,12:45
Calidris alpina,Animalia,SANDPIPERS_AND_ALLIES_SCOLOPACIDAE,Dunlin,,48,50.0795279312,26.5442495458,Asia,Saudi Arabia,SA,,Saudi Arabia - Ash Sharquiyah,2014-01-15,12:31
Calidris alpina,Animalia,SANDPIPERS_AND_ALLIES_SCOLOPACIDAE,Dunlin,,66,50.058688,26.489092,Asia,Saudi Arabia,SA,,Saudi Arabia - Ash Sharquiyah,2014-01-15,09:24
Charadrius leschenaultii,Animalia,PLOVERS_CHARADRIIDAE,Greater Sand Plover,,21,49.50804,27.243119,Asia,Saudi Arabia,SA,,Saudi Arabia - Ash Sharquiyah,2014-01-14,13:23
Charadrius alexandrinus,Animalia,PLOVERS_CHARADRIIDAE,Kentish Plover,,39,49.652692,27.307334,Asia,Saudi Arabia,SA,,Saudi Arabia - Ash Sharquiyah,2014-01-14,16:29
Charadrius alexandrinus,Animalia,PLOVERS_CHARADRIIDAE,Kentish Plover,,4,49.652704,27.307286,Asia,Saudi Arabia,SA,,Saudi Arabia - Ash Sharquiyah,2014-01-14,16:32
Charadrius alexandrinus,Animalia,PLOVERS_CHARADRIIDAE,Kentish Plover,,24,49.658065,27.305963,Asia,Saudi Arabia,SA,,Saudi Arabia - Ash Sharquiyah,2014-01-14,16:48
Cinnyris habessinicus,Animalia,SUNBIRDS_NECTARINIIDAE,Shining Sunbird,,1,42.387729,17.847493,Asia,Saudi Arabia,SA,,Saudi Arabia - Asir NP,2014-01-23,09:30
Spilopelia senegalensis,Animalia,PIGEONS_AND_DOVES_COLUMBIDAE,Laughing Dove,,5,42.387738,17.847488,Asia,Saudi Arabia,SA,,Saudi Arabia - Asir NP,2014-01-23,09:30
Cinnyris habessinicus,Animalia,SUNBIRDS_NECTARINIIDAE,Shining Sunbird,,1,42.387102,17.847331,Asia,Saudi Arabia,SA,,Saudi Arabia - Asir NP,2014-01-23,10:03
Papio hamadryas,Animalia,OLD_WORLD_MONKEYS_CERCOPITHECIDAE,Western Baboon,,7,42.130669,18.963601,Asia,Saudi Arabia,SA,,Saudi Arabia - Asir NP,2014-01-24,06:28
Dendrocoptes dorae,Animalia,WOODPECKERS_PICIDAE,Arabian Woodpecker,,1,42.132225,18.962448,Asia,Saudi Arabia,SA,,Saudi Arabia - Asir NP,2014-01-24,06:41
Monticola rufocinereus,Animalia,OLD_WORLD_FLYCATCHERS_MUSCICAPIDAE,Little Rock Thrush,,2,42.132191,18.962053,Asia,Saudi Arabia,SA,,Saudi Arabia - Asir NP,2014-01-24,07:02
Monticola rufocinereus,Animalia,OLD_WORLD_FLYCATCHERS_MUSCICAPIDAE,Little Rock Thrush,,1,42.131199,18.963858,Asia,Saudi Arabia,SA,,Saudi Arabia - Asir NP,2014-01-24,07:17
Upupa epops,Animalia,HOOPOES_UPUPIDAE,Eurasian Hoopoe,,1,42.130484,18.965798,Asia,Saudi Arabia,SA,,Saudi Arabia - Asir NP,2014-01-24,07:41
Monticola rufocinereus,Animalia,OLD_WORLD_FLYCATCHERS_MUSCICAPIDAE,Little Rock Thrush,,1,42.130407,18.966324,Asia,Saudi Arabia,SA,,Saudi Arabia - Asir NP,2014-01-24,08:09
Upupa epops,Animalia,HOOPOES_UPUPIDAE,Eurasian Hoopoe,,1,42.132192,18.968206,Asia,Saudi Arabia,SA,,Saudi Arabia - Asir NP,2014-01-24,08:28
Monticola rufocinereus,Animalia,OLD_WORLD_FLYCATCHERS_MUSCICAPIDAE,Little Rock Thrush,,1,42.136154,18.966744,Asia,Saudi Arabia,SA,,Saudi Arabia - Asir NP,2014-01-24,08:42
Sylvia buryi,Animalia,OLD_WORLD_WARBLERS_SYLVIIDAE,Yemen Warbler,,2,42.131597,18.964997,Asia,Saudi Arabia,SA,,Saudi Arabia - Asir NP,2014-01-24,09:08
Ptyonoprogne obsoleta,Animalia,SWALLOWS_HIRUNDINIDAE,Pale Crag Martin,,1,42.131576,18.964988,Asia,Saudi Arabia,SA,,Saudi Arabia - Asir NP,2014-01-24,09:10
Monticola rufocinereus,Animalia,OLD_WORLD_FLYCATCHERS_MUSCICAPIDAE,Little Rock Thrush,,3,42.131027,18.964501,Asia,Saudi Arabia,SA,,Saudi Arabia - Asir NP,2014-01-24,09:26
Ptyonoprogne obsoleta,Animalia,SWALLOWS_HIRUNDINIDAE,Pale Crag Martin,,1,42.131458,18.963355,Asia,Saudi Arabia,SA,,Saudi Arabia - Asir NP,2014-01-24,09:45
Ptyonoprogne obsoleta,Animalia,SWALLOWS_HIRUNDINIDAE,Pale Crag Martin,,5,42.130801,18.963623,Asia,Saudi Arabia,SA,,Saudi Arabia - Asir NP,2014-01-24,10:20
Scotocerca inquieta buryi,Animalia,SCOTOCERCIDAE,Streaked Scrub Warbler ssp buryi,,1,42.16309,18.885191,Asia,Saudi Arabia,SA,,Saudi Arabia - Asir NP,2014-01-24,12:12
Scotocerca inquieta buryi,Animalia,SCOTOCERCIDAE,Streaked Scrub Warbler ssp buryi,,1,42.163302,18.885171,Asia,Saudi Arabia,SA,,Saudi Arabia - Asir NP,2014-01-24,12:52
Papio hamadryas,Animalia,OLD_WORLD_MONKEYS_CERCOPITHECIDAE,Western Baboon,,20,42.144908,18.960746,Asia,Saudi Arabia,SA,,Saudi Arabia - Asir NP,2014-01-24,15:13
Monticola rufocinereus,Animalia,OLD_WORLD_FLYCATCHERS_MUSCICAPIDAE,Little Rock Thrush,,1,42.133093,18.96508,Asia,Saudi Arabia,SA,,Saudi Arabia - Asir NP,2014-01-24,16:45
Dendrocoptes dorae,Animalia,WOODPECKERS_PICIDAE,Arabian Woodpecker,,2,42.134336,18.965495,Asia,Saudi Arabia,SA,,Saudi Arabia - Asir NP,2014-01-25,07:41
Papio hamadryas,Animalia,OLD_WORLD_MONKEYS_CERCOPITHECIDAE,Western Baboon,,40,42.130698,18.963554,Asia,Saudi Arabia,SA,,Saudi Arabia - Asir NP,2014-01-25,08:28
Ptyonoprogne obsoleta,Animalia,SWALLOWS_HIRUNDINIDAE,Pale Crag Martin,,2,42.131106,18.962639,Asia,Saudi Arabia,SA,,Saudi Arabia - Asir NP,2014-01-25,08:36
Papio hamadryas,Animalia,OLD_WORLD_MONKEYS_CERCOPITHECIDAE,Western Baboon,,20,42.107367,19.03829,Asia,Saudi Arabia,SA,,Saudi Arabia - Asir NP,2014-01-25,10:09
Aquila heliaca,Animalia,HAWKS_AND_EAGLES_ACCIPITRIDAE,Eastern Imperial Eagle,,1,40.893513,21.107167,Asia,Saudi Arabia,SA,,Saudi Arabia - Mecca,2014-01-25,15:17
Cinnyris habessinicus,Animalia,SUNBIRDS_NECTARINIIDAE,Shining Sunbird,,2,42.38723,17.847255,Asia,Saudi Arabia,SA,,Saudi Arabia - Asir NP,2014-01-23,09:22
Spilopelia senegalensis,Animalia,PIGEONS_AND_DOVES_COLUMBIDAE,Laughing Dove,,1,42.387729,17.847419,Asia,Saudi Arabia,SA,,Saudi Arabia - Asir NP,2014-01-23,09:33
Dendrocoptes dorae,Animalia,WOODPECKERS_PICIDAE,Arabian Woodpecker,,1,42.132211,18.962393,Asia,Saudi Arabia,SA,,Saudi Arabia - Asir NP,2014-01-24,06:41
Monticola rufocinereus,Animalia,OLD_WORLD_FLYCATCHERS_MUSCICAPIDAE,Little Rock Thrush,,1,42.13121,18.963945,Asia,Saudi Arabia,SA,,Saudi Arabia - Asir NP,2014-01-24,07:18
Upupa epops,Animalia,HOOPOES_UPUPIDAE,Eurasian Hoopoe,,1,42.130874,18.964517,Asia,Saudi Arabia,SA,,Saudi Arabia - Asir NP,2014-01-24,07:22
Sylvia buryi,Animalia,OLD_WORLD_WARBLERS_SYLVIIDAE,Yemen Warbler,,2,42.13158,18.96501,Asia,Saudi Arabia,SA,,Saudi Arabia - Asir NP,2014-01-24,09:08
Ptyonoprogne obsoleta,Animalia,SWALLOWS_HIRUNDINIDAE,Pale Crag Martin,,1,42.131496,18.964989,Asia,Saudi Arabia,SA,,Saudi Arabia - Asir NP,2014-01-24,09:10
Scotocerca inquieta,Animalia,SCOTOCERCIDAE,Streaked Scrub Warbler,,1,42.163266,18.88513,Asia,Saudi Arabia,SA,,Saudi Arabia - Asir NP,2014-01-24,12:53
Monticola rufocinereus,Animalia,OLD_WORLD_FLYCATCHERS_MUSCICAPIDAE,Little Rock Thrush,,1,42.133028,18.965053,Asia,Saudi Arabia,SA,,Saudi Arabia - Asir NP,2014-01-24,16:45
Dendrocoptes dorae,Animalia,WOODPECKERS_PICIDAE,Arabian Woodpecker,,2,42.134238,18.96547,Asia,Saudi Arabia,SA,,Saudi Arabia - Asir NP,2014-01-25,07:41
Aquila heliaca,Animalia,HAWKS_AND_EAGLES_ACCIPITRIDAE,Eastern Imperial Eagle,,1,40.893576,21.107339,Asia,Saudi Arabia,SA,,Saudi Arabia - Mecca,2014-01-25,15:16
Alectoris melanocephala,Animalia,FRANCOLINS_QUAILS_PARTRIDGES_AND_PHEASANTS_PHASIANIDAE,Arabian Partridge,,10,42.40837652,18.29911583,Asia,Saudi Arabia,SA,,Saudi Arabia - Asir NP,2014-01-23,15:17
Thalasseus bengalensis,Animalia,GULLS_TERNS_AND_SKIMMERS_LARIDAE,Lesser Crested Tern,,3,41.97586813,17.72082257,Asia,Saudi Arabia,SA,,Saudi Arabia - Jazan,2014-01-20,17:23
Thalasseus bengalensis,Animalia,GULLS_TERNS_AND_SKIMMERS_LARIDAE,Lesser Crested Tern,,1,41.94587401,17.76015355,Asia,Saudi Arabia,SA,,Saudi Arabia - Jazan,2014-01-20,16:14
Ichthyaetus hemprichii,Animalia,GULLS_TERNS_AND_SKIMMERS_LARIDAE,Sooty Gull,,80,41.50069501,18.25206566,Asia,Saudi Arabia,SA,,Saudi Arabia - Mecca,2014-01-20,14:00
Oena capensis,Animalia,PIGEONS_AND_DOVES_COLUMBIDAE,Namaqua Dove,,1,42.947914,17.051499,Asia,Saudi Arabia,SA,,Saudi Arabia - Jazan,2014-01-22,12:33
Lanius excubitor aucheri,Animalia,SHRIKES_LANIIDAE,Levant Grey Shrike,,1,42.952551,17.062713,Asia,Saudi Arabia,SA,,Saudi Arabia - Jazan,2014-01-22,13:57
Oena capensis,Animalia,PIGEONS_AND_DOVES_COLUMBIDAE,Namaqua Dove,,1,42.957479,17.064746,Asia,Saudi Arabia,SA,,Saudi Arabia - Jazan,2014-01-22,14:01
Oena capensis,Animalia,PIGEONS_AND_DOVES_COLUMBIDAE,Namaqua Dove,,1,42.938011,17.063064,Asia,Saudi Arabia,SA,,Saudi Arabia - Jazan,2014-01-22,14:25
Egretta gularis,Animalia,HERONS_ARDEIDAE,Western Reef Heron,,1,41.49955344,18.2269293,Asia,Saudi Arabia,SA,,Saudi Arabia - Mecca,2014-01-20,12:54
Egretta gularis,Animalia,HERONS_ARDEIDAE,Western Reef Heron,,1,41.49701304,18.22761694,Asia,Saudi Arabia,SA,,Saudi Arabia - Mecca,2014-01-20,13:09
Egretta gularis,Animalia,HERONS_ARDEIDAE,Western Reef Heron,,2,41.4735963,18.3086883,Asia,Saudi Arabia,SA,,Saudi Arabia - Mecca,2014-01-20,11:56
Ichthyaetus hemprichii,Animalia,GULLS_TERNS_AND_SKIMMERS_LARIDAE,Sooty Gull,,1,41.47312269,18.29442095,Asia,Saudi Arabia,SA,,Saudi Arabia - Mecca,2014-01-20,11:28
Actitis hypoleucos,Animalia,SANDPIPERS_AND_ALLIES_SCOLOPACIDAE,Common Sandpiper,,1,42.58772357,16.8403342,Asia,Saudi Arabia,SA,,Saudi Arabia - Jazan,2014-01-22,08:19
Actitis hypoleucos,Animalia,SANDPIPERS_AND_ALLIES_SCOLOPACIDAE,Common Sandpiper,,1,42.60971542,16.82953402,Asia,Saudi Arabia,SA,,Saudi Arabia - Jazan,2014-01-22,08:40
Thalasseus bergii,Animalia,GULLS_TERNS_AND_SKIMMERS_LARIDAE,Greater Crested Tern,,150,42.37221364,17.01669388,Asia,Saudi Arabia,SA,,Saudi Arabia - Jazan,2014-01-21,17:07
Thalasseus bengalensis,Animalia,GULLS_TERNS_AND_SKIMMERS_LARIDAE,Lesser Crested Tern,,850,42.37221364,17.01669388,Asia,Saudi Arabia,SA,,Saudi Arabia - Jazan,2014-01-21,17:07
Pelecanus rufescens,Animalia,PELICANS_PELECANIDAE,Pink-backed Pelican,,33,42.37221365,17.01669389,Asia,Saudi Arabia,SA,,Saudi Arabia - Jazan,2014-01-21,17:08
Hydroprogne caspia,Animalia,GULLS_TERNS_AND_SKIMMERS_LARIDAE,Caspian Tern,,3,42.38285918,17.03685945,Asia,Saudi Arabia,SA,,Saudi Arabia - Jazan,2014-01-21,15:37
Sula leucogaster,Animalia,GANNETS_AND_BOOBIES_SULIDAE,Brown Booby,,20,42.36946443,17.0976039,Asia,Saudi Arabia,SA,,Saudi Arabia - Jazan,2014-01-21,14:55
Thalasseus bergii,Animalia,GULLS_TERNS_AND_SKIMMERS_LARIDAE,Greater Crested Tern,,17,42.36946443,17.0976039,Asia,Saudi Arabia,SA,,Saudi Arabia - Jazan,2014-01-21,14:55
Pelecanus rufescens,Animalia,PELICANS_PELECANIDAE,Pink-backed Pelican,,10,42.36946443,17.0976039,Asia,Saudi Arabia,SA,,Saudi Arabia - Jazan,2014-01-21,14:55
Cercotrichas podobe,Animalia,OLD_WORLD_FLYCATCHERS_MUSCICAPIDAE,Black Scrub Robin,,2,42.6099641921,17.2740056493,Asia,Saudi Arabia,SA,,Saudi Arabia - Jazan,2014-01-21,13:07
Pelecanus rufescens,Animalia,PELICANS_PELECANIDAE,Pink-backed Pelican,,33,42.2071,17.531,Asia,Saudi Arabia,SA,,Saudi Arabia - Jazan,2014-01-21,12:15
Cercotrichas podobe,Animalia,OLD_WORLD_FLYCATCHERS_MUSCICAPIDAE,Black Scrub Robin,,6,42.5783193111,17.3286759912,Asia,Saudi Arabia,SA,,Saudi Arabia - Jazan,2014-01-21,13:00
Pelecanus rufescens,Animalia,PELICANS_PELECANIDAE,Pink-backed Pelican,,10,42.2193,17.5259,Asia,Saudi Arabia,SA,,Saudi Arabia - Jazan,2014-01-21,11:10
Phoenicopterus roseus,Animalia,FLAMINGOS_PHOENICOPTERIDAE,Greater Flamingo,,5,42.2193,17.5259,Asia,Saudi Arabia,SA,,Saudi Arabia - Jazan,2014-01-21,11:10
Thalasseus bergii,Animalia,GULLS_TERNS_AND_SKIMMERS_LARIDAE,Greater Crested Tern,,31,42.1356,17.6032,Asia,Saudi Arabia,SA,,Saudi Arabia - Jazan,2014-01-21,07:48
Hydroprogne caspia,Animalia,GULLS_TERNS_AND_SKIMMERS_LARIDAE,Caspian Tern,,1,42.1356,17.6032,Asia,Saudi Arabia,SA,,Saudi Arabia - Jazan,2014-01-21,07:48
Pelecanus rufescens,Animalia,PELICANS_PELECANIDAE,Pink-backed Pelican,,60,42.14638083,17.55677791,Asia,Saudi Arabia,SA,,Saudi Arabia - Jazan,2014-01-21,09:38
Butorides striata,Animalia,HERONS_ARDEIDAE,Striated Heron,,1,42.1356,17.6032,Asia,Saudi Arabia,SA,,Saudi Arabia - Jazan,2014-01-21,07:48
Ichthyaetus hemprichii,Animalia,GULLS_TERNS_AND_SKIMMERS_LARIDAE,Sooty Gull,,5,41.6958,17.941,Asia,Saudi Arabia,SA,,Saudi Arabia - Jazan,2014-01-20,13:56
Thalasseus bergii,Animalia,GULLS_TERNS_AND_SKIMMERS_LARIDAE,Greater Crested Tern,,80,42.15301522,17.55368974,Asia,Saudi Arabia,SA,,Saudi Arabia - Jazan,2014-01-21,08:55
Platalea leucorodia,Animalia,IBISSES_AND_SPOONBILLS_THRESKIORNITHIDAE,Eurasian Spoonbill,,15,41.6958,17.941,Asia,Saudi Arabia,SA,,Saudi Arabia - Jazan,2014-01-20,13:56
Pelecanus rufescens,Animalia,PELICANS_PELECANIDAE,Pink-backed Pelican,,35,42.15301522,17.55368974,Asia,Saudi Arabia,SA,,Saudi Arabia - Jazan,2014-01-21,08:55
Phoenicopterus roseus,Animalia,FLAMINGOS_PHOENICOPTERIDAE,Greater Flamingo,,23,42.15301522,17.55368974,Asia,Saudi Arabia,SA,,Saudi Arabia - Jazan,2014-01-21,08:55
Butorides striata,Animalia,HERONS_ARDEIDAE,Striated Heron,,1,42.1085502784,17.6234770529,Asia,Saudi Arabia,SA,,Saudi Arabia - Jazan,2014-01-21,11:08
Chroicocephalus genei,Animalia,GULLS_TERNS_AND_SKIMMERS_LARIDAE,Slender-billed Gull,,1150,42.37221351,17.01669383,Asia,Saudi Arabia,SA,,Saudi Arabia - Jazan,2014-01-21,17:07
Cercotrichas podobe,Animalia,OLD_WORLD_FLYCATCHERS_MUSCICAPIDAE,Black Scrub Robin,,1,41.622939,18.065427,Asia,Saudi Arabia,SA,,Saudi Arabia - Jazan,2014-01-20,09:44
Platalea leucorodia,Animalia,IBISSES_AND_SPOONBILLS_THRESKIORNITHIDAE,Eurasian Spoonbill,,9,41.681682,17.948789,Asia,Saudi Arabia,SA,,Saudi Arabia - Jazan,2014-01-20,11:04
Milvus aegyptius,Animalia,HAWKS_AND_EAGLES_ACCIPITRIDAE,Yellow-billed Kite,,2,41.888361,17.806733,Asia,Saudi Arabia,SA,,Saudi Arabia - Asir NP,2014-01-20,16:04
Oena capensis,Animalia,PIGEONS_AND_DOVES_COLUMBIDAE,Namaqua Dove,,1,42.80216,17.180849,Asia,Saudi Arabia,SA,,Saudi Arabia - Jazan,2014-01-21,16:28
Oena capensis,Animalia,PIGEONS_AND_DOVES_COLUMBIDAE,Namaqua Dove,,1,42.803282,17.18152,Asia,Saudi Arabia,SA,,Saudi Arabia - Jazan,2014-01-21,16:44
Ichthyaetus hemprichii,Animalia,GULLS_TERNS_AND_SKIMMERS_LARIDAE,Sooty Gull,,67,41.6812,17.9485,Asia,Saudi Arabia,SA,,Saudi Arabia - Jazan,2014-01-20,11:20
Platalea leucorodia,Animalia,IBISSES_AND_SPOONBILLS_THRESKIORNITHIDAE,Eurasian Spoonbill,,2,41.6812,17.9485,Asia,Saudi Arabia,SA,,Saudi Arabia - Jazan,2014-01-20,11:20
Pycnonotus xanthopygos,Animalia,BULBULS_PYCNONOTIDAE,White-spectacled Bulbul,,8,41.0763432831,19.1328224626,Asia,Saudi Arabia,SA,,Saudi Arabia - Mecca,2014-01-18,18:05
Ichthyaetus leucophthalmus,Animalia,GULLS_TERNS_AND_SKIMMERS_LARIDAE,White-eyed Gull,,1,39.1284231842,21.2659796278,Asia,Saudi Arabia,SA,,Saudi Arabia - Mecca,2014-01-18,13:15
Ichthyaetus hemprichii,Animalia,GULLS_TERNS_AND_SKIMMERS_LARIDAE,Sooty Gull,,22,39.1284231842,21.2659796278,Asia,Saudi Arabia,SA,,Saudi Arabia - Mecca,2014-01-18,13:15
Ichthyaetus hemprichii,Animalia,GULLS_TERNS_AND_SKIMMERS_LARIDAE,Sooty Gull,,15,39.1175656021,21.2827757709,Asia,Saudi Arabia,SA,,Saudi Arabia - Mecca,2014-01-18,12:45
Ichthyaetus hemprichii,Animalia,GULLS_TERNS_AND_SKIMMERS_LARIDAE,Sooty Gull,,22,39.1415995359,21.2397799431,Asia,Saudi Arabia,SA,,Saudi Arabia - Mecca,2014-01-18,12:20
Ichthyaetus hemprichii,Animalia,GULLS_TERNS_AND_SKIMMERS_LARIDAE,Sooty Gull,,11,39.1306132078,21.2602586288,Asia,Saudi Arabia,SA,,Saudi Arabia - Mecca,2014-01-18,11:45
Ichthyaetus hemprichii,Animalia,GULLS_TERNS_AND_SKIMMERS_LARIDAE,Sooty Gull,,2,39.1072672606,21.3224771488,Asia,Saudi Arabia,SA,,Saudi Arabia - Mecca,2014-01-18,11:00
Pandion haliaetus,Animalia,OSPREY_PANDIONIDAE,Western Osprey,,1,40.84043738,19.57020827,Asia,Saudi Arabia,SA,,Saudi Arabia - Mecca,2014-01-19,12:00
Egretta gularis,Animalia,HERONS_ARDEIDAE,Western Reef Heron,,5,40.9556851531,19.500578721,Asia,Saudi Arabia,SA,,Saudi Arabia - Mecca,2014-01-19,10:45
Dromas ardeola,Animalia,CRABPLOVER_DROMADIDAE,Crab-plover,,2,40.9556851531,19.500578721,Asia,Saudi Arabia,SA,,Saudi Arabia - Mecca,2014-01-19,10:45
Dromas ardeola,Animalia,CRABPLOVER_DROMADIDAE,Crab-plover,,5,40.9556851531,19.500578721,Asia,Saudi Arabia,SA,,Saudi Arabia - Mecca,2014-01-19,10:45
Ardea purpurea,Animalia,HERONS_ARDEIDAE,Purple Heron,,1,40.9556851531,19.500578721,Asia,Saudi Arabia,SA,,Saudi Arabia - Mecca,2014-01-19,10:45
Egretta gularis,Animalia,HERONS_ARDEIDAE,Western Reef Heron,,1,40.96266367,19.50003867,Asia,Saudi Arabia,SA,,Saudi Arabia - Mecca,2014-01-19,10:14
Dromas ardeola,Animalia,CRABPLOVER_DROMADIDAE,Crab-plover,,3,40.96266367,19.50003867,Asia,Saudi Arabia,SA,,Saudi Arabia - Mecca,2014-01-19,10:14
Dromas ardeola,Animalia,CRABPLOVER_DROMADIDAE,Crab-plover,,2,40.96450142,19.49511096,Asia,Saudi Arabia,SA,,Saudi Arabia - Mecca,2014-01-19,09:59
Ichthyaetus hemprichii,Animalia,GULLS_TERNS_AND_SKIMMERS_LARIDAE,Sooty Gull,,65,40.96213198,19.48565243,Asia,Saudi Arabia,SA,,Saudi Arabia - Mecca,2014-01-19,09:36
Egretta gularis,Animalia,HERONS_ARDEIDAE,Western Reef Heron,,3,40.96213198,19.48565243,Asia,Saudi Arabia,SA,,Saudi Arabia - Mecca,2014-01-19,09:36
Egretta gularis,Animalia,HERONS_ARDEIDAE,Western Reef Heron,,3,40.96063351,19.47981621,Asia,Saudi Arabia,SA,,Saudi Arabia - Mecca,2014-01-19,09:21
Dromas ardeola,Animalia,CRABPLOVER_DROMADIDAE,Crab-plover,,3,40.96063351,19.47981621,Asia,Saudi Arabia,SA,,Saudi Arabia - Mecca,2014-01-19,09:21
Alaemon alaudipes,Animalia,LARKS_ALAUDIDAE,Greater Hoopoe-Lark,,1,40.95937291,19.47230312,Asia,Saudi Arabia,SA,,Saudi Arabia - Mecca,2014-01-19,08:53
Ichthyaetus hemprichii,Animalia,GULLS_TERNS_AND_SKIMMERS_LARIDAE,Sooty Gull,,130,40.95937291,19.47230312,Asia,Saudi Arabia,SA,,Saudi Arabia - Mecca,2014-01-19,08:50
Egretta gularis,Animalia,HERONS_ARDEIDAE,Western Reef Heron,,5,40.95937291,19.47230312,Asia,Saudi Arabia,SA,,Saudi Arabia - Mecca,2014-01-19,08:53
Dromas ardeola,Animalia,CRABPLOVER_DROMADIDAE,Crab-plover,,8,40.95937291,19.47230312,Asia,Saudi Arabia,SA,,Saudi Arabia - Mecca,2014-01-19,08:53
Pandion haliaetus,Animalia,OSPREY_PANDIONIDAE,Western Osprey,,1,40.7978811529,19.5873885722,Asia,Saudi Arabia,SA,,Saudi Arabia - Mecca,2014-01-19,12:47
Milvus migrans,Animalia,HAWKS_AND_EAGLES_ACCIPITRIDAE,Black Kite,,15,40.95937041,19.47230222,Asia,Saudi Arabia,SA,,Saudi Arabia - Mecca,2014-01-19,08:53
Ichthyaetus leucophthalmus,Animalia,GULLS_TERNS_AND_SKIMMERS_LARIDAE,White-eyed Gull,,3,39.126142,21.3349,Asia,Saudi Arabia,SA,,Saudi Arabia - Mecca,2014-01-18,10:16
Ichthyaetus hemprichii,Animalia,GULLS_TERNS_AND_SKIMMERS_LARIDAE,Sooty Gull,,5,39.106548,21.297896,Asia,Saudi Arabia,SA,,Saudi Arabia - Mecca,2014-01-18,10:29
Hypocolius ampelinus,Animalia,Hypocoliidae,Grey Hypocolius,,73,49.356368,27.15397,Asia,Saudi Arabia,SA,,Saudi Arabia - Ash Sharquiyah,2014-01-14,07:11
Charadrius alexandrinus,Animalia,PLOVERS_CHARADRIIDAE,Kentish Plover,,4,49.6622166667,27.3058833333,Asia,Saudi Arabia,SA,,Saudi Arabia - Ash Sharquiyah,2014-01-14,
Charadrius alexandrinus,Animalia,PLOVERS_CHARADRIIDAE,Kentish Plover,,7,49.6478666667,27.31055,Asia,Saudi Arabia,SA,,Saudi Arabia - Ash Sharquiyah,2014-01-14,
Charadrius leschenaultii,Animalia,PLOVERS_CHARADRIIDAE,Greater Sand Plover,,12,49.5079666667,27.24611,Asia,Saudi Arabia,SA,,Saudi Arabia - Ash Sharquiyah,2014-01-14,
Calidris alpina,Animalia,SANDPIPERS_AND_ALLIES_SCOLOPACIDAE,Dunlin,,50,50.09813071,26.47737158,Asia,Saudi Arabia,SA,,Saudi Arabia - Ash Sharquiyah,2014-01-16,16:12
Xenus cinereus,Animalia,SANDPIPERS_AND_ALLIES_SCOLOPACIDAE,Terek Sandpiper,,36,50.0148014724,26.6589262725,Asia,Saudi Arabia,SA,,Saudi Arabia - Ash Sharquiyah,2014-01-16,07:00
Gelochelidon nilotica,Animalia,GULLS_TERNS_AND_SKIMMERS_LARIDAE,Gull-billed Tern,,15,50.0148014724,26.6589262725,Asia,Saudi Arabia,SA,,Saudi Arabia - Ash Sharquiyah,2014-01-16,07:00
Gelochelidon nilotica,Animalia,GULLS_TERNS_AND_SKIMMERS_LARIDAE,Gull-billed Tern,,4,49.9905972183,26.6687826074,Asia,Saudi Arabia,SA,,Saudi Arabia - Ash Sharquiyah,2014-01-16,
Calidris ferruginea,Animalia,SANDPIPERS_AND_ALLIES_SCOLOPACIDAE,Curlew Sandpiper,,23,49.9905972183,26.6687826074,Asia,Saudi Arabia,SA,,Saudi Arabia - Ash Sharquiyah,2014-01-16,
Numenius arquata,Animalia,SANDPIPERS_AND_ALLIES_SCOLOPACIDAE,Eurasian Curlew,,27,49.9905972183,26.6687826074,Asia,Saudi Arabia,SA,,Saudi Arabia - Ash Sharquiyah,2014-01-16,
Xenus cinereus,Animalia,SANDPIPERS_AND_ALLIES_SCOLOPACIDAE,Terek Sandpiper,,129,49.9905972183,26.6687826074,Asia,Saudi Arabia,SA,,Saudi Arabia - Ash Sharquiyah,2014-01-16,
Gelochelidon nilotica,Animalia,GULLS_TERNS_AND_SKIMMERS_LARIDAE,Gull-billed Tern,,4,50.0286,26.6904,Asia,Saudi Arabia,SA,,Saudi Arabia - Ash Sharquiyah,2014-01-16,
Numenius arquata,Animalia,SANDPIPERS_AND_ALLIES_SCOLOPACIDAE,Eurasian Curlew,,2,50.0286,26.6904,Asia,Saudi Arabia,SA,,Saudi Arabia - Ash Sharquiyah,2014-01-16,
Tringa totanus,Animalia,SANDPIPERS_AND_ALLIES_SCOLOPACIDAE,Common Redshank,,5,50.0286,26.6904,Asia,Saudi Arabia,SA,,Saudi Arabia - Ash Sharquiyah,2014-01-16,
Xenus cinereus,Animalia,SANDPIPERS_AND_ALLIES_SCOLOPACIDAE,Terek Sandpiper,,9,50.0286,26.6904,Asia,Saudi Arabia,SA,,Saudi Arabia - Ash Sharquiyah,2014-01-16,
Gelochelidon nilotica,Animalia,GULLS_TERNS_AND_SKIMMERS_LARIDAE,Gull-billed Tern,,80,49.994836,26.660263,Asia,Saudi Arabia,SA,,Saudi Arabia - Ash Sharquiyah,2014-01-16,07:15
Xenus cinereus,Animalia,SANDPIPERS_AND_ALLIES_SCOLOPACIDAE,Terek Sandpiper,,25,49.994863,26.6602,Asia,Saudi Arabia,SA,,Saudi Arabia - Ash Sharquiyah,2014-01-16,08:21
Calidris ferruginea,Animalia,SANDPIPERS_AND_ALLIES_SCOLOPACIDAE,Curlew Sandpiper,,50,49.994837,26.660244,Asia,Saudi Arabia,SA,,Saudi Arabia - Ash Sharquiyah,2014-01-16,08:25
Hypocolius ampelinus,Animalia,Hypocoliidae,Grey Hypocolius,,75,49.356368,27.15397,Asia,Saudi Arabia,SA,,Saudi Arabia - Ash Sharquiyah,2014-01-14,07:11
Charadrius leschenaultii,Animalia,PLOVERS_CHARADRIIDAE,Greater Sand Plover,,21,49.50804,27.243119,Asia,Saudi Arabia,SA,,Saudi Arabia - Ash Sharquiyah,2014-01-14,13:23
Charadrius alexandrinus,Animalia,PLOVERS_CHARADRIIDAE,Kentish Plover,,39,49.652692,27.307334,Asia,Saudi Arabia,SA,,Saudi Arabia - Ash Sharquiyah,2014-01-14,16:29
Charadrius alexandrinus,Animalia,PLOVERS_CHARADRIIDAE,Kentish Plover,,4,49.652704,27.307286,Asia,Saudi Arabia,SA,,Saudi Arabia - Ash Sharquiyah,2014-01-14,16:32
Charadrius alexandrinus,Animalia,PLOVERS_CHARADRIIDAE,Kentish Plover,,24,49.658065,27.305963,Asia,Saudi Arabia,SA,,Saudi Arabia - Ash Sharquiyah,2014-01-14,16:48
Calidris alpina,Animalia,SANDPIPERS_AND_ALLIES_SCOLOPACIDAE,Dunlin,,66,50.058688,26.489092,Asia,Saudi Arabia,SA,,Saudi Arabia - Ash Sharquiyah,2014-01-15,09:24
Phoenicopterus roseus,Animalia,FLAMINGOS_PHOENICOPTERIDAE,Greater Flamingo,,27,50.079487,26.544341,Asia,Saudi Arabia,SA,,Saudi Arabia - Ash Sharquiyah,2014-01-15,12:12
Phoenicopterus roseus,Animalia,FLAMINGOS_PHOENICOPTERIDAE,Greater Flamingo,,27,50.07952,26.544269,Asia,Saudi Arabia,SA,,Saudi Arabia - Ash Sharquiyah,2014-01-15,12:31
Calidris alpina,Animalia,SANDPIPERS_AND_ALLIES_SCOLOPACIDAE,Dunlin,,48,50.079515,26.544248,Asia,Saudi Arabia,SA,,Saudi Arabia - Ash Sharquiyah,2014-01-15,12:32
Calidris alpina,Animalia,SANDPIPERS_AND_ALLIES_SCOLOPACIDAE,Dunlin,,13,50.0841,26.5579,Asia,Saudi Arabia,SA,,Saudi Arabia - Ash Sharquiyah,2014-01-15,13:21
Phoenicopterus roseus,Animalia,FLAMINGOS_PHOENICOPTERIDAE,Greater Flamingo,,85,50.0841,26.5579,Asia,Saudi Arabia,SA,,Saudi Arabia - Ash Sharquiyah,2014-01-15,13:21
Calidris alpina,Animalia,SANDPIPERS_AND_ALLIES_SCOLOPACIDAE,Dunlin,,22,50.0800137619,26.548813318,Asia,Saudi Arabia,SA,,Saudi Arabia - Ash Sharquiyah,2014-01-15,12:45
Calidris alpina,Animalia,SANDPIPERS_AND_ALLIES_SCOLOPACIDAE,Dunlin,,48,50.0795,26.5443,Asia,Saudi Arabia,SA,,Saudi Arabia - Ash Sharquiyah,2014-01-15,
Calidris alpina,Animalia,SANDPIPERS_AND_ALLIES_SCOLOPACIDAE,Dunlin,,68,50.0479077,26.50139363,Asia,Saudi Arabia,SA,,Saudi Arabia - Ash Sharquiyah,2014-01-15,10:20
Calidris ferruginea,Animalia,SANDPIPERS_AND_ALLIES_SCOLOPACIDAE,Curlew Sandpiper,,50,50.05441996,26.5960187,Asia,Saudi Arabia,SA,,Saudi Arabia - Ash Sharquiyah,2014-01-15,16:20
Numenius arquata,Animalia,SANDPIPERS_AND_ALLIES_SCOLOPACIDAE,Eurasian Curlew,,2,50.03724129,26.58990118,Asia,Saudi Arabia,SA,,Saudi Arabia - Ash Sharquiyah,2014-01-15,15:19
Phoenicopterus roseus,Animalia,FLAMINGOS_PHOENICOPTERIDAE,Greater Flamingo,,840,50.03724697,26.58989986,Asia,Saudi Arabia,SA,,Saudi Arabia - Ash Sharquiyah,2014-01-15,15:16
Tringa totanus,Animalia,SANDPIPERS_AND_ALLIES_SCOLOPACIDAE,Common Redshank,,20,50.06347864,26.59915957,Asia,Saudi Arabia,SA,,Saudi Arabia - Ash Sharquiyah,2014-01-15,16:41
Xenus cinereus,Animalia,SANDPIPERS_AND_ALLIES_SCOLOPACIDAE,Terek Sandpiper,,21,50.06347859,26.59915923,Asia,Saudi Arabia,SA,,Saudi Arabia - Ash Sharquiyah,2014-01-15,16:41
Phoenicopterus roseus,Animalia,FLAMINGOS_PHOENICOPTERIDAE,Greater Flamingo,,64,50.04485113,26.51069257,Asia,Saudi Arabia,SA,,Saudi Arabia - Ash Sharquiyah,2014-01-15,11:25
Tringa totanus,Animalia,SANDPIPERS_AND_ALLIES_SCOLOPACIDAE,Common Redshank,,8,50.03724804,26.58990031,Asia,Saudi Arabia,SA,,Saudi Arabia - Ash Sharquiyah,2014-01-15,15:16
Calidris alpina,Animalia,SANDPIPERS_AND_ALLIES_SCOLOPACIDAE,Dunlin,,72,50.04302851,26.50918563,Asia,Saudi Arabia,SA,,Saudi Arabia - Ash Sharquiyah,2014-01-15,11:00
Xenus cinereus,Animalia,SANDPIPERS_AND_ALLIES_SCOLOPACIDAE,Terek Sandpiper,,1,50.03724088,26.58990113,Asia,Saudi Arabia,SA,,Saudi Arabia - Ash Sharquiyah,2014-01-15,15:19
Xenus cinereus,Animalia,SANDPIPERS_AND_ALLIES_SCOLOPACIDAE,Terek Sandpiper,,11,50.05441939,26.59601815,Asia,Saudi Arabia,SA,,Saudi Arabia - Ash Sharquiyah,2014-01-15,16:18
Gelochelidon nilotica,Animalia,GULLS_TERNS_AND_SKIMMERS_LARIDAE,Gull-billed Tern,,22,50.05441881,26.59601729,Asia,Saudi Arabia,SA,,Saudi Arabia - Ash Sharquiyah,2014-01-15,16:16
Numenius arquata,Animalia,SANDPIPERS_AND_ALLIES_SCOLOPACIDAE,Eurasian Curlew,,9,50.03719791,26.58986811,Asia,Saudi Arabia,SA,,Saudi Arabia - Ash Sharquiyah,2014-01-15,15:20
Charadrius alexandrinus,Animalia,PLOVERS_CHARADRIIDAE,Kentish Plover,,45,49.64777273,27.31059494,Asia,Saudi Arabia,SA,,Saudi Arabia - Ash Sharquiyah,2014-01-14,16:19
Charadrius leschenaultii,Animalia,PLOVERS_CHARADRIIDAE,Greater Sand Plover,,1,49.48758732,27.29276886,Asia,Saudi Arabia,SA,,Saudi Arabia - Ash Sharquiyah,2014-01-14,15:05
Hypocolius ampelinus,Animalia,Hypocoliidae,Grey Hypocolius,,73,49.3555005,27.15396847,Asia,Saudi Arabia,SA,,Saudi Arabia - Ash Sharquiyah,2014-01-14,07:37
Porphyrio poliocephalus,Animalia,RAILS_RALLIDAE,Grey-headed Swamphen,,1,49.45,26.85,Asia,Saudi Arabia,SA,,Saudi Arabia - Ash Sharquiyah,2014-01-14,09:51
Porphyrio poliocephalus,Animalia,RAILS_RALLIDAE,Grey-headed Swamphen,,3,49.45,27.05,Asia,Saudi Arabia,SA,,Saudi Arabia - Ash Sharquiyah,2014-01-12,15:10
Hydroprogne caspia,Animalia,GULLS_TERNS_AND_SKIMMERS_LARIDAE,Caspian Tern,,3,49.481488,27.047302,Asia,Saudi Arabia,SA,,Saudi Arabia - Ash Sharquiyah,2014-01-12,12:15
Hydroprogne caspia,Animalia,GULLS_TERNS_AND_SKIMMERS_LARIDAE,Caspian Tern,,1,49.496579,27.059813,Asia,Saudi Arabia,SA,,Saudi Arabia - Ash Sharquiyah,2014-01-12,14:12
Porphyrio poliocephalus,Animalia,RAILS_RALLIDAE,Grey-headed Swamphen,,4,49.5,27.05,Asia,Saudi Arabia,SA,,Saudi Arabia - Ash Sharquiyah,2014-01-12,15:03
Oenanthe deserti,Animalia,OLD_WORLD_FLYCATCHERS_MUSCICAPIDAE,Desert Wheatear,,1,49.501554,27.086036,Asia,Saudi Arabia,SA,,Saudi Arabia - Ash Sharquiyah,2014-01-12,16:38
Ardeola ralloides,Animalia,HERONS_ARDEIDAE,Squacco Heron,,6,39.178340435,21.4842201102,Asia,Saudi Arabia,SA,,Saudi Arabia,2009-08-26,
Thalasseus bengalensis,Animalia,GULLS_TERNS_AND_SKIMMERS_LARIDAE,Lesser Crested Tern,,4,39.178340435,21.4854181109,Asia,Saudi Arabia,SA,,Saudi Arabia,2009-08-26,
Pycnonotus leucotis,Animalia,BULBULS_PYCNONOTIDAE,White-eared Bulbul,,4,46.7088031769,24.6444232694,Asia,Saudi Arabia,SA,,Saudi Arabia,2009-08-05,
Celonites jousseaumei,Animalia,Vespidae,,,1,49.65,26.96,Asia,Saudi Arabia,SA,,Saudi Arabia - Ash Sharquiyah,2020-04-17,10:59
Amaranthaceae spec.,Plantae,AMARANTHACEAE,,,1,37.961,26.784,Asia,Saudi Arabia,SA,,Saudi Arabia - Al Madinah,2020-02-19,12:00
Cistanche phelypaea,Plantae,OROBANCHACEAE,,,1,37.961,26.784,Asia,Saudi Arabia,SA,,Saudi Arabia - Al Madinah,2020-02-19,12:00
Butorides striata,Animalia,HERONS_ARDEIDAE,Striated Heron,,1,39.151,21.522,Asia,Saudi Arabia,SA,,Saudi Arabia - Mecca,2020-02-15,11:00
Campsomeriella thoracica,Animalia,Scoliidae,,,1,49.66,26.96,Asia,Saudi Arabia,SA,,Saudi Arabia - Ash Sharquiyah,2020-03-21,09:53
Arothron hispidus,Animalia,Puffers,White-spotted puffer,,1,39.163,21.511,Asia,Saudi Arabia,SA,,Saudi Arabia - Mecca,2020-02-15,
Vanessa cardui,Animalia,BRUSHFOOTED_BUTTERFLIES_NYMPHALIDAE,Painted Lady,,1,40.20125892948378,29.99327190223149,Asia,Saudi Arabia,SA,,Saudi Arabia - Al Jawf,2020-02-21,09:57
Hyles livornica,Animalia,Sphingidae,Striped Hawk-moth,,5,41.70135308645003,27.517431386055286,Asia,Saudi Arabia,SA,,Saudi Arabia - Ha'il,2020-02-18,08:51
Actitis hypoleucos,Animalia,SANDPIPERS_AND_ALLIES_SCOLOPACIDAE,Common Sandpiper,,1,39.1016824823237,21.64892858361979,Asia,Saudi Arabia,SA,,Saudi Arabia - Mecca,2020-02-16,12:48
Arenaria interpres,Animalia,SANDPIPERS_AND_ALLIES_SCOLOPACIDAE,Ruddy Turnstone,,1,39.15535323325466,21.528729912844977,Asia,Saudi Arabia,SA,,Saudi Arabia - Mecca,2020-02-15,11:29
Charadrius hiaticula,Animalia,PLOVERS_CHARADRIIDAE,Common Ringed Plover,,1,39.15535323325466,21.528729912844977,Asia,Saudi Arabia,SA,,Saudi Arabia - Mecca,2020-02-15,11:29
Spilopelia senegalensis,Animalia,PIGEONS_AND_DOVES_COLUMBIDAE,Laughing Dove,,1,39.15535323325466,21.528729912844977,Asia,Saudi Arabia,SA,,Saudi Arabia - Mecca,2020-02-15,11:29
Actitis hypoleucos,Animalia,SANDPIPERS_AND_ALLIES_SCOLOPACIDAE,Common Sandpiper,,1,39.15535323325466,21.528729912844977,Asia,Saudi Arabia,SA,,Saudi Arabia - Mecca,2020-02-15,11:29
Tringa totanus,Animalia,SANDPIPERS_AND_ALLIES_SCOLOPACIDAE,Common Redshank,,1,39.15052550848494,21.521658478324788,Asia,Saudi Arabia,SA,,Saudi Arabia - Mecca,2020-02-15,10:36
Numenius arquata,Animalia,SANDPIPERS_AND_ALLIES_SCOLOPACIDAE,Eurasian Curlew,,1,49.9946022,26.66016311,Asia,Saudi Arabia,SA,,Saudi Arabia - Ash Sharquiyah,2014-01-16,08:40
Oena capensis,Animalia,PIGEONS_AND_DOVES_COLUMBIDAE,Namaqua Dove,,5,42.98433423,17.02460382,Asia,Saudi Arabia,SA,,Saudi Arabia - Jazan,2012-11-22,09:20
Actitis hypoleucos,Animalia,SANDPIPERS_AND_ALLIES_SCOLOPACIDAE,Common Sandpiper,,2,42.53949344,16.90059103,Asia,Saudi Arabia,SA,,Saudi Arabia - Jazan,2012-11-21,16:45
Oenanthe monacha,Animalia,OLD_WORLD_FLYCATCHERS_MUSCICAPIDAE,Hooded Wheatear,,1,35.68864351,27.3595521,Asia,Saudi Arabia,SA,,Saudi Arabia - Tabuk,2013-12-19,06:30
Oenanthe melanura,Animalia,OLD_WORLD_FLYCATCHERS_MUSCICAPIDAE,Blackstart,,1,35.688359197229,27.359561623902,Asia,Saudi Arabia,SA,,Saudi Arabia - Tabuk,2013-12-14,07:00
Aquila nipalensis,Animalia,HAWKS_AND_EAGLES_ACCIPITRIDAE,Steppe Eagle,,1,36.327009424567,28.759081403316,Asia,Saudi Arabia,SA,,Saudi Arabia - Al Jawf,2013-12-13,09:20
Oena capensis,Animalia,PIGEONS_AND_DOVES_COLUMBIDAE,Namaqua Dove,,1,36.326683871448,28.756598484702,Asia,Saudi Arabia,SA,,Saudi Arabia - Al Jawf,2013-12-13,10:00
Luscinia svecica,Animalia,OLD_WORLD_FLYCATCHERS_MUSCICAPIDAE,Bluethroat,,1,36.595720164478,28.409935568251,Asia,Saudi Arabia,SA,,Saudi Arabia - Tabuk,2013-12-13,07:25
Pycnonotus leucotis,Animalia,BULBULS_PYCNONOTIDAE,White-eared Bulbul,,10,36.596024092287,28.41050184368,Asia,Saudi Arabia,SA,,Saudi Arabia - Tabuk,2013-12-11,06:40
Ceryle rudis,Animalia,KINGFISHERS_ALCEDINIDAE,Pied Kingfisher,,1,39.175243489444,21.487754027875,Asia,Saudi Arabia,SA,,Saudi Arabia - Mecca,2013-12-08,10:40
Chlidonias hybrida,Animalia,GULLS_TERNS_AND_SKIMMERS_LARIDAE,Whiskered Tern,,1,39.176048152149,21.486635912152,Asia,Saudi Arabia,SA,,Saudi Arabia - Mecca,2013-01-14,16:25
Chroicocephalus brunnicephalus,Animalia,GULLS_TERNS_AND_SKIMMERS_LARIDAE,Brown-headed Gull,,1,39.177773650736,21.482782418365,Asia,Saudi Arabia,SA,,Saudi Arabia - Mecca,2013-01-14,16:10
Ardeola ralloides,Animalia,HERONS_ARDEIDAE,Squacco Heron,,1,39.176824316382,21.48160412912,Asia,Saudi Arabia,SA,,Saudi Arabia - Mecca,2012-01-06,14:55
Alcedo atthis,Animalia,KINGFISHERS_ALCEDINIDAE,Common Kingfisher,,1,39.177854284644,21.485018466438,Asia,Saudi Arabia,SA,,Saudi Arabia - Mecca,2012-01-06,15:10
Oenanthe isabellina,Animalia,OLD_WORLD_FLYCATCHERS_MUSCICAPIDAE,Isabelline Wheatear,,1,39.348623156548,21.640353562235,Asia,Saudi Arabia,SA,,Saudi Arabia - Mecca,2012-01-06,09:25
Buteo rufinus,Animalia,HAWKS_AND_EAGLES_ACCIPITRIDAE,Long-legged Buzzard,,1,39.318469762802,21.634128010454,Asia,Saudi Arabia,SA,,Saudi Arabia - Mecca,2012-01-06,09:00
Emberiza caesia,Animalia,BUNTINGS_EMBERIZIDAE,Cretzschmar's Bunting,,10,39.176529105753,21.484918867135,Asia,Saudi Arabia,SA,,Saudi Arabia - Mecca,2012-03-05,16:10
Nycticorax nycticorax,Animalia,HERONS_ARDEIDAE,Black-crowned Night Heron,,1,39.176883157343,21.480730799032,Asia,Saudi Arabia,SA,,Saudi Arabia - Mecca,2012-03-05,16:35
Calidris falcinellus,Animalia,SANDPIPERS_AND_ALLIES_SCOLOPACIDAE,Broad-billed Sandpiper,,4,39.199333414435,21.409804656465,Asia,Saudi Arabia,SA,,Saudi Arabia - Mecca,2011-03-19,08:50
Ardeola ralloides,Animalia,HERONS_ARDEIDAE,Squacco Heron,,1,39.199834316969,21.409684482574,Asia,Saudi Arabia,SA,,Saudi Arabia - Mecca,2010-11-05,08:20
Thalasseus bengalensis,Animalia,GULLS_TERNS_AND_SKIMMERS_LARIDAE,Lesser Crested Tern,,1,39.177206866443,21.481594301553,Asia,Saudi Arabia,SA,,Saudi Arabia - Mecca,2009-11-14,16:05
Ciconia nigra,Animalia,STORKS_CICONIIDAE,Black Stork,,2,39.364416003227,21.624236884501,Asia,Saudi Arabia,SA,,Saudi Arabia - Mecca,2009-03-20,
Egretta garzetta,Animalia,HERONS_ARDEIDAE,Little Egret,,100,39.364416003227,21.624236884501,Asia,Saudi Arabia,SA,,Saudi Arabia - Mecca,2009-03-20,
Milvus migrans,Animalia,HAWKS_AND_EAGLES_ACCIPITRIDAE,Black Kite,,100,39.364416003227,21.624236884501,Asia,Saudi Arabia,SA,,Saudi Arabia - Mecca,2009-03-20,
Calidris falcinellus,Animalia,SANDPIPERS_AND_ALLIES_SCOLOPACIDAE,Broad-billed Sandpiper,,4,39.1778113693,21.484798833115,Asia,Saudi Arabia,SA,,Saudi Arabia - Mecca,2009-03-17,16:00
Motacilla flava feldegg,Animalia,PIPITS_EN_WAGTAILS_MOTACILLIDAE,Black-headed Wagtail,,20,39.177553877234,21.47952753393,Asia,Saudi Arabia,SA,,Saudi Arabia - Mecca,2009-03-17,15:15
Thalasseus bengalensis,Animalia,GULLS_TERNS_AND_SKIMMERS_LARIDAE,Lesser Crested Tern,,1,39.1511254,21.52526535,Asia,Saudi Arabia,SA,,Saudi Arabia - Mecca,2009-02-13,16:50
Milvus aegyptius,Animalia,HAWKS_AND_EAGLES_ACCIPITRIDAE,Yellow-billed Kite,,1,39.182059988379,21.473597094236,Asia,Saudi Arabia,SA,,Saudi Arabia - Mecca,2009-02-13,13:50
Alcedo atthis,Animalia,KINGFISHERS_ALCEDINIDAE,Common Kingfisher,,1,39.177269267748,21.482659402588,Asia,Saudi Arabia,SA,,Saudi Arabia - Mecca,2014-02-27,
Lanius excubitor aucheri,Animalia,SHRIKES_LANIIDAE,Levant Grey Shrike,,2,39.177188264512,21.485156151444,Asia,Saudi Arabia,SA,,Saudi Arabia - Mecca,2014-02-27,
Ardeola ralloides,Animalia,HERONS_ARDEIDAE,Squacco Heron,,2,39.17749371547,21.482270792212,Asia,Saudi Arabia,SA,,Saudi Arabia - Mecca,2014-02-14,
Ptyonoprogne obsoleta,Animalia,SWALLOWS_HIRUNDINIDAE,Pale Crag Martin,,2,39.182321262288,21.473281309062,Asia,Saudi Arabia,SA,,Saudi Arabia - Mecca,2014-02-10,
