scientificName,kingdom,family,vernacularName,previousIdentifications,individualCount,longitudeDecimal,latitudeDecimal,continent,country,countryCode,stateProvince,locality,eventDate,eventTime
Euscyrtus madagascarensis,Animalia,TRUE_CRICKETS_GRYLLIDAE,,,1,55.4986792804,-4.77799846957,Africa,Seychelles,SC,,Seychelles - Mahé,2014-08-09,
Amphinotus nymphula,Animalia,PYGMY_GRASSHOPPERS_TETRIGIDAE,,,1,55.41889,-4.64251,Africa,Seychelles,SC,,Seychelles - Mahé,2014-08-10,14:51
Butorides striata,Animalia,HERONS_ARDEIDAE,Striated Heron,,1,55.7177022099,-4.32969549541,Africa,Seychelles,SC,,Seychelles - Praslin,1989-09-29,
Gygis alba,Animalia,GULLS_TERNS_AND_SKIMMERS_LARIDAE,White Tern,,50,55.6627464294,-4.33203305231,Africa,Seychelles,SC,,Seychelles - Praslin,1989-10-01,
Terpsiphone corvina,Animalia,MONARCHS_MONARCHIDAE,Seychelles Paradise Flycatcher,,3,55.8306741714,-4.35762267566,Africa,Seychelles,SC,,Seychelles - La Digue,1989-11-01,
Copsychus sechellarum,Animalia,OLD_WORLD_FLYCATCHERS_MUSCICAPIDAE,Seychelles Magpie-Robin,,13,55.9421253204,-4.58744032025,Africa,Seychelles,SC,,Seychelles - Indian Ocean,1989-11-15,
Coracopsis barklyi,Animalia,PSITTACULIDAE,Seychelles Black Parrot,,1,55.7397794724,-4.32982922312,Africa,Seychelles,SC,,Seychelles - Praslin,1989-10-15,
Alectroenas pulcherrimus,Animalia,PIGEONS_AND_DOVES_COLUMBIDAE,Seychelles Blue Pigeon,,4,55.9419751167,-4.5876328206,Africa,Seychelles,SC,,Seychelles - Indian Ocean,1989-11-15,
Phaethon lepturus,Animalia,TROPICBIRDS_PHAETHONTIDAE,White-tailed Tropicbird,,11,55.6632077694,-4.33124673535,Africa,Seychelles,SC,,Seychelles - Praslin,1989-12-01,
Onychoprion anaethetus,Animalia,GULLS_TERNS_AND_SKIMMERS_LARIDAE,Bridled Tern,,4,55.6632077694,-4.33124673535,Africa,Seychelles,SC,,Seychelles - Praslin,1989-12-01,
Phaethon lepturus,Animalia,TROPICBIRDS_PHAETHONTIDAE,White-tailed Tropicbird,,59,55.6632077694,-4.33124673535,Africa,Seychelles,SC,,Seychelles - Praslin,1989-11-22,
Onychoprion anaethetus,Animalia,GULLS_TERNS_AND_SKIMMERS_LARIDAE,Bridled Tern,,14,55.6632077694,-4.33124673535,Africa,Seychelles,SC,,Seychelles - Praslin,1989-11-22,
Butorides striata,Animalia,HERONS_ARDEIDAE,Striated Heron,,1,55.664511323,-4.33269633946,Africa,Seychelles,SC,,Seychelles - Praslin,1989-10-05,
Dromas ardeola,Animalia,CRABPLOVER_DROMADIDAE,Crab-plover,,7,55.6652462482,-4.32970084452,Africa,Seychelles,SC,,Seychelles - Praslin,1989-09-30,
Anous stolidus,Animalia,GULLS_TERNS_AND_SKIMMERS_LARIDAE,Brown Noddy,,100,55.6645488739,-4.33252516864,Africa,Seychelles,SC,,Seychelles - Praslin,1989-09-30,
Anous tenuirostris,Animalia,GULLS_TERNS_AND_SKIMMERS_LARIDAE,Lesser Noddy,,250,55.6645488739,-4.33252516864,Africa,Seychelles,SC,,Seychelles - Praslin,1989-09-30,
Phaethon lepturus,Animalia,TROPICBIRDS_PHAETHONTIDAE,White-tailed Tropicbird,,4,55.6645488739,-4.33252516864,Africa,Seychelles,SC,,Seychelles - Praslin,1989-09-30,
Onychoprion anaethetus,Animalia,GULLS_TERNS_AND_SKIMMERS_LARIDAE,Bridled Tern,,5,55.6645488739,-4.33252516864,Africa,Seychelles,SC,,Seychelles - Praslin,1989-09-30,
Acrocephalus sechellensis,Animalia,Acrocephalidae,Seychelles Warbler,,10,55.6646937132,-4.32983457223,Africa,Seychelles,SC,,Seychelles - Praslin,1989-09-30,
Foudia sechellarum,Animalia,WEAVERS_PLOCEIDAE,Seychelles Fody,,20,55.6646561623,-4.33086160022,Africa,Seychelles,SC,,Seychelles - Praslin,1989-09-30,
Hypsipetes crassirostris,Animalia,BULBULS_PYCNONOTIDAE,Seychelles Bulbul,,4,55.7599282265,-4.34668942278,Africa,Seychelles,SC,,Seychelles - Praslin,1989-09-29,
Foudia madagascariensis,Animalia,WEAVERS_PLOCEIDAE,Red Fody,,25,55.4509592056,-4.62489135375,Africa,Seychelles,SC,,Seychelles - Mahé,1989-09-29,
Acridotheres tristis,Animalia,STARLINGS_STURNIDAE,Common Myna,,25,55.4509592056,-4.62489135375,Africa,Seychelles,SC,,Seychelles - Mahé,1989-09-29,
Bubulcus ibis,Animalia,HERONS_ARDEIDAE,Western Cattle Egret,,4,55.4561385512,-4.62433794409,Africa,Seychelles,SC,,Seychelles - Mahé,1989-09-29,
Acridotheres tristis tristis,Animalia,STARLINGS_STURNIDAE,Common Myna ssp tristis,,1,55.66349207,-4.33093233,Africa,Seychelles,SC,,Seychelles - Praslin,1997-06-30,
Foudia madagascariensis,Animalia,WEAVERS_PLOCEIDAE,Red Fody,,1,55.74193999,-4.33237606,Africa,Seychelles,SC,,Seychelles - Praslin,1997-06-30,
Foudia sechellarum,Animalia,WEAVERS_PLOCEIDAE,Seychelles Fody,,1,55.6634920731,-4.33093232692,Africa,Seychelles,SC,,Seychelles - Praslin,1997-08-01,
Acrocephalus sechellensis,Animalia,Acrocephalidae,Seychelles Warbler,,1,55.6473559,-4.35069283,Africa,Seychelles,SC,,Seychelles - Praslin,1997-06-30,
Acrocephalus sechellensis,Animalia,Acrocephalidae,Seychelles Warbler,,1,55.66332041,-4.33161701,Africa,Seychelles,SC,,Seychelles - Praslin,1997-07-01,
Copsychus sechellarum,Animalia,OLD_WORLD_FLYCATCHERS_MUSCICAPIDAE,Seychelles Magpie-Robin,,1,55.64701258,-4.35027442,Africa,Seychelles,SC,,Seychelles - Praslin,1997-06-30,
Ardenna pacifica,Animalia,PETRELS_AND_SHEARWATERS_PROCELLARIIDAE,Wedge-tailed Shearwater,,1,55.66349207,-4.33273913,Africa,Seychelles,SC,,Seychelles - Praslin,1997-06-30,
Phaethon lepturus lepturus,Animalia,TROPICBIRDS_PHAETHONTIDAE,White-tailed Tropicbird ssp lepturus,,1,55.66349207,-4.33273913,Africa,Seychelles,SC,,Seychelles - Praslin,1997-06-30,
Gygis alba,Animalia,GULLS_TERNS_AND_SKIMMERS_LARIDAE,White Tern,,1,55.6634920731,-4.33273913216,Africa,Seychelles,SC,,Seychelles - Praslin,1997-08-01,
Anous stolidus pileatus,Animalia,GULLS_TERNS_AND_SKIMMERS_LARIDAE,Brown Noddy ssp pileatus,,1,55.6634920731,-4.33273913216,Africa,Seychelles,SC,,Seychelles - Praslin,1997-08-01,
Onychoprion anaethetus antarcticus,Animalia,GULLS_TERNS_AND_SKIMMERS_LARIDAE,Bridled Tern ssp antarcticus,,1,55.66349207,-4.33273913,Africa,Seychelles,SC,,Seychelles - Praslin,1997-07-02,
Arenaria interpres,Animalia,SANDPIPERS_AND_ALLIES_SCOLOPACIDAE,Ruddy Turnstone,,1,55.6634920731,-4.33273913216,Africa,Seychelles,SC,,Seychelles - Praslin,1997-08-01,
Nesoenas picturatus rostratus,Animalia,PIGEONS_AND_DOVES_COLUMBIDAE,Malagasy Turtle Dove ssp rostratus,,1,55.66349207,-4.33273913,Africa,Seychelles,SC,,Seychelles - Praslin,1997-07-01,
Puffinus bailloni,Animalia,PETRELS_AND_SHEARWATERS_PROCELLARIIDAE,Tropical Shearwater,,1,55.6645274162,-4.33203305231,Africa,Seychelles,SC,,Seychelles - Praslin,2010-07-05,
Bubulcus ibis,Animalia,HERONS_ARDEIDAE,Western Cattle Egret,,8,55.4514460266,-4.62095598675,Africa,Seychelles,SC,,Seychelles - Mahé,2010-06-29,
Ardea cinerea,Animalia,HERONS_ARDEIDAE,Grey Heron,,1,55.4645070434,-4.57976165273,Africa,Seychelles,SC,,Seychelles - Mahé,2010-06-29,
Geopelia striata,Animalia,PIGEONS_AND_DOVES_COLUMBIDAE,Zebra Dove,,1,55.4841756821,-4.65855495641,Africa,Seychelles,SC,,Seychelles - Mahé,2010-07-01,
Alectroenas pulcherrimus,Animalia,PIGEONS_AND_DOVES_COLUMBIDAE,Seychelles Blue Pigeon,,1,55.4841756821,-4.65855495641,Africa,Seychelles,SC,,Seychelles - Mahé,2010-07-01,
Hypsipetes crassirostris,Animalia,BULBULS_PYCNONOTIDAE,Seychelles Bulbul,,1,55.4663228989,-4.65581744267,Africa,Seychelles,SC,,Seychelles - Mahé,2010-07-01,
Cinnyris dussumieri,Animalia,SUNBIRDS_NECTARINIIDAE,Seychelles Sunbird,,1,55.4626750946,-4.64212971431,Africa,Seychelles,SC,,Seychelles - Mahé,2010-06-28,
Foudia madagascariensis,Animalia,WEAVERS_PLOCEIDAE,Red Fody,,1,55.4554800689,-4.5962738941,Africa,Seychelles,SC,,Seychelles - Mahé,2010-06-29,
Gygis alba,Animalia,GULLS_TERNS_AND_SKIMMERS_LARIDAE,White Tern,,500,55.6641344726,-4.32993620527,Africa,Seychelles,SC,,Seychelles - Praslin,2010-07-05,
Phaethon lepturus,Animalia,TROPICBIRDS_PHAETHONTIDAE,White-tailed Tropicbird,,2,55.6647782028,-4.32972224095,Africa,Seychelles,SC,,Seychelles - Praslin,2010-07-05,
Onychoprion anaethetus,Animalia,GULLS_TERNS_AND_SKIMMERS_LARIDAE,Bridled Tern,,1,55.6647782028,-4.32972224095,Africa,Seychelles,SC,,Seychelles - Praslin,2010-07-05,
Copsychus sechellarum,Animalia,OLD_WORLD_FLYCATCHERS_MUSCICAPIDAE,Seychelles Magpie-Robin,,1,55.6647782028,-4.32972224095,Africa,Seychelles,SC,,Seychelles - Praslin,2010-07-05,
Anous tenuirostris,Animalia,GULLS_TERNS_AND_SKIMMERS_LARIDAE,Lesser Noddy,,500,55.6647782028,-4.32972224095,Africa,Seychelles,SC,,Seychelles - Praslin,2010-07-05,
Geopelia striata,Animalia,PIGEONS_AND_DOVES_COLUMBIDAE,Zebra Dove,,2,55.4703177139,-4.63743519004,Africa,Seychelles,SC,,Seychelles - Mahé,2013-10-03,
Terpsiphone corvina,Animalia,MONARCHS_MONARCHIDAE,Seychelles Paradise Flycatcher,,1,55.6688725948,-3.80739071133,Africa,Seychelles,SC,,Seychelles - Indian Ocean,2013-09-04,
Acrocephalus sechellensis,Animalia,Acrocephalidae,Seychelles Warbler,,1,55.6672243774,-3.80653429838,Africa,Seychelles,SC,,Seychelles - Indian Ocean,2013-08-26,
Nesoenas picturatus,Animalia,PIGEONS_AND_DOVES_COLUMBIDAE,Malagasy Turtle Dove,,1,55.6678426266,-3.80910353468,Africa,Seychelles,SC,,Seychelles - Indian Ocean,2013-08-18,
Foudia madagascariensis,Animalia,WEAVERS_PLOCEIDAE,Red Fody,,1,55.667783618,-3.80721942881,Africa,Seychelles,SC,,Seychelles - Indian Ocean,2013-08-19,
Gygis alba,Animalia,GULLS_TERNS_AND_SKIMMERS_LARIDAE,White Tern,,1,55.6660670042,-3.80465018689,Africa,Seychelles,SC,,Seychelles - Indian Ocean,2013-08-18,
Copsychus sechellarum,Animalia,OLD_WORLD_FLYCATCHERS_MUSCICAPIDAE,Seychelles Magpie-Robin,,1,55.6663808227,-3.80533531882,Africa,Seychelles,SC,,Seychelles - Indian Ocean,2013-08-11,
Gygis alba,Animalia,GULLS_TERNS_AND_SKIMMERS_LARIDAE,White Tern,,100,55.731883049011,-4.3071700639042,Africa,Seychelles,SC,,Seychelles - Praslin,2011-04-08,
Anous tenuirostris,Animalia,GULLS_TERNS_AND_SKIMMERS_LARIDAE,Lesser Noddy,,75,55.731883049011,-4.3071700639042,Africa,Seychelles,SC,,Seychelles - Praslin,2011-04-08,
Phaethon lepturus,Animalia,TROPICBIRDS_PHAETHONTIDAE,White-tailed Tropicbird,,2,55.727376937866,-4.2852163537144,Africa,Seychelles,SC,,Seychelles - Praslin,2011-04-08,
Onychoprion anaethetus,Animalia,GULLS_TERNS_AND_SKIMMERS_LARIDAE,Bridled Tern,,1,55.6739130675,-4.32709000259,Africa,Seychelles,SC,,Seychelles - Praslin,1987-06-27,
Acrocephalus sechellensis,Animalia,Acrocephalidae,Seychelles Warbler,,1,55.6644716917,-4.33102694992,Africa,Seychelles,SC,,Seychelles - Praslin,1987-06-27,
Fregata minor,Animalia,FRIGATEBIRDS_FREGATTIDAE,Great Frigatebird,,1,55.6649680337,-4.32848067962,Africa,Seychelles,SC,,Seychelles - Praslin,1987-06-27,
Gygis alba,Animalia,GULLS_TERNS_AND_SKIMMERS_LARIDAE,White Tern,,15,55.6649680337,-4.32848067962,Africa,Seychelles,SC,,Seychelles - Praslin,1987-06-27,
Anous stolidus,Animalia,GULLS_TERNS_AND_SKIMMERS_LARIDAE,Brown Noddy,,30,55.5475516519,-3.71544938981,Africa,Seychelles,SC,,Seychelles - Indian Ocean,1987-07-07,
Foudia sechellarum,Animalia,WEAVERS_PLOCEIDAE,Seychelles Fody,,3,55.6629080972,-4.32916536632,Africa,Seychelles,SC,,Seychelles - Praslin,1987-06-27,
Cinnyris dussumieri,Animalia,SUNBIRDS_NECTARINIIDAE,Seychelles Sunbird,,2,55.8331961831,-4.36772078406,Africa,Seychelles,SC,,Seychelles - La Digue,1987-07-02,
Terpsiphone corvina,Animalia,MONARCHS_MONARCHIDAE,Seychelles Paradise Flycatcher,,2,55.8331961831,-4.36772078406,Africa,Seychelles,SC,,Seychelles - La Digue,1987-07-02,
Nesoenas picturatus,Animalia,PIGEONS_AND_DOVES_COLUMBIDAE,Malagasy Turtle Dove,,2,55.8348269662,-4.36044632808,Africa,Seychelles,SC,,Seychelles - La Digue,1987-06-26,
Copsychus sechellarum,Animalia,OLD_WORLD_FLYCATCHERS_MUSCICAPIDAE,Seychelles Magpie-Robin,,5,55.9391970834,-4.57950441581,Africa,Seychelles,SC,,Seychelles - Indian Ocean,1987-07-07,
Hypsipetes crassirostris,Animalia,BULBULS_PYCNONOTIDAE,Seychelles Bulbul,,1,55.7409477234,-4.33062795355,Africa,Seychelles,SC,,Seychelles - Praslin,1987-06-26,
Butorides striata,Animalia,HERONS_ARDEIDAE,Striated Heron,,1,55.4094500741,-4.61920160794,Africa,Seychelles,SC,,Seychelles - Mahé,1987-06-23,
Foudia madagascariensis,Animalia,WEAVERS_PLOCEIDAE,Red Fody,,10,55.4094500741,-4.61920160794,Africa,Seychelles,SC,,Seychelles - Mahé,1987-06-22,
Puffinus bailloni,Animalia,PETRELS_AND_SHEARWATERS_PROCELLARIIDAE,Tropical Shearwater,,5,55.6650733948,-4.32925858217,Africa,Seychelles,SC,,Seychelles - Praslin,1987-06-28,
Bubulcus ibis,Animalia,HERONS_ARDEIDAE,Western Cattle Egret,,15,55.4496383667,-4.61505995545,Africa,Seychelles,SC,,Seychelles - Mahé,1987-06-18,
Geopelia striata,Animalia,PIGEONS_AND_DOVES_COLUMBIDAE,Zebra Dove,,2,55.4479022226,-4.61885940023,Africa,Seychelles,SC,,Seychelles - Mahé,1987-06-18,
Phaethon lepturus,Animalia,TROPICBIRDS_PHAETHONTIDAE,White-tailed Tropicbird,,2,55.6632614135,-4.33023007176,Africa,Seychelles,SC,,Seychelles - Praslin,1987-06-28,
Acridotheres tristis,Animalia,STARLINGS_STURNIDAE,Common Myna,,3,55.4533953866,-4.62673013566,Africa,Seychelles,SC,,Seychelles - Mahé,1987-06-18,
Calidris ferruginea,Animalia,SANDPIPERS_AND_ALLIES_SCOLOPACIDAE,Curlew Sandpiper,,6,55.2083587646,-3.71685749828,Africa,Seychelles,SC,,Seychelles - Indian Ocean,1987-07-09,
Anous stolidus,Animalia,GULLS_TERNS_AND_SKIMMERS_LARIDAE,Brown Noddy,,10,55.6608581543,-4.32167145547,Africa,Seychelles,SC,,Seychelles - Praslin,1987-06-28,
Onychoprion fuscatus,Animalia,GULLS_TERNS_AND_SKIMMERS_LARIDAE,Sooty Tern,,10000,55.2083587646,-3.71685749828,Africa,Seychelles,SC,,Seychelles - Indian Ocean,1987-07-09,
Gygis alba,Animalia,GULLS_TERNS_AND_SKIMMERS_LARIDAE,White Tern,,15,55.2083587646,-3.71685749828,Africa,Seychelles,SC,,Seychelles - Indian Ocean,1987-07-09,
Alectroenas pulcherrimus,Animalia,PIGEONS_AND_DOVES_COLUMBIDAE,Seychelles Blue Pigeon,,1,55.9429736337,-4.58634891698,Africa,Seychelles,SC,,Seychelles - Indian Ocean,1987-07-07,
Copsychus sechellarum,Animalia,OLD_WORLD_FLYCATCHERS_MUSCICAPIDAE,Seychelles Magpie-Robin,,1,55.9369213,-4.58384323,Africa,Seychelles,SC,,Seychelles - Indian Ocean,1990-04-12,
Alectroenas pulcherrimus,Animalia,PIGEONS_AND_DOVES_COLUMBIDAE,Seychelles Blue Pigeon,,10,55.93773669,-4.58499823,Africa,Seychelles,SC,,Seychelles - Indian Ocean,1990-04-12,
Alectroenas pulcherrimus,Animalia,PIGEONS_AND_DOVES_COLUMBIDAE,Seychelles Blue Pigeon,,5,55.94177073,-4.58358656,Africa,Seychelles,SC,,Seychelles - Indian Ocean,1990-04-12,
Copsychus sechellarum,Animalia,OLD_WORLD_FLYCATCHERS_MUSCICAPIDAE,Seychelles Magpie-Robin,,2,55.94177073,-4.58358656,Africa,Seychelles,SC,,Seychelles - Indian Ocean,1990-04-12,
Copsychus sechellarum,Animalia,OLD_WORLD_FLYCATCHERS_MUSCICAPIDAE,Seychelles Magpie-Robin,,10,55.93537635,-4.583501,Africa,Seychelles,SC,,Seychelles - Indian Ocean,1990-04-12,
Copsychus sechellarum,Animalia,OLD_WORLD_FLYCATCHERS_MUSCICAPIDAE,Seychelles Magpie-Robin,,2,55.94133031,-4.58501588,Africa,Seychelles,SC,,Seychelles - Indian Ocean,1990-04-11,
Gygis alba,Animalia,GULLS_TERNS_AND_SKIMMERS_LARIDAE,White Tern,,10,55.66143188,-4.32917476,Africa,Seychelles,SC,,Seychelles - Cousin,1990-04-08,
Butorides striata,Animalia,HERONS_ARDEIDAE,Striated Heron,,1,55.71174449,-4.32691556,Africa,Seychelles,SC,,Seychelles - Praslin,1990-04-07,
Anous stolidus,Animalia,GULLS_TERNS_AND_SKIMMERS_LARIDAE,Brown Noddy,,25,55.64752731,-4.35033555,Africa,Seychelles,SC,,Seychelles - Praslin,1990-04-04,20:00
Butorides striata,Animalia,HERONS_ARDEIDAE,Striated Heron,,1,55.6477848,-4.35085761,Africa,Seychelles,SC,,Seychelles - Praslin,1990-04-04,20:00
Anous tenuirostris,Animalia,GULLS_TERNS_AND_SKIMMERS_LARIDAE,Lesser Noddy,,6,55.64480218,-4.34977926,Africa,Seychelles,SC,,Seychelles - Praslin,1990-04-04,20:00
Gygis alba,Animalia,GULLS_TERNS_AND_SKIMMERS_LARIDAE,White Tern,,53,55.64480218,-4.34977926,Africa,Seychelles,SC,,Seychelles - Praslin,1990-04-04,20:00
Anous tenuirostris,Animalia,GULLS_TERNS_AND_SKIMMERS_LARIDAE,Lesser Noddy,,3,55.64754876,-4.35093464,Africa,Seychelles,SC,,Seychelles - Praslin,1990-04-04,20:00
Gygis alba,Animalia,GULLS_TERNS_AND_SKIMMERS_LARIDAE,White Tern,,5,55.64754876,-4.35093464,Africa,Seychelles,SC,,Seychelles - Praslin,1990-04-04,20:00
Phaethon lepturus,Animalia,TROPICBIRDS_PHAETHONTIDAE,White-tailed Tropicbird,,2,55.64899997,-4.35234663,Africa,Seychelles,SC,,Seychelles - Praslin,1990-04-04,20:00
Anous tenuirostris,Animalia,GULLS_TERNS_AND_SKIMMERS_LARIDAE,Lesser Noddy,,4,55.64899997,-4.35234663,Africa,Seychelles,SC,,Seychelles - Praslin,1990-04-04,20:00
Gygis alba,Animalia,GULLS_TERNS_AND_SKIMMERS_LARIDAE,White Tern,,15,55.64899997,-4.35234663,Africa,Seychelles,SC,,Seychelles - Praslin,1990-04-04,20:00
Onychoprion anaethetus,Animalia,GULLS_TERNS_AND_SKIMMERS_LARIDAE,Bridled Tern,,30,55.66276225,-4.33388196,Africa,Seychelles,SC,,Seychelles - Cousin,1990-04-03,18:30
Terpsiphone corvina,Animalia,MONARCHS_MONARCHIDAE,Seychelles Paradise Flycatcher,,1,55.83902013,-4.36464148,Africa,Seychelles,SC,,Seychelles - La Digue,1990-03-14,
Terpsiphone corvina,Animalia,MONARCHS_MONARCHIDAE,Seychelles Paradise Flycatcher,,2,55.84133756,-4.36087588,Africa,Seychelles,SC,,Seychelles - La Digue,1990-03-12,
Cinnyris dussumieri,Animalia,SUNBIRDS_NECTARINIIDAE,Seychelles Sunbird,,10,55.83116207,-4.35779411,Africa,Seychelles,SC,,Seychelles - La Digue,1990-03-12,
Hypsipetes crassirostris,Animalia,BULBULS_PYCNONOTIDAE,Seychelles Bulbul,,10,55.83116207,-4.35779411,Africa,Seychelles,SC,,Seychelles - La Digue,1990-03-12,
Terpsiphone corvina,Animalia,MONARCHS_MONARCHIDAE,Seychelles Paradise Flycatcher,,2,55.83116207,-4.35779411,Africa,Seychelles,SC,,Seychelles - La Digue,1990-03-12,
Phaethon lepturus,Animalia,TROPICBIRDS_PHAETHONTIDAE,White-tailed Tropicbird,,23,55.66137032,-4.33199681,Africa,Seychelles,SC,,Seychelles - Cousin,1990-02-28,18:30
Phaethon lepturus,Animalia,TROPICBIRDS_PHAETHONTIDAE,White-tailed Tropicbird,,31,55.66083388,-4.33108319,Africa,Seychelles,SC,,Seychelles - Cousin,1990-02-21,
Ardenna pacifica,Animalia,PETRELS_AND_SHEARWATERS_PROCELLARIIDAE,Wedge-tailed Shearwater,,10,55.66050768,-4.33176061,Africa,Seychelles,SC,,Seychelles - Cousin,2020-02-17,
Anous tenuirostris,Animalia,GULLS_TERNS_AND_SKIMMERS_LARIDAE,Lesser Noddy,,1,55.66264629,-4.33064657,Africa,Seychelles,SC,,Seychelles - Cousin,2020-02-15,
Eretmochelys imbricata,Animalia,Cheloniidae,Hawksbill Turtle,,113,55.66294312,-4.33384675,Africa,Seychelles,SC,,Seychelles - Cousin,2020-02-14,
Eretmochelys imbricata,Animalia,Cheloniidae,Hawksbill Turtle,,1,55.66282511,-4.33377899,Africa,Seychelles,SC,,Seychelles - Cousin,2020-02-14,
Aldabrachelys gigantea,Animalia,Testudinidae,Aldabra Giant Tortoise,,1,55.66485107,-4.32851976,Africa,Seychelles,SC,,Seychelles - Cousin,2020-02-13,
Aldabrachelys gigantea,Animalia,Testudinidae,Aldabra Giant Tortoise,,1,55.66485107,-4.32851976,Africa,Seychelles,SC,,Seychelles - Cousin,2020-02-11,
Arenaria interpres,Animalia,SANDPIPERS_AND_ALLIES_SCOLOPACIDAE,Ruddy Turnstone,,4,55.66260874,-4.32862318,Africa,Seychelles,SC,,Seychelles - Cousin,2020-02-08,
Gygis alba,Animalia,GULLS_TERNS_AND_SKIMMERS_LARIDAE,White Tern,,1,55.66045403,-4.33102956,Africa,Seychelles,SC,,Seychelles - Cousin,2020-02-08,
Phaethon lepturus,Animalia,TROPICBIRDS_PHAETHONTIDAE,White-tailed Tropicbird,,1,55.66431999,-4.32846413,Africa,Seychelles,SC,,Seychelles - Cousin,2020-02-08,
Copsychus sechellarum,Animalia,OLD_WORLD_FLYCATCHERS_MUSCICAPIDAE,Seychelles Magpie-Robin,,1,55.66159487,-4.33038981,Africa,Seychelles,SC,,Seychelles - Cousin,2020-02-05,
Anous stolidus,Animalia,GULLS_TERNS_AND_SKIMMERS_LARIDAE,Brown Noddy,,2,55.66440225,-4.33254157,Africa,Seychelles,SC,,Seychelles - Cousin,2020-02-26,
Onychoprion anaethetus,Animalia,GULLS_TERNS_AND_SKIMMERS_LARIDAE,Bridled Tern,,3,55.66440225,-4.33254157,Africa,Seychelles,SC,,Seychelles - Cousin,2020-02-26,
Gallinula chloropus,Animalia,RAILS_RALLIDAE,Common Moorhen,,3,55.66455603,-4.32862318,Africa,Seychelles,SC,,Seychelles - Cousin,2020-02-04,
Arenaria interpres,Animalia,SANDPIPERS_AND_ALLIES_SCOLOPACIDAE,Ruddy Turnstone,,5,55.6613338,-4.32931785,Africa,Seychelles,SC,,Seychelles - Cousin,2020-02-04,
Cinnyris dussumieri,Animalia,SUNBIRDS_NECTARINIIDAE,Seychelles Sunbird,,1,55.6649816,-4.32876511,Africa,Seychelles,SC,,Seychelles - Cousin,2020-02-04,
Ardenna pacifica,Animalia,PETRELS_AND_SHEARWATERS_PROCELLARIIDAE,Wedge-tailed Shearwater,,1,55.66210985,-4.33112442,Africa,Seychelles,SC,,Seychelles - Cousin,2020-02-04,
Copsychus sechellarum,Animalia,OLD_WORLD_FLYCATCHERS_MUSCICAPIDAE,Seychelles Magpie-Robin,,1,55.66346168,-4.33157374,Africa,Seychelles,SC,,Seychelles - Cousin,2020-02-04,
Acrocephalus sechellensis,Animalia,Acrocephalidae,Seychelles Warbler,,1,55.66369772,-4.33253658,Africa,Seychelles,SC,,Seychelles - Cousin,2020-02-04,
Foudia sechellarum,Animalia,WEAVERS_PLOCEIDAE,Seychelles Fody,,10,55.66482335,-4.32865384,Africa,Seychelles,SC,,Seychelles - Cousin,2020-02-04,
Gygis alba,Animalia,GULLS_TERNS_AND_SKIMMERS_LARIDAE,White Tern,,87,55.66245317,-4.33161654,Africa,Seychelles,SC,,Seychelles - Cousin,2020-02-28,
Thalasseus bergii,Animalia,GULLS_TERNS_AND_SKIMMERS_LARIDAE,Greater Crested Tern,,1,55.71543932,-4.3280485,Africa,Seychelles,SC,,Seychelles - Praslin,2020-02-04,
Ardea cinerea,Animalia,HERONS_ARDEIDAE,Grey Heron,,1,55.71543932,-4.3280485,Africa,Seychelles,SC,,Seychelles - Praslin,2020-02-04,
Numenius phaeopus,Animalia,SANDPIPERS_AND_ALLIES_SCOLOPACIDAE,Eurasian Whimbrel,,1,55.71131229,-4.32652418,Africa,Seychelles,SC,,Seychelles - Praslin,2020-02-03,
Ardea cinerea,Animalia,HERONS_ARDEIDAE,Grey Heron,,1,55.71315408,-4.32723169,Africa,Seychelles,SC,,Seychelles - Praslin,2020-02-03,
Pluvialis squatarola,Animalia,PLOVERS_CHARADRIIDAE,Grey Plover,,1,55.71315408,-4.32723169,Africa,Seychelles,SC,,Seychelles - Praslin,2020-02-03,
Charadrius leschenaultii,Animalia,PLOVERS_CHARADRIIDAE,Greater Sand Plover,,3,55.71315408,-4.32723169,Africa,Seychelles,SC,,Seychelles - Praslin,2020-02-03,
Alectroenas pulcherrimus,Animalia,PIGEONS_AND_DOVES_COLUMBIDAE,Seychelles Blue Pigeon,,2,55.73854923,-4.33049822,Africa,Seychelles,SC,,Seychelles - Praslin NP,2020-02-02,
Coracopsis barklyi,Animalia,PSITTACULIDAE,Seychelles Black Parrot,,3,55.73854923,-4.33049822,Africa,Seychelles,SC,,Seychelles - Praslin NP,2020-02-02,
Cinnyris dussumieri,Animalia,SUNBIRDS_NECTARINIIDAE,Seychelles Sunbird,,2,55.73854923,-4.33049822,Africa,Seychelles,SC,,Seychelles - Praslin NP,2020-02-02,
Phaethon lepturus,Animalia,TROPICBIRDS_PHAETHONTIDAE,White-tailed Tropicbird,,2,55.73854923,-4.33049822,Africa,Seychelles,SC,,Seychelles - Praslin NP,2020-02-02,
Hypsipetes crassirostris,Animalia,BULBULS_PYCNONOTIDAE,Seychelles Bulbul,,4,55.73854923,-4.33049822,Africa,Seychelles,SC,,Seychelles - Praslin NP,2020-02-02,
Tenrec ecaudatus,Animalia,TENRECS_TENRECIDAE,Tail-less Tenrec,,1,55.68457514,-4.30338152,Africa,Seychelles,SC,,Seychelles - Praslin,2020-02-01,
Phaethon lepturus,Animalia,TROPICBIRDS_PHAETHONTIDAE,White-tailed Tropicbird,,2,55.68119287,-4.29435882,Africa,Seychelles,SC,,Seychelles - Praslin,2020-02-01,
Nesoenas picturatus,Animalia,PIGEONS_AND_DOVES_COLUMBIDAE,Malagasy Turtle Dove,,15,55.68253398,-4.29648786,Africa,Seychelles,SC,,Seychelles - Praslin,2020-02-01,
Foudia madagascariensis,Animalia,WEAVERS_PLOCEIDAE,Red Fody,,30,55.68322062,-4.29784659,Africa,Seychelles,SC,,Seychelles - Praslin,2020-02-01,
Tenrec ecaudatus,Animalia,TENRECS_TENRECIDAE,Tail-less Tenrec,,1,55.68215132,-4.29633308,Africa,Seychelles,SC,,Seychelles - Praslin,2020-02-01,
Butorides striata,Animalia,HERONS_ARDEIDAE,Striated Heron,,1,55.68166316,-4.29960367,Africa,Seychelles,SC,,Seychelles - Praslin,2020-02-01,
Ardea cinerea,Animalia,HERONS_ARDEIDAE,Grey Heron,,1,55.83403274,-4.35293996,Africa,Seychelles,SC,,Seychelles - La Digue,2020-01-31,
Gygis alba,Animalia,GULLS_TERNS_AND_SKIMMERS_LARIDAE,White Tern,,2,55.82898617,-4.37279631,Africa,Seychelles,SC,,Seychelles - La Digue,2020-01-29,
Gallinula chloropus,Animalia,RAILS_RALLIDAE,Common Moorhen,,1,55.83420753,-4.3530686,Africa,Seychelles,SC,,Seychelles - La Digue,2020-01-31,
Terpsiphone corvina,Animalia,MONARCHS_MONARCHIDAE,Seychelles Paradise Flycatcher,,2,55.83325088,-4.3530201,Africa,Seychelles,SC,,Seychelles - La Digue,2020-01-31,
Foudia madagascariensis,Animalia,WEAVERS_PLOCEIDAE,Red Fody,,1,55.83333135,-4.35307359,Africa,Seychelles,SC,,Seychelles - La Digue,2020-01-31,
Hypolimnas misippus,Animalia,BRUSHFOOTED_BUTTERFLIES_NYMPHALIDAE,Danaid Eggfly,,1,55.84308028,-4.3595005,Africa,Seychelles,SC,,Seychelles - La Digue,2020-01-30,
Leptotes pirithous,Animalia,GOSSAMERWINGED_BUTTERFLIES_LYCAENIDAE,Lang’s Short-tailed Blue,,1,55.84316611,-4.35960748,Africa,Seychelles,SC,,Seychelles - La Digue,2020-01-30,
Sceliphron fuscum,Animalia,Sphecidae,,,1,55.84166408,-4.35851273,Africa,Seychelles,SC,,Seychelles - La Digue,2020-01-30,
Alectroenas pulcherrimus,Animalia,PIGEONS_AND_DOVES_COLUMBIDAE,Seychelles Blue Pigeon,,2,55.84100783,-4.35779491,Africa,Seychelles,SC,,Seychelles - La Digue,2020-01-30,
Estrilda astrild,Animalia,WAXBILLS_MUNIAS_ALLIES_ESTRILDIDAE,Common Waxbill,,1,55.84102035,-4.35842715,Africa,Seychelles,SC,,Seychelles - La Digue,2020-01-30,
Phelsuma astriata,Animalia,Gekkonidae,Seychelles Day Gecko,,1,55.84113121,-4.35840469,Africa,Seychelles,SC,,Seychelles - La Digue,2020-01-30,
Alectroenas pulcherrimus,Animalia,PIGEONS_AND_DOVES_COLUMBIDAE,Seychelles Blue Pigeon,,1,55.83991885,-4.35859368,Africa,Seychelles,SC,,Seychelles - La Digue,2020-01-30,
Melanitis leda,Animalia,BRUSHFOOTED_BUTTERFLIES_NYMPHALIDAE,Common Evening Brown,,1,55.83950043,-4.35989881,Africa,Seychelles,SC,,Seychelles - La Digue,2020-01-30,
Hypsipetes crassirostris,Animalia,BULBULS_PYCNONOTIDAE,Seychelles Bulbul,,1,55.83323658,-4.35364183,Africa,Seychelles,SC,,Seychelles - La Digue,2020-01-30,
Pteropus seychellensis,Animalia,OLD_WORLD_FRUITEATING_BATS_PTEROPODIDAE,Seychelles Flying Fox,,5,55.82638979,-4.36357706,Africa,Seychelles,SC,,Seychelles - La Digue,2020-01-29,
Estrilda astrild,Animalia,WAXBILLS_MUNIAS_ALLIES_ESTRILDIDAE,Common Waxbill,,2,55.83310246,-4.35294985,Africa,Seychelles,SC,,Seychelles - La Digue,2020-01-28,
Hypsipetes crassirostris,Animalia,BULBULS_PYCNONOTIDAE,Seychelles Bulbul,,1,55.82887352,-4.37286442,Africa,Seychelles,SC,,Seychelles - La Digue,2020-01-29,
Cinnyris dussumieri,Animalia,SUNBIRDS_NECTARINIIDAE,Seychelles Sunbird,,1,55.82887352,-4.37286442,Africa,Seychelles,SC,,Seychelles - La Digue,2020-01-29,
Numenius phaeopus,Animalia,SANDPIPERS_AND_ALLIES_SCOLOPACIDAE,Eurasian Whimbrel,,1,55.84456086,-4.34625651,Africa,Seychelles,SC,,Seychelles - La Digue,2020-01-28,
Acridotheres tristis,Animalia,STARLINGS_STURNIDAE,Common Myna,,12,55.84456086,-4.34625651,Africa,Seychelles,SC,,Seychelles - La Digue,2020-01-28,
Cinnyris dussumieri,Animalia,SUNBIRDS_NECTARINIIDAE,Seychelles Sunbird,,5,55.84023714,-4.34276539,Africa,Seychelles,SC,,Seychelles - La Digue,2020-01-28,
Acridotheres tristis,Animalia,STARLINGS_STURNIDAE,Common Myna,,3,55.8311069,-4.34025135,Africa,Seychelles,SC,,Seychelles - La Digue,2020-01-28,
Terpsiphone corvina,Animalia,MONARCHS_MONARCHIDAE,Seychelles Paradise Flycatcher,,2,55.83328757,-4.35304938,Africa,Seychelles,SC,,Seychelles - La Digue,2020-01-28,
Foudia madagascariensis,Animalia,WEAVERS_PLOCEIDAE,Red Fody,,1,55.83336623,-4.35311355,Africa,Seychelles,SC,,Seychelles - La Digue,2020-01-28,
Foudia sechellarum,Animalia,WEAVERS_PLOCEIDAE,Seychelles Fody,,1,55.66454324,-4.33296192,Africa,Seychelles,SC,,Seychelles - Cousin,1990-02-06,
Gygis alba,Animalia,GULLS_TERNS_AND_SKIMMERS_LARIDAE,White Tern,,59,55.66205415,-4.32885381,Africa,Seychelles,SC,,Seychelles - Cousin,1990-02-06,
Onychoprion anaethetus,Animalia,GULLS_TERNS_AND_SKIMMERS_LARIDAE,Bridled Tern,,100,55.66273213162,-4.3311401271594,Africa,Seychelles,SC,,Seychelles - Cousin,1990-02-06,
Phaethon lepturus,Animalia,TROPICBIRDS_PHAETHONTIDAE,White-tailed Tropicbird,,50,55.66273213162,-4.3311401271594,Africa,Seychelles,SC,,Seychelles - Cousin,1990-02-06,
Butorides striata,Animalia,HERONS_ARDEIDAE,Striated Heron,,1,55.66273213162,-4.3311401271594,Africa,Seychelles,SC,,Seychelles - Cousin,1990-02-06,
Coracopsis barklyi,Animalia,PSITTACULIDAE,Seychelles Black Parrot,,2,55.72355184,-4.32518217,Africa,Seychelles,SC,,Seychelles - Praslin,1990-02-03,
Hypsipetes crassirostris,Animalia,BULBULS_PYCNONOTIDAE,Seychelles Bulbul,,1,55.737722533548755,-4.336746027637901,Africa,Seychelles,SC,,Seychelles - Praslin NP,1990-02-03,
Hypsipetes crassirostris,Animalia,BULBULS_PYCNONOTIDAE,Seychelles Bulbul,,25,55.7222904,-4.32564942,Africa,Seychelles,SC,,Seychelles - Praslin,1990-02-03,
Butorides striata,Animalia,HERONS_ARDEIDAE,Striated Heron,,2,55.71650809,-4.32854169,Africa,Seychelles,SC,,Seychelles - Praslin,1990-02-03,
Butorides striata,Animalia,HERONS_ARDEIDAE,Striated Heron,,1,55.71397608,-4.32781421,Africa,Seychelles,SC,,Seychelles - Praslin,1990-02-02,
Dromas ardeola,Animalia,CRABPLOVER_DROMADIDAE,Crab-plover,,1,55.71397608,-4.32781421,Africa,Seychelles,SC,,Seychelles - Praslin,1990-02-02,
Gygis alba,Animalia,GULLS_TERNS_AND_SKIMMERS_LARIDAE,White Tern,,1,55.66501531,-4.32930314,Africa,Seychelles,SC,,Seychelles - Cousin,1990-01-29,
Butorides striata,Animalia,HERONS_ARDEIDAE,Striated Heron,,1,55.66422138,-4.33300471,Africa,Seychelles,SC,,Seychelles - Cousin,1990-01-27,
Onychoprion anaethetus,Animalia,GULLS_TERNS_AND_SKIMMERS_LARIDAE,Bridled Tern,,20,55.66267642,-4.33196485,Africa,Seychelles,SC,,Seychelles - Cousin,1990-01-26,
Onychoprion anaethetus,Animalia,GULLS_TERNS_AND_SKIMMERS_LARIDAE,Bridled Tern,,10,55.66293392,-4.33371935,Africa,Seychelles,SC,,Seychelles - Cousin,1990-01-13,
Acrocephalus sechellensis,Animalia,Acrocephalidae,Seychelles Warbler,,4,55.66293392,-4.33371935,Africa,Seychelles,SC,,Seychelles - Cousin,1990-01-13,
Butorides striata,Animalia,HERONS_ARDEIDAE,Striated Heron,,1,55.66293392,-4.33371935,Africa,Seychelles,SC,,Seychelles - Cousin,1990-01-13,
Bubulcus ibis,Animalia,HERONS_ARDEIDAE,Western Cattle Egret,,1,55.45663986,-4.61755557,Africa,Seychelles,SC,,Seychelles,1990-01-12,
Butorides striata,Animalia,HERONS_ARDEIDAE,Striated Heron,,4,55.45663986,-4.61755557,Africa,Seychelles,SC,,Seychelles,1990-01-12,
Butorides striata,Animalia,HERONS_ARDEIDAE,Striated Heron,,3,55.47243726,-4.63982095,Africa,Seychelles,SC,,Seychelles,1990-01-12,
Acrocephalus sechellensis,Animalia,Acrocephalidae,Seychelles Warbler,,1,55.66273213162,-4.3311401271594,Africa,Seychelles,SC,,Seychelles - Cousin,1990-01-10,
Foudia sechellarum,Animalia,WEAVERS_PLOCEIDAE,Seychelles Fody,,1,55.66273213162,-4.3311401271594,Africa,Seychelles,SC,,Seychelles - Cousin,1990-01-10,
Onychoprion anaethetus,Animalia,GULLS_TERNS_AND_SKIMMERS_LARIDAE,Bridled Tern,,100,55.66273213162,-4.3311401271594,Africa,Seychelles,SC,,Seychelles - Cousin,1990-01-10,
Butorides striata,Animalia,HERONS_ARDEIDAE,Striated Heron,,3,55.66273213162,-4.3311401271594,Africa,Seychelles,SC,,Seychelles - Cousin,1990-01-10,
Anous tenuirostris,Animalia,GULLS_TERNS_AND_SKIMMERS_LARIDAE,Lesser Noddy,,100,55.66273213162,-4.3311401271594,Africa,Seychelles,SC,,Seychelles - Cousin,1990-01-09,
Anous stolidus,Animalia,GULLS_TERNS_AND_SKIMMERS_LARIDAE,Brown Noddy,,100,55.66273213162,-4.3311401271594,Africa,Seychelles,SC,,Seychelles - Cousin,1990-01-09,
Gygis alba,Animalia,GULLS_TERNS_AND_SKIMMERS_LARIDAE,White Tern,,100,55.66273213162,-4.3311401271594,Africa,Seychelles,SC,,Seychelles - Cousin,1990-01-09,
Butorides striata,Animalia,HERONS_ARDEIDAE,Striated Heron,,1,55.71629915,-4.32834886,Africa,Seychelles,SC,,Seychelles - Praslin,1990-01-09,
Butorides striata,Animalia,HERONS_ARDEIDAE,Striated Heron,,1,55.45957392,-4.62046032,Africa,Seychelles,SC,,Seychelles,1990-01-09,
Bubulcus ibis,Animalia,HERONS_ARDEIDAE,Western Cattle Egret,,25,55.45361781,-4.61917009,Africa,Seychelles,SC,,Seychelles,1990-01-09,
Bubulcus ibis,Animalia,HERONS_ARDEIDAE,Western Cattle Egret,,5,55.51198268,-4.66947283,Africa,Seychelles,SC,,Seychelles,1990-01-09,
Pteropus seychellensis seychellensis,Animalia,OLD_WORLD_FRUITEATING_BATS_PTEROPODIDAE,,,1,55.4489040158,-4.629186636,Africa,Seychelles,SC,,Seychelles,2008-03-13,
Tenrec ecaudatus,Animalia,TENRECS_TENRECIDAE,Tail-less Tenrec,,1,55.38718348,-4.62399173,Africa,Seychelles,SC,,Seychelles,2012-08-15,
Eretmochelys imbricata,Animalia,Cheloniidae,Hawksbill Turtle,,1,55.52,-4.72,Africa,Seychelles,SC,,Seychelles,2008-03-15,
Eretmochelys imbricata,Animalia,Cheloniidae,Hawksbill Turtle,,1,55.52,-4.72,Africa,Seychelles,SC,,Seychelles,2008-03-15,
Phaethon lepturus,Animalia,TROPICBIRDS_PHAETHONTIDAE,White-tailed Tropicbird,,1,55.4797747764,-4.7570593961,Africa,Seychelles,SC,,Seychelles - Mahé,2008-03-13,
Eretmochelys imbricata,Animalia,Cheloniidae,Hawksbill Turtle,,1,55.52,-4.73,Africa,Seychelles,SC,,Seychelles,2008-03-12,
Cinnyris dussumieri,Animalia,SUNBIRDS_NECTARINIIDAE,Seychelles Sunbird,,1,55.4516341498,-4.6298032211,Africa,Seychelles,SC,,Seychelles,2008-03-17,
Hypsipetes crassirostris,Animalia,BULBULS_PYCNONOTIDAE,Seychelles Bulbul,,1,55.3854477653,-4.6265085549,Africa,Seychelles,SC,,Seychelles - Morne Seychellois NP,2008-03-16,
Geopelia striata,Animalia,PIGEONS_AND_DOVES_COLUMBIDAE,Zebra Dove,,1,55.5255256224,-4.7268848751,Africa,Seychelles,SC,,Seychelles,2008-03-12,
Bubulcus ibis,Animalia,HERONS_ARDEIDAE,Western Cattle Egret,,1,55.4511050497,-4.6212048608,Africa,Seychelles,SC,,Seychelles,2008-03-13,
Foudia madagascariensis,Animalia,WEAVERS_PLOCEIDAE,Red Fody,,1,55.5254213801,-4.7265967416,Africa,Seychelles,SC,,Seychelles,2008-03-13,
Acridotheres tristis tristis,Animalia,STARLINGS_STURNIDAE,Common Myna ssp tristis,,1,55.5255534433,-4.7268835535,Africa,Seychelles,SC,,Seychelles,2008-03-13,
Alectroenas pulcherrimus,Animalia,PIGEONS_AND_DOVES_COLUMBIDAE,Seychelles Blue Pigeon,,1,55.4447787385,-4.6554652246,Africa,Seychelles,SC,,Seychelles - Morne Seychellois NP,2008-03-17,
Terpsiphone corvina,Animalia,MONARCHS_MONARCHIDAE,Seychelles Paradise Flycatcher,,1,55.82992177411423,-4.34963215263159,Africa,Seychelles,SC,,Seychelles - La Digue,2020-01-14,16:36
Anous stolidus,Animalia,GULLS_TERNS_AND_SKIMMERS_LARIDAE,Brown Noddy,,1,55.717218972106224,-4.328509438407956,Africa,Seychelles,SC,,Seychelles - Praslin,2020-01-14,13:15
Acrocephalus sechellensis,Animalia,Acrocephalidae,Seychelles Warbler,,1,55.66451063195354,-4.3299720430173005,Africa,Seychelles,SC,,Seychelles - Cousin,2020-01-14,10:36
Acridotheres tristis,Animalia,STARLINGS_STURNIDAE,Common Myna,,1,55.747893625635406,-4.334772170094293,Africa,Seychelles,SC,,Seychelles - Praslin NP,2020-01-14,09:08
Cinnyris dussumieri,Animalia,SUNBIRDS_NECTARINIIDAE,Seychelles Sunbird,,1,55.750486401603524,-4.33635408718447,Africa,Seychelles,SC,,Seychelles - Praslin,2020-01-14,09:06
Butorides striata,Animalia,HERONS_ARDEIDAE,Striated Heron,,1,55.76076460395155,-4.334815939007843,Africa,Seychelles,SC,,Seychelles - Praslin,2020-01-14,09:03
Numenius phaeopus,Animalia,SANDPIPERS_AND_ALLIES_SCOLOPACIDAE,Eurasian Whimbrel,,6,55.760730420051914,-4.3347746457672365,Africa,Seychelles,SC,,Seychelles - Praslin,2020-01-14,09:02
Foudia madagascariensis,Animalia,WEAVERS_PLOCEIDAE,Red Fody,,3,55.76362162766088,-4.347776919362464,Africa,Seychelles,SC,,Seychelles - Praslin,2020-01-14,08:47
Otus insularis,Animalia,OWLS_STRIGIDAE,Seychelles Scops Owl,,1,55.4,-4.66,Africa,Seychelles,SC,,Seychelles,2020-01-10,19:53
Phaethon lepturus,Animalia,TROPICBIRDS_PHAETHONTIDAE,White-tailed Tropicbird,,3,55.48566635877543,-4.654798802644201,Africa,Seychelles,SC,,Seychelles,2020-01-10,12:23
Dromas ardeola,Animalia,CRABPLOVER_DROMADIDAE,Crab-plover,,4,55.467689207796354,-4.6425966988852085,Africa,Seychelles,SC,,Seychelles,2020-01-10,12:13
Numenius phaeopus,Animalia,SANDPIPERS_AND_ALLIES_SCOLOPACIDAE,Eurasian Whimbrel,,1,55.46552233801251,-4.639537836256505,Africa,Seychelles,SC,,Seychelles,2020-01-10,12:11
Ardea cinerea,Animalia,HERONS_ARDEIDAE,Grey Heron,,5,55.46573161699862,-4.63919891865535,Africa,Seychelles,SC,,Seychelles,2020-01-10,12:11
Bubulcus ibis,Animalia,HERONS_ARDEIDAE,Western Cattle Egret,,1,55.46632616330377,-4.6389773637625575,Africa,Seychelles,SC,,Seychelles,2020-01-10,12:11
Geopelia striata,Animalia,PIGEONS_AND_DOVES_COLUMBIDAE,Zebra Dove,,11,55.462526114392496,-4.6050712845523005,Africa,Seychelles,SC,,Seychelles,2020-01-10,11:30
Thalasseus bergii,Animalia,GULLS_TERNS_AND_SKIMMERS_LARIDAE,Greater Crested Tern,,2,55.45821988755804,-4.593256361962174,Africa,Seychelles,SC,,Seychelles,2020-01-10,11:25
Ardea cinerea,Animalia,HERONS_ARDEIDAE,Grey Heron,,1,55.4577512014858,-4.592500785219427,Africa,Seychelles,SC,,Seychelles,2020-01-10,11:25
Hypsipetes crassirostris,Animalia,BULBULS_PYCNONOTIDAE,Seychelles Bulbul,,3,55.458023971580594,-4.591559707539705,Africa,Seychelles,SC,,Seychelles,2020-01-10,11:24
Zosterops modestus,Animalia,WHITEEYES_ZOSTEROPIDAE,Seychelles White-eye,,2,55.4709351279404,-4.666512652285787,Africa,Seychelles,SC,,Seychelles,2020-01-10,08:28
Falco araeus,Animalia,CARACAS_AND_FALCONS_FALCONIDAE,Seychelles Kestrel,,2,55.47087382154889,-4.6670510715704445,Africa,Seychelles,SC,,Seychelles,2020-01-10,08:28
Alectroenas pulcherrimus,Animalia,PIGEONS_AND_DOVES_COLUMBIDAE,Seychelles Blue Pigeon,,4,55.47125943414868,-4.666458233638289,Africa,Seychelles,SC,,Seychelles,2020-01-10,07:06
Gygis alba,Animalia,GULLS_TERNS_AND_SKIMMERS_LARIDAE,White Tern,,3,55.405343217592126,-4.658443499176478,Africa,Seychelles,SC,,Seychelles,2020-01-10,06:36
Phaethon lepturus,Animalia,TROPICBIRDS_PHAETHONTIDAE,White-tailed Tropicbird,,2,55.40547650752291,-4.658268118458462,Africa,Seychelles,SC,,Seychelles,2020-01-10,06:32
Butorides striata,Animalia,HERONS_ARDEIDAE,Striated Heron,,1,55.405408698651264,-4.658367841055685,Africa,Seychelles,SC,,Seychelles,2020-01-10,06:31
Tringa nebularia,Animalia,SANDPIPERS_AND_ALLIES_SCOLOPACIDAE,Common Greenshank,,1,55.4053079332089,-4.6583557521587995,Africa,Seychelles,SC,,Seychelles,2020-01-10,06:27
Cinnyris dussumieri,Animalia,SUNBIRDS_NECTARINIIDAE,Seychelles Sunbird,,9,55.40541112880917,-4.6582261906400575,Africa,Seychelles,SC,,Seychelles,2020-01-10,06:24
Hypsipetes crassirostris,Animalia,BULBULS_PYCNONOTIDAE,Seychelles Bulbul,,2,55.405253474863216,-4.658253597091708,Africa,Seychelles,SC,,Seychelles,2020-01-10,06:24
Foudia madagascariensis,Animalia,WEAVERS_PLOCEIDAE,Red Fody,,1,55.4085858746407,-4.658304092847018,Africa,Seychelles,SC,,Seychelles,2020-01-08,18:03
Ardea cinerea,Animalia,HERONS_ARDEIDAE,Grey Heron,,1,55.409290794249465,-4.658177569687732,Africa,Seychelles,SC,,Seychelles,2020-01-08,18:00
Acridotheres tristis,Animalia,STARLINGS_STURNIDAE,Common Myna,,1,55.407159773542475,-4.658222926059833,Africa,Seychelles,SC,,Seychelles,2020-01-08,18:00
Pteropus seychellensis,Animalia,OLD_WORLD_FRUITEATING_BATS_PTEROPODIDAE,Seychelles Flying Fox,,1,55.76562926,-4.34315975,Africa,Seychelles,SC,,Seychelles - Praslin,2020-01-27,
Polistes olivaceus,Animalia,Vespidae,Yellow Oriental Paper Wasp,,1,55.4534555,-4.62269384,Africa,Seychelles,SC,,Seychelles,2020-01-27,
Acridotheres tristis,Animalia,STARLINGS_STURNIDAE,Common Myna,,1,55.45229679,-4.62361351,Africa,Seychelles,SC,,Seychelles,2020-01-27,
Geopelia striata,Animalia,PIGEONS_AND_DOVES_COLUMBIDAE,Zebra Dove,,1,55.5113877,-4.67122668,Africa,Seychelles,SC,,Seychelles,2020-01-27,
Phalacrocorax carbo,Animalia,CORMORANTS_PHALACROCORACIDAE,Great Cormorant,,1,55.20795466,-3.72375056,Africa,Seychelles,SC,,Seychelles - Indian Ocean,2019-11-06,09:46
Onychoprion anaethetus,Animalia,GULLS_TERNS_AND_SKIMMERS_LARIDAE,Bridled Tern,,1,55.57922,-4.518585,Africa,Seychelles,SC,,Seychelles - Mahé,2019-11-06,16:50
Thalasseus bergii,Animalia,GULLS_TERNS_AND_SKIMMERS_LARIDAE,Greater Crested Tern,,1,55.20990667,-3.72047,Africa,Seychelles,SC,,Seychelles - Indian Ocean,2019-11-04,14:52
Pluvialis squatarola,Animalia,PLOVERS_CHARADRIIDAE,Grey Plover,,1,55.20742167,-3.71644333,Africa,Seychelles,SC,,Seychelles - Indian Ocean,2019-11-04,15:17
Numenius phaeopus,Animalia,SANDPIPERS_AND_ALLIES_SCOLOPACIDAE,Eurasian Whimbrel,,1,55.2054122,-3.71131946,Africa,Seychelles,SC,,Seychelles - Indian Ocean,2019-11-04,15:19
Phaethon lepturus,Animalia,TROPICBIRDS_PHAETHONTIDAE,White-tailed Tropicbird,,1,55.204635,-3.723885,Africa,Seychelles,SC,,Seychelles - Indian Ocean,2019-11-05,13:27
Hirundo rustica,Animalia,SWALLOWS_HIRUNDINIDAE,Barn Swallow,,2,55.20458833,-3.72366667,Africa,Seychelles,SC,,Seychelles - Indian Ocean,2019-11-05,15:18
Sula sula,Animalia,GANNETS_AND_BOOBIES_SULIDAE,Red-footed Booby,,250,55.20509667,-3.71625167,Africa,Seychelles,SC,,Seychelles - Indian Ocean,2019-11-04,04:17
Dromas ardeola,Animalia,CRABPLOVER_DROMADIDAE,Crab-plover,,1,55.20438667,-3.71231167,Africa,Seychelles,SC,,Seychelles - Indian Ocean,2019-11-04,13:32
Ardea cinerea,Animalia,HERONS_ARDEIDAE,Grey Heron,,1,55.204555,-3.71747833,Africa,Seychelles,SC,,Seychelles - Indian Ocean,2019-11-04,13:44
Foudia madagascariensis,Animalia,WEAVERS_PLOCEIDAE,Red Fody,,1,55.20374333,-3.72259333,Africa,Seychelles,SC,,Seychelles - Indian Ocean,2019-11-05,09:54
Gygis alba,Animalia,GULLS_TERNS_AND_SKIMMERS_LARIDAE,White Tern,,1,55.20364167,-3.72097333,Africa,Seychelles,SC,,Seychelles - Indian Ocean,2019-11-05,10:07
Calidris ferruginea,Animalia,SANDPIPERS_AND_ALLIES_SCOLOPACIDAE,Curlew Sandpiper,,1,55.20456333,-3.72278167,Africa,Seychelles,SC,,Seychelles - Indian Ocean,2019-11-05,13:40
Geopelia striata,Animalia,PIGEONS_AND_DOVES_COLUMBIDAE,Zebra Dove,,1,55.20456333,-3.72278167,Africa,Seychelles,SC,,Seychelles - Indian Ocean,2019-11-05,13:41
Pteropus seychellensis,Animalia,OLD_WORLD_FRUITEATING_BATS_PTEROPODIDAE,Seychelles Flying Fox,,1,55.51314,-4.67393,Africa,Seychelles,SC,,Seychelles,2019-11-10,12:12
Pteropus seychellensis,Animalia,OLD_WORLD_FRUITEATING_BATS_PTEROPODIDAE,Seychelles Flying Fox,,1,55.84065167,-4.35770333,Africa,Seychelles,SC,,Seychelles - La Digue,2019-11-08,14:49
Chlidonias leucopterus,Animalia,GULLS_TERNS_AND_SKIMMERS_LARIDAE,White-winged Tern,,1,55.20843167,-3.71802167,Africa,Seychelles,SC,,Seychelles - Indian Ocean,2019-11-02,11:00
Nesoenas picturatus,Animalia,PIGEONS_AND_DOVES_COLUMBIDAE,Malagasy Turtle Dove,,1,55.42901167,-4.61597667,Africa,Seychelles,SC,,Seychelles,2019-11-01,11:11
Alectroenas pulcherrimus,Animalia,PIGEONS_AND_DOVES_COLUMBIDAE,Seychelles Blue Pigeon,,1,55.42901167,-4.61597667,Africa,Seychelles,SC,,Seychelles,2019-11-01,10:56
Calidris ferruginea,Animalia,SANDPIPERS_AND_ALLIES_SCOLOPACIDAE,Curlew Sandpiper,,1,55.20629635,-3.718812,Africa,Seychelles,SC,,Seychelles - Indian Ocean,2019-05-01,09:00
Phelsuma astriata,Animalia,Gekkonidae,Seychelles Day Gecko,,1,55.831825,-4.34827333,Africa,Seychelles,SC,,Seychelles - La Digue,2019-11-08,12:20
Falco araeus,Animalia,CARACAS_AND_FALCONS_FALCONIDAE,Seychelles Kestrel,,1,55.83122762,-4.34779993,Africa,Seychelles,SC,,Seychelles - La Digue,2019-11-08,16:00
Bubulcus ibis,Animalia,HERONS_ARDEIDAE,Western Cattle Egret,,523,55.48182263,-4.65599324,Africa,Seychelles,SC,,Seychelles,2019-11-10,11:32
Hypsipetes crassirostris,Animalia,BULBULS_PYCNONOTIDAE,Seychelles Bulbul,,1,55.51301167,-4.67402167,Africa,Seychelles,SC,,Seychelles,2019-11-10,12:27
Falco araeus,Animalia,CARACAS_AND_FALCONS_FALCONIDAE,Seychelles Kestrel,,1,55.513027029047656,-4.674403057729501,Africa,Seychelles,SC,,Seychelles,2019-11-11,06:04
Hypsipetes crassirostris,Animalia,BULBULS_PYCNONOTIDAE,Seychelles Bulbul,,1,55.484216685596444,-4.6539681296310915,Africa,Seychelles,SC,,Seychelles,2019-11-10,10:44
Phaethon lepturus,Animalia,TROPICBIRDS_PHAETHONTIDAE,White-tailed Tropicbird,,11,55.484216685596444,-4.6539681296310915,Africa,Seychelles,SC,,Seychelles,2019-11-10,10:44
Ardea cinerea,Animalia,HERONS_ARDEIDAE,Grey Heron,,4,55.484216685596444,-4.6539681296310915,Africa,Seychelles,SC,,Seychelles,2019-11-10,10:44
Numenius phaeopus,Animalia,SANDPIPERS_AND_ALLIES_SCOLOPACIDAE,Eurasian Whimbrel,,1,55.47079971018338,-4.637418564772761,Africa,Seychelles,SC,,Seychelles,2019-11-10,11:20
Xenus cinereus,Animalia,SANDPIPERS_AND_ALLIES_SCOLOPACIDAE,Terek Sandpiper,,1,55.48562680839616,-4.655158570025015,Africa,Seychelles,SC,,Seychelles,2019-11-10,10:59
Numenius phaeopus,Animalia,SANDPIPERS_AND_ALLIES_SCOLOPACIDAE,Eurasian Whimbrel,,2,55.4843607919601,-4.654055242710504,Africa,Seychelles,SC,,Seychelles,2019-11-10,10:45
Bubulcus ibis,Animalia,HERONS_ARDEIDAE,Western Cattle Egret,,1,55.484216685596444,-4.6539681296310915,Africa,Seychelles,SC,,Seychelles,2019-11-10,10:44
Tringa nebularia,Animalia,SANDPIPERS_AND_ALLIES_SCOLOPACIDAE,Common Greenshank,,1,55.48414201843614,-4.65397283549852,Africa,Seychelles,SC,,Seychelles,2019-11-10,10:44
Dromas ardeola,Animalia,CRABPLOVER_DROMADIDAE,Crab-plover,,5,55.48411228542034,-4.653903877541652,Africa,Seychelles,SC,,Seychelles,2019-11-10,10:44
Bubulcus ibis,Animalia,HERONS_ARDEIDAE,Western Cattle Egret,,3,55.486978289534555,-4.656564951235512,Africa,Seychelles,SC,,Seychelles,2019-11-10,08:59
Ardea cinerea,Animalia,HERONS_ARDEIDAE,Grey Heron,,1,55.4647547615696,-4.634534978332822,Africa,Seychelles,SC,,Seychelles,2019-11-10,08:55
Butorides striata,Animalia,HERONS_ARDEIDAE,Striated Heron,,3,55.828271912782704,-4.347869495768725,Africa,Seychelles,SC,,Seychelles - La Digue,2019-11-09,17:29
Terpsiphone corvina,Animalia,MONARCHS_MONARCHIDAE,Seychelles Paradise Flycatcher,,1,55.841965022227036,-4.344437295568937,Africa,Seychelles,SC,,Seychelles - La Digue,2019-11-09,09:04
Pteropus seychellensis,Animalia,OLD_WORLD_FRUITEATING_BATS_PTEROPODIDAE,Seychelles Flying Fox,,1,55.84098825180364,-4.358314557340569,Africa,Seychelles,SC,,Seychelles - La Digue,2019-11-08,16:54
Hypsipetes crassirostris,Animalia,BULBULS_PYCNONOTIDAE,Seychelles Bulbul,,4,55.84097922031425,-4.358303551029584,Africa,Seychelles,SC,,Seychelles - La Digue,2019-11-08,16:52
Alectroenas pulcherrimus,Animalia,PIGEONS_AND_DOVES_COLUMBIDAE,Seychelles Blue Pigeon,,1,55.84080660825294,-4.358266219716377,Africa,Seychelles,SC,,Seychelles - La Digue,2019-11-08,16:52
Terpsiphone corvina,Animalia,MONARCHS_MONARCHIDAE,Seychelles Paradise Flycatcher,,1,55.83938235219588,-4.359829965822154,Africa,Seychelles,SC,,Seychelles - La Digue,2019-11-08,16:21
Hypsipetes crassirostris,Animalia,BULBULS_PYCNONOTIDAE,Seychelles Bulbul,,3,55.831099373517226,-4.348416646208689,Africa,Seychelles,SC,,Seychelles - La Digue,2019-11-08,15:24
Gallinula chloropus,Animalia,RAILS_RALLIDAE,Common Moorhen,,6,55.832505040279585,-4.347915760396349,Africa,Seychelles,SC,,Seychelles - La Digue,2019-11-08,10:23
Leptotes pirithous,Animalia,GOSSAMERWINGED_BUTTERFLIES_LYCAENIDAE,Lang’s Short-tailed Blue,,1,55.83377305040797,-4.34859654608842,Africa,Seychelles,SC,,Seychelles - La Digue,2019-11-08,10:17
Alectroenas pulcherrimus,Animalia,PIGEONS_AND_DOVES_COLUMBIDAE,Seychelles Blue Pigeon,,1,55.83490210958627,-4.348814615118081,Africa,Seychelles,SC,,Seychelles - La Digue,2019-11-08,10:13
Hypsipetes crassirostris,Animalia,BULBULS_PYCNONOTIDAE,Seychelles Bulbul,,1,55.83484215604078,-4.3487685687770945,Africa,Seychelles,SC,,Seychelles - La Digue,2019-11-08,10:13
Terpsiphone corvina,Animalia,MONARCHS_MONARCHIDAE,Seychelles Paradise Flycatcher,,1,55.833892283172204,-4.348629680398502,Africa,Seychelles,SC,,Seychelles - La Digue,2019-11-08,10:09
Estrilda astrild,Animalia,WAXBILLS_MUNIAS_ALLIES_ESTRILDIDAE,Common Waxbill,,2,55.83110388576995,-4.348274003464199,Africa,Seychelles,SC,,Seychelles - La Digue,2019-11-08,08:18
Geopelia striata,Animalia,PIGEONS_AND_DOVES_COLUMBIDAE,Zebra Dove,,1,55.831240960479825,-4.3480831589160855,Africa,Seychelles,SC,,Seychelles - La Digue,2019-11-08,06:20
Falco araeus,Animalia,CARACAS_AND_FALCONS_FALCONIDAE,Seychelles Kestrel,,1,55.83181225767762,-4.347820237569436,Africa,Seychelles,SC,,Seychelles - La Digue,2019-11-08,06:19
Gallinula chloropus,Animalia,RAILS_RALLIDAE,Common Moorhen,,1,55.830954827745636,-4.358122831805875,Africa,Seychelles,SC,,Seychelles - La Digue,2019-11-07,10:41
Terpsiphone corvina,Animalia,MONARCHS_MONARCHIDAE,Seychelles Paradise Flycatcher,,5,55.83090520255757,-4.358325963510441,Africa,Seychelles,SC,,Seychelles - La Digue,2019-11-07,10:24
Foudia madagascariensis,Animalia,WEAVERS_PLOCEIDAE,Red Fody,,1,55.831149591579546,-4.34841566355041,Africa,Seychelles,SC,,Seychelles - La Digue,2019-11-07,07:45
Falco araeus,Animalia,CARACAS_AND_FALCONS_FALCONIDAE,Seychelles Kestrel,,1,55.831047382690684,-4.348262359453626,Africa,Seychelles,SC,,Seychelles - La Digue,2019-11-07,07:45
Alectroenas pulcherrimus,Animalia,PIGEONS_AND_DOVES_COLUMBIDAE,Seychelles Blue Pigeon,,2,55.83118422066619,-4.348406066777957,Africa,Seychelles,SC,,Seychelles - La Digue,2019-11-07,07:34
Hypsipetes crassirostris,Animalia,BULBULS_PYCNONOTIDAE,Seychelles Bulbul,,3,55.83119416667215,-4.348277564344625,Africa,Seychelles,SC,,Seychelles - La Digue,2019-11-07,07:34
Nesoenas picturatus,Animalia,PIGEONS_AND_DOVES_COLUMBIDAE,Malagasy Turtle Dove,,1,55.83120686678842,-4.3483791929686735,Africa,Seychelles,SC,,Seychelles - La Digue,2019-11-07,07:31
Geopelia striata,Animalia,PIGEONS_AND_DOVES_COLUMBIDAE,Zebra Dove,,1,55.83122863335686,-4.3484417963384185,Africa,Seychelles,SC,,Seychelles - La Digue,2019-11-07,07:31
Gygis alba,Animalia,GULLS_TERNS_AND_SKIMMERS_LARIDAE,White Tern,,5,55.8311286785737,-4.348473974092414,Africa,Seychelles,SC,,Seychelles - La Digue,2019-11-07,07:31
Cinnyris dussumieri,Animalia,SUNBIRDS_NECTARINIIDAE,Seychelles Sunbird,,2,55.8305741648755,-4.34851364075815,Africa,Seychelles,SC,,Seychelles - La Digue,2019-11-06,18:29
Acridotheres tristis,Animalia,STARLINGS_STURNIDAE,Common Myna,,1,55.8306356863452,-4.34850329396355,Africa,Seychelles,SC,,Seychelles - La Digue,2019-11-06,18:29
Butorides striata,Animalia,HERONS_ARDEIDAE,Striated Heron,,2,55.45841547626124,-4.619656048763207,Africa,Seychelles,SC,,Seychelles,2019-11-06,16:25
Calidris ferruginea,Animalia,SANDPIPERS_AND_ALLIES_SCOLOPACIDAE,Curlew Sandpiper,,8,55.20441863232272,-3.7238274741169874,Africa,Seychelles,SC,,Seychelles - Indian Ocean,2019-11-06,11:19
Eretmochelys imbricata,Animalia,Cheloniidae,Hawksbill Turtle,,1,55.2027214504874,-3.7242554205353575,Africa,Seychelles,SC,,Seychelles - Indian Ocean,2019-11-06,10:14
Calidris ferruginea,Animalia,SANDPIPERS_AND_ALLIES_SCOLOPACIDAE,Curlew Sandpiper,,7,55.20417514360018,-3.7233821581802,Africa,Seychelles,SC,,Seychelles - Indian Ocean,2019-11-06,09:37
Phalacrocorax carbo,Animalia,CORMORANTS_PHALACROCORACIDAE,Great Cormorant,,1,55.20736914,-3.72378025,Africa,Seychelles,SC,,Seychelles - Indian Ocean,2019-11-05,17:46
Phalacrocorax carbo,Animalia,CORMORANTS_PHALACROCORACIDAE,Great Cormorant,,1,55.20754643178366,-3.723182135329551,Africa,Seychelles,SC,,Seychelles - Indian Ocean,2019-11-05,09:19
Hirundo rustica,Animalia,SWALLOWS_HIRUNDINIDAE,Barn Swallow,,2,55.20428648974794,-3.7227463691165625,Africa,Seychelles,SC,,Seychelles - Indian Ocean,2019-11-05,08:23
Hirundo rustica,Animalia,SWALLOWS_HIRUNDINIDAE,Barn Swallow,,2,55.20503431526058,-3.724669770034771,Africa,Seychelles,SC,,Seychelles - Indian Ocean,2019-11-04,16:36
Dromas ardeola,Animalia,CRABPLOVER_DROMADIDAE,Crab-plover,,5,55.20430615116718,-3.7123562796030902,Africa,Seychelles,SC,,Seychelles - Indian Ocean,2019-11-04,15:38
Limosa lapponica,Animalia,SANDPIPERS_AND_ALLIES_SCOLOPACIDAE,Bar-tailed Godwit,,1,55.20452363,-3.72091943,Africa,Seychelles,SC,,Seychelles - Indian Ocean,2019-11-04,07:03
Dromas ardeola,Animalia,CRABPLOVER_DROMADIDAE,Crab-plover,,1,55.20416861921299,-3.7227493444481214,Africa,Seychelles,SC,,Seychelles - Indian Ocean,2019-11-03,18:24
Sula sula,Animalia,GANNETS_AND_BOOBIES_SULIDAE,Red-footed Booby,,5,55.20429714299536,-3.722621105130991,Africa,Seychelles,SC,,Seychelles - Indian Ocean,2019-11-03,17:54
Pluvialis squatarola,Animalia,PLOVERS_CHARADRIIDAE,Grey Plover,,1,55.20427963964873,-3.7227255399402295,Africa,Seychelles,SC,,Seychelles - Indian Ocean,2019-11-03,15:57
Anous tenuirostris,Animalia,GULLS_TERNS_AND_SKIMMERS_LARIDAE,Lesser Noddy,,1,55.204043231642416,-3.723265671755797,Africa,Seychelles,SC,,Seychelles - Indian Ocean,2019-11-02,12:10
Phalacrocorax carbo,Animalia,CORMORANTS_PHALACROCORACIDAE,Great Cormorant,,1,55.20405120760123,-3.7232647695125465,Africa,Seychelles,SC,,Seychelles - Indian Ocean,2019-11-02,18:40
Dromas ardeola,Animalia,CRABPLOVER_DROMADIDAE,Crab-plover,,2,55.209572401059035,-3.7211868763251794,Africa,Seychelles,SC,,Seychelles - Indian Ocean,2019-11-02,16:18
Thalasseus bergii,Animalia,GULLS_TERNS_AND_SKIMMERS_LARIDAE,Greater Crested Tern,,3,55.209991524881595,-3.720202093555588,Africa,Seychelles,SC,,Seychelles - Indian Ocean,2019-11-02,16:14
Ardea cinerea,Animalia,HERONS_ARDEIDAE,Grey Heron,,1,55.205746286389235,-3.7118541532787876,Africa,Seychelles,SC,,Seychelles - Indian Ocean,2019-11-02,15:26
Onychoprion fuscatus,Animalia,GULLS_TERNS_AND_SKIMMERS_LARIDAE,Sooty Tern,,1,55.20573730667797,-3.7118684429654665,Africa,Seychelles,SC,,Seychelles - Indian Ocean,2019-11-02,15:25
Thalasseus bergii,Animalia,GULLS_TERNS_AND_SKIMMERS_LARIDAE,Greater Crested Tern,,1,55.20574105560705,-3.7118695039094662,Africa,Seychelles,SC,,Seychelles - Indian Ocean,2019-11-02,15:25
Calidris ferruginea,Animalia,SANDPIPERS_AND_ALLIES_SCOLOPACIDAE,Curlew Sandpiper,,1,55.20485620138075,-3.7165724003916045,Africa,Seychelles,SC,,Seychelles - Indian Ocean,2019-11-02,15:02
Anous stolidus,Animalia,GULLS_TERNS_AND_SKIMMERS_LARIDAE,Brown Noddy,,1,55.204043231642416,-3.723265671755797,Africa,Seychelles,SC,,Seychelles - Indian Ocean,2019-11-02,12:10
Geopelia striata,Animalia,PIGEONS_AND_DOVES_COLUMBIDAE,Zebra Dove,,1,55.20432331926727,-3.722733154155314,Africa,Seychelles,SC,,Seychelles - Indian Ocean,2019-11-02,12:10
Pluvialis squatarola,Animalia,PLOVERS_CHARADRIIDAE,Grey Plover,,10,55.204205290909194,-3.722658084659153,Africa,Seychelles,SC,,Seychelles - Indian Ocean,2019-11-02,11:59
Phaethon lepturus,Animalia,TROPICBIRDS_PHAETHONTIDAE,White-tailed Tropicbird,,3,55.20401004806385,-3.723315072106025,Africa,Seychelles,SC,,Seychelles - Indian Ocean,2019-11-02,11:55
Numenius phaeopus,Animalia,SANDPIPERS_AND_ALLIES_SCOLOPACIDAE,Eurasian Whimbrel,,20,55.2037525,-3.72197325,Africa,Seychelles,SC,,Seychelles - Indian Ocean,2019-11-02,11:53
Cinnyris dussumieri,Animalia,SUNBIRDS_NECTARINIIDAE,Seychelles Sunbird,,1,55.429191995698794,-4.616028236585481,Africa,Seychelles,SC,,Seychelles,2019-11-01,13:26
Gygis alba,Animalia,GULLS_TERNS_AND_SKIMMERS_LARIDAE,White Tern,,1,55.43166567877355,-4.60644685195667,Africa,Seychelles,SC,,Seychelles,2019-11-01,12:36
Phaethon lepturus,Animalia,TROPICBIRDS_PHAETHONTIDAE,White-tailed Tropicbird,,4,55.43170502130958,-4.606396918409885,Africa,Seychelles,SC,,Seychelles,2019-11-01,12:27
Geopelia striata,Animalia,PIGEONS_AND_DOVES_COLUMBIDAE,Zebra Dove,,4,55.43202609479906,-4.608752718535046,Africa,Seychelles,SC,,Seychelles,2019-11-01,10:38
Phaethon lepturus,Animalia,TROPICBIRDS_PHAETHONTIDAE,White-tailed Tropicbird,,2,55.42918382121671,-4.616086206979425,Africa,Seychelles,SC,,Seychelles,2019-11-01,09:12
Nesoenas picturatus,Animalia,PIGEONS_AND_DOVES_COLUMBIDAE,Malagasy Turtle Dove,,4,55.42898606475521,-4.616017745999555,Africa,Seychelles,SC,,Seychelles,2019-11-01,08:44
Alectroenas pulcherrimus,Animalia,PIGEONS_AND_DOVES_COLUMBIDAE,Seychelles Blue Pigeon,,2,55.42933286166421,-4.615944952033637,Africa,Seychelles,SC,,Seychelles,2019-11-01,08:38
Falco araeus,Animalia,CARACAS_AND_FALCONS_FALCONIDAE,Seychelles Kestrel,,1,55.44533165908881,-4.623282975812873,Africa,Seychelles,SC,,Seychelles,2019-11-01,08:08
Ardea cinerea,Animalia,HERONS_ARDEIDAE,Grey Heron,,1,55.49507059920725,-4.662190825570429,Africa,Seychelles,SC,,Seychelles,2019-11-01,07:57
Acridotheres tristis,Animalia,STARLINGS_STURNIDAE,Common Myna,,1,55.51021293950697,-4.671304022892522,Africa,Seychelles,SC,,Seychelles,2019-11-01,07:55
Foudia madagascariensis,Animalia,WEAVERS_PLOCEIDAE,Red Fody,,1,55.51102442793074,-4.671545166485588,Africa,Seychelles,SC,,Seychelles,2019-11-01,07:55
Falco araeus,Animalia,CARACAS_AND_FALCONS_FALCONIDAE,Seychelles Kestrel,,2,55.51134935257702,-4.671244821127001,Africa,Seychelles,SC,,Seychelles,2019-11-01,07:46
Columba livia domestica,Animalia,PIGEONS_AND_DOVES_COLUMBIDAE,Feral Pigeon,,2,55.73985822,-4.33080864,Africa,Seychelles,SC,,Seychelles - Praslin NP,2019-10-01,09:57
Butorides striata degens,Animalia,HERONS_ARDEIDAE,Striated Heron ssp degens,,1,55.49822155,-4.77600422,Africa,Seychelles,SC,,Seychelles - Mahé,2019-10-06,09:28
Acridotheres tristis,Animalia,STARLINGS_STURNIDAE,Common Myna,,1,55.49880091,-4.77602384,Africa,Seychelles,SC,,Seychelles - Mahé,2019-10-06,09:15
Cinnyris dussumieri,Animalia,SUNBIRDS_NECTARINIIDAE,Seychelles Sunbird,,1,55.49880091,-4.77602384,Africa,Seychelles,SC,,Seychelles - Mahé,2019-10-06,09:15
Hypsipetes crassirostris,Animalia,BULBULS_PYCNONOTIDAE,Seychelles Bulbul,,1,55.8318831,-4.35797677,Africa,Seychelles,SC,,Seychelles - La Digue,2019-10-01,14:00
Pteropus seychellensis,Animalia,OLD_WORLD_FRUITEATING_BATS_PTEROPODIDAE,Seychelles Flying Fox,,1,55.49872758,-4.77587713,Africa,Seychelles,SC,,Seychelles - Mahé,2019-10-06,09:25
Geopelia striata,Animalia,PIGEONS_AND_DOVES_COLUMBIDAE,Zebra Dove,,1,55.47828915,-4.64204564,Africa,Seychelles,SC,,Seychelles,2019-09-29,10:25
Foudia madagascariensis,Animalia,WEAVERS_PLOCEIDAE,Red Fody,,1,55.4780853,-4.64227555,Africa,Seychelles,SC,,Seychelles,2019-09-29,10:07
Acridotheres tristis,Animalia,STARLINGS_STURNIDAE,Common Myna,,1,55.4780853,-4.64227555,Africa,Seychelles,SC,,Seychelles,2019-09-29,10:05
Cinnyris dussumieri,Animalia,SUNBIRDS_NECTARINIIDAE,Seychelles Sunbird,,1,55.38147222,-4.64239438,Africa,Seychelles,SC,,Seychelles - Mahé,2019-10-05,10:43
Acridotheres tristis,Animalia,STARLINGS_STURNIDAE,Common Myna,,1,55.40030485,-4.65306789,Africa,Seychelles,SC,,Seychelles,2019-10-05,13:00
Pteropus seychellensis,Animalia,OLD_WORLD_FRUITEATING_BATS_PTEROPODIDAE,Seychelles Flying Fox,,1,55.49867482,-4.77594215,Africa,Seychelles,SC,,Seychelles - Mahé,2019-10-05,18:10
Hypsipetes crassirostris,Animalia,BULBULS_PYCNONOTIDAE,Seychelles Bulbul,,2,55.38047167,-4.64221192,Africa,Seychelles,SC,,Seychelles - Mahé,2019-10-05,10:42
Geopelia striata,Animalia,PIGEONS_AND_DOVES_COLUMBIDAE,Zebra Dove,,1,55.40045153,-4.65306655,Africa,Seychelles,SC,,Seychelles,2019-10-05,12:30
Nesoenas picturatus,Animalia,PIGEONS_AND_DOVES_COLUMBIDAE,Malagasy Turtle Dove,,5,55.40045153,-4.65306655,Africa,Seychelles,SC,,Seychelles,2019-10-05,12:30
Foudia madagascariensis,Animalia,WEAVERS_PLOCEIDAE,Red Fody,,1,55.40045153,-4.65306655,Africa,Seychelles,SC,,Seychelles,2019-10-05,12:30
Alectroenas pulcherrimus,Animalia,PIGEONS_AND_DOVES_COLUMBIDAE,Seychelles Blue Pigeon,,1,55.4000653,-4.65339805,Africa,Seychelles,SC,,Seychelles,2019-10-05,11:30
Phaethon lepturus,Animalia,TROPICBIRDS_PHAETHONTIDAE,White-tailed Tropicbird,,1,55.39883148,-4.65430699,Africa,Seychelles,SC,,Seychelles - Mahé,2019-10-05,11:30
Sterna hirundo,Animalia,GULLS_TERNS_AND_SKIMMERS_LARIDAE,Common Tern,,3,55.48443502,-4.76540451,Africa,Seychelles,SC,,Seychelles - Mahé,2019-10-05,09:44
Pteropus seychellensis,Animalia,OLD_WORLD_FRUITEATING_BATS_PTEROPODIDAE,Seychelles Flying Fox,,5,55.49854344,-4.77584492,Africa,Seychelles,SC,,Seychelles - Mahé,2019-10-04,17:57
Foudia madagascariensis,Animalia,WEAVERS_PLOCEIDAE,Red Fody,,1,55.49854344,-4.77584492,Africa,Seychelles,SC,,Seychelles - Mahé,2019-10-04,17:57
Hypsipetes crassirostris,Animalia,BULBULS_PYCNONOTIDAE,Seychelles Bulbul,,1,55.4989565,-4.77581819,Africa,Seychelles,SC,,Seychelles - Mahé,2019-10-04,17:57
Geopelia striata,Animalia,PIGEONS_AND_DOVES_COLUMBIDAE,Zebra Dove,,1,55.49487418,-4.7777106,Africa,Seychelles,SC,,Seychelles - Mahé,2019-10-04,14:20
Acridotheres tristis,Animalia,STARLINGS_STURNIDAE,Common Myna,,1,55.49487418,-4.7777106,Africa,Seychelles,SC,,Seychelles - Mahé,2019-10-04,14:20
Cinnyris dussumieri,Animalia,SUNBIRDS_NECTARINIIDAE,Seychelles Sunbird,,1,55.49487418,-4.7777106,Africa,Seychelles,SC,,Seychelles - Mahé,2019-10-04,14:20
Pteropus seychellensis,Animalia,OLD_WORLD_FRUITEATING_BATS_PTEROPODIDAE,Seychelles Flying Fox,,7,55.52270922,-4.71948793,Africa,Seychelles,SC,,Seychelles,2019-10-04,12:04
Cinnyris dussumieri,Animalia,SUNBIRDS_NECTARINIIDAE,Seychelles Sunbird,,1,55.52270922,-4.71948793,Africa,Seychelles,SC,,Seychelles,2019-10-04,12:04
Pluvialis squatarola,Animalia,PLOVERS_CHARADRIIDAE,Grey Plover,,2,55.52092563,-4.70770808,Africa,Seychelles,SC,,Seychelles,2019-10-04,11:21
Butorides striata degens,Animalia,HERONS_ARDEIDAE,Striated Heron ssp degens,,1,55.52382502,-4.7765646,Africa,Seychelles,SC,,Seychelles,2019-10-03,15:20
Alectroenas pulcherrimus,Animalia,PIGEONS_AND_DOVES_COLUMBIDAE,Seychelles Blue Pigeon,,2,55.45212513,-4.63159506,Africa,Seychelles,SC,,Seychelles,2019-10-03,11:43
Foudia madagascariensis,Animalia,WEAVERS_PLOCEIDAE,Red Fody,,5,55.45105241,-4.63038265,Africa,Seychelles,SC,,Seychelles,2019-10-03,11:27
Hypsipetes crassirostris,Animalia,BULBULS_PYCNONOTIDAE,Seychelles Bulbul,,2,55.45040868,-4.62924911,Africa,Seychelles,SC,,Seychelles,2019-10-03,11:20
Geopelia striata,Animalia,PIGEONS_AND_DOVES_COLUMBIDAE,Zebra Dove,,2,55.451671,-4.63009659,Africa,Seychelles,SC,,Seychelles,2019-10-03,11:15
Cinnyris dussumieri,Animalia,SUNBIRDS_NECTARINIIDAE,Seychelles Sunbird,,1,55.451671,-4.63009659,Africa,Seychelles,SC,,Seychelles,2019-10-03,11:15
Pteropus seychellensis,Animalia,OLD_WORLD_FRUITEATING_BATS_PTEROPODIDAE,Seychelles Flying Fox,,49,55.45350378,-4.62982524,Africa,Seychelles,SC,,Seychelles,2019-10-03,10:15
Acridotheres tristis,Animalia,STARLINGS_STURNIDAE,Common Myna,,1,55.45373709,-4.62956959,Africa,Seychelles,SC,,Seychelles,2019-10-03,10:00
Nesoenas picturatus,Animalia,PIGEONS_AND_DOVES_COLUMBIDAE,Malagasy Turtle Dove,,1,55.45373709,-4.62956959,Africa,Seychelles,SC,,Seychelles,2019-10-03,10:00
Gygis alba,Animalia,GULLS_TERNS_AND_SKIMMERS_LARIDAE,White Tern,,1,55.45327219,-4.62376248,Africa,Seychelles,SC,,Seychelles,2019-10-03,09:38
Ardea cinerea,Animalia,HERONS_ARDEIDAE,Grey Heron,,1,55.45154041,-4.62199196,Africa,Seychelles,SC,,Seychelles,2019-10-03,09:28
Bubulcus ibis,Animalia,HERONS_ARDEIDAE,Western Cattle Egret,,1,55.4513115,-4.62130555,Africa,Seychelles,SC,,Seychelles,2019-10-03,09:20
Geopelia striata,Animalia,PIGEONS_AND_DOVES_COLUMBIDAE,Zebra Dove,,2,55.45217341,-4.62344634,Africa,Seychelles,SC,,Seychelles,2019-10-02,14:25
Acridotheres tristis,Animalia,STARLINGS_STURNIDAE,Common Myna,,1,55.47811573,-4.64228344,Africa,Seychelles,SC,,Seychelles,2019-10-02,12:57
Ardea cinerea,Animalia,HERONS_ARDEIDAE,Grey Heron,,1,55.45233564,-4.62297948,Africa,Seychelles,SC,,Seychelles,2019-10-02,14:30
Anous tenuirostris,Animalia,GULLS_TERNS_AND_SKIMMERS_LARIDAE,Lesser Noddy,,2,55.78834891,-4.35933433,Africa,Seychelles,SC,,Seychelles - Praslin,2019-10-01,11:44
Gygis alba,Animalia,GULLS_TERNS_AND_SKIMMERS_LARIDAE,White Tern,,2,55.82581225,-4.36375986,Africa,Seychelles,SC,,Seychelles - La Digue,2019-10-01,14:34
Geopelia striata,Animalia,PIGEONS_AND_DOVES_COLUMBIDAE,Zebra Dove,,1,55.82636969,-4.3532389,Africa,Seychelles,SC,,Seychelles - La Digue,2019-10-01,12:30
Foudia madagascariensis,Animalia,WEAVERS_PLOCEIDAE,Red Fody,,2,55.82636969,-4.3532389,Africa,Seychelles,SC,,Seychelles - La Digue,2019-10-01,12:30
Cinnyris dussumieri,Animalia,SUNBIRDS_NECTARINIIDAE,Seychelles Sunbird,,2,55.82636969,-4.3532389,Africa,Seychelles,SC,,Seychelles - La Digue,2019-10-01,12:30
Gygis alba,Animalia,GULLS_TERNS_AND_SKIMMERS_LARIDAE,White Tern,,1,55.82834425,-4.34787088,Africa,Seychelles,SC,,Seychelles - La Digue,2019-10-01,17:23
Acridotheres tristis,Animalia,STARLINGS_STURNIDAE,Common Myna,,1,55.47937499,-4.64158133,Africa,Seychelles,SC,,Seychelles,2019-10-02,08:30
Foudia madagascariensis,Animalia,WEAVERS_PLOCEIDAE,Red Fody,,1,55.47937499,-4.64158133,Africa,Seychelles,SC,,Seychelles,2019-10-02,08:30
Foudia madagascariensis,Animalia,WEAVERS_PLOCEIDAE,Red Fody,,2,55.82530799,-4.3627302,Africa,Seychelles,SC,,Seychelles - La Digue,2019-10-01,14:09
Terpsiphone corvina,Animalia,MONARCHS_MONARCHIDAE,Seychelles Paradise Flycatcher,,1,55.82636747,-4.36359672,Africa,Seychelles,SC,,Seychelles - La Digue,2019-10-01,14:17
Terpsiphone corvina,Animalia,MONARCHS_MONARCHIDAE,Seychelles Paradise Flycatcher,,1,55.83135378,-4.35780186,Africa,Seychelles,SC,,Seychelles - La Digue,2019-10-01,13:56
Alectroenas pulcherrimus,Animalia,PIGEONS_AND_DOVES_COLUMBIDAE,Seychelles Blue Pigeon,,3,55.83252322,-4.35752372,Africa,Seychelles,SC,,Seychelles - La Digue,2019-10-01,13:53
Foudia madagascariensis,Animalia,WEAVERS_PLOCEIDAE,Red Fody,,1,55.74023729,-4.33178031,Africa,Seychelles,SC,,Seychelles - Praslin NP,2019-10-01,09:00
Hypsipetes crassirostris,Animalia,BULBULS_PYCNONOTIDAE,Seychelles Bulbul,,1,55.74023729,-4.33178031,Africa,Seychelles,SC,,Seychelles - Praslin NP,2019-10-01,09:00
Hypsipetes crassirostris,Animalia,BULBULS_PYCNONOTIDAE,Seychelles Bulbul,,2,55.73919123,-4.33136308,Africa,Seychelles,SC,,Seychelles - Praslin NP,2019-10-01,09:45
Coracopsis barklyi,Animalia,PSITTACULIDAE,Seychelles Black Parrot,,1,55.73961766,-4.33136274,Africa,Seychelles,SC,,Seychelles - Praslin NP,2019-10-01,10:30
Coracopsis barklyi,Animalia,PSITTACULIDAE,Seychelles Black Parrot,,2,55.73997037,-4.33188027,Africa,Seychelles,SC,,Seychelles - Praslin NP,2019-10-01,18:10
Coracopsis barklyi,Animalia,PSITTACULIDAE,Seychelles Black Parrot,,2,55.73997171,-4.33185085,Africa,Seychelles,SC,,Seychelles - Praslin NP,2019-10-01,08:30
Tringa nebularia,Animalia,SANDPIPERS_AND_ALLIES_SCOLOPACIDAE,Common Greenshank,,1,55.45870727,-4.60750687,Africa,Seychelles,SC,,Seychelles,2019-09-30,16:55
Phaethon lepturus,Animalia,TROPICBIRDS_PHAETHONTIDAE,White-tailed Tropicbird,,1,55.42774921,-4.61353835,Africa,Seychelles,SC,,Seychelles,2019-09-30,15:20
Geopelia striata,Animalia,PIGEONS_AND_DOVES_COLUMBIDAE,Zebra Dove,,1,55.42774921,-4.61353835,Africa,Seychelles,SC,,Seychelles,2019-09-30,15:30
Pteropus seychellensis,Animalia,OLD_WORLD_FRUITEATING_BATS_PTEROPODIDAE,Seychelles Flying Fox,,3,55.42774921,-4.61353835,Africa,Seychelles,SC,,Seychelles,2019-09-30,15:30
Nesoenas picturatus,Animalia,PIGEONS_AND_DOVES_COLUMBIDAE,Malagasy Turtle Dove,,1,55.44691628,-4.65065651,Africa,Seychelles,SC,,Seychelles - Morne Seychellois NP,2019-09-30,11:42
Acridotheres tristis,Animalia,STARLINGS_STURNIDAE,Common Myna,,2,55.4451192,-4.65329245,Africa,Seychelles,SC,,Seychelles - Morne Seychellois NP,2019-09-30,11:40
Foudia madagascariensis,Animalia,WEAVERS_PLOCEIDAE,Red Fody,,1,55.4444862,-4.65440457,Africa,Seychelles,SC,,Seychelles - Morne Seychellois NP,2019-09-30,11:37
Phaethon lepturus,Animalia,TROPICBIRDS_PHAETHONTIDAE,White-tailed Tropicbird,,2,55.4444862,-4.65440457,Africa,Seychelles,SC,,Seychelles - Morne Seychellois NP,2019-09-30,11:37
Cinnyris dussumieri,Animalia,SUNBIRDS_NECTARINIIDAE,Seychelles Sunbird,,1,55.4444862,-4.65440457,Africa,Seychelles,SC,,Seychelles - Morne Seychellois NP,2019-09-30,11:37
Alectroenas pulcherrimus,Animalia,PIGEONS_AND_DOVES_COLUMBIDAE,Seychelles Blue Pigeon,,1,55.44911753,-4.63309086,Africa,Seychelles,SC,,Seychelles,2019-09-30,11:47
Phaethon lepturus,Animalia,TROPICBIRDS_PHAETHONTIDAE,White-tailed Tropicbird,,3,55.45725368,-4.64798446,Africa,Seychelles,SC,,Seychelles,2019-09-30,10:17
Hypsipetes crassirostris,Animalia,BULBULS_PYCNONOTIDAE,Seychelles Bulbul,,1,55.45725368,-4.64798446,Africa,Seychelles,SC,,Seychelles,2019-09-30,10:30
Hypsipetes crassirostris,Animalia,BULBULS_PYCNONOTIDAE,Seychelles Bulbul,,1,55.45498621,-4.64681084,Africa,Seychelles,SC,,Seychelles,2019-09-30,09:30
Foudia madagascariensis,Animalia,WEAVERS_PLOCEIDAE,Red Fody,,1,55.47658595,-4.64134306,Africa,Seychelles,SC,,Seychelles,2019-09-29,18:06
Nesoenas picturatus,Animalia,PIGEONS_AND_DOVES_COLUMBIDAE,Malagasy Turtle Dove,,1,55.48017567,-4.64143864,Africa,Seychelles,SC,,Seychelles,2019-09-29,16:24
Cinnyris dussumieri,Animalia,SUNBIRDS_NECTARINIIDAE,Seychelles Sunbird,,2,55.48060482,-4.64169528,Africa,Seychelles,SC,,Seychelles,2019-09-29,16:22
Geopelia striata,Animalia,PIGEONS_AND_DOVES_COLUMBIDAE,Zebra Dove,,8,55.48154087,-4.64182194,Africa,Seychelles,SC,,Seychelles,2019-09-29,16:13
Gallinula chloropus orientalis,Animalia,RAILS_RALLIDAE,Common Moorhen ssp orientalis,,1,55.47931598,-4.64060286,Africa,Seychelles,SC,,Seychelles,2019-09-29,12:21
Nesoenas picturatus,Animalia,PIGEONS_AND_DOVES_COLUMBIDAE,Malagasy Turtle Dove,,1,55.4783133,-4.64206756,Africa,Seychelles,SC,,Seychelles,2019-09-29,16:38
Acridotheres tristis,Animalia,STARLINGS_STURNIDAE,Common Myna,,1,55.4753575,-4.64137514,Africa,Seychelles,SC,,Seychelles,2019-09-29,16:54
Butorides striata,Animalia,HERONS_ARDEIDAE,Striated Heron,,1,55.4752824,-4.64130296,Africa,Seychelles,SC,,Seychelles,2019-09-29,17:56
Foudia madagascariensis,Animalia,WEAVERS_PLOCEIDAE,Red Fody,,1,55.47662438,-4.64126587,Africa,Seychelles,SC,,Seychelles,2019-09-28,18:35
Acridotheres tristis,Animalia,STARLINGS_STURNIDAE,Common Myna,,2,55.51171438,-4.67148148,Africa,Seychelles,SC,,Seychelles,2019-09-28,15:05
Nesoenas picturatus,Animalia,PIGEONS_AND_DOVES_COLUMBIDAE,Malagasy Turtle Dove,,2,55.47819482,-4.64195561,Africa,Seychelles,SC,,Seychelles,2019-09-28,17:10
Geopelia striata,Animalia,PIGEONS_AND_DOVES_COLUMBIDAE,Zebra Dove,,2,55.47838035,-4.64191785,Africa,Seychelles,SC,,Seychelles,2019-09-28,17:25
Foudia madagascariensis,Animalia,WEAVERS_PLOCEIDAE,Red Fody,,1,55.47726279,-4.63918762,Africa,Seychelles,SC,,Seychelles,2019-09-28,16:10
Bubulcus ibis,Animalia,HERONS_ARDEIDAE,Western Cattle Egret,,20,55.5106582641602,-4.66770362854004,Africa,Seychelles,SC,,Seychelles,2019-09-20,08:13
Eretmochelys imbricata,Animalia,Cheloniidae,Hawksbill Turtle,,1,55.50851375,-4.79738512,Africa,Seychelles,SC,,Seychelles - Mahé,2019-09-19,15:08
Onychoprion fuscatus,Animalia,GULLS_TERNS_AND_SKIMMERS_LARIDAE,Sooty Tern,,2,55.50856781,-4.7972784,Africa,Seychelles,SC,,Seychelles - Mahé,2019-09-19,12:17
Butorides striata,Animalia,HERONS_ARDEIDAE,Striated Heron,,1,55.5086097717285,-4.79689073562622,Africa,Seychelles,SC,,Seychelles - Mahé,2019-09-18,16:59
Acridotheres tristis,Animalia,STARLINGS_STURNIDAE,Common Myna,,1,55.5085945129395,-4.79692697525024,Africa,Seychelles,SC,,Seychelles - Mahé,2019-09-18,17:01
Hypsipetes crassirostris,Animalia,BULBULS_PYCNONOTIDAE,Seychelles Bulbul,,1,55.5085945129395,-4.79692697525024,Africa,Seychelles,SC,,Seychelles - Mahé,2019-09-18,17:01
Cinnyris dussumieri,Animalia,SUNBIRDS_NECTARINIIDAE,Seychelles Sunbird,,1,55.5085945129395,-4.79692697525024,Africa,Seychelles,SC,,Seychelles - Mahé,2019-09-18,17:01
Foudia madagascariensis,Animalia,WEAVERS_PLOCEIDAE,Red Fody,,2,55.50859451,-4.79692698,Africa,Seychelles,SC,,Seychelles - Mahé,2019-09-18,17:02
Numenius phaeopus,Animalia,SANDPIPERS_AND_ALLIES_SCOLOPACIDAE,Eurasian Whimbrel,,1,55.843236297369,-4.38031308045548,Africa,Seychelles,SC,,Seychelles - La Digue,2019-09-17,14:48
Gygis alba,Animalia,GULLS_TERNS_AND_SKIMMERS_LARIDAE,White Tern,,1,55.8245849609375,-4.36331558227539,Africa,Seychelles,SC,,Seychelles - La Digue,2019-09-17,11:00
Cinnyris dussumieri,Animalia,SUNBIRDS_NECTARINIIDAE,Seychelles Sunbird,,1,55.8245849609375,-4.36331558227539,Africa,Seychelles,SC,,Seychelles - La Digue,2019-09-17,11:00
Geopelia striata,Animalia,PIGEONS_AND_DOVES_COLUMBIDAE,Zebra Dove,,1,55.8309593200684,-4.3426628112793,Africa,Seychelles,SC,,Seychelles - La Digue,2019-09-17,16:31
Terpsiphone corvina,Animalia,MONARCHS_MONARCHIDAE,Seychelles Paradise Flycatcher,,1,55.8307609558105,-4.342613697052,Africa,Seychelles,SC,,Seychelles - La Digue,2019-09-17,16:31
Aerodramus elaphrus,Animalia,SWIFTS_APODIDAE,Seychelles Swiftlet,,3,55.8307609558105,-4.342613697052,Africa,Seychelles,SC,,Seychelles - La Digue,2019-09-17,16:31
Falco araeus,Animalia,CARACAS_AND_FALCONS_FALCONIDAE,Seychelles Kestrel,,2,55.8259735107422,-4.35748672485352,Africa,Seychelles,SC,,Seychelles - La Digue,2019-09-16,17:04
Estrilda astrild,Animalia,WAXBILLS_MUNIAS_ALLIES_ESTRILDIDAE,Common Waxbill,,4,55.8308143615723,-4.34275388717651,Africa,Seychelles,SC,,Seychelles - La Digue,2019-09-16,17:22
Aerodramus elaphrus,Animalia,SWIFTS_APODIDAE,Seychelles Swiftlet,,4,55.83106232,-4.34251976,Africa,Seychelles,SC,,Seychelles - La Digue,2019-09-16,13:57
Terpsiphone corvina,Animalia,MONARCHS_MONARCHIDAE,Seychelles Paradise Flycatcher,,4,55.8311347961426,-4.34000587463379,Africa,Seychelles,SC,,Seychelles - La Digue,2019-09-15,11:18
Cinnyris dussumieri,Animalia,SUNBIRDS_NECTARINIIDAE,Seychelles Sunbird,,1,55.8308181762695,-4.34266471862793,Africa,Seychelles,SC,,Seychelles - La Digue,2019-09-15,11:47
Charadrius leschenaultii,Animalia,PLOVERS_CHARADRIIDAE,Greater Sand Plover,,5,55.7223716005683,-4.336519924403,Africa,Seychelles,SC,,Seychelles - Praslin,2019-09-14,11:38
Pluvialis squatarola,Animalia,PLOVERS_CHARADRIIDAE,Grey Plover,,1,55.7223716005683,-4.336519924403,Africa,Seychelles,SC,,Seychelles - Praslin,2019-09-14,17:58
Actitis hypoleucos,Animalia,SANDPIPERS_AND_ALLIES_SCOLOPACIDAE,Common Sandpiper,,1,55.7223716005683,-4.336519924403,Africa,Seychelles,SC,,Seychelles - Praslin,2019-09-14,18:11
Arenaria interpres,Animalia,SANDPIPERS_AND_ALLIES_SCOLOPACIDAE,Ruddy Turnstone,,1,55.7217445373535,-4.33722162246704,Africa,Seychelles,SC,,Seychelles - Praslin,2019-09-14,11:22
Numenius phaeopus,Animalia,SANDPIPERS_AND_ALLIES_SCOLOPACIDAE,Eurasian Whimbrel,,1,55.74771881,-4.317379,Africa,Seychelles,SC,,Seychelles - Praslin,2019-09-13,17:46
Foudia sechellarum,Animalia,WEAVERS_PLOCEIDAE,Seychelles Fody,,3,55.6608839705587,-4.33071717448862,Africa,Seychelles,SC,,Seychelles - Cousin,2019-09-13,13:28
Ardenna pacifica,Animalia,PETRELS_AND_SHEARWATERS_PROCELLARIIDAE,Wedge-tailed Shearwater,,1,55.66727467,-4.33140654,Africa,Seychelles,SC,,Seychelles - Praslin,2019-09-13,13:47
Anous stolidus,Animalia,GULLS_TERNS_AND_SKIMMERS_LARIDAE,Brown Noddy,,101,55.6637371703982,-4.33064696752811,Africa,Seychelles,SC,,Seychelles - Cousin,2019-09-13,13:31
Anous tenuirostris,Animalia,GULLS_TERNS_AND_SKIMMERS_LARIDAE,Lesser Noddy,,101,55.6637371703982,-4.33064696752811,Africa,Seychelles,SC,,Seychelles - Cousin,2019-09-13,13:32
Gygis alba,Animalia,GULLS_TERNS_AND_SKIMMERS_LARIDAE,White Tern,,101,55.6637371703982,-4.33064696752811,Africa,Seychelles,SC,,Seychelles - Cousin,2019-09-13,13:32
Onychoprion anaethetus,Animalia,GULLS_TERNS_AND_SKIMMERS_LARIDAE,Bridled Tern,,2,55.6637371703982,-4.33064696752811,Africa,Seychelles,SC,,Seychelles - Cousin,2019-09-13,13:33
Copsychus sechellarum,Animalia,OLD_WORLD_FLYCATCHERS_MUSCICAPIDAE,Seychelles Magpie-Robin,,8,55.6637371703982,-4.33064696752811,Africa,Seychelles,SC,,Seychelles - Cousin,2019-09-13,13:34
Acrocephalus sechellensis,Animalia,Acrocephalidae,Seychelles Warbler,,6,55.6637371703982,-4.33064696752811,Africa,Seychelles,SC,,Seychelles - Cousin,2019-09-13,13:34
Cinnyris dussumieri,Animalia,SUNBIRDS_NECTARINIIDAE,Seychelles Sunbird,,1,55.6637371703982,-4.33064696752811,Africa,Seychelles,SC,,Seychelles - Cousin,2019-09-13,13:35
Gallinula chloropus,Animalia,RAILS_RALLIDAE,Common Moorhen,,5,55.6637371703982,-4.33064696752811,Africa,Seychelles,SC,,Seychelles - Cousin,2019-09-13,13:36
Phaethon lepturus,Animalia,TROPICBIRDS_PHAETHONTIDAE,White-tailed Tropicbird,,101,55.6637371703982,-4.33064696752811,Africa,Seychelles,SC,,Seychelles - Cousin,2019-09-13,13:39
Thalasseus bergii,Animalia,GULLS_TERNS_AND_SKIMMERS_LARIDAE,Greater Crested Tern,,2,55.7406806945801,-4.31135317961062,Africa,Seychelles,SC,,Seychelles - Praslin,2019-09-12,14:01
Ardea cinerea,Animalia,HERONS_ARDEIDAE,Grey Heron,,1,55.7406806945801,-4.31135317961062,Africa,Seychelles,SC,,Seychelles - Praslin,2019-09-12,20:04
Gygis alba,Animalia,GULLS_TERNS_AND_SKIMMERS_LARIDAE,White Tern,,2,55.75384185,-4.32036526,Africa,Seychelles,SC,,Seychelles - Praslin,2019-09-12,11:00
Coracopsis barklyi,Animalia,PSITTACULIDAE,Seychelles Black Parrot,,2,55.7389106750488,-4.33123636245728,Africa,Seychelles,SC,,Seychelles - Praslin NP,2019-09-12,10:24
Alectroenas pulcherrimus,Animalia,PIGEONS_AND_DOVES_COLUMBIDAE,Seychelles Blue Pigeon,,1,55.7359504699707,-4.32961511611938,Africa,Seychelles,SC,,Seychelles - Praslin NP,2019-09-12,11:29
Hypsipetes crassirostris,Animalia,BULBULS_PYCNONOTIDAE,Seychelles Bulbul,,1,55.7359504699707,-4.32961559295654,Africa,Seychelles,SC,,Seychelles - Praslin NP,2019-09-12,11:30
Phaethon lepturus,Animalia,TROPICBIRDS_PHAETHONTIDAE,White-tailed Tropicbird,,2,55.7477531433105,-4.31722354888916,Africa,Seychelles,SC,,Seychelles - Praslin,2019-09-12,13:26
Foudia madagascariensis,Animalia,WEAVERS_PLOCEIDAE,Red Fody,,1,55.7477798461914,-4.31723165512085,Africa,Seychelles,SC,,Seychelles - Praslin,2019-09-12,13:28
Acridotheres tristis,Animalia,STARLINGS_STURNIDAE,Common Myna,,1,55.7478408813477,-4.31725788116455,Africa,Seychelles,SC,,Seychelles - Praslin,2019-09-12,13:29
Cinnyris dussumieri,Animalia,SUNBIRDS_NECTARINIIDAE,Seychelles Sunbird,,1,55.7478408813477,-4.31725788116455,Africa,Seychelles,SC,,Seychelles - Praslin,2019-09-12,13:30
Nesoenas picturatus,Animalia,PIGEONS_AND_DOVES_COLUMBIDAE,Malagasy Turtle Dove,,1,55.7476577758789,-4.31722211837769,Africa,Seychelles,SC,,Seychelles - Praslin,2019-09-12,13:32
Alectroenas pulcherrimus,Animalia,PIGEONS_AND_DOVES_COLUMBIDAE,Seychelles Blue Pigeon,,1,55.7476577758789,-4.31722211837769,Africa,Seychelles,SC,,Seychelles - Praslin,2019-09-12,13:34
Foudia madagascariensis,Animalia,WEAVERS_PLOCEIDAE,Red Fody,,1,55.4650388888889,-4.745413888888889,Africa,Seychelles,SC,,Seychelles - Mahé,2019-07-17,11:06
Acridotheres tristis,Animalia,STARLINGS_STURNIDAE,Common Myna,,1,55.76354749,-4.31855557,Africa,Seychelles,SC,,Seychelles - Praslin,2019-04-29,
Hypsipetes crassirostris,Animalia,BULBULS_PYCNONOTIDAE,Seychelles Bulbul,,1,55.76354749,-4.31855557,Africa,Seychelles,SC,,Seychelles - Praslin,2019-04-29,
Ardea cinerea,Animalia,HERONS_ARDEIDAE,Grey Heron,,2,55.76331167,-4.31732162,Africa,Seychelles,SC,,Seychelles - Praslin,2019-05-02,
Foudia madagascariensis,Animalia,WEAVERS_PLOCEIDAE,Red Fody,,7,55.76328292,-4.31887888,Africa,Seychelles,SC,,Seychelles - Praslin,2019-05-04,
Cinnyris dussumieri,Animalia,SUNBIRDS_NECTARINIIDAE,Seychelles Sunbird,,3,55.47341852,-4.66729012,Africa,Seychelles,SC,,Seychelles,2019-05-10,
Nesoenas picturatus,Animalia,PIGEONS_AND_DOVES_COLUMBIDAE,Malagasy Turtle Dove,,50,55.40607269847587,-4.658822266275098,Africa,Seychelles,SC,,Seychelles,2019-05-16,08:30
Gygis alba,Animalia,GULLS_TERNS_AND_SKIMMERS_LARIDAE,White Tern,,1,55.409370322879916,-4.6586906501202225,Africa,Seychelles,SC,,Seychelles,2019-05-16,08:30
Bubulcus ibis,Animalia,HERONS_ARDEIDAE,Western Cattle Egret,,2,55.451389336389944,-4.6215279964652,Africa,Seychelles,SC,,Seychelles,2019-05-15,11:45
Ardea cinerea,Animalia,HERONS_ARDEIDAE,Grey Heron,,1,55.46978950257101,-4.637945024545926,Africa,Seychelles,SC,,Seychelles,2019-05-15,12:45
Aerodramus elaphrus,Animalia,SWIFTS_APODIDAE,Seychelles Swiftlet,,15,55.46513522449208,-4.583086001381808,Africa,Seychelles,SC,,Seychelles,2019-05-15,12:45
Nycticorax nycticorax,Animalia,HERONS_ARDEIDAE,Black-crowned Night Heron,,2,55.46011523248825,-4.5736125067248175,Africa,Seychelles,SC,,Seychelles,2019-05-15,12:45
Numenius phaeopus,Animalia,SANDPIPERS_AND_ALLIES_SCOLOPACIDAE,Eurasian Whimbrel,,2,55.469759321030885,-4.638328379770922,Africa,Seychelles,SC,,Seychelles,2019-05-15,13:45
Falco araeus,Animalia,CARACAS_AND_FALCONS_FALCONIDAE,Seychelles Kestrel,,1,55.40365460512049,-4.653892026071629,Africa,Seychelles,SC,,Seychelles,2019-05-15,11:00
Falco araeus,Animalia,CARACAS_AND_FALCONS_FALCONIDAE,Seychelles Kestrel,,1,55.40937918758322,-4.658691960129184,Africa,Seychelles,SC,,Seychelles,2019-05-14,17:02
Butorides striata,Animalia,HERONS_ARDEIDAE,Striated Heron,,1,55.403310413757616,-4.662809837389709,Africa,Seychelles,SC,,Seychelles - Mahé,2019-05-14,15:30
Ardea cinerea,Animalia,HERONS_ARDEIDAE,Grey Heron,,1,55.41081512102886,-4.658409047026534,Africa,Seychelles,SC,,Seychelles,2019-05-13,11:30
Ardea cinerea,Animalia,HERONS_ARDEIDAE,Grey Heron,,1,55.4696270255603,-4.637951513362283,Africa,Seychelles,SC,,Seychelles,2019-05-13,14:30
Acridotheres tristis,Animalia,STARLINGS_STURNIDAE,Common Myna,,15,55.4696270255603,-4.637951513362283,Africa,Seychelles,SC,,Seychelles,2019-05-13,14:30
Numenius phaeopus,Animalia,SANDPIPERS_AND_ALLIES_SCOLOPACIDAE,Eurasian Whimbrel,,1,55.4696270255603,-4.637951513362283,Africa,Seychelles,SC,,Seychelles,2019-05-13,14:30
Otus insularis,Animalia,OWLS_STRIGIDAE,Seychelles Scops Owl,,2,55.44420161,-4.65507741,Africa,Seychelles,SC,,Seychelles - Morne Seychellois NP,2019-05-13,19:00
Aerodramus elaphrus,Animalia,SWIFTS_APODIDAE,Seychelles Swiftlet,,3,55.44420160739629,-4.6550774069486405,Africa,Seychelles,SC,,Seychelles - Morne Seychellois NP,2019-05-13,18:00
Nesoenas picturatus,Animalia,PIGEONS_AND_DOVES_COLUMBIDAE,Malagasy Turtle Dove,,50,55.40571081,-4.65894002,Africa,Seychelles,SC,,Seychelles,2019-05-13,10:38
Zosterops modestus,Animalia,WHITEEYES_ZOSTEROPIDAE,Seychelles White-eye,,2,55.46929895249957,-4.6649476596721895,Africa,Seychelles,SC,,Seychelles,2019-05-13,08:00
Acridotheres tristis,Animalia,STARLINGS_STURNIDAE,Common Myna,,100,55.43246269,-4.58395392,Africa,Seychelles,SC,,Seychelles,2019-05-06,
Acridotheres tristis,Animalia,STARLINGS_STURNIDAE,Common Myna,,10,55.76362967,-4.31825367,Africa,Seychelles,SC,,Seychelles - Praslin,2019-04-30,
Acridotheres tristis,Animalia,STARLINGS_STURNIDAE,Common Myna,,30,55.83621025,-4.34846528,Africa,Seychelles,SC,,Seychelles - La Digue,2019-04-29,
Foudia madagascariensis,Animalia,WEAVERS_PLOCEIDAE,Red Fody,,4,55.43380916,-4.57826441,Africa,Seychelles,SC,,Seychelles,2019-05-06,18:00
Cinnyris dussumieri,Animalia,SUNBIRDS_NECTARINIIDAE,Seychelles Sunbird,,2,55.43380916,-4.57826441,Africa,Seychelles,SC,,Seychelles,2019-05-06,18:00
Hypsipetes crassirostris,Animalia,BULBULS_PYCNONOTIDAE,Seychelles Bulbul,,1,55.44101894,-4.58031777,Africa,Seychelles,SC,,Seychelles,2019-05-06,18:00
Falco araeus,Animalia,CARACAS_AND_FALCONS_FALCONIDAE,Seychelles Kestrel,,1,55.43398082,-4.57860664,Africa,Seychelles,SC,,Seychelles,2019-05-06,18:00
Phaethon lepturus,Animalia,TROPICBIRDS_PHAETHONTIDAE,White-tailed Tropicbird,,2,55.43398082,-4.57860664,Africa,Seychelles,SC,,Seychelles,2019-05-06,18:00
Ardea cinerea,Animalia,HERONS_ARDEIDAE,Grey Heron,,2,55.39982021,-4.61813278,Africa,Seychelles,SC,,Seychelles,2019-05-06,18:00
Butorides striata,Animalia,HERONS_ARDEIDAE,Striated Heron,,6,55.39982021,-4.61813278,Africa,Seychelles,SC,,Seychelles,2019-05-06,18:00
Thalasseus bergii,Animalia,GULLS_TERNS_AND_SKIMMERS_LARIDAE,Greater Crested Tern,,10,55.39982021,-4.61813278,Africa,Seychelles,SC,,Seychelles,2019-05-06,18:00
Gygis alba,Animalia,GULLS_TERNS_AND_SKIMMERS_LARIDAE,White Tern,,6,55.43300986,-4.58865949,Africa,Seychelles,SC,,Seychelles,2019-05-06,18:00
Aerodramus elaphrus,Animalia,SWIFTS_APODIDAE,Seychelles Swiftlet,,100,55.43981731,-4.58904449,Africa,Seychelles,SC,,Seychelles,2019-05-06,18:00
Geopelia striata,Animalia,PIGEONS_AND_DOVES_COLUMBIDAE,Zebra Dove,,20,55.43336391,-4.58977171,Africa,Seychelles,SC,,Seychelles,2019-05-06,18:00
Nesoenas picturatus,Animalia,PIGEONS_AND_DOVES_COLUMBIDAE,Malagasy Turtle Dove,,8,55.43336391,-4.58977171,Africa,Seychelles,SC,,Seychelles,2019-05-06,18:00
Acridotheres tristis,Animalia,STARLINGS_STURNIDAE,Common Myna,,30,55.83573818,-4.36250087,Africa,Seychelles,SC,,Seychelles - La Digue,2019-04-29,18:00
Acridotheres tristis,Animalia,STARLINGS_STURNIDAE,Common Myna,,10,55.76295376,-4.33100603,Africa,Seychelles,SC,,Seychelles - Praslin,2019-04-30,18:00
Acridotheres tristis,Animalia,STARLINGS_STURNIDAE,Common Myna,,10,55.76295376,-4.33100603,Africa,Seychelles,SC,,Seychelles - Praslin,2019-05-01,18:00
Foudia madagascariensis,Animalia,WEAVERS_PLOCEIDAE,Red Fody,,30,55.20584822,-3.71746274,Africa,Seychelles,SC,,Seychelles - Indian Ocean,2019-05-01,18:00
Hirundo rustica,Animalia,SWALLOWS_HIRUNDINIDAE,Barn Swallow,,3,55.20584822,-3.71746274,Africa,Seychelles,SC,,Seychelles - Indian Ocean,2019-05-01,18:00
Dromas ardeola,Animalia,CRABPLOVER_DROMADIDAE,Crab-plover,,2,55.20584822,-3.71746274,Africa,Seychelles,SC,,Seychelles - Indian Ocean,2019-05-01,18:00
Geopelia striata,Animalia,PIGEONS_AND_DOVES_COLUMBIDAE,Zebra Dove,,50,55.20584822,-3.71746274,Africa,Seychelles,SC,,Seychelles - Indian Ocean,2019-05-01,18:00
Alectroenas pulcherrimus,Animalia,PIGEONS_AND_DOVES_COLUMBIDAE,Seychelles Blue Pigeon,,3,55.20584822,-3.71746274,Africa,Seychelles,SC,,Seychelles - Indian Ocean,2019-05-01,18:00
Pluvialis squatarola,Animalia,PLOVERS_CHARADRIIDAE,Grey Plover,,3,55.20584822,-3.71746274,Africa,Seychelles,SC,,Seychelles - Indian Ocean,2019-05-01,18:00
Charadrius mongolus,Animalia,PLOVERS_CHARADRIIDAE,Lesser Sand Plover,,6,55.20584822,-3.71746274,Africa,Seychelles,SC,,Seychelles - Indian Ocean,2019-05-01,18:00
Charadrius leschenaultii,Animalia,PLOVERS_CHARADRIIDAE,Greater Sand Plover,,1,55.20584822,-3.71746274,Africa,Seychelles,SC,,Seychelles - Indian Ocean,2019-05-01,18:00
Numenius phaeopus,Animalia,SANDPIPERS_AND_ALLIES_SCOLOPACIDAE,Eurasian Whimbrel,,3,55.20584822,-3.71746274,Africa,Seychelles,SC,,Seychelles - Indian Ocean,2019-05-01,18:00
Arenaria interpres,Animalia,SANDPIPERS_AND_ALLIES_SCOLOPACIDAE,Ruddy Turnstone,,60,55.20584822,-3.71746274,Africa,Seychelles,SC,,Seychelles - Indian Ocean,2019-05-01,18:00
Calidris alba,Animalia,SANDPIPERS_AND_ALLIES_SCOLOPACIDAE,Sanderling,,20,55.20584822,-3.71746274,Africa,Seychelles,SC,,Seychelles - Indian Ocean,2019-05-01,18:00
Tringa nebularia,Animalia,SANDPIPERS_AND_ALLIES_SCOLOPACIDAE,Common Greenshank,,2,55.20584822,-3.71746274,Africa,Seychelles,SC,,Seychelles - Indian Ocean,2019-05-01,18:00
Gygis alba,Animalia,GULLS_TERNS_AND_SKIMMERS_LARIDAE,White Tern,,100,55.20584822,-3.71746274,Africa,Seychelles,SC,,Seychelles - Indian Ocean,2019-05-01,18:00
Anous stolidus,Animalia,GULLS_TERNS_AND_SKIMMERS_LARIDAE,Brown Noddy,,500,55.20584822,-3.71746274,Africa,Seychelles,SC,,Seychelles - Indian Ocean,2019-05-01,18:00
Anous tenuirostris,Animalia,GULLS_TERNS_AND_SKIMMERS_LARIDAE,Lesser Noddy,,1000,55.20584822,-3.71746274,Africa,Seychelles,SC,,Seychelles - Indian Ocean,2019-05-01,18:00
Onychoprion fuscatus,Animalia,GULLS_TERNS_AND_SKIMMERS_LARIDAE,Sooty Tern,,100000,55.20584822,-3.71746274,Africa,Seychelles,SC,,Seychelles - Indian Ocean,2019-05-01,18:00
Onychoprion anaethetus,Animalia,GULLS_TERNS_AND_SKIMMERS_LARIDAE,Bridled Tern,,40,55.20584822,-3.71746274,Africa,Seychelles,SC,,Seychelles - Indian Ocean,2019-05-01,18:00
Thalasseus bergii,Animalia,GULLS_TERNS_AND_SKIMMERS_LARIDAE,Greater Crested Tern,,5,55.20584822,-3.71746274,Africa,Seychelles,SC,,Seychelles - Indian Ocean,2019-05-01,18:00
Phaethon lepturus,Animalia,TROPICBIRDS_PHAETHONTIDAE,White-tailed Tropicbird,,8,55.20584822,-3.71746274,Africa,Seychelles,SC,,Seychelles - Indian Ocean,2019-05-01,18:00
Foudia madagascariensis,Animalia,WEAVERS_PLOCEIDAE,Red Fody,,10,55.76334,-4.3186816,Africa,Seychelles,SC,,Seychelles - Praslin,2019-04-30,18:00
Cinnyris dussumieri,Animalia,SUNBIRDS_NECTARINIIDAE,Seychelles Sunbird,,10,55.76334,-4.3186816,Africa,Seychelles,SC,,Seychelles - Praslin,2019-04-30,18:00
Hypsipetes crassirostris,Animalia,BULBULS_PYCNONOTIDAE,Seychelles Bulbul,,3,55.76334,-4.3186816,Africa,Seychelles,SC,,Seychelles - Praslin,2019-04-30,18:00
Numenius phaeopus,Animalia,SANDPIPERS_AND_ALLIES_SCOLOPACIDAE,Eurasian Whimbrel,,1,55.76334,-4.3186816,Africa,Seychelles,SC,,Seychelles - Praslin,2019-04-30,18:00
Ardea cinerea,Animalia,HERONS_ARDEIDAE,Grey Heron,,6,55.76093700000001,-4.324159,Africa,Seychelles,SC,,Seychelles - Praslin,2019-04-30,18:50
Butorides striata,Animalia,HERONS_ARDEIDAE,Striated Heron,,2,55.76093700000001,-4.324159,Africa,Seychelles,SC,,Seychelles - Praslin,2019-04-30,18:50
Thalasseus bergii,Animalia,GULLS_TERNS_AND_SKIMMERS_LARIDAE,Greater Crested Tern,,8,55.76093673706055,-4.324159147635019,Africa,Seychelles,SC,,Seychelles - Praslin,2019-04-30,18:50
Nesoenas picturatus,Animalia,PIGEONS_AND_DOVES_COLUMBIDAE,Malagasy Turtle Dove,,10,55.834923,-4.364213,Africa,Seychelles,SC,,Seychelles - La Digue,2019-04-29,18:50
Geopelia striata,Animalia,PIGEONS_AND_DOVES_COLUMBIDAE,Zebra Dove,,20,55.834923,-4.364213,Africa,Seychelles,SC,,Seychelles - La Digue,2019-04-29,18:50
Foudia madagascariensis,Animalia,WEAVERS_PLOCEIDAE,Red Fody,,20,55.834923,-4.364213,Africa,Seychelles,SC,,Seychelles - La Digue,2019-04-29,18:50
Terpsiphone corvina,Animalia,MONARCHS_MONARCHIDAE,Seychelles Paradise Flycatcher,,2,55.834923,-4.364213,Africa,Seychelles,SC,,Seychelles - La Digue,2019-04-29,18:50
Ardea cinerea,Animalia,HERONS_ARDEIDAE,Grey Heron,,1,55.834923,-4.364213,Africa,Seychelles,SC,,Seychelles - La Digue,2019-04-29,18:50
Gygis alba,Animalia,GULLS_TERNS_AND_SKIMMERS_LARIDAE,White Tern,,2,55.834923,-4.364213,Africa,Seychelles,SC,,Seychelles - La Digue,2019-04-29,18:50
Gallinula chloropus,Animalia,RAILS_RALLIDAE,Common Moorhen,,2,55.834923,-4.364213,Africa,Seychelles,SC,,Seychelles - La Digue,2019-04-29,18:50
Nesoenas picturatus,Animalia,PIGEONS_AND_DOVES_COLUMBIDAE,Malagasy Turtle Dove,,16,55.764542000000006,-4.323132,Africa,Seychelles,SC,,Seychelles - Praslin,2019-04-30,18:50
Alectroenas pulcherrimus,Animalia,PIGEONS_AND_DOVES_COLUMBIDAE,Seychelles Blue Pigeon,,3,55.764542000000006,-4.323132,Africa,Seychelles,SC,,Seychelles - Praslin,2019-04-30,18:50
Geopelia striata,Animalia,PIGEONS_AND_DOVES_COLUMBIDAE,Zebra Dove,,30,55.76454162597656,-4.323132110554494,Africa,Seychelles,SC,,Seychelles - Praslin,2019-04-30,18:50
Thalasseus bergii,Animalia,GULLS_TERNS_AND_SKIMMERS_LARIDAE,Greater Crested Tern,,1,55.39940780017273,-4.6540112903516775,Africa,Seychelles,SC,,Seychelles - Mahé,2019-05-12,11:30
Falco araeus,Animalia,CARACAS_AND_FALCONS_FALCONIDAE,Seychelles Kestrel,,1,55.405623800172684,-4.657713699405214,Africa,Seychelles,SC,,Seychelles,2019-05-12,17:35
Gygis alba,Animalia,GULLS_TERNS_AND_SKIMMERS_LARIDAE,White Tern,,2,55.40937221786533,-4.6586963127377565,Africa,Seychelles,SC,,Seychelles,2019-05-12,10:39
Onychoprion fuscatus,Animalia,GULLS_TERNS_AND_SKIMMERS_LARIDAE,Sooty Tern,,100000,55.20526886,-3.71352282,Africa,Seychelles,SC,,Seychelles - Indian Ocean,2019-05-01,
Phaethon lepturus,Animalia,TROPICBIRDS_PHAETHONTIDAE,White-tailed Tropicbird,,4,55.47488030239586,-4.668570082257958,Africa,Seychelles,SC,,Seychelles,2019-05-11,13:30
Foudia madagascariensis,Animalia,WEAVERS_PLOCEIDAE,Red Fody,,40,55.47488030239586,-4.668570082257958,Africa,Seychelles,SC,,Seychelles,2019-05-11,13:30
Cinnyris dussumieri,Animalia,SUNBIRDS_NECTARINIIDAE,Seychelles Sunbird,,7,55.47488030239586,-4.668570082257958,Africa,Seychelles,SC,,Seychelles,2019-05-11,13:30
Alectroenas pulcherrimus,Animalia,PIGEONS_AND_DOVES_COLUMBIDAE,Seychelles Blue Pigeon,,4,55.47488030239586,-4.668570082257958,Africa,Seychelles,SC,,Seychelles,2019-05-11,13:30
Falco araeus,Animalia,CARACAS_AND_FALCONS_FALCONIDAE,Seychelles Kestrel,,1,55.47488030239586,-4.668570082257958,Africa,Seychelles,SC,,Seychelles,2019-05-11,13:30
Falco araeus,Animalia,CARACAS_AND_FALCONS_FALCONIDAE,Seychelles Kestrel,,1,55.51918832691721,-4.71098095404494,Africa,Seychelles,SC,,Seychelles,2019-05-11,13:30
Thalasseus bergii,Animalia,GULLS_TERNS_AND_SKIMMERS_LARIDAE,Greater Crested Tern,,1,55.406280232099284,-4.657553064988156,Africa,Seychelles,SC,,Seychelles,2019-05-10,16:00
Gygis alba,Animalia,GULLS_TERNS_AND_SKIMMERS_LARIDAE,White Tern,,2,55.408800232099274,-4.659022860498907,Africa,Seychelles,SC,,Seychelles,2019-05-11,08:00
Alectroenas pulcherrimus,Animalia,PIGEONS_AND_DOVES_COLUMBIDAE,Seychelles Blue Pigeon,,5,55.47517400576236,-4.668984449408922,Africa,Seychelles,SC,,Seychelles,2019-05-10,12:00
Bubulcus ibis,Animalia,HERONS_ARDEIDAE,Western Cattle Egret,,1,55.45146491018106,-4.6215689137194405,Africa,Seychelles,SC,,Seychelles,2019-05-10,12:00
Ardenna pacifica,Animalia,PETRELS_AND_SHEARWATERS_PROCELLARIIDAE,Wedge-tailed Shearwater,,30,55.59596000227871,-4.50896281302642,Africa,Seychelles,SC,,Seychelles - Indian Ocean,2019-05-09,13:30
Gygis alba,Animalia,GULLS_TERNS_AND_SKIMMERS_LARIDAE,White Tern,,8,55.83699766521347,-4.334343609608095,Africa,Seychelles,SC,,Seychelles - La Digue,2019-05-08,17:46
Ardenna pacifica,Animalia,PETRELS_AND_SHEARWATERS_PROCELLARIIDAE,Wedge-tailed Shearwater,,2,55.836238693308424,-4.333616372752926,Africa,Seychelles,SC,,Seychelles - La Digue,2019-05-08,17:36
Terpsiphone corvina,Animalia,MONARCHS_MONARCHIDAE,Seychelles Paradise Flycatcher,,1,55.83351847179631,-4.337883593393655,Africa,Seychelles,SC,,Seychelles - La Digue,2019-05-08,16:31
Gallinula chloropus,Animalia,RAILS_RALLIDAE,Common Moorhen,,1,55.70133337015158,-4.295372986076575,Africa,Seychelles,SC,,Seychelles - Praslin,2019-05-04,08:59
Gallinula chloropus,Animalia,RAILS_RALLIDAE,Common Moorhen,,1,55.66587787547033,-4.330634613954657,Africa,Seychelles,SC,,Seychelles - Cousin,2019-05-03,08:59
Ardenna pacifica,Animalia,PETRELS_AND_SHEARWATERS_PROCELLARIIDAE,Wedge-tailed Shearwater,,75,55.83855559503567,-4.331338020239265,Africa,Seychelles,SC,,Seychelles - La Digue,2019-05-08,07:06
Alectroenas pulcherrimus,Animalia,PIGEONS_AND_DOVES_COLUMBIDAE,Seychelles Blue Pigeon,,1,55.83091959711086,-4.357574616211029,Africa,Seychelles,SC,,Seychelles - La Digue,2019-05-07,13:00
Terpsiphone corvina,Animalia,MONARCHS_MONARCHIDAE,Seychelles Paradise Flycatcher,,5,55.829463597110795,-4.357202361985291,Africa,Seychelles,SC,,Seychelles - La Digue,2019-05-07,13:00
Butorides striata,Animalia,HERONS_ARDEIDAE,Striated Heron,,1,55.82379505322036,-4.3645864384412825,Africa,Seychelles,SC,,Seychelles - La Digue,2019-05-07,13:00
Tringa nebularia,Animalia,SANDPIPERS_AND_ALLIES_SCOLOPACIDAE,Common Greenshank,,1,55.82620305322031,-4.363841936753344,Africa,Seychelles,SC,,Seychelles - La Digue,2019-05-07,13:00
Numenius phaeopus,Animalia,SANDPIPERS_AND_ALLIES_SCOLOPACIDAE,Eurasian Whimbrel,,5,55.82400557852022,-4.364053263811316,Africa,Seychelles,SC,,Seychelles - La Digue,2019-05-07,13:00
Butorides striata,Animalia,HERONS_ARDEIDAE,Striated Heron,,1,55.83411559853098,-4.3380710971105945,Africa,Seychelles,SC,,Seychelles - La Digue,2019-05-07,09:34
Aerodramus elaphrus,Animalia,SWIFTS_APODIDAE,Seychelles Swiftlet,,5,55.83744716522365,-4.340819205691959,Africa,Seychelles,SC,,Seychelles - La Digue,2019-05-06,17:30
Gygis alba,Animalia,GULLS_TERNS_AND_SKIMMERS_LARIDAE,White Tern,,15,55.836515486505554,-4.332502250889971,Africa,Seychelles,SC,,Seychelles - La Digue,2019-05-06,17:30
Butorides striata,Animalia,HERONS_ARDEIDAE,Striated Heron,,1,55.761836280458795,-4.320605056086282,Africa,Seychelles,SC,,Seychelles - Praslin,2019-05-04,12:00
Hypsipetes crassirostris,Animalia,BULBULS_PYCNONOTIDAE,Seychelles Bulbul,,3,55.763308898998936,-4.318969168923514,Africa,Seychelles,SC,,Seychelles - Praslin,2019-05-04,12:00
Calidris alba,Animalia,SANDPIPERS_AND_ALLIES_SCOLOPACIDAE,Sanderling,,2,55.70348265281233,-4.3256451107917515,Africa,Seychelles,SC,,Seychelles - Praslin,2019-05-04,12:00
Zanclus cornutus,Animalia,Zanclidae,Moorish idol,,1,55.86497828,-4.28995593,Africa,Seychelles,SC,,Seychelles - Indian Ocean,2019-04-29,11:25
Pomacanthus imperator,Animalia,Angelfishes,Emperor angelfish,,1,55.74927114,-4.30230756,Africa,Seychelles,SC,,Seychelles - Praslin,2019-04-25,15:50
Eretmochelys imbricata,Animalia,Cheloniidae,Hawksbill Turtle,,1,55.86566493,-4.29025549,Africa,Seychelles,SC,,Seychelles - Indian Ocean,2019-04-29,11:10
Pteropus seychellensis,Animalia,OLD_WORLD_FRUITEATING_BATS_PTEROPODIDAE,Seychelles Flying Fox,,1,55.4424442,-4.62285684,Africa,Seychelles,SC,,Seychelles,2019-05-04,07:15
Fregata minor,Animalia,FRIGATEBIRDS_FREGATTIDAE,Great Frigatebird,,1,55.762532196412565,-4.317941634869794,Africa,Seychelles,SC,,Seychelles - Praslin,2019-05-03,16:00
Arenaria interpres,Animalia,SANDPIPERS_AND_ALLIES_SCOLOPACIDAE,Ruddy Turnstone,,7,55.66391300772297,-4.3277569943515735,Africa,Seychelles,SC,,Seychelles - Cousin,2019-05-03,11:00
Cinnyris dussumieri,Animalia,SUNBIRDS_NECTARINIIDAE,Seychelles Sunbird,,3,55.66490234105621,-4.32924606826859,Africa,Seychelles,SC,,Seychelles - Cousin,2019-05-03,11:00
Anous stolidus,Animalia,GULLS_TERNS_AND_SKIMMERS_LARIDAE,Brown Noddy,,10,55.66490234105621,-4.32924606826859,Africa,Seychelles,SC,,Seychelles - Cousin,2019-05-03,11:00
Anous tenuirostris,Animalia,GULLS_TERNS_AND_SKIMMERS_LARIDAE,Lesser Noddy,,50,55.66490234105621,-4.32924606826859,Africa,Seychelles,SC,,Seychelles - Cousin,2019-05-03,11:00
Gygis alba,Animalia,GULLS_TERNS_AND_SKIMMERS_LARIDAE,White Tern,,8,55.66490234105621,-4.32924606826859,Africa,Seychelles,SC,,Seychelles - Cousin,2019-05-03,11:00
Phaethon lepturus,Animalia,TROPICBIRDS_PHAETHONTIDAE,White-tailed Tropicbird,,100,55.66490234105621,-4.32924606826859,Africa,Seychelles,SC,,Seychelles - Cousin,2019-05-03,11:00
Acrocephalus sechellensis,Animalia,Acrocephalidae,Seychelles Warbler,,2,55.66490234105621,-4.32924606826859,Africa,Seychelles,SC,,Seychelles - Cousin,2019-05-03,11:00
Copsychus sechellarum,Animalia,OLD_WORLD_FLYCATCHERS_MUSCICAPIDAE,Seychelles Magpie-Robin,,5,55.66490234105621,-4.32924606826859,Africa,Seychelles,SC,,Seychelles - Cousin,2019-05-03,11:00
Foudia sechellarum,Animalia,WEAVERS_PLOCEIDAE,Seychelles Fody,,5,55.66490234105621,-4.32924606826859,Africa,Seychelles,SC,,Seychelles - Cousin,2019-05-03,11:00
Butorides striata,Animalia,HERONS_ARDEIDAE,Striated Heron,,1,55.76279139923651,-4.31897255630071,Africa,Seychelles,SC,,Seychelles - Praslin,2019-05-02,12:00
Onychoprion anaethetus,Animalia,GULLS_TERNS_AND_SKIMMERS_LARIDAE,Bridled Tern,,1,55.700406878136924,-4.292968238620854,Africa,Seychelles,SC,,Seychelles - Praslin,2019-05-02,12:00
Cinnyris dussumieri,Animalia,SUNBIRDS_NECTARINIIDAE,Seychelles Sunbird,,5,55.75786934534573,-4.317150073758502,Africa,Seychelles,SC,,Seychelles - Praslin,2019-05-02,09:30
Hypsipetes crassirostris,Animalia,BULBULS_PYCNONOTIDAE,Seychelles Bulbul,,3,55.75786934534573,-4.317150073758502,Africa,Seychelles,SC,,Seychelles - Praslin,2019-05-02,09:30
Geopelia striata,Animalia,PIGEONS_AND_DOVES_COLUMBIDAE,Zebra Dove,,20,55.75786934534573,-4.317150073758502,Africa,Seychelles,SC,,Seychelles - Praslin,2019-05-02,09:29
Thalasseus bergii,Animalia,GULLS_TERNS_AND_SKIMMERS_LARIDAE,Greater Crested Tern,,20,55.75944306150323,-4.319966389647468,Africa,Seychelles,SC,,Seychelles - Praslin,2019-05-02,08:15
Acridotheres tristis,Animalia,STARLINGS_STURNIDAE,Common Myna,,5,55.76408809187719,-4.318467342080735,Africa,Seychelles,SC,,Seychelles - Praslin,2019-05-01,12:00
Thalasseus bergii,Animalia,GULLS_TERNS_AND_SKIMMERS_LARIDAE,Greater Crested Tern,,20,55.759625476392245,-4.319389015898028,Africa,Seychelles,SC,,Seychelles - Praslin,2019-05-01,18:13
Fregata minor,Animalia,FRIGATEBIRDS_FREGATTIDAE,Great Frigatebird,,3,55.76307880972546,-4.3170995337645195,Africa,Seychelles,SC,,Seychelles - Praslin,2019-05-01,18:12
Geopelia striata,Animalia,PIGEONS_AND_DOVES_COLUMBIDAE,Zebra Dove,,20,55.763465452244674,-4.318845154208836,Africa,Seychelles,SC,,Seychelles - Praslin,2019-05-01,12:00
Pluvialis squatarola,Animalia,PLOVERS_CHARADRIIDAE,Grey Plover,,1,55.7527001091868,-4.31944770513223,Africa,Seychelles,SC,,Seychelles - Praslin,2019-04-30,12:00
Nesoenas picturatus,Animalia,PIGEONS_AND_DOVES_COLUMBIDAE,Malagasy Turtle Dove,,50,55.740586118734655,-4.312487060141795,Africa,Seychelles,SC,,Seychelles - Praslin,2019-04-30,12:00
Numenius phaeopus,Animalia,SANDPIPERS_AND_ALLIES_SCOLOPACIDAE,Eurasian Whimbrel,,1,55.76315892743856,-4.3186868439391874,Africa,Seychelles,SC,,Seychelles - Praslin,2019-04-29,12:00
Ardea cinerea,Animalia,HERONS_ARDEIDAE,Grey Heron,,1,55.762561594105236,-4.318910207886628,Africa,Seychelles,SC,,Seychelles - Praslin,2019-05-01,12:00
Fregata minor,Animalia,FRIGATEBIRDS_FREGATTIDAE,Great Frigatebird,,8,55.762561594105236,-4.318910207886628,Africa,Seychelles,SC,,Seychelles - Praslin,2019-04-29,12:00
Thalasseus bergii,Animalia,GULLS_TERNS_AND_SKIMMERS_LARIDAE,Greater Crested Tern,,7,55.76250387884501,-4.318954453460647,Africa,Seychelles,SC,,Seychelles - Praslin,2019-04-30,12:00
Foudia madagascariensis,Animalia,WEAVERS_PLOCEIDAE,Red Fody,,15,55.763612228877214,-4.318981606005272,Africa,Seychelles,SC,,Seychelles - Praslin,2019-04-30,12:00
Phaethon lepturus,Animalia,TROPICBIRDS_PHAETHONTIDAE,White-tailed Tropicbird,,9,55.74542175298093,-4.3144923050825845,Africa,Seychelles,SC,,Seychelles - Praslin,2019-04-30,12:00
Gygis alba,Animalia,GULLS_TERNS_AND_SKIMMERS_LARIDAE,White Tern,,2,55.74542175298093,-4.3144923050825845,Africa,Seychelles,SC,,Seychelles - Praslin,2019-04-30,12:00
Hypsipetes crassirostris,Animalia,BULBULS_PYCNONOTIDAE,Seychelles Bulbul,,3,55.76414987801343,-4.318304136681549,Africa,Seychelles,SC,,Seychelles - Praslin,2019-05-01,14:51
Nesoenas picturatus,Animalia,PIGEONS_AND_DOVES_COLUMBIDAE,Malagasy Turtle Dove,,5,55.76414987801343,-4.318304136681549,Africa,Seychelles,SC,,Seychelles - Praslin,2019-05-01,14:50
Alectroenas pulcherrimus,Animalia,PIGEONS_AND_DOVES_COLUMBIDAE,Seychelles Blue Pigeon,,2,55.76414987801343,-4.318304136681549,Africa,Seychelles,SC,,Seychelles - Praslin,2019-05-01,14:46
Butorides striata,Animalia,HERONS_ARDEIDAE,Striated Heron,,1,55.763544231949005,-4.318308357831079,Africa,Seychelles,SC,,Seychelles - Praslin,2019-05-01,14:46
Hypsipetes crassirostris,Animalia,BULBULS_PYCNONOTIDAE,Seychelles Bulbul,,5,55.7396832222028,-4.331545583543721,Africa,Seychelles,SC,,Seychelles - Praslin NP,2019-05-01,14:44
Aerodramus elaphrus,Animalia,SWIFTS_APODIDAE,Seychelles Swiftlet,,5,55.7396832222028,-4.331545583543721,Africa,Seychelles,SC,,Seychelles - Praslin NP,2019-05-01,14:42
Cinnyris dussumieri,Animalia,SUNBIRDS_NECTARINIIDAE,Seychelles Sunbird,,15,55.74115788886953,-4.331824783728465,Africa,Seychelles,SC,,Seychelles - Praslin NP,2019-05-01,14:40
Alectroenas pulcherrimus,Animalia,PIGEONS_AND_DOVES_COLUMBIDAE,Seychelles Blue Pigeon,,2,55.7387312222028,-4.333965315053955,Africa,Seychelles,SC,,Seychelles - Praslin NP,2019-05-01,14:38
Thalasseus bergii,Animalia,GULLS_TERNS_AND_SKIMMERS_LARIDAE,Greater Crested Tern,,5,55.76356257359612,-4.318674982601812,Africa,Seychelles,SC,,Seychelles - Praslin,2019-04-29,16:12
Coracopsis barklyi,Animalia,PSITTACULIDAE,Seychelles Black Parrot,,5,55.73867105,-4.33149279,Africa,Seychelles,SC,,Seychelles - Praslin NP,2019-05-01,
Butorides striata,Animalia,HERONS_ARDEIDAE,Striated Heron,,3,55.76889753,-4.36951856,Africa,Seychelles,SC,,Seychelles - Praslin,2019-04-26,07:00
Geopelia striata,Animalia,PIGEONS_AND_DOVES_COLUMBIDAE,Zebra Dove,,1,55.73264144,-4.28249349,Africa,Seychelles,SC,,Seychelles - Curieuse,2019-04-25,12:40
Tenrec ecaudatus,Animalia,TENRECS_TENRECIDAE,Tail-less Tenrec,,1,55.4556229,-4.64635904,Africa,Seychelles,SC,,Seychelles - Morne Seychellois NP,2019-04-26,17:35
Tenrec ecaudatus,Animalia,TENRECS_TENRECIDAE,Tail-less Tenrec,,1,55.45519006,-4.64683223,Africa,Seychelles,SC,,Seychelles,2019-04-26,17:35
Arenaria interpres,Animalia,SANDPIPERS_AND_ALLIES_SCOLOPACIDAE,Ruddy Turnstone,,10,55.66234611,-4.32918198,Africa,Seychelles,SC,,Seychelles - Cousin,2019-04-25,11:45
Onychoprion anaethetus,Animalia,GULLS_TERNS_AND_SKIMMERS_LARIDAE,Bridled Tern,,1,55.66346191,-4.32954572,Africa,Seychelles,SC,,Seychelles - Cousin,2019-04-25,11:12
Acrocephalus sechellensis,Animalia,Acrocephalidae,Seychelles Warbler,,1,55.66296838,-4.33010203,Africa,Seychelles,SC,,Seychelles - Cousin,2019-04-25,12:00
Gygis alba,Animalia,GULLS_TERNS_AND_SKIMMERS_LARIDAE,White Tern,,7,55.66363357,-4.33072252,Africa,Seychelles,SC,,Seychelles - Cousin,2019-04-25,11:35
Phaethon lepturus,Animalia,TROPICBIRDS_PHAETHONTIDAE,White-tailed Tropicbird,,1,55.66367649,-4.33046577,Africa,Seychelles,SC,,Seychelles - Cousin,2019-04-25,11:10
Phaethon lepturus,Animalia,TROPICBIRDS_PHAETHONTIDAE,White-tailed Tropicbird,,1,55.66367649,-4.33046577,Africa,Seychelles,SC,,Seychelles - Cousin,2019-04-25,10:50
Alectroenas pulcherrimus,Animalia,PIGEONS_AND_DOVES_COLUMBIDAE,Seychelles Blue Pigeon,,2,55.66266797,-4.3302946,Africa,Seychelles,SC,,Seychelles - Cousin,2019-04-25,11:15
Anous stolidus,Animalia,GULLS_TERNS_AND_SKIMMERS_LARIDAE,Brown Noddy,,1,55.66324733,-4.33010203,Africa,Seychelles,SC,,Seychelles - Cousin,2019-04-25,11:10
Copsychus sechellarum,Animalia,OLD_WORLD_FLYCATCHERS_MUSCICAPIDAE,Seychelles Magpie-Robin,,4,55.66296838,-4.3296527,Africa,Seychelles,SC,,Seychelles - Cousin,2019-04-25,10:30
Cinnyris dussumieri,Animalia,SUNBIRDS_NECTARINIIDAE,Seychelles Sunbird,,1,55.75541859,-4.36032788,Africa,Seychelles,SC,,Seychelles - Praslin,2019-04-24,17:00
Butorides striata,Animalia,HERONS_ARDEIDAE,Striated Heron,,1,55.75716387,-4.35996282,Africa,Seychelles,SC,,Seychelles - Praslin,2019-04-24,06:40
Acridotheres tristis,Animalia,STARLINGS_STURNIDAE,Common Myna,,1,55.75927779,-4.35803989,Africa,Seychelles,SC,,Seychelles - Praslin,2019-04-24,07:00
Coracopsis barklyi,Animalia,PSITTACULIDAE,Seychelles Black Parrot,,5,55.7455878,-4.33125208,Africa,Seychelles,SC,,Seychelles - Praslin NP,2019-04-24,11:05
Hypsipetes crassirostris,Animalia,BULBULS_PYCNONOTIDAE,Seychelles Bulbul,,1,55.73936507,-4.32547504,Africa,Seychelles,SC,,Seychelles - Praslin NP,2019-04-24,10:25
Nesoenas picturatus,Animalia,PIGEONS_AND_DOVES_COLUMBIDAE,Malagasy Turtle Dove,,1,55.4182614,-4.61946685,Africa,Seychelles,SC,,Seychelles,2019-04-23,06:40
Pteropus seychellensis,Animalia,OLD_WORLD_FRUITEATING_BATS_PTEROPODIDAE,Seychelles Flying Fox,,10,55.41835092,-4.62210224,Africa,Seychelles,SC,,Seychelles,2019-04-23,07:00
Foudia madagascariensis,Animalia,WEAVERS_PLOCEIDAE,Red Fody,,1,55.41703831,-4.61692168,Africa,Seychelles,SC,,Seychelles,2019-04-22,17:30
Alectroenas pulcherrimus,Animalia,PIGEONS_AND_DOVES_COLUMBIDAE,Seychelles Blue Pigeon,,1,55.41538607,-4.61663294,Africa,Seychelles,SC,,Seychelles,2019-04-22,15:15
Nesoenas picturatus,Animalia,PIGEONS_AND_DOVES_COLUMBIDAE,Malagasy Turtle Dove,,1,55.74455045,-4.3149375,Africa,Seychelles,SC,,Seychelles - Praslin,2017-05-28,
Foudia madagascariensis,Animalia,WEAVERS_PLOCEIDAE,Red Fody,,1,55.82918689,-4.35676752,Africa,Seychelles,SC,,Seychelles - La Digue,2017-05-28,
Gallinula chloropus,Animalia,RAILS_RALLIDAE,Common Moorhen,,1,55.68200134,-4.29985257,Africa,Seychelles,SC,,Seychelles - Praslin,2017-05-28,
Nesoenas picturatus,Animalia,PIGEONS_AND_DOVES_COLUMBIDAE,Malagasy Turtle Dove,,1,55.74212573,-4.31324714,Africa,Seychelles,SC,,Seychelles - Praslin,2017-05-28,
Foudia sechellarum,Animalia,WEAVERS_PLOCEIDAE,Seychelles Fody,,1,55.6637764,-4.3303213,Africa,Seychelles,SC,,Seychelles - Cousin,2017-05-24,10:00
Foudia madagascariensis,Animalia,WEAVERS_PLOCEIDAE,Red Fody,,1,55.830775,-4.3576526,Africa,Seychelles,SC,,Seychelles - La Digue,2017-06-02,
Cinnyris dussumieri,Animalia,SUNBIRDS_NECTARINIIDAE,Seychelles Sunbird,,1,55.4694933,-4.6424211,Africa,Seychelles,SC,,Seychelles,2017-06-08,
Cinnyris dussumieri,Animalia,SUNBIRDS_NECTARINIIDAE,Seychelles Sunbird,,1,55.830775,-4.3576526,Africa,Seychelles,SC,,Seychelles - La Digue,2017-06-02,
Copsychus sechellarum,Animalia,OLD_WORLD_FLYCATCHERS_MUSCICAPIDAE,Seychelles Magpie-Robin,,1,55.6637764,-4.3303213,Africa,Seychelles,SC,,Seychelles - Cousin,2017-05-24,10:00
Acrocephalus sechellensis,Animalia,Acrocephalidae,Seychelles Warbler,,1,55.6637764,-4.3303213,Africa,Seychelles,SC,,Seychelles - Cousin,2017-05-24,10:00
Hypsipetes crassirostris,Animalia,BULBULS_PYCNONOTIDAE,Seychelles Bulbul,,1,55.745,-4.3149,Africa,Seychelles,SC,,Seychelles - Praslin,2017-05-28,
Hypsipetes crassirostris,Animalia,BULBULS_PYCNONOTIDAE,Seychelles Bulbul,,1,55.6637764,-4.3303213,Africa,Seychelles,SC,,Seychelles - Cousin,2017-05-24,10:00
Terpsiphone corvina,Animalia,MONARCHS_MONARCHIDAE,Seychelles Paradise Flycatcher,,15,55.830775,-4.3576526,Africa,Seychelles,SC,,Seychelles - La Digue,2017-06-02,
Coracopsis barklyi,Animalia,PSITTACULIDAE,Seychelles Black Parrot,,4,55.7352376,-4.32932,Africa,Seychelles,SC,,Seychelles - Praslin NP,2017-05-29,
Falco araeus,Animalia,CARACAS_AND_FALCONS_FALCONIDAE,Seychelles Kestrel,,1,55.830775,-4.3576526,Africa,Seychelles,SC,,Seychelles - La Digue,2017-06-02,
Otus insularis,Animalia,OWLS_STRIGIDAE,Seychelles Scops Owl,,2,55.4442523,-4.6551758,Africa,Seychelles,SC,,Seychelles - Morne Seychellois NP,2017-06-07,06:00
Butorides striata,Animalia,HERONS_ARDEIDAE,Striated Heron,,1,55.6779599,-4.300002,Africa,Seychelles,SC,,Seychelles - Praslin,2017-06-01,
Bubulcus ibis,Animalia,HERONS_ARDEIDAE,Western Cattle Egret,,1,55.4694933,-4.6424211,Africa,Seychelles,SC,,Seychelles,2017-06-08,
Ardea cinerea,Animalia,HERONS_ARDEIDAE,Grey Heron,,1,55.6779599,-4.300002,Africa,Seychelles,SC,,Seychelles - Praslin,2017-06-01,
Ardea cinerea,Animalia,HERONS_ARDEIDAE,Grey Heron,,1,55.745,-4.3149,Africa,Seychelles,SC,,Seychelles - Praslin,2017-05-28,
Ardea cinerea,Animalia,HERONS_ARDEIDAE,Grey Heron,,1,55.4694933,-4.6424211,Africa,Seychelles,SC,,Seychelles,2017-06-08,
Ardea cinerea,Animalia,HERONS_ARDEIDAE,Grey Heron,,1,55.7170129,-4.3279677,Africa,Seychelles,SC,,Seychelles - Praslin,2017-05-24,
Ardenna pacifica,Animalia,PETRELS_AND_SHEARWATERS_PROCELLARIIDAE,Wedge-tailed Shearwater,,1,55.6637764,-4.3303213,Africa,Seychelles,SC,,Seychelles - Cousin,2017-05-24,10:00
Phaethon lepturus,Animalia,TROPICBIRDS_PHAETHONTIDAE,White-tailed Tropicbird,,1,55.745,-4.3149,Africa,Seychelles,SC,,Seychelles - Praslin,2017-05-28,
Phaethon lepturus,Animalia,TROPICBIRDS_PHAETHONTIDAE,White-tailed Tropicbird,,1,55.6637764,-4.3303213,Africa,Seychelles,SC,,Seychelles - Cousin,2017-05-24,10:00
Thalasseus bergii,Animalia,GULLS_TERNS_AND_SKIMMERS_LARIDAE,Greater Crested Tern,,4,55.7170129,-4.3279677,Africa,Seychelles,SC,,Seychelles - Praslin,2017-05-24,
Onychoprion anaethetus,Animalia,GULLS_TERNS_AND_SKIMMERS_LARIDAE,Bridled Tern,,1,55.6637764,-4.3303213,Africa,Seychelles,SC,,Seychelles - Cousin,2017-05-24,10:00
Gygis alba,Animalia,GULLS_TERNS_AND_SKIMMERS_LARIDAE,White Tern,,1,55.745,-4.3149,Africa,Seychelles,SC,,Seychelles - Praslin,2017-05-28,
Gygis alba,Animalia,GULLS_TERNS_AND_SKIMMERS_LARIDAE,White Tern,,1,55.6637764,-4.3303213,Africa,Seychelles,SC,,Seychelles - Cousin,2017-05-24,10:00
Anous tenuirostris,Animalia,GULLS_TERNS_AND_SKIMMERS_LARIDAE,Lesser Noddy,,1,55.745,-4.3149,Africa,Seychelles,SC,,Seychelles - Praslin,2017-05-28,
Anous tenuirostris,Animalia,GULLS_TERNS_AND_SKIMMERS_LARIDAE,Lesser Noddy,,1,55.6637764,-4.3303213,Africa,Seychelles,SC,,Seychelles - Cousin,2017-05-24,10:00
Anous stolidus,Animalia,GULLS_TERNS_AND_SKIMMERS_LARIDAE,Brown Noddy,,1,55.6637764,-4.3303213,Africa,Seychelles,SC,,Seychelles - Cousin,2017-05-24,10:00
Dromas ardeola,Animalia,CRABPLOVER_DROMADIDAE,Crab-plover,,4,55.4694933,-4.6424211,Africa,Seychelles,SC,,Seychelles,2017-06-08,
Tringa nebularia,Animalia,SANDPIPERS_AND_ALLIES_SCOLOPACIDAE,Common Greenshank,,1,55.6779599,-4.300002,Africa,Seychelles,SC,,Seychelles - Praslin,2017-06-01,
Tringa nebularia,Animalia,SANDPIPERS_AND_ALLIES_SCOLOPACIDAE,Common Greenshank,,1,55.4694933,-4.6424211,Africa,Seychelles,SC,,Seychelles,2017-06-08,
Calidris alba,Animalia,SANDPIPERS_AND_ALLIES_SCOLOPACIDAE,Sanderling,,1,55.6779599,-4.300002,Africa,Seychelles,SC,,Seychelles - Praslin,2017-06-01,
Calidris alba,Animalia,SANDPIPERS_AND_ALLIES_SCOLOPACIDAE,Sanderling,,1,55.745,-4.3149,Africa,Seychelles,SC,,Seychelles - Praslin,2017-05-28,
Arenaria interpres,Animalia,SANDPIPERS_AND_ALLIES_SCOLOPACIDAE,Ruddy Turnstone,,1,55.6779599,-4.300002,Africa,Seychelles,SC,,Seychelles - Praslin,2017-06-01,
Arenaria interpres,Animalia,SANDPIPERS_AND_ALLIES_SCOLOPACIDAE,Ruddy Turnstone,,1,55.745,-4.3149,Africa,Seychelles,SC,,Seychelles - Praslin,2017-05-28,
Arenaria interpres,Animalia,SANDPIPERS_AND_ALLIES_SCOLOPACIDAE,Ruddy Turnstone,,1,55.4694933,-4.6424211,Africa,Seychelles,SC,,Seychelles,2017-06-08,
Numenius phaeopus,Animalia,SANDPIPERS_AND_ALLIES_SCOLOPACIDAE,Eurasian Whimbrel,,1,55.4694933,-4.6424211,Africa,Seychelles,SC,,Seychelles,2017-06-08,
Gallinula chloropus,Animalia,RAILS_RALLIDAE,Common Moorhen,,1,55.6779599,-4.300002,Africa,Seychelles,SC,,Seychelles - Praslin,2017-06-01,
Aerodramus elaphrus,Animalia,SWIFTS_APODIDAE,Seychelles Swiftlet,,1,55.745,-4.3149,Africa,Seychelles,SC,,Seychelles - Praslin,2017-05-28,
Alectroenas pulcherrimus,Animalia,PIGEONS_AND_DOVES_COLUMBIDAE,Seychelles Blue Pigeon,,1,55.6637764,-4.3303213,Africa,Seychelles,SC,,Seychelles - Cousin,2017-05-24,10:00
Geopelia striata,Animalia,PIGEONS_AND_DOVES_COLUMBIDAE,Zebra Dove,,1,55.6779599,-4.300002,Africa,Seychelles,SC,,Seychelles - Praslin,2017-06-01,
Geopelia striata,Animalia,PIGEONS_AND_DOVES_COLUMBIDAE,Zebra Dove,,1,55.745,-4.3149,Africa,Seychelles,SC,,Seychelles - Praslin,2017-05-28,
Geopelia striata,Animalia,PIGEONS_AND_DOVES_COLUMBIDAE,Zebra Dove,,1,55.830775,-4.3576526,Africa,Seychelles,SC,,Seychelles - La Digue,2017-06-02,
Falco araeus,Animalia,CARACAS_AND_FALCONS_FALCONIDAE,Seychelles Kestrel,,2,55.8259773254395,-4.3573784828186,Africa,Seychelles,SC,,Seychelles - La Digue,2018-11-04,06:18
Coracopsis barklyi,Animalia,PSITTACULIDAE,Seychelles Black Parrot,,1,55.7395172119141,-4.33174705505371,Africa,Seychelles,SC,,Seychelles - Praslin NP,2018-11-04,09:08
Coracopsis barklyi,Animalia,PSITTACULIDAE,Seychelles Black Parrot,,6,55.7395515441895,-4.33173656463623,Africa,Seychelles,SC,,Seychelles - Praslin NP,2018-11-04,09:16
Terpsiphone corvina,Animalia,MONARCHS_MONARCHIDAE,Seychelles Paradise Flycatcher,,1,55.8271446228027,-4.36196374893188,Africa,Seychelles,SC,,Seychelles - La Digue,2018-11-03,10:09
Terpsiphone corvina,Animalia,MONARCHS_MONARCHIDAE,Seychelles Paradise Flycatcher,,1,55.8278732299805,-4.36201238632202,Africa,Seychelles,SC,,Seychelles - La Digue,2018-11-03,10:11
Terpsiphone corvina,Animalia,MONARCHS_MONARCHIDAE,Seychelles Paradise Flycatcher,,2,55.8300476074219,-4.35767841339111,Africa,Seychelles,SC,,Seychelles - La Digue,2018-11-03,14:20
Pteropus seychellensis,Animalia,OLD_WORLD_FRUITEATING_BATS_PTEROPODIDAE,Seychelles Flying Fox,,100,55.831184387207,-4.35725688934326,Africa,Seychelles,SC,,Seychelles - La Digue,2018-11-03,14:54
Limosa lapponica,Animalia,SANDPIPERS_AND_ALLIES_SCOLOPACIDAE,Bar-tailed Godwit,,1,55.431770324707,-4.60560989379883,Africa,Seychelles,SC,,Seychelles,2018-10-31,13:27
Terpsiphone corvina,Animalia,MONARCHS_MONARCHIDAE,Seychelles Paradise Flycatcher,,1,55.8296775817871,-4.35716438293457,Africa,Seychelles,SC,,Seychelles - La Digue,2018-11-02,12:48
Terpsiphone corvina,Animalia,MONARCHS_MONARCHIDAE,Seychelles Paradise Flycatcher,,2,55.82959366,-4.35734701,Africa,Seychelles,SC,,Seychelles - La Digue,2018-11-02,13:59
Pteropus seychellensis,Animalia,OLD_WORLD_FRUITEATING_BATS_PTEROPODIDAE,Seychelles Flying Fox,,1,55.4324150085449,-4.58608865737915,Africa,Seychelles,SC,,Seychelles,2018-10-19,12:55
Geopelia striata,Animalia,PIGEONS_AND_DOVES_COLUMBIDAE,Zebra Dove,,5,55.4324150085449,-4.58621788024902,Africa,Seychelles,SC,,Seychelles,2018-10-19,12:55
Foudia madagascariensis,Animalia,WEAVERS_PLOCEIDAE,Red Fody,,1,55.4323387145996,-4.58627796173096,Africa,Seychelles,SC,,Seychelles,2018-10-19,12:55
Nesoenas picturatus,Animalia,PIGEONS_AND_DOVES_COLUMBIDAE,Malagasy Turtle Dove,,3,55.4323234558105,-4.5862832069397,Africa,Seychelles,SC,,Seychelles,2018-10-19,12:55
Tringa nebularia,Animalia,SANDPIPERS_AND_ALLIES_SCOLOPACIDAE,Common Greenshank,,1,55.4323348999023,-4.58627700805664,Africa,Seychelles,SC,,Seychelles,2018-10-19,12:56
Butorides striata,Animalia,HERONS_ARDEIDAE,Striated Heron,,1,55.4323425292969,-4.58627462387085,Africa,Seychelles,SC,,Seychelles,2018-10-19,12:56
Gygis alba,Animalia,GULLS_TERNS_AND_SKIMMERS_LARIDAE,White Tern,,5,55.4323387145996,-4.5862774848938,Africa,Seychelles,SC,,Seychelles,2018-10-19,12:56
Phaethon lepturus,Animalia,TROPICBIRDS_PHAETHONTIDAE,White-tailed Tropicbird,,1,55.4323387145996,-4.58627891540527,Africa,Seychelles,SC,,Seychelles,2018-10-19,12:56
Cinnyris dussumieri,Animalia,SUNBIRDS_NECTARINIIDAE,Seychelles Sunbird,,1,55.4323425292969,-4.58627939224243,Africa,Seychelles,SC,,Seychelles,2018-10-19,12:56
Pteropus seychellensis,Animalia,OLD_WORLD_FRUITEATING_BATS_PTEROPODIDAE,Seychelles Flying Fox,,5,55.4418487548828,-4.62313652038574,Africa,Seychelles,SC,,Seychelles,2018-10-19,16:56
Pteropus seychellensis,Animalia,OLD_WORLD_FRUITEATING_BATS_PTEROPODIDAE,Seychelles Flying Fox,,2,55.4512519836426,-4.62000131607056,Africa,Seychelles,SC,,Seychelles,2018-10-19,17:02
Pteropus seychellensis,Animalia,OLD_WORLD_FRUITEATING_BATS_PTEROPODIDAE,Seychelles Flying Fox,,1,55.4524307250977,-4.62014436721802,Africa,Seychelles,SC,,Seychelles,2018-10-19,17:06
Butorides striata,Animalia,HERONS_ARDEIDAE,Striated Heron,,1,55.4323959350586,-4.58643245697021,Africa,Seychelles,SC,,Seychelles,2018-10-20,13:23
Hypsipetes crassirostris,Animalia,BULBULS_PYCNONOTIDAE,Seychelles Bulbul,,1,55.4745597839355,-4.66879367828369,Africa,Seychelles,SC,,Seychelles,2018-10-21,12:46
Alectroenas pulcherrimus,Animalia,PIGEONS_AND_DOVES_COLUMBIDAE,Seychelles Blue Pigeon,,2,55.4470672607422,-4.6365532875061,Africa,Seychelles,SC,,Seychelles,2018-10-23,06:59
Cinnyris dussumieri,Animalia,SUNBIRDS_NECTARINIIDAE,Seychelles Sunbird,,10,55.4470672607422,-4.63655853271484,Africa,Seychelles,SC,,Seychelles,2018-10-23,06:59
Hypsipetes crassirostris,Animalia,BULBULS_PYCNONOTIDAE,Seychelles Bulbul,,20,55.4470672607422,-4.63655853271484,Africa,Seychelles,SC,,Seychelles,2018-10-23,07:00
Pteropus seychellensis,Animalia,OLD_WORLD_FRUITEATING_BATS_PTEROPODIDAE,Seychelles Flying Fox,,10,55.4470672607422,-4.636559009552,Africa,Seychelles,SC,,Seychelles,2018-10-23,07:00
Aerodramus elaphrus,Animalia,SWIFTS_APODIDAE,Seychelles Swiftlet,,1,55.4472732543945,-4.63647365570068,Africa,Seychelles,SC,,Seychelles,2018-10-23,07:29
Falco araeus,Animalia,CARACAS_AND_FALCONS_FALCONIDAE,Seychelles Kestrel,,1,55.4472312927246,-4.6364164352417,Africa,Seychelles,SC,,Seychelles,2018-10-23,10:17
Aerodramus elaphrus,Animalia,SWIFTS_APODIDAE,Seychelles Swiftlet,,5,55.4497680664063,-4.6555118560791,Africa,Seychelles,SC,,Seychelles,2018-10-26,11:18
Phaethon lepturus,Animalia,TROPICBIRDS_PHAETHONTIDAE,White-tailed Tropicbird,,15,55.4497528076172,-4.65550804138184,Africa,Seychelles,SC,,Seychelles,2018-10-26,11:19
Alectroenas pulcherrimus,Animalia,PIGEONS_AND_DOVES_COLUMBIDAE,Seychelles Blue Pigeon,,1,55.4373893737793,-4.654700756073,Africa,Seychelles,SC,,Seychelles - Morne Seychellois NP,2018-10-26,13:48
Zosterops modestus,Animalia,WHITEEYES_ZOSTEROPIDAE,Seychelles White-eye,,1,55.4739112854004,-4.66806268692017,Africa,Seychelles,SC,,Seychelles,2018-10-27,13:42
Dromas ardeola,Animalia,CRABPLOVER_DROMADIDAE,Crab-plover,,2,55.4851553589106,-4.65542145133295,Africa,Seychelles,SC,,Seychelles,2018-10-27,14:23
Calidris ferruginea,Animalia,SANDPIPERS_AND_ALLIES_SCOLOPACIDAE,Curlew Sandpiper,,8,55.4851553589106,-4.65542145133295,Africa,Seychelles,SC,,Seychelles,2018-10-27,14:23
Numenius phaeopus,Animalia,SANDPIPERS_AND_ALLIES_SCOLOPACIDAE,Eurasian Whimbrel,,3,55.4851553589106,-4.65542145133295,Africa,Seychelles,SC,,Seychelles,2018-10-27,14:23
Xenus cinereus,Animalia,SANDPIPERS_AND_ALLIES_SCOLOPACIDAE,Terek Sandpiper,,1,55.4851553589106,-4.65542145133295,Africa,Seychelles,SC,,Seychelles,2018-10-27,14:23
Charadrius leschenaultii,Animalia,PLOVERS_CHARADRIIDAE,Greater Sand Plover,,1,55.4851553589106,-4.65542145133295,Africa,Seychelles,SC,,Seychelles,2018-10-27,14:23
Dromas ardeola,Animalia,CRABPLOVER_DROMADIDAE,Crab-plover,,1,55.4859596290235,-4.6551965786797,Africa,Seychelles,SC,,Seychelles,2018-08-17,17:30
Phaethon lepturus,Animalia,TROPICBIRDS_PHAETHONTIDAE,White-tailed Tropicbird,,2,55.4751638220412,-4.66915907976934,Africa,Seychelles,SC,,Seychelles,2018-08-17,16:02
Cinnyris dussumieri,Animalia,SUNBIRDS_NECTARINIIDAE,Seychelles Sunbird,,15,55.4750708026109,-4.66843101057046,Africa,Seychelles,SC,,Seychelles,2018-08-17,16:02
Falco araeus,Animalia,CARACAS_AND_FALCONS_FALCONIDAE,Seychelles Kestrel,,1,55.4750708026109,-4.66843101057046,Africa,Seychelles,SC,,Seychelles,2018-08-17,16:02
Hypsipetes crassirostris,Animalia,BULBULS_PYCNONOTIDAE,Seychelles Bulbul,,5,55.4750708026109,-4.66843101057046,Africa,Seychelles,SC,,Seychelles,2018-08-17,16:02
Alectroenas pulcherrimus,Animalia,PIGEONS_AND_DOVES_COLUMBIDAE,Seychelles Blue Pigeon,,4,55.4749335637061,-4.66835453515819,Africa,Seychelles,SC,,Seychelles,2018-08-17,16:02
Zosterops modestus,Animalia,WHITEEYES_ZOSTEROPIDAE,Seychelles White-eye,,2,55.4732978206161,-4.66745602196447,Africa,Seychelles,SC,,Seychelles,2018-08-17,15:56
Terpsiphone corvina,Animalia,MONARCHS_MONARCHIDAE,Seychelles Paradise Flycatcher,,9,55.8300994359942,-4.35750222262946,Africa,Seychelles,SC,,Seychelles - La Digue,2018-08-10,10:30
Gygis alba,Animalia,GULLS_TERNS_AND_SKIMMERS_LARIDAE,White Tern,,50,55.6648081787952,-4.32853662044139,Africa,Seychelles,SC,,Seychelles - Praslin,2018-08-08,10:30
Onychoprion anaethetus,Animalia,GULLS_TERNS_AND_SKIMMERS_LARIDAE,Bridled Tern,,15,55.6648081787952,-4.32853662044139,Africa,Seychelles,SC,,Seychelles - Praslin,2018-08-08,10:30
Anous stolidus,Animalia,GULLS_TERNS_AND_SKIMMERS_LARIDAE,Brown Noddy,,100,55.6648081787952,-4.32853662044139,Africa,Seychelles,SC,,Seychelles - Praslin,2018-08-08,10:30
Foudia sechellarum,Animalia,WEAVERS_PLOCEIDAE,Seychelles Fody,,4,55.6648081787952,-4.32853662044139,Africa,Seychelles,SC,,Seychelles - Praslin,2018-08-08,10:30
Acrocephalus sechellensis,Animalia,Acrocephalidae,Seychelles Warbler,,1,55.6648081787952,-4.32853662044139,Africa,Seychelles,SC,,Seychelles - Praslin,2018-08-08,10:30
Copsychus sechellarum,Animalia,OLD_WORLD_FLYCATCHERS_MUSCICAPIDAE,Seychelles Magpie-Robin,,7,55.6648081787952,-4.32853662044139,Africa,Seychelles,SC,,Seychelles - Praslin,2018-08-08,10:30
Terpsiphone corvina,Animalia,MONARCHS_MONARCHIDAE,Seychelles Paradise Flycatcher,,9,55.8300994359942,-4.35750222262946,Africa,Seychelles,SC,,Seychelles - La Digue,2018-08-10,10:30
Falco araeus,Animalia,CARACAS_AND_FALCONS_FALCONIDAE,Seychelles Kestrel,,2,55.5108823002015,-4.67058400093257,Africa,Seychelles,SC,,Seychelles,2018-08-13,09:27
Acridotheres tristis,Animalia,STARLINGS_STURNIDAE,Common Myna,,1,55.7598,-4.3328,Africa,Seychelles,SC,,Seychelles - Praslin,2018-04-23,16:18
Ardea cinerea,Animalia,HERONS_ARDEIDAE,Grey Heron,,1,55.7598,-4.3328,Africa,Seychelles,SC,,Seychelles - Praslin,2018-04-23,16:18
Ardenna pacifica,Animalia,PETRELS_AND_SHEARWATERS_PROCELLARIIDAE,Wedge-tailed Shearwater,,1,55.70718954,-4.43159659,Africa,Seychelles,SC,,Seychelles - Indian Ocean,2018-06-01,
Anous stolidus,Animalia,GULLS_TERNS_AND_SKIMMERS_LARIDAE,Brown Noddy,,1,55.66514687,-4.33051832,Africa,Seychelles,SC,,Seychelles - Praslin,2018-06-01,
Copsychus sechellarum,Animalia,OLD_WORLD_FLYCATCHERS_MUSCICAPIDAE,Seychelles Magpie-Robin,,1,55.66514687,-4.33051832,Africa,Seychelles,SC,,Seychelles - Praslin,2018-06-01,
Acrocephalus sechellensis,Animalia,Acrocephalidae,Seychelles Warbler,,1,55.66514687,-4.33051832,Africa,Seychelles,SC,,Seychelles - Praslin,2018-06-01,
Foudia sechellarum,Animalia,WEAVERS_PLOCEIDAE,Seychelles Fody,,1,55.66514687,-4.33051832,Africa,Seychelles,SC,,Seychelles - Praslin,2018-06-01,
Onychoprion anaethetus,Animalia,GULLS_TERNS_AND_SKIMMERS_LARIDAE,Bridled Tern,,1,55.72372632,-4.28947889,Africa,Seychelles,SC,,Seychelles - Curieuse,2018-05-30,
Coracopsis barklyi,Animalia,PSITTACULIDAE,Seychelles Black Parrot,,1,55.73571834,-4.33060832,Africa,Seychelles,SC,,Seychelles - Praslin NP,2018-05-29,
Terpsiphone corvina,Animalia,MONARCHS_MONARCHIDAE,Seychelles Paradise Flycatcher,,1,55.83120498,-4.35783262,Africa,Seychelles,SC,,Seychelles - La Digue,2018-05-28,
Pluvialis squatarola,Animalia,PLOVERS_CHARADRIIDAE,Grey Plover,,1,55.7582839,-4.34221137,Africa,Seychelles,SC,,Seychelles - Praslin,2018-05-28,
Otus insularis,Animalia,OWLS_STRIGIDAE,Seychelles Scops Owl,,1,55.44576504,-4.65603672,Africa,Seychelles,SC,,Seychelles,2018-04-29,19:30
Zosterops modestus,Animalia,WHITEEYES_ZOSTEROPIDAE,Seychelles White-eye,,3,55.47379949,-4.66790847,Africa,Seychelles,SC,,Seychelles,2018-04-29,07:00
Gallinula chloropus,Animalia,RAILS_RALLIDAE,Common Moorhen,,1,55.73165774,-4.28348314,Africa,Seychelles,SC,,Seychelles - Curieuse,2018-04-06,12:52
Anous tenuirostris,Animalia,GULLS_TERNS_AND_SKIMMERS_LARIDAE,Lesser Noddy,,10,55.66416667,-4.32861111,Africa,Seychelles,SC,,Seychelles - Praslin,2018-04-06,10:00
Gallinula chloropus,Animalia,RAILS_RALLIDAE,Common Moorhen,,1,55.66326141,-4.33126278,Africa,Seychelles,SC,,Seychelles - Praslin,2018-04-06,10:00
Gygis alba,Animalia,GULLS_TERNS_AND_SKIMMERS_LARIDAE,White Tern,,10,55.66425031,-4.33235597,Africa,Seychelles,SC,,Seychelles - Praslin,2018-04-06,10:00
Phaethon lepturus,Animalia,TROPICBIRDS_PHAETHONTIDAE,White-tailed Tropicbird,,10,55.66301867,-4.33033715,Africa,Seychelles,SC,,Seychelles - Praslin,2018-04-06,10:00
Acrocephalus sechellensis,Animalia,Acrocephalidae,Seychelles Warbler,,1,55.66305421,-4.3306074,Africa,Seychelles,SC,,Seychelles - Praslin,2018-04-06,10:00
Copsychus sechellarum,Animalia,OLD_WORLD_FLYCATCHERS_MUSCICAPIDAE,Seychelles Magpie-Robin,,1,55.66301867,-4.33033715,Africa,Seychelles,SC,,Seychelles - Praslin,2018-04-06,10:00
Cinnyris dussumieri,Animalia,SUNBIRDS_NECTARINIIDAE,Seychelles Sunbird,,1,55.76741356,-4.34944716,Africa,Seychelles,SC,,Seychelles - Praslin,2018-04-05,16:00
Foudia madagascariensis,Animalia,WEAVERS_PLOCEIDAE,Red Fody,,1,55.76741356,-4.34944716,Africa,Seychelles,SC,,Seychelles - Praslin,2018-04-05,16:00
Acridotheres tristis,Animalia,STARLINGS_STURNIDAE,Common Myna,,1,55.46709294,-4.64820753,Africa,Seychelles,SC,,Seychelles,2018-04-02,17:32
Geopelia striata,Animalia,PIGEONS_AND_DOVES_COLUMBIDAE,Zebra Dove,,1,55.50333,-4.7461111,Africa,Seychelles,SC,,Seychelles,2018-04-03,14:13
Nesoenas picturatus,Animalia,PIGEONS_AND_DOVES_COLUMBIDAE,Malagasy Turtle Dove,,1,55.50333,-4.7461111,Africa,Seychelles,SC,,Seychelles,2018-04-03,13:38
Polistes olivaceus,Animalia,Vespidae,Yellow Oriental Paper Wasp,,1,55.46710208,-4.64814256,Africa,Seychelles,SC,,Seychelles,2018-04-03,09:33
Fregata minor,Animalia,FRIGATEBIRDS_FREGATTIDAE,Great Frigatebird,,1,55.82682654,-4.37040646,Africa,Seychelles,SC,,Seychelles - La Digue,2018-04-24,
Cinnyris dussumieri,Animalia,SUNBIRDS_NECTARINIIDAE,Seychelles Sunbird,,1,55.46725125,-4.64812772,Africa,Seychelles,SC,,Seychelles,2018-04-02,18:13
Pteropus seychellensis,Animalia,OLD_WORLD_FRUITEATING_BATS_PTEROPODIDAE,Seychelles Flying Fox,,1,55.46709294,-4.64820753,Africa,Seychelles,SC,,Seychelles,2018-04-02,16:22
Coracopsis barklyi,Animalia,PSITTACULIDAE,Seychelles Black Parrot,,3,55.7412,-4.3318,Africa,Seychelles,SC,,Seychelles - Praslin NP,2018-04-24,
Butorides striata,Animalia,HERONS_ARDEIDAE,Striated Heron,,1,55.7658,-4.347,Africa,Seychelles,SC,,Seychelles - Praslin,2018-04-24,
Thalasseus bergii,Animalia,GULLS_TERNS_AND_SKIMMERS_LARIDAE,Greater Crested Tern,,5,55.8264,-4.3688,Africa,Seychelles,SC,,Seychelles - La Digue,2018-04-24,
Terpsiphone corvina,Animalia,MONARCHS_MONARCHIDAE,Seychelles Paradise Flycatcher,,1,55.8318,-4.358,Africa,Seychelles,SC,,Seychelles - La Digue,2018-04-24,
Terpsiphone corvina,Animalia,MONARCHS_MONARCHIDAE,Seychelles Paradise Flycatcher,,1,55.8318,-4.358,Africa,Seychelles,SC,,Seychelles - La Digue,2018-04-24,
Leptotes pirithous,Animalia,GOSSAMERWINGED_BUTTERFLIES_LYCAENIDAE,Lang’s Short-tailed Blue,,1,55.7108,-4.3246,Africa,Seychelles,SC,,Seychelles - Praslin,2018-04-24,
Alectroenas pulcherrimus,Animalia,PIGEONS_AND_DOVES_COLUMBIDAE,Seychelles Blue Pigeon,,3,55.7562,-4.3601,Africa,Seychelles,SC,,Seychelles - Praslin,2018-04-23,
Pteropus seychellensis,Animalia,OLD_WORLD_FRUITEATING_BATS_PTEROPODIDAE,Seychelles Flying Fox,,10,55.7562,-4.3601,Africa,Seychelles,SC,,Seychelles - Praslin,2018-04-23,
Thalasseus bergii,Animalia,GULLS_TERNS_AND_SKIMMERS_LARIDAE,Greater Crested Tern,,2,55.7562,-4.3601,Africa,Seychelles,SC,,Seychelles - Praslin,2018-04-23,
Calidris alba,Animalia,SANDPIPERS_AND_ALLIES_SCOLOPACIDAE,Sanderling,,1,55.7562,-4.3601,Africa,Seychelles,SC,,Seychelles - Praslin,2018-04-23,
Arenaria interpres,Animalia,SANDPIPERS_AND_ALLIES_SCOLOPACIDAE,Ruddy Turnstone,,3,55.7562,-4.3601,Africa,Seychelles,SC,,Seychelles - Praslin,2018-04-23,
Hypolimnas misippus,Animalia,BRUSHFOOTED_BUTTERFLIES_NYMPHALIDAE,Danaid Eggfly,,1,55.6651,-4.3294,Africa,Seychelles,SC,,Seychelles - Praslin,2018-04-23,
Gallinula chloropus,Animalia,RAILS_RALLIDAE,Common Moorhen,,2,55.6651,-4.3294,Africa,Seychelles,SC,,Seychelles - Praslin,2018-04-23,
Anous tenuirostris,Animalia,GULLS_TERNS_AND_SKIMMERS_LARIDAE,Lesser Noddy,,50,55.6651,-4.3294,Africa,Seychelles,SC,,Seychelles - Praslin,2018-04-23,
Acrocephalus sechellensis,Animalia,Acrocephalidae,Seychelles Warbler,,2,55.6651,-4.3294,Africa,Seychelles,SC,,Seychelles - Praslin,2018-04-23,
Phaethon lepturus,Animalia,TROPICBIRDS_PHAETHONTIDAE,White-tailed Tropicbird,,1,55.6651,-4.3294,Africa,Seychelles,SC,,Seychelles - Praslin,2018-04-23,
Copsychus sechellarum,Animalia,OLD_WORLD_FLYCATCHERS_MUSCICAPIDAE,Seychelles Magpie-Robin,,10,55.6651,-4.3294,Africa,Seychelles,SC,,Seychelles - Praslin,2018-04-23,
Phaethon lepturus,Animalia,TROPICBIRDS_PHAETHONTIDAE,White-tailed Tropicbird,,10,55.6651,-4.3294,Africa,Seychelles,SC,,Seychelles - Praslin,2018-04-23,
Onychoprion anaethetus,Animalia,GULLS_TERNS_AND_SKIMMERS_LARIDAE,Bridled Tern,,1,55.6651,-4.3294,Africa,Seychelles,SC,,Seychelles - Praslin,2018-04-23,
Nesoenas picturatus,Animalia,PIGEONS_AND_DOVES_COLUMBIDAE,Malagasy Turtle Dove,,1,55.6651,-4.3294,Africa,Seychelles,SC,,Seychelles - Praslin,2018-04-23,
Cinnyris dussumieri,Animalia,SUNBIRDS_NECTARINIIDAE,Seychelles Sunbird,,1,55.6651,-4.3294,Africa,Seychelles,SC,,Seychelles - Praslin,2018-04-23,
Foudia sechellarum,Animalia,WEAVERS_PLOCEIDAE,Seychelles Fody,,1,55.6651,-4.3294,Africa,Seychelles,SC,,Seychelles - Praslin,2018-04-23,
Gygis alba,Animalia,GULLS_TERNS_AND_SKIMMERS_LARIDAE,White Tern,,10,55.6651,-4.3294,Africa,Seychelles,SC,,Seychelles - Praslin,2018-04-23,
Anous stolidus,Animalia,GULLS_TERNS_AND_SKIMMERS_LARIDAE,Brown Noddy,,10,55.6651,-4.3294,Africa,Seychelles,SC,,Seychelles - Praslin,2018-04-23,
Nesoenas picturatus,Animalia,PIGEONS_AND_DOVES_COLUMBIDAE,Malagasy Turtle Dove,,10,55.4265,-4.6148,Africa,Seychelles,SC,,Seychelles,2018-04-26,
Pteropus seychellensis,Animalia,OLD_WORLD_FRUITEATING_BATS_PTEROPODIDAE,Seychelles Flying Fox,,10,55.4265,-4.6148,Africa,Seychelles,SC,,Seychelles,2018-04-26,
Falco araeus,Animalia,CARACAS_AND_FALCONS_FALCONIDAE,Seychelles Kestrel,,1,55.4738,-4.6677,Africa,Seychelles,SC,,Seychelles,2018-04-21,
Arenaria interpres,Animalia,SANDPIPERS_AND_ALLIES_SCOLOPACIDAE,Ruddy Turnstone,,1,55.4316473,-4.60730635,Africa,Seychelles,SC,,Seychelles,2018-04-24,
Aerodramus elaphrus,Animalia,SWIFTS_APODIDAE,Seychelles Swiftlet,,4,55.4456,-4.589,Africa,Seychelles,SC,,Seychelles,2018-04-21,12:16
Alectroenas pulcherrimus,Animalia,PIGEONS_AND_DOVES_COLUMBIDAE,Seychelles Blue Pigeon,,1,55.4325,-4.6119,Africa,Seychelles,SC,,Seychelles,2018-04-22,09:21
Ixobrychus sinensis,Animalia,HERONS_ARDEIDAE,Yellow Bittern,,1,55.4581,-4.5712,Africa,Seychelles,SC,,Seychelles,2018-04-22,09:20
Zosterops modestus,Animalia,WHITEEYES_ZOSTEROPIDAE,Seychelles White-eye,,1,55.4708,-4.6665,Africa,Seychelles,SC,,Seychelles,2018-04-21,10:20
Thalasseus bergii,Animalia,GULLS_TERNS_AND_SKIMMERS_LARIDAE,Greater Crested Tern,,7,55.4638,-4.5855,Africa,Seychelles,SC,,Seychelles,2018-04-21,10:19
Butorides striata,Animalia,HERONS_ARDEIDAE,Striated Heron,,1,55.4634,-4.585,Africa,Seychelles,SC,,Seychelles,2018-04-21,10:19
Bubulcus ibis,Animalia,HERONS_ARDEIDAE,Western Cattle Egret,,9,55.4638,-4.6355,Africa,Seychelles,SC,,Seychelles,2018-04-21,07:39
Foudia madagascariensis,Animalia,WEAVERS_PLOCEIDAE,Red Fody,,4,55.4372,-4.6224,Africa,Seychelles,SC,,Seychelles,2018-04-21,07:30
Phaethon lepturus,Animalia,TROPICBIRDS_PHAETHONTIDAE,White-tailed Tropicbird,,2,55.4444,-4.654,Africa,Seychelles,SC,,Seychelles - Morne Seychellois NP,2018-04-20,19:53
Nesoenas picturatus,Animalia,PIGEONS_AND_DOVES_COLUMBIDAE,Malagasy Turtle Dove,,1,55.4444,-4.6542,Africa,Seychelles,SC,,Seychelles - Morne Seychellois NP,2018-04-20,19:16
Falco araeus,Animalia,CARACAS_AND_FALCONS_FALCONIDAE,Seychelles Kestrel,,1,55.4444,-4.6542,Africa,Seychelles,SC,,Seychelles - Morne Seychellois NP,2018-04-20,19:14
Cinnyris dussumieri,Animalia,SUNBIRDS_NECTARINIIDAE,Seychelles Sunbird,,1,55.4444,-4.6542,Africa,Seychelles,SC,,Seychelles - Morne Seychellois NP,2018-04-20,19:14
Hypsipetes crassirostris,Animalia,BULBULS_PYCNONOTIDAE,Seychelles Bulbul,,1,55.4444,-4.6542,Africa,Seychelles,SC,,Seychelles - Morne Seychellois NP,2018-04-20,19:13
Alectroenas pulcherrimus,Animalia,PIGEONS_AND_DOVES_COLUMBIDAE,Seychelles Blue Pigeon,,1,55.4444,-4.654,Africa,Seychelles,SC,,Seychelles - Morne Seychellois NP,2018-04-20,19:13
Otus insularis,Animalia,OWLS_STRIGIDAE,Seychelles Scops Owl,,2,55.4444,-4.654,Africa,Seychelles,SC,,Seychelles - Morne Seychellois NP,2018-04-20,19:13
Geopelia striata,Animalia,PIGEONS_AND_DOVES_COLUMBIDAE,Zebra Dove,,2,55.5112,-4.6718,Africa,Seychelles,SC,,Seychelles,2018-04-20,09:25
Acridotheres tristis,Animalia,STARLINGS_STURNIDAE,Common Myna,,1,55.5116,-4.6714,Africa,Seychelles,SC,,Seychelles,2018-04-20,09:16
Numenius phaeopus,Animalia,SANDPIPERS_AND_ALLIES_SCOLOPACIDAE,Eurasian Whimbrel,,1,55.48404694,-4.65537367,Africa,Seychelles,SC,,Seychelles,2018-04-21,
Dromas ardeola,Animalia,CRABPLOVER_DROMADIDAE,Crab-plover,,1,55.48404694,-4.65537367,Africa,Seychelles,SC,,Seychelles,2018-04-21,
Falco araeus,Animalia,CARACAS_AND_FALCONS_FALCONIDAE,Seychelles Kestrel,,1,55.49674988,-4.66650278,Africa,Seychelles,SC,,Seychelles,2018-04-21,
Acridotheres tristis,Animalia,STARLINGS_STURNIDAE,Common Myna,,1,55.76655783,-4.34870563,Africa,Seychelles,SC,,Seychelles - Praslin,2018-04-04,12:47
Geopelia striata,Animalia,PIGEONS_AND_DOVES_COLUMBIDAE,Zebra Dove,,1,55.76754565,-4.34926679,Africa,Seychelles,SC,,Seychelles - Praslin,2018-04-04,13:58
Columba livia domestica,Animalia,PIGEONS_AND_DOVES_COLUMBIDAE,Feral Pigeon,,2,55.7393971,-4.33143106,Africa,Seychelles,SC,,Seychelles - Praslin NP,2018-04-05,12:45
Actitis hypoleucos,Animalia,SANDPIPERS_AND_ALLIES_SCOLOPACIDAE,Common Sandpiper,,1,55.76696634,-4.34872204,Africa,Seychelles,SC,,Seychelles - Praslin,2018-04-05,16:28
Acridotheres tristis,Animalia,STARLINGS_STURNIDAE,Common Myna,,2,55.7677763,-4.34913137,Africa,Seychelles,SC,,Seychelles - Praslin,2018-04-05,18:29
Gygis alba,Animalia,GULLS_TERNS_AND_SKIMMERS_LARIDAE,White Tern,,1,55.74548523,-4.31489234,Africa,Seychelles,SC,,Seychelles - Praslin,2018-04-06,09:07
Nesoenas picturatus,Animalia,PIGEONS_AND_DOVES_COLUMBIDAE,Malagasy Turtle Dove,,15,55.73155826,-4.2838941,Africa,Seychelles,SC,,Seychelles - Curieuse,2018-04-06,12:52
Geopelia striata,Animalia,PIGEONS_AND_DOVES_COLUMBIDAE,Zebra Dove,,3,55.73155826,-4.2838941,Africa,Seychelles,SC,,Seychelles - Curieuse,2018-04-06,12:52
Arenaria interpres,Animalia,SANDPIPERS_AND_ALLIES_SCOLOPACIDAE,Ruddy Turnstone,,5,55.73155826,-4.2838941,Africa,Seychelles,SC,,Seychelles - Curieuse,2018-04-06,12:52
Foudia madagascariensis,Animalia,WEAVERS_PLOCEIDAE,Red Fody,,15,55.73155826,-4.2838941,Africa,Seychelles,SC,,Seychelles - Curieuse,2018-04-06,12:52
Zizeeria knysna,Animalia,GOSSAMERWINGED_BUTTERFLIES_LYCAENIDAE,African Grass Blue,,1,55.76741593,-4.34944476,Africa,Seychelles,SC,,Seychelles - Praslin,2018-04-07,08:27
Tringa nebularia,Animalia,SANDPIPERS_AND_ALLIES_SCOLOPACIDAE,Common Greenshank,,1,55.42379379,-4.61495932,Africa,Seychelles,SC,,Seychelles,2018-04-17,
Thalasseus bergii,Animalia,GULLS_TERNS_AND_SKIMMERS_LARIDAE,Greater Crested Tern,,1,55.42379379,-4.61495932,Africa,Seychelles,SC,,Seychelles,2018-04-17,
Butorides striata degens,Animalia,HERONS_ARDEIDAE,Striated Heron ssp degens,,1,55.45589447,-4.62599724,Africa,Seychelles,SC,,Seychelles,2018-04-16,
Ardea cinerea,Animalia,HERONS_ARDEIDAE,Grey Heron,,1,55.42156219,-4.61575469,Africa,Seychelles,SC,,Seychelles,2018-04-13,
Gygis alba,Animalia,GULLS_TERNS_AND_SKIMMERS_LARIDAE,White Tern,,1,55.43078899,-4.62139284,Africa,Seychelles,SC,,Seychelles,2018-04-12,
Alectroenas pulcherrimus,Animalia,PIGEONS_AND_DOVES_COLUMBIDAE,Seychelles Blue Pigeon,,1,55.43078899,-4.62139284,Africa,Seychelles,SC,,Seychelles,2018-04-12,
Aerodramus elaphrus,Animalia,SWIFTS_APODIDAE,Seychelles Swiftlet,,1,55.43078899,-4.62139284,Africa,Seychelles,SC,,Seychelles,2018-04-12,
Bubulcus ibis,Animalia,HERONS_ARDEIDAE,Western Cattle Egret,,1,55.51460266,-4.67170343,Africa,Seychelles,SC,,Seychelles,2018-04-12,
Phaethon lepturus,Animalia,TROPICBIRDS_PHAETHONTIDAE,White-tailed Tropicbird,,1,55.43066025,-4.62167516,Africa,Seychelles,SC,,Seychelles,2018-04-12,
Cinnyris dussumieri,Animalia,SUNBIRDS_NECTARINIIDAE,Seychelles Sunbird,,1,55.43066025,-4.62167516,Africa,Seychelles,SC,,Seychelles,2018-04-12,
Hypsipetes crassirostris,Animalia,BULBULS_PYCNONOTIDAE,Seychelles Bulbul,,1,55.43066025,-4.62167516,Africa,Seychelles,SC,,Seychelles,2018-04-12,
Pteropus seychellensis,Animalia,OLD_WORLD_FRUITEATING_BATS_PTEROPODIDAE,Seychelles Flying Fox,,1,55.42645454,-4.61473742,Africa,Seychelles,SC,,Seychelles,2018-04-12,
Acridotheres tristis,Animalia,STARLINGS_STURNIDAE,Common Myna,,2,55.46709294,-4.64820753,Africa,Seychelles,SC,,Seychelles,2018-03-31,17:37
Cinnyris dussumieri,Animalia,SUNBIRDS_NECTARINIIDAE,Seychelles Sunbird,,3,55.46725125,-4.64812772,Africa,Seychelles,SC,,Seychelles,2018-03-31,18:13
Geopelia striata,Animalia,PIGEONS_AND_DOVES_COLUMBIDAE,Zebra Dove,,1,55.4671809,-4.64818,Africa,Seychelles,SC,,Seychelles,2018-04-01,09:09
Hypsipetes crassirostris,Animalia,BULBULS_PYCNONOTIDAE,Seychelles Bulbul,,1,55.45457039,-4.64806652,Africa,Seychelles,SC,,Seychelles,2018-04-01,11:25
Hypsipetes crassirostris,Animalia,BULBULS_PYCNONOTIDAE,Seychelles Bulbul,,2,55.45786453,-4.6503389,Africa,Seychelles,SC,,Seychelles,2018-04-01,12:43
Pteropus seychellensis,Animalia,OLD_WORLD_FRUITEATING_BATS_PTEROPODIDAE,Seychelles Flying Fox,,2,55.45192142,-4.64076734,Africa,Seychelles,SC,,Seychelles,2018-04-01,15:23
Foudia madagascariensis,Animalia,WEAVERS_PLOCEIDAE,Red Fody,,4,55.45833333,-4.63555556,Africa,Seychelles,SC,,Seychelles,2018-04-01,17:00
Geopelia striata,Animalia,PIGEONS_AND_DOVES_COLUMBIDAE,Zebra Dove,,1,55.45396979,-4.62972594,Africa,Seychelles,SC,,Seychelles,2018-04-02,12:09
Pteropus seychellensis,Animalia,OLD_WORLD_FRUITEATING_BATS_PTEROPODIDAE,Seychelles Flying Fox,,25,55.42699903,-4.65043328,Africa,Seychelles,SC,,Seychelles - Morne Seychellois NP,2011-08-01,
Charadrius mongolus,Animalia,PLOVERS_CHARADRIIDAE,Lesser Sand Plover,,1,55.20637035,-3.71284404,Africa,Seychelles,SC,,Seychelles - Indian Ocean,2016-11-17,
Charadrius mongolus,Animalia,PLOVERS_CHARADRIIDAE,Lesser Sand Plover,,1,55.20635667,-3.712165,Africa,Seychelles,SC,,Seychelles - Indian Ocean,2016-11-17,
Foudia madagascariensis,Animalia,WEAVERS_PLOCEIDAE,Red Fody,,2,55.82893476,-4.34885979,Africa,Seychelles,SC,,Seychelles - La Digue,2017-04-24,
Calidris alba,Animalia,SANDPIPERS_AND_ALLIES_SCOLOPACIDAE,Sanderling,,4,55.74548721,-4.31431699,Africa,Seychelles,SC,,Seychelles - Praslin,2017-04-19,
Tringa nebularia,Animalia,SANDPIPERS_AND_ALLIES_SCOLOPACIDAE,Common Greenshank,,1,55.82610905,-4.36387561,Africa,Seychelles,SC,,Seychelles - La Digue,2017-04-22,
Butorides striata,Animalia,HERONS_ARDEIDAE,Striated Heron,,1,55.82610905,-4.36387561,Africa,Seychelles,SC,,Seychelles - La Digue,2017-04-22,
Geopelia striata,Animalia,PIGEONS_AND_DOVES_COLUMBIDAE,Zebra Dove,,3,55.7128,-4.3267,Africa,Seychelles,SC,,Seychelles - Praslin,2017-10-18,09:37
Hypsipetes crassirostris,Animalia,BULBULS_PYCNONOTIDAE,Seychelles Bulbul,,2,55.7401,-4.3319,Africa,Seychelles,SC,,Seychelles - Praslin,2017-10-17,12:29
Alectroenas pulcherrimus,Animalia,PIGEONS_AND_DOVES_COLUMBIDAE,Seychelles Blue Pigeon,,1,55.7401,-4.3319,Africa,Seychelles,SC,,Seychelles - Praslin,2017-10-17,12:21
Falco araeus,Animalia,CARACAS_AND_FALCONS_FALCONIDAE,Seychelles Kestrel,,1,55.5083,-4.672,Africa,Seychelles,SC,,Seychelles - Mahé,2017-10-14,16:06
Foudia sechellarum,Animalia,WEAVERS_PLOCEIDAE,Seychelles Fody,,10,55.6624,-4.2108,Africa,Seychelles,SC,,Seychelles - Indian Ocean,2017-10-23,10:52
Pteropus seychellensis,Animalia,OLD_WORLD_FRUITEATING_BATS_PTEROPODIDAE,Seychelles Flying Fox,,1,55.73997152,-4.32710438,Africa,Seychelles,SC,,Seychelles - Praslin,2017-09-29,17:00
Hypsipetes crassirostris,Animalia,BULBULS_PYCNONOTIDAE,Seychelles Bulbul,,1,55.73913011,-4.32915336,Africa,Seychelles,SC,,Seychelles - Praslin,2017-09-29,16:30
Zizeeria knysna,Animalia,GOSSAMERWINGED_BUTTERFLIES_LYCAENIDAE,African Grass Blue,,1,55.72486532,-4.28241004,Africa,Seychelles,SC,,Seychelles - Praslin,2017-09-30,
Copsychus sechellarum,Animalia,OLD_WORLD_FLYCATCHERS_MUSCICAPIDAE,Seychelles Magpie-Robin,,10,55.6686,-4.2145,Africa,Seychelles,SC,,Seychelles - Indian Ocean,2017-10-23,09:14
Pteropus seychellensis,Animalia,OLD_WORLD_FRUITEATING_BATS_PTEROPODIDAE,Seychelles Flying Fox,,1,55.4692,-4.6439,Africa,Seychelles,SC,,Seychelles - Mahé,2017-10-23,16:48
Gelochelidon nilotica nilotica,Animalia,GULLS_TERNS_AND_SKIMMERS_LARIDAE,Gull-billed Tern ssp nilotica,,1,55.4827,-4.6524,Africa,Seychelles,SC,,Seychelles - Mahé,2017-10-23,16:21
Thalasseus bergii thalassinus,Animalia,GULLS_TERNS_AND_SKIMMERS_LARIDAE,Greater Crested Tern ssp thalassinus,,2,55.7463,-4.3126,Africa,Seychelles,SC,,Seychelles - Praslin,2017-10-23,12:28
Foudia sechellarum,Animalia,WEAVERS_PLOCEIDAE,Seychelles Fody,,10,55.6624,-4.2108,Africa,Seychelles,SC,,Seychelles - Indian Ocean,2017-10-23,10:52
Fregata minor aldabrensis,Animalia,FRIGATEBIRDS_FREGATTIDAE,Great Frigatebird ssp aldabrensis,,50,55.6624,-4.2108,Africa,Seychelles,SC,,Seychelles - Indian Ocean,2017-10-23,10:52
Onychoprion anaethetus antarcticus,Animalia,GULLS_TERNS_AND_SKIMMERS_LARIDAE,Bridled Tern ssp antarcticus,,1,55.6636,-4.2142,Africa,Seychelles,SC,,Seychelles - Indian Ocean,2017-10-23,11:23
Fregata ariel iredalei,Animalia,FRIGATEBIRDS_FREGATTIDAE,Lesser Frigatebird ssp iredalei,,1,55.6624,-4.2108,Africa,Seychelles,SC,,Seychelles - Indian Ocean,2017-10-23,10:52
Puffinus bailloni colstoni,Animalia,PETRELS_AND_SHEARWATERS_PROCELLARIIDAE,Tropical Shearwater ssp colstoni,,3,55.6629,-4.2137,Africa,Seychelles,SC,,Seychelles - Indian Ocean,2017-10-23,10:05
Motacilla flava,Animalia,PIPITS_EN_WAGTAILS_MOTACILLIDAE,Western Yellow Wagtail,,1,55.6686,-4.2145,Africa,Seychelles,SC,,Seychelles - Indian Ocean,2017-10-23,09:14
Numenius phaeopus phaeopus,Animalia,SANDPIPERS_AND_ALLIES_SCOLOPACIDAE,Eurasian Whimbrel ssp phaeopus,,1,55.6837,-4.3029,Africa,Seychelles,SC,,Seychelles - Praslin,2017-10-22,16:33
Hypsipetes crassirostris,Animalia,BULBULS_PYCNONOTIDAE,Seychelles Bulbul,,2,55.8299,-4.3576,Africa,Seychelles,SC,,Seychelles - La Digue,2017-10-22,10:49
Terpsiphone corvina,Animalia,MONARCHS_MONARCHIDAE,Seychelles Paradise Flycatcher,,4,55.8303,-4.3575,Africa,Seychelles,SC,,Seychelles - La Digue,2017-10-22,09:59
Terpsiphone corvina,Animalia,MONARCHS_MONARCHIDAE,Seychelles Paradise Flycatcher,,2,55.8273,-4.3535,Africa,Seychelles,SC,,Seychelles - La Digue,2017-10-22,09:32
Polistes olivaceus,Animalia,Vespidae,Yellow Oriental Paper Wasp,,1,55.5207983,-4.70321796,Africa,Seychelles,SC,,Seychelles - Mahé,2017-10-01,
Coracopsis barklyi,Animalia,PSITTACULIDAE,Seychelles Black Parrot,,12,55.73779196,-4.33072787,Africa,Seychelles,SC,,Seychelles - Praslin,2017-10-21,20:07
Pteropus seychellensis,Animalia,OLD_WORLD_FRUITEATING_BATS_PTEROPODIDAE,Seychelles Flying Fox,,1,55.84169912,-4.3629844,Africa,Seychelles,SC,,Seychelles - La Digue,2017-10-01,
Anous stolidus pileatus,Animalia,GULLS_TERNS_AND_SKIMMERS_LARIDAE,Brown Noddy ssp pileatus,,1,55.6479,-4.3489,Africa,Seychelles,SC,,Seychelles - Praslin,2017-10-21,12:17
Phaethon lepturus lepturus,Animalia,TROPICBIRDS_PHAETHONTIDAE,White-tailed Tropicbird ssp lepturus,,1,55.648,-4.349,Africa,Seychelles,SC,,Seychelles - Praslin,2017-10-21,12:16
Anous tenuirostris tenuirostris,Animalia,GULLS_TERNS_AND_SKIMMERS_LARIDAE,Lesser Noddy ssp tenuirostris,,1,55.648,-4.3488,Africa,Seychelles,SC,,Seychelles - Praslin,2017-10-21,12:15
Acrocephalus sechellensis,Animalia,Acrocephalidae,Seychelles Warbler,,7,55.648,-4.3488,Africa,Seychelles,SC,,Seychelles - Praslin,2017-10-21,12:15
Foudia sechellarum,Animalia,WEAVERS_PLOCEIDAE,Seychelles Fody,,10,55.648,-4.3488,Africa,Seychelles,SC,,Seychelles - Praslin,2017-10-21,12:15
Copsychus sechellarum,Animalia,OLD_WORLD_FLYCATCHERS_MUSCICAPIDAE,Seychelles Magpie-Robin,,8,55.648,-4.3487,Africa,Seychelles,SC,,Seychelles - Praslin,2017-10-21,12:14
Nesoenas picturatus,Animalia,PIGEONS_AND_DOVES_COLUMBIDAE,Malagasy Turtle Dove,,20,55.4515,-4.6471,Africa,Seychelles,SC,,Seychelles - Mahé,2017-10-20,16:26
Butorides striata degens,Animalia,HERONS_ARDEIDAE,Striated Heron ssp degens,,1,55.4693,-4.6426,Africa,Seychelles,SC,,Seychelles - Mahé,2017-10-20,10:46
Alectroenas pulcherrimus,Animalia,PIGEONS_AND_DOVES_COLUMBIDAE,Seychelles Blue Pigeon,,1,55.4168,-4.6166,Africa,Seychelles,SC,,Seychelles - Mahé,2017-10-20,10:16
Aerodramus elaphrus,Animalia,SWIFTS_APODIDAE,Seychelles Swiftlet,,1,55.4597,-4.5732,Africa,Seychelles,SC,,Seychelles - Mahé,2017-10-20,08:45
Dromas ardeola,Animalia,CRABPLOVER_DROMADIDAE,Crab-plover,,5,55.4827,-4.6529,Africa,Seychelles,SC,,Seychelles - Mahé,2017-10-20,11:56
Charadrius asiaticus,Animalia,PLOVERS_CHARADRIIDAE,Caspian Plover,,1,55.45,-4.7,Africa,Seychelles,SC,,Seychelles - Mahé,2017-10-20,11:56
Falco araeus,Animalia,CARACAS_AND_FALCONS_FALCONIDAE,Seychelles Kestrel,,1,55.4862,-4.6548,Africa,Seychelles,SC,,Seychelles - Mahé,2017-10-20,11:10
Charadrius leschenaultii,Animalia,PLOVERS_CHARADRIIDAE,Greater Sand Plover,,3,55.4693,-4.6426,Africa,Seychelles,SC,,Seychelles - Mahé,2017-10-20,10:46
Gallinula chloropus orientalis,Animalia,RAILS_RALLIDAE,Common Moorhen ssp orientalis,,4,55.4606,-4.5733,Africa,Seychelles,SC,,Seychelles - Mahé,2017-10-20,08:50
Nycticorax nycticorax nycticorax,Animalia,HERONS_ARDEIDAE,Black-crowned Night Heron ssp nycticorax,,1,55.4597,-4.5731,Africa,Seychelles,SC,,Seychelles - Mahé,2017-10-20,08:46
Ixobrychus sinensis,Animalia,HERONS_ARDEIDAE,Yellow Bittern,,1,55.4597,-4.5732,Africa,Seychelles,SC,,Seychelles - Mahé,2017-10-20,08:45
Cinnyris dussumieri,Animalia,SUNBIRDS_NECTARINIIDAE,Seychelles Sunbird,,4,55.4741,-4.668,Africa,Seychelles,SC,,Seychelles - Mahé,2017-10-19,16:19
Foudia madagascariensis,Animalia,WEAVERS_PLOCEIDAE,Red Fody,,10,55.4513,-4.6467,Africa,Seychelles,SC,,Seychelles - Mahé,2017-10-19,17:37
Alectroenas pulcherrimus,Animalia,PIGEONS_AND_DOVES_COLUMBIDAE,Seychelles Blue Pigeon,,1,55.4514,-4.6468,Africa,Seychelles,SC,,Seychelles - Mahé,2017-10-19,17:32
Zosterops modestus,Animalia,WHITEEYES_ZOSTEROPIDAE,Seychelles White-eye,,3,55.4741,-4.668,Africa,Seychelles,SC,,Seychelles - Mahé,2017-10-19,16:19
Pteropus seychellensis,Animalia,OLD_WORLD_FRUITEATING_BATS_PTEROPODIDAE,Seychelles Flying Fox,,5,55.474,-4.6678,Africa,Seychelles,SC,,Seychelles - Mahé,2017-10-19,14:19
Phaethon lepturus lepturus,Animalia,TROPICBIRDS_PHAETHONTIDAE,White-tailed Tropicbird ssp lepturus,,1,55.66349207,-4.33273913,Africa,Seychelles,SC,,Seychelles - Praslin,1997-07-01,
Ardenna pacifica,Animalia,PETRELS_AND_SHEARWATERS_PROCELLARIIDAE,Wedge-tailed Shearwater,,1,55.66349207,-4.33273913,Africa,Seychelles,SC,,Seychelles - Praslin,1997-07-02,
Puffinus bailloni nicolae,Animalia,PETRELS_AND_SHEARWATERS_PROCELLARIIDAE,Tropical Shearwater ssp nicolae,,1,55.66349207,-4.33273913,Africa,Seychelles,SC,,Seychelles - Praslin,1997-07-07,
Geopelia striata,Animalia,PIGEONS_AND_DOVES_COLUMBIDAE,Zebra Dove,,1,55.66349207,-4.33273913,Africa,Seychelles,SC,,Seychelles - Praslin,1997-07-01,
Arenaria interpres,Animalia,SANDPIPERS_AND_ALLIES_SCOLOPACIDAE,Ruddy Turnstone,,10,55.7317,-4.2836,Africa,Seychelles,SC,,Seychelles - Praslin,2017-09-30,13:50
Alectroenas pulcherrimus,Animalia,PIGEONS_AND_DOVES_COLUMBIDAE,Seychelles Blue Pigeon,,2,55.7317,-4.2836,Africa,Seychelles,SC,,Seychelles - Praslin,2017-09-30,13:49
Eretmochelys imbricata,Animalia,Cheloniidae,Hawksbill Turtle,,1,55.71235654,-4.28724314,Africa,Seychelles,SC,,Seychelles - Praslin,2016-10-28,
Eretmochelys imbricata,Animalia,Cheloniidae,Hawksbill Turtle,,1,55.66482782,-4.21565874,Africa,Seychelles,SC,,Seychelles - Indian Ocean,2016-10-28,
Eretmochelys imbricata,Animalia,Cheloniidae,Hawksbill Turtle,,1,55.66670752,-4.20885963,Africa,Seychelles,SC,,Seychelles - Indian Ocean,2016-10-28,
Eretmochelys imbricata,Animalia,Cheloniidae,Hawksbill Turtle,,1,55.66670752,-4.20885963,Africa,Seychelles,SC,,Seychelles - Indian Ocean,2016-10-28,
Foudia sechellarum,Animalia,WEAVERS_PLOCEIDAE,Seychelles Fody,,1,55.66470444,-4.32978376,Africa,Seychelles,SC,,Seychelles - Praslin,2017-10-02,
Copsychus sechellarum,Animalia,OLD_WORLD_FLYCATCHERS_MUSCICAPIDAE,Seychelles Magpie-Robin,,4,55.66470444,-4.32978376,Africa,Seychelles,SC,,Seychelles - Praslin,2017-10-02,
Acrocephalus sechellensis,Animalia,Acrocephalidae,Seychelles Warbler,,10,55.66470444,-4.32978376,Africa,Seychelles,SC,,Seychelles - Praslin,2017-10-02,
Geopelia striata,Animalia,PIGEONS_AND_DOVES_COLUMBIDAE,Zebra Dove,,1,55.66470444,-4.32978376,Africa,Seychelles,SC,,Seychelles - Praslin,2017-10-02,
Onychoprion anaethetus,Animalia,GULLS_TERNS_AND_SKIMMERS_LARIDAE,Bridled Tern,,1,55.66470444,-4.32978376,Africa,Seychelles,SC,,Seychelles - Praslin,2017-10-02,
Gygis alba,Animalia,GULLS_TERNS_AND_SKIMMERS_LARIDAE,White Tern,,1,55.66470444,-4.32978376,Africa,Seychelles,SC,,Seychelles - Praslin,2017-10-02,
Anous tenuirostris,Animalia,GULLS_TERNS_AND_SKIMMERS_LARIDAE,Lesser Noddy,,1,55.66474568,-4.32980448,Africa,Seychelles,SC,,Seychelles - Cousin,2017-10-02,
Gallinula chloropus,Animalia,RAILS_RALLIDAE,Common Moorhen,,1,55.66470444,-4.32978376,Africa,Seychelles,SC,,Seychelles - Praslin,2017-10-02,
Phaethon lepturus,Animalia,TROPICBIRDS_PHAETHONTIDAE,White-tailed Tropicbird,,1,55.66470444,-4.32978376,Africa,Seychelles,SC,,Seychelles - Praslin,2017-10-02,
Ardenna pacifica,Animalia,PETRELS_AND_SHEARWATERS_PROCELLARIIDAE,Wedge-tailed Shearwater,,3,55.66470444,-4.32978376,Africa,Seychelles,SC,,Seychelles - Praslin,2017-10-02,
Terpsiphone corvina,Animalia,MONARCHS_MONARCHIDAE,Seychelles Paradise Flycatcher,,3,55.83120257,-4.35785211,Africa,Seychelles,SC,,Seychelles - La Digue,2017-10-01,
Gallinula chloropus,Animalia,RAILS_RALLIDAE,Common Moorhen,,1,55.72184085,-4.28347091,Africa,Seychelles,SC,,Seychelles - Praslin,2017-09-30,
Arenaria interpres,Animalia,SANDPIPERS_AND_ALLIES_SCOLOPACIDAE,Ruddy Turnstone,,1,55.72184085,-4.28347091,Africa,Seychelles,SC,,Seychelles - Praslin,2017-09-30,
Actitis hypoleucos,Animalia,SANDPIPERS_AND_ALLIES_SCOLOPACIDAE,Common Sandpiper,,1,55.72184085,-4.28347091,Africa,Seychelles,SC,,Seychelles - Praslin,2017-09-30,
Tringa nebularia,Animalia,SANDPIPERS_AND_ALLIES_SCOLOPACIDAE,Common Greenshank,,1,55.72184085,-4.28347091,Africa,Seychelles,SC,,Seychelles - Praslin,2017-09-30,
Charadrius leschenaultii,Animalia,PLOVERS_CHARADRIIDAE,Greater Sand Plover,,1,55.72184085,-4.28347091,Africa,Seychelles,SC,,Seychelles - Praslin,2017-09-30,
Pluvialis squatarola,Animalia,PLOVERS_CHARADRIIDAE,Grey Plover,,1,55.72184085,-4.28347091,Africa,Seychelles,SC,,Seychelles - Praslin,2017-09-30,
Coracopsis barklyi,Animalia,PSITTACULIDAE,Seychelles Black Parrot,,2,55.72184085,-4.28347091,Africa,Seychelles,SC,,Seychelles - Praslin,2017-09-30,
Alectroenas pulcherrimus,Animalia,PIGEONS_AND_DOVES_COLUMBIDAE,Seychelles Blue Pigeon,,1,55.72184085,-4.28347091,Africa,Seychelles,SC,,Seychelles - Praslin,2017-09-30,
Cinnyris dussumieri,Animalia,SUNBIRDS_NECTARINIIDAE,Seychelles Sunbird,,1,55.72184085,-4.28347091,Africa,Seychelles,SC,,Seychelles - Praslin,2017-09-30,
Eretmochelys imbricata,Animalia,Cheloniidae,Hawksbill Turtle,,1,55.66663026,-4.21604522,Africa,Seychelles,SC,,Seychelles - Indian Ocean,2017-09-30,
Onychoprion anaethetus,Animalia,GULLS_TERNS_AND_SKIMMERS_LARIDAE,Bridled Tern,,1,55.66663026,-4.21604522,Africa,Seychelles,SC,,Seychelles - Indian Ocean,2017-09-30,
Gygis alba,Animalia,GULLS_TERNS_AND_SKIMMERS_LARIDAE,White Tern,,1,55.66663026,-4.21604522,Africa,Seychelles,SC,,Seychelles - Indian Ocean,2017-09-30,
Anous stolidus,Animalia,GULLS_TERNS_AND_SKIMMERS_LARIDAE,Brown Noddy,,1,55.66663026,-4.21604522,Africa,Seychelles,SC,,Seychelles - Indian Ocean,2017-09-30,
Fregata minor,Animalia,FRIGATEBIRDS_FREGATTIDAE,Great Frigatebird,,1,55.66663026,-4.21604522,Africa,Seychelles,SC,,Seychelles - Indian Ocean,2017-09-30,
Phaethon lepturus,Animalia,TROPICBIRDS_PHAETHONTIDAE,White-tailed Tropicbird,,1,55.66663026,-4.21604522,Africa,Seychelles,SC,,Seychelles - Indian Ocean,2017-09-30,
Puffinus bailloni nicolae,Animalia,PETRELS_AND_SHEARWATERS_PROCELLARIIDAE,Tropical Shearwater ssp nicolae,,1,55.66663026,-4.21604522,Africa,Seychelles,SC,,Seychelles - Indian Ocean,2017-09-30,
Numenius phaeopus,Animalia,SANDPIPERS_AND_ALLIES_SCOLOPACIDAE,Eurasian Whimbrel,,2,55.7224,-4.336,Africa,Seychelles,SC,,Seychelles - Praslin,2017-09-29,17:25
Tringa nebularia,Animalia,SANDPIPERS_AND_ALLIES_SCOLOPACIDAE,Common Greenshank,,1,55.7224,-4.336,Africa,Seychelles,SC,,Seychelles - Praslin,2017-09-29,17:25
Tenrec ecaudatus,Animalia,TENRECS_TENRECIDAE,Tail-less Tenrec,,1,55.7386,-4.3306,Africa,Seychelles,SC,,Seychelles - Praslin,2017-09-29,16:38
Alectroenas pulcherrimus,Animalia,PIGEONS_AND_DOVES_COLUMBIDAE,Seychelles Blue Pigeon,,2,55.7386,-4.3305,Africa,Seychelles,SC,,Seychelles - Praslin,2017-09-29,16:38
Coracopsis barklyi,Animalia,PSITTACULIDAE,Seychelles Black Parrot,,3,55.7386,-4.3296,Africa,Seychelles,SC,,Seychelles - Praslin,2017-09-29,16:37
Butorides striata,Animalia,HERONS_ARDEIDAE,Striated Heron,,1,55.4694,-4.6378,Africa,Seychelles,SC,,Seychelles - Mahé,2017-09-29,09:20
Numenius phaeopus,Animalia,SANDPIPERS_AND_ALLIES_SCOLOPACIDAE,Eurasian Whimbrel,,1,55.4694,-4.6378,Africa,Seychelles,SC,,Seychelles - Mahé,2017-09-29,09:20
Ixobrychus sinensis,Animalia,HERONS_ARDEIDAE,Yellow Bittern,,1,55.4694,-4.6379,Africa,Seychelles,SC,,Seychelles - Mahé,2017-09-29,09:20
Tringa nebularia,Animalia,SANDPIPERS_AND_ALLIES_SCOLOPACIDAE,Common Greenshank,,1,55.4695,-4.6379,Africa,Seychelles,SC,,Seychelles - Mahé,2017-09-29,09:19
Otus insularis,Animalia,OWLS_STRIGIDAE,Seychelles Scops Owl,,1,55.4398,-4.6547,Africa,Seychelles,SC,,Seychelles - Mahé,2017-09-28,20:20
Falco araeus,Animalia,CARACAS_AND_FALCONS_FALCONIDAE,Seychelles Kestrel,,1,55.4848,-4.6538,Africa,Seychelles,SC,,Seychelles - Mahé,2017-09-28,15:25
Ardea cinerea,Animalia,HERONS_ARDEIDAE,Grey Heron,,1,55.4854,-4.6549,Africa,Seychelles,SC,,Seychelles - Mahé,2017-09-28,15:14
Butorides striata,Animalia,HERONS_ARDEIDAE,Striated Heron,,1,55.4856,-4.6551,Africa,Seychelles,SC,,Seychelles - Mahé,2017-09-28,14:46
Numenius phaeopus,Animalia,SANDPIPERS_AND_ALLIES_SCOLOPACIDAE,Eurasian Whimbrel,,1,55.4857,-4.6546,Africa,Seychelles,SC,,Seychelles - Mahé,2017-09-28,14:46
Xenus cinereus,Animalia,SANDPIPERS_AND_ALLIES_SCOLOPACIDAE,Terek Sandpiper,,1,55.4856,-4.6552,Africa,Seychelles,SC,,Seychelles - Mahé,2017-09-28,14:38
Limosa lapponica,Animalia,SANDPIPERS_AND_ALLIES_SCOLOPACIDAE,Bar-tailed Godwit,,1,55.4856,-4.655,Africa,Seychelles,SC,,Seychelles - Mahé,2017-09-28,14:33
Calidris ferruginea,Animalia,SANDPIPERS_AND_ALLIES_SCOLOPACIDAE,Curlew Sandpiper,,2,55.4856,-4.655,Africa,Seychelles,SC,,Seychelles - Mahé,2017-09-28,14:33
Dromas ardeola,Animalia,CRABPLOVER_DROMADIDAE,Crab-plover,,2,55.4856,-4.655,Africa,Seychelles,SC,,Seychelles - Mahé,2017-09-28,14:26
Charadrius asiaticus,Animalia,PLOVERS_CHARADRIIDAE,Caspian Plover,,1,55.45,-4.7,Africa,Seychelles,SC,,Seychelles - Mahé,2017-09-28,14:26
Aerodramus elaphrus,Animalia,SWIFTS_APODIDAE,Seychelles Swiftlet,,1,55.4421,-4.5893,Africa,Seychelles,SC,,Seychelles - Mahé,2017-09-28,13:21
Arenaria interpres,Animalia,SANDPIPERS_AND_ALLIES_SCOLOPACIDAE,Ruddy Turnstone,,10,55.4529,-4.6805,Africa,Seychelles,SC,,Seychelles - Mahé,2017-09-28,11:03
Bubulcus ibis,Animalia,HERONS_ARDEIDAE,Western Cattle Egret,,4,55.4536,-4.6802,Africa,Seychelles,SC,,Seychelles - Mahé,2017-09-28,10:52
Ardea cinerea,Animalia,HERONS_ARDEIDAE,Grey Heron,,1,55.4536,-4.6802,Africa,Seychelles,SC,,Seychelles - Mahé,2017-09-28,10:52
Falco araeus,Animalia,CARACAS_AND_FALCONS_FALCONIDAE,Seychelles Kestrel,,2,55.4536,-4.68,Africa,Seychelles,SC,,Seychelles - Mahé,2017-09-28,10:50
Zosterops modestus,Animalia,WHITEEYES_ZOSTEROPIDAE,Seychelles White-eye,,2,55.4735,-4.6676,Africa,Seychelles,SC,,Seychelles - Mahé,2017-09-28,09:05
Pluvialis squatarola,Animalia,PLOVERS_CHARADRIIDAE,Grey Plover,,1,55.478,-4.7051,Africa,Seychelles,SC,,Seychelles - Mahé,2017-09-28,08:39
Thalasseus bergii,Animalia,GULLS_TERNS_AND_SKIMMERS_LARIDAE,Greater Crested Tern,,4,55.4781,-4.7053,Africa,Seychelles,SC,,Seychelles - Mahé,2017-09-28,08:38
Butorides striata,Animalia,HERONS_ARDEIDAE,Striated Heron,,2,55.49649236,-4.70881209,Africa,Seychelles,SC,,Seychelles - Mahé,2017-09-27,
Pluvialis squatarola,Animalia,PLOVERS_CHARADRIIDAE,Grey Plover,,1,55.49649236,-4.70881209,Africa,Seychelles,SC,,Seychelles - Mahé,2017-09-27,
Numenius phaeopus,Animalia,SANDPIPERS_AND_ALLIES_SCOLOPACIDAE,Eurasian Whimbrel,,1,55.49649236,-4.70881209,Africa,Seychelles,SC,,Seychelles - Mahé,2017-09-27,
Cinnyris dussumieri,Animalia,SUNBIRDS_NECTARINIIDAE,Seychelles Sunbird,,1,55.51722049,-4.75040515,Africa,Seychelles,SC,,Seychelles - Mahé,2017-09-26,
Hypsipetes crassirostris,Animalia,BULBULS_PYCNONOTIDAE,Seychelles Bulbul,,1,55.51722049,-4.75040515,Africa,Seychelles,SC,,Seychelles - Mahé,2017-09-26,
Actitis hypoleucos,Animalia,SANDPIPERS_AND_ALLIES_SCOLOPACIDAE,Common Sandpiper,,1,55.51722049,-4.75040515,Africa,Seychelles,SC,,Seychelles - Mahé,2017-09-26,
Tringa nebularia,Animalia,SANDPIPERS_AND_ALLIES_SCOLOPACIDAE,Common Greenshank,,1,55.51722049,-4.75040515,Africa,Seychelles,SC,,Seychelles - Mahé,2017-09-26,
Pluvialis squatarola,Animalia,PLOVERS_CHARADRIIDAE,Grey Plover,,1,55.51722049,-4.75040515,Africa,Seychelles,SC,,Seychelles - Mahé,2017-09-26,
Butorides striata,Animalia,HERONS_ARDEIDAE,Striated Heron,,1,55.51722049,-4.75040515,Africa,Seychelles,SC,,Seychelles - Mahé,2017-09-26,
Tringa nebularia,Animalia,SANDPIPERS_AND_ALLIES_SCOLOPACIDAE,Common Greenshank,,1,55.5275,-4.69,Africa,Seychelles,SC,,Seychelles - Mahé,2017-09-25,15:05
Alectroenas pulcherrimus,Animalia,PIGEONS_AND_DOVES_COLUMBIDAE,Seychelles Blue Pigeon,,1,55.4551,-4.6247,Africa,Seychelles,SC,,Seychelles - Mahé,2017-09-25,12:59
Cinnyris dussumieri,Animalia,SUNBIRDS_NECTARINIIDAE,Seychelles Sunbird,,1,55.4551,-4.6248,Africa,Seychelles,SC,,Seychelles - Mahé,2017-09-25,12:59
Bubulcus ibis,Animalia,HERONS_ARDEIDAE,Western Cattle Egret,,1,55.4554,-4.6243,Africa,Seychelles,SC,,Seychelles - Mahé,2017-09-25,12:56
Hypsipetes crassirostris,Animalia,BULBULS_PYCNONOTIDAE,Seychelles Bulbul,,1,55.4552,-4.6243,Africa,Seychelles,SC,,Seychelles - Mahé,2017-09-25,12:56
Foudia madagascariensis,Animalia,WEAVERS_PLOCEIDAE,Red Fody,,3,55.4552,-4.6243,Africa,Seychelles,SC,,Seychelles - Mahé,2017-09-25,12:55
Ardea cinerea,Animalia,HERONS_ARDEIDAE,Grey Heron,,1,55.4553,-4.6243,Africa,Seychelles,SC,,Seychelles - Mahé,2017-09-25,12:55
Phaethon lepturus,Animalia,TROPICBIRDS_PHAETHONTIDAE,White-tailed Tropicbird,,3,55.4553,-4.6243,Africa,Seychelles,SC,,Seychelles - Mahé,2017-09-25,12:54
Arenaria interpres,Animalia,SANDPIPERS_AND_ALLIES_SCOLOPACIDAE,Ruddy Turnstone,,1,55.4552,-4.6244,Africa,Seychelles,SC,,Seychelles - Mahé,2017-09-25,12:53
Fregata minor,Animalia,FRIGATEBIRDS_FREGATTIDAE,Great Frigatebird,,1,55.66578698,-4.20985472,Africa,Seychelles,SC,,Seychelles - Indian Ocean,2016-10-28,
Fregata minor,Animalia,FRIGATEBIRDS_FREGATTIDAE,Great Frigatebird,,50,55.66335261,-4.21052389,Africa,Seychelles,SC,,Seychelles - Indian Ocean,2016-10-28,
Acrocephalus sechellensis,Animalia,Acrocephalidae,Seychelles Warbler,,1,55.6677711,-4.21446736,Africa,Seychelles,SC,,Seychelles - Indian Ocean,2017-04-20,15:44
Hypsipetes crassirostris,Animalia,BULBULS_PYCNONOTIDAE,Seychelles Bulbul,,1,55.7369085028768,-4.32821646540284,Africa,Seychelles,SC,,Seychelles - Praslin,2017-04-19,09:15
Alectroenas pulcherrimus,Animalia,PIGEONS_AND_DOVES_COLUMBIDAE,Seychelles Blue Pigeon,,1,55.7369085028768,-4.32821646540284,Africa,Seychelles,SC,,Seychelles - Praslin,2017-04-19,09:15
Coracopsis barklyi,Animalia,PSITTACULIDAE,Seychelles Black Parrot,,7,55.7369085028768,-4.32821646540284,Africa,Seychelles,SC,,Seychelles - Praslin,2017-04-19,09:15
Foudia madagascariensis,Animalia,WEAVERS_PLOCEIDAE,Red Fody,,1,55.7369085028768,-4.32821646540284,Africa,Seychelles,SC,,Seychelles - Praslin,2017-04-19,10:15
Gygis alba,Animalia,GULLS_TERNS_AND_SKIMMERS_LARIDAE,White Tern,,200,55.66671208,-4.21321311,Africa,Seychelles,SC,,Seychelles - Indian Ocean,2017-04-20,15:41
Alectroenas pulcherrimus,Animalia,PIGEONS_AND_DOVES_COLUMBIDAE,Seychelles Blue Pigeon,,1,55.6667120754719,-4.21321311260591,Africa,Seychelles,SC,,Seychelles - Indian Ocean,2017-04-20,15:41
Foudia sechellarum,Animalia,WEAVERS_PLOCEIDAE,Seychelles Fody,,10,55.6667120754719,-4.21321311260591,Africa,Seychelles,SC,,Seychelles - Indian Ocean,2017-04-20,15:42
Fregata minor,Animalia,FRIGATEBIRDS_FREGATTIDAE,Great Frigatebird,,1,55.6667120754719,-4.21321311260591,Africa,Seychelles,SC,,Seychelles - Indian Ocean,2017-04-20,15:42
Copsychus sechellarum,Animalia,OLD_WORLD_FLYCATCHERS_MUSCICAPIDAE,Seychelles Magpie-Robin,,3,55.6667120754719,-4.21321311260591,Africa,Seychelles,SC,,Seychelles - Indian Ocean,2017-04-20,15:44
Anous stolidus,Animalia,GULLS_TERNS_AND_SKIMMERS_LARIDAE,Brown Noddy,,200,55.66671208,-4.21321311,Africa,Seychelles,SC,,Seychelles - Indian Ocean,2017-04-20,15:45
Anous tenuirostris,Animalia,GULLS_TERNS_AND_SKIMMERS_LARIDAE,Lesser Noddy,,200,55.66671208,-4.21321311,Africa,Seychelles,SC,,Seychelles - Indian Ocean,2017-04-20,15:45
Onychoprion anaethetus,Animalia,GULLS_TERNS_AND_SKIMMERS_LARIDAE,Bridled Tern,,1,55.6667120754719,-4.21321311260591,Africa,Seychelles,SC,,Seychelles - Indian Ocean,2017-04-20,15:47
Phaethon lepturus,Animalia,TROPICBIRDS_PHAETHONTIDAE,White-tailed Tropicbird,,1,55.6667120754719,-4.21321311260591,Africa,Seychelles,SC,,Seychelles - Indian Ocean,2017-04-20,15:50
Cinnyris dussumieri,Animalia,SUNBIRDS_NECTARINIIDAE,Seychelles Sunbird,,1,55.7369085028768,-4.32821646540284,Africa,Seychelles,SC,,Seychelles - Praslin,2017-04-20,15:52
Geopelia striata,Animalia,PIGEONS_AND_DOVES_COLUMBIDAE,Zebra Dove,,1,55.83493799,-4.35377885,Africa,Seychelles,SC,,Seychelles - La Digue,2017-04-24,06:09
Foudia madagascariensis,Animalia,WEAVERS_PLOCEIDAE,Red Fody,,20,55.83517777,-4.35376392,Africa,Seychelles,SC,,Seychelles - La Digue,2017-04-24,12:21
Acridotheres tristis,Animalia,STARLINGS_STURNIDAE,Common Myna,,2,55.83499741,-4.35382997,Africa,Seychelles,SC,,Seychelles - La Digue,2017-04-24,12:22
Gygis alba,Animalia,GULLS_TERNS_AND_SKIMMERS_LARIDAE,White Tern,,1,55.8270516,-4.34806275,Africa,Seychelles,SC,,Seychelles - La Digue,2017-04-24,12:59
Bubulcus ibis,Animalia,HERONS_ARDEIDAE,Western Cattle Egret,,2,55.4514634609222,-4.62151407766035,Africa,Seychelles,SC,,Seychelles - Mahé,2017-04-26,12:01
Geopelia striata,Animalia,PIGEONS_AND_DOVES_COLUMBIDAE,Zebra Dove,,1,55.5200816,-4.7157311,Africa,Seychelles,SC,,Seychelles - Mahé,2017-04-26,16:27
Acridotheres tristis,Animalia,STARLINGS_STURNIDAE,Common Myna,,1,55.5200816,-4.7157311,Africa,Seychelles,SC,,Seychelles - Mahé,2017-04-26,16:28
Foudia madagascariensis,Animalia,WEAVERS_PLOCEIDAE,Red Fody,,1,55.5200816,-4.7157311,Africa,Seychelles,SC,,Seychelles - Mahé,2017-04-26,16:28
Terpsiphone corvina,Animalia,MONARCHS_MONARCHIDAE,Seychelles Paradise Flycatcher,,1,55.83573303,-4.35674974,Africa,Seychelles,SC,,Seychelles - La Digue,2017-04-06,
Coracopsis barklyi,Animalia,PSITTACULIDAE,Seychelles Black Parrot,,1,55.74074249,-4.32830152,Africa,Seychelles,SC,,Seychelles - Praslin,2017-04-05,
Hypsipetes crassirostris,Animalia,BULBULS_PYCNONOTIDAE,Seychelles Bulbul,,1,55.74074249,-4.32830152,Africa,Seychelles,SC,,Seychelles - Praslin,2017-04-05,
Sula dactylatra,Animalia,GANNETS_AND_BOOBIES_SULIDAE,Masked Booby,,1,55.6137268,-4.60804613,Africa,Seychelles,SC,,Seychelles - Mahé,2016-10-30,
Phaethon aethereus,Animalia,TROPICBIRDS_PHAETHONTIDAE,Red-billed Tropicbird,,1,55.6137268,-4.60804613,Africa,Seychelles,SC,,Seychelles - Mahé,2016-10-30,
Otus insularis,Animalia,OWLS_STRIGIDAE,Seychelles Scops Owl,,1,55.65171203,-4.54979909,Africa,Seychelles,SC,,Seychelles - Mahé,2016-10-30,
Cinnyris dussumieri,Animalia,SUNBIRDS_NECTARINIIDAE,Seychelles Sunbird,,1,55.69147224,-4.31997396,Africa,Seychelles,SC,,Seychelles - Praslin,2016-10-27,
Polistes olivaceus,Animalia,Vespidae,Yellow Oriental Paper Wasp,,1,55.48290281,-4.75639478,Africa,Seychelles,SC,,Seychelles - Mahé,2016-10-30,
Foudia sechellarum,Animalia,WEAVERS_PLOCEIDAE,Seychelles Fody,,1,55.6651999,-4.33028326,Africa,Seychelles,SC,,Seychelles - Praslin,2016-10-29,
Hypsipetes crassirostris,Animalia,BULBULS_PYCNONOTIDAE,Seychelles Bulbul,,1,55.48288564,-4.75656585,Africa,Seychelles,SC,,Seychelles - Mahé,2016-10-30,
Acridotheres tristis,Animalia,STARLINGS_STURNIDAE,Common Myna,,1,55.48298349,-4.75647689,Africa,Seychelles,SC,,Seychelles - Mahé,2016-10-30,
Acridotheres tristis,Animalia,STARLINGS_STURNIDAE,Common Myna,,1,55.47695389,-4.67824763,Africa,Seychelles,SC,,Seychelles - Mahé,2016-10-25,
Calidris alba,Animalia,SANDPIPERS_AND_ALLIES_SCOLOPACIDAE,Sanderling,,1,55.66546469,-4.32870463,Africa,Seychelles,SC,,Seychelles - Praslin,2016-10-29,
Ardenna pacifica,Animalia,PETRELS_AND_SHEARWATERS_PROCELLARIIDAE,Wedge-tailed Shearwater,,1,55.66186409,-4.2118342,Africa,Seychelles,SC,,Seychelles - Indian Ocean,2016-10-28,
Arenaria interpres,Animalia,SANDPIPERS_AND_ALLIES_SCOLOPACIDAE,Ruddy Turnstone,,2,55.66492138,-4.32917021,Africa,Seychelles,SC,,Seychelles - Praslin,2016-10-29,
Nesoenas picturatus,Animalia,PIGEONS_AND_DOVES_COLUMBIDAE,Malagasy Turtle Dove,,6,55.47450257,-4.67411068,Africa,Seychelles,SC,,Seychelles - Mahé,2016-10-25,
Phaethon lepturus,Animalia,TROPICBIRDS_PHAETHONTIDAE,White-tailed Tropicbird,,50,55.66500893,-4.32992765,Africa,Seychelles,SC,,Seychelles - Praslin,2016-10-29,
Gygis alba,Animalia,GULLS_TERNS_AND_SKIMMERS_LARIDAE,White Tern,,100,55.66513553,-4.32990518,Africa,Seychelles,SC,,Seychelles - Praslin,2016-10-29,
Anous stolidus,Animalia,GULLS_TERNS_AND_SKIMMERS_LARIDAE,Brown Noddy,,100,55.66517887,-4.21130947,Africa,Seychelles,SC,,Seychelles - Indian Ocean,2016-10-28,
Anous tenuirostris,Animalia,GULLS_TERNS_AND_SKIMMERS_LARIDAE,Lesser Noddy,,50,55.66543808,-4.21136511,Africa,Seychelles,SC,,Seychelles - Indian Ocean,2016-10-28,
Acrocephalus sechellensis,Animalia,Acrocephalidae,Seychelles Warbler,,1,55.66361203,-4.21431292,Africa,Seychelles,SC,,Seychelles - Indian Ocean,2016-10-28,
Copsychus sechellarum,Animalia,OLD_WORLD_FLYCATCHERS_MUSCICAPIDAE,Seychelles Magpie-Robin,,4,55.66320477,-4.21188042,Africa,Seychelles,SC,,Seychelles - Indian Ocean,2016-10-28,
Pteropus seychellensis,Animalia,OLD_WORLD_FRUITEATING_BATS_PTEROPODIDAE,Seychelles Flying Fox,,5,55.47249069,-4.67745035,Africa,Seychelles,SC,,Seychelles - Mahé,2016-10-25,
Alectroenas pulcherrimus,Animalia,PIGEONS_AND_DOVES_COLUMBIDAE,Seychelles Blue Pigeon,,1,55.66692467,-4.21195575,Africa,Seychelles,SC,,Seychelles - Indian Ocean,2017-04-04,
Puffinus bailloni nicolae,Animalia,PETRELS_AND_SHEARWATERS_PROCELLARIIDAE,Tropical Shearwater ssp nicolae,,1,55.66692467,-4.21195575,Africa,Seychelles,SC,,Seychelles - Indian Ocean,2017-04-04,
Nesoenas picturatus,Animalia,PIGEONS_AND_DOVES_COLUMBIDAE,Malagasy Turtle Dove,,5,55.48709564,-4.68555997,Africa,Seychelles,SC,,Seychelles - Mahé,2016-10-26,
Geopelia striata,Animalia,PIGEONS_AND_DOVES_COLUMBIDAE,Zebra Dove,,2,55.71659317,-4.31944161,Africa,Seychelles,SC,,Seychelles - Praslin,2016-10-26,
Foudia madagascariensis,Animalia,WEAVERS_PLOCEIDAE,Red Fody,,1000,55.71982384,-4.32390239,Africa,Seychelles,SC,,Seychelles - Praslin,2016-10-27,
Alectroenas pulcherrimus,Animalia,PIGEONS_AND_DOVES_COLUMBIDAE,Seychelles Blue Pigeon,,3,55.69048991,-4.32239264,Africa,Seychelles,SC,,Seychelles - Praslin,2016-10-27,
Acrocephalus sechellensis,Animalia,Acrocephalidae,Seychelles Warbler,,1,55.66417808,-4.32990197,Africa,Seychelles,SC,,Seychelles - Praslin,2017-04-03,
Copsychus sechellarum,Animalia,OLD_WORLD_FLYCATCHERS_MUSCICAPIDAE,Seychelles Magpie-Robin,,1,55.66417808,-4.32990197,Africa,Seychelles,SC,,Seychelles - Praslin,2017-04-03,
Foudia sechellarum,Animalia,WEAVERS_PLOCEIDAE,Seychelles Fody,,1,55.66417808,-4.32990197,Africa,Seychelles,SC,,Seychelles - Praslin,2017-04-03,
Ardenna pacifica,Animalia,PETRELS_AND_SHEARWATERS_PROCELLARIIDAE,Wedge-tailed Shearwater,,1,55.66372146,-4.33119432,Africa,Seychelles,SC,,Seychelles - Praslin,2017-04-03,
Pteropus seychellensis,Animalia,OLD_WORLD_FRUITEATING_BATS_PTEROPODIDAE,Seychelles Flying Fox,,1,55.66336184,-4.33102956,Africa,Seychelles,SC,,Seychelles - Praslin,2017-04-03,
Falco araeus,Animalia,CARACAS_AND_FALCONS_FALCONIDAE,Seychelles Kestrel,,1,55.52081835,-4.70567932,Africa,Seychelles,SC,,Seychelles - Mahé,2017-04-13,
Butorides striata degens,Animalia,HERONS_ARDEIDAE,Striated Heron ssp degens,,1,55.4599182,-4.6272098,Africa,Seychelles,SC,,Seychelles - Mahé,2017-04-01,
Cinnyris dussumieri,Animalia,SUNBIRDS_NECTARINIIDAE,Seychelles Sunbird,,1,55.4599182,-4.6272098,Africa,Seychelles,SC,,Seychelles - Mahé,2017-04-01,
Gallinula chloropus orientalis,Animalia,RAILS_RALLIDAE,Common Moorhen ssp orientalis,,1,55.20525167,-3.720845,Africa,Seychelles,SC,,Seychelles - Indian Ocean,2016-11-15,
Foudia madagascariensis,Animalia,WEAVERS_PLOCEIDAE,Red Fody,,1,55.20430333,-3.72249667,Africa,Seychelles,SC,,Seychelles - Indian Ocean,2016-11-17,
Zizeeria knysna,Animalia,GOSSAMERWINGED_BUTTERFLIES_LYCAENIDAE,African Grass Blue,,1,55.69736167,-4.32543667,Africa,Seychelles,SC,,Seychelles - Praslin,2016-11-19,10:38
Columba livia domestica,Animalia,PIGEONS_AND_DOVES_COLUMBIDAE,Feral Pigeon,,1,55.73863,-4.33013333,Africa,Seychelles,SC,,Seychelles - Praslin,2016-11-19,
Ardenna pacifica,Animalia,PETRELS_AND_SHEARWATERS_PROCELLARIIDAE,Wedge-tailed Shearwater,,23,55.71145167,-4.41614,Africa,Seychelles,SC,,Seychelles - Indian Ocean,2016-11-18,14:19
Ardenna pacifica,Animalia,PETRELS_AND_SHEARWATERS_PROCELLARIIDAE,Wedge-tailed Shearwater,,1,55.663315,-4.4550783333333,Africa,Seychelles,SC,,Seychelles - Indian Ocean,2016-11-18,14:10
Ardenna pacifica,Animalia,PETRELS_AND_SHEARWATERS_PROCELLARIIDAE,Wedge-tailed Shearwater,,1,55.655348333333,-4.461205,Africa,Seychelles,SC,,Seychelles - Indian Ocean,2016-11-18,14:08
Puffinus bailloni nicolae,Animalia,PETRELS_AND_SHEARWATERS_PROCELLARIIDAE,Tropical Shearwater ssp nicolae,,1,55.579871666667,-4.5243216666667,Africa,Seychelles,SC,,Seychelles - Mahé,2016-11-18,13:56
Puffinus bailloni nicolae,Animalia,PETRELS_AND_SHEARWATERS_PROCELLARIIDAE,Tropical Shearwater ssp nicolae,,1,55.579871666667,-4.5243216666667,Africa,Seychelles,SC,,Seychelles - Mahé,2016-11-18,13:56
Onychoprion anaethetus,Animalia,GULLS_TERNS_AND_SKIMMERS_LARIDAE,Bridled Tern,,10,55.66910528,-4.21074914,Africa,Seychelles,SC,,Seychelles - Indian Ocean,2017-01-11,
Terpsiphone corvina,Animalia,MONARCHS_MONARCHIDAE,Seychelles Paradise Flycatcher,,4,55.83053838,-4.35691679,Africa,Seychelles,SC,,Seychelles - La Digue,2017-01-11,
Foudia madagascariensis,Animalia,WEAVERS_PLOCEIDAE,Red Fody,,1,55.68336923,-4.30810675,Africa,Seychelles,SC,,Seychelles - Praslin,2016-12-01,
Nesoenas picturatus,Animalia,PIGEONS_AND_DOVES_COLUMBIDAE,Malagasy Turtle Dove,,1,55.73922016,-4.33086274,Africa,Seychelles,SC,,Seychelles - Praslin,2016-12-01,
Hypsipetes crassirostris,Animalia,BULBULS_PYCNONOTIDAE,Seychelles Bulbul,,2,55.73936474,-4.33118806,Africa,Seychelles,SC,,Seychelles - Praslin,2016-12-01,
Geopelia striata,Animalia,PIGEONS_AND_DOVES_COLUMBIDAE,Zebra Dove,,5,55.68301412,-4.30704172,Africa,Seychelles,SC,,Seychelles - Praslin,2016-12-02,
Dromas ardeola,Animalia,CRABPLOVER_DROMADIDAE,Crab-plover,,1,55.82619321,-4.37020338,Africa,Seychelles,SC,,Seychelles - La Digue,2016-11-30,
Phaethon lepturus,Animalia,TROPICBIRDS_PHAETHONTIDAE,White-tailed Tropicbird,,1,55.68282377,-4.30785494,Africa,Seychelles,SC,,Seychelles - Praslin,2016-11-29,
Leptotes pirithous,Animalia,GOSSAMERWINGED_BUTTERFLIES_LYCAENIDAE,Lang’s Short-tailed Blue,,5,55.69411051,-4.29720983,Africa,Seychelles,SC,,Seychelles - Praslin,2016-12-02,
Zizeeria knysna,Animalia,GOSSAMERWINGED_BUTTERFLIES_LYCAENIDAE,African Grass Blue,,10,55.8258695,-4.36421259,Africa,Seychelles,SC,,Seychelles - La Digue,2016-11-30,
Zizeeria knysna,Animalia,GOSSAMERWINGED_BUTTERFLIES_LYCAENIDAE,African Grass Blue,,15,55.68330112,-4.30799122,Africa,Seychelles,SC,,Seychelles - Praslin,2016-11-28,
Alectroenas pulcherrimus,Animalia,PIGEONS_AND_DOVES_COLUMBIDAE,Seychelles Blue Pigeon,,1,55.20394578,-3.72242079,Africa,Seychelles,SC,,Seychelles - Indian Ocean,2016-11-15,07:00
Thalasseus bergii,Animalia,GULLS_TERNS_AND_SKIMMERS_LARIDAE,Greater Crested Tern,,1,55.20255103,-3.72462627,Africa,Seychelles,SC,,Seychelles - Indian Ocean,2016-11-15,17:00
Onychoprion anaethetus,Animalia,GULLS_TERNS_AND_SKIMMERS_LARIDAE,Bridled Tern,,1,55.20321622,-3.72355565,Africa,Seychelles,SC,,Seychelles - Indian Ocean,2016-11-15,17:30
Gygis alba,Animalia,GULLS_TERNS_AND_SKIMMERS_LARIDAE,White Tern,,1,55.20420327,-3.72582536,Africa,Seychelles,SC,,Seychelles - Indian Ocean,2016-11-16,07:00
Phaethon lepturus,Animalia,TROPICBIRDS_PHAETHONTIDAE,White-tailed Tropicbird,,1,55.20324476,-3.72367824,Africa,Seychelles,SC,,Seychelles - Indian Ocean,2016-11-16,
Gygis alba,Animalia,GULLS_TERNS_AND_SKIMMERS_LARIDAE,White Tern,,1,55.20361061,-3.72315331,Africa,Seychelles,SC,,Seychelles - Indian Ocean,2016-11-15,
Anous tenuirostris,Animalia,GULLS_TERNS_AND_SKIMMERS_LARIDAE,Lesser Noddy,,1,55.2098681,-3.71963718,Africa,Seychelles,SC,,Seychelles - Indian Ocean,2016-11-14,
Charadrius leschenaultii,Animalia,PLOVERS_CHARADRIIDAE,Greater Sand Plover,,1,55.20830169,-3.71792418,Africa,Seychelles,SC,,Seychelles - Indian Ocean,2016-11-14,
Pluvialis squatarola,Animalia,PLOVERS_CHARADRIIDAE,Grey Plover,,1,55.20830169,-3.71792418,Africa,Seychelles,SC,,Seychelles - Indian Ocean,2016-11-14,
Calidris alba,Animalia,SANDPIPERS_AND_ALLIES_SCOLOPACIDAE,Sanderling,,1,55.20830169,-3.71792418,Africa,Seychelles,SC,,Seychelles - Indian Ocean,2016-11-14,
Utetheisa pulchelloides,Animalia,EREBIDAE,Heliotrope Moth,,1,55.20830169,-3.71792418,Africa,Seychelles,SC,,Seychelles - Indian Ocean,2016-11-14,
Onychoprion anaethetus,Animalia,GULLS_TERNS_AND_SKIMMERS_LARIDAE,Bridled Tern,,1,55.20830169,-3.71792418,Africa,Seychelles,SC,,Seychelles - Indian Ocean,2016-11-14,
Onychoprion fuscatus,Animalia,GULLS_TERNS_AND_SKIMMERS_LARIDAE,Sooty Tern,,1,55.20830169,-3.71792418,Africa,Seychelles,SC,,Seychelles - Indian Ocean,2016-11-14,
Butorides striata,Animalia,HERONS_ARDEIDAE,Striated Heron,,1,55.71802767,-4.32826875,Africa,Seychelles,SC,,Seychelles - Praslin,2016-11-19,
Arenaria interpres,Animalia,SANDPIPERS_AND_ALLIES_SCOLOPACIDAE,Ruddy Turnstone,,4,55.43148728,-4.6064055,Africa,Seychelles,SC,,Seychelles - Mahé,2016-11-13,
Butorides striata,Animalia,HERONS_ARDEIDAE,Striated Heron,,1,55.43174032,-4.60679998,Africa,Seychelles,SC,,Seychelles - Mahé,2016-11-13,
Calidris ferruginea,Animalia,SANDPIPERS_AND_ALLIES_SCOLOPACIDAE,Curlew Sandpiper,,12,55.46308998,-4.58531506,Africa,Seychelles,SC,,Seychelles - Mahé,2016-11-13,
Nesoenas picturatus,Animalia,PIGEONS_AND_DOVES_COLUMBIDAE,Malagasy Turtle Dove,,1,55.46308998,-4.58531506,Africa,Seychelles,SC,,Seychelles - Mahé,2016-11-13,
Bubulcus ibis,Animalia,HERONS_ARDEIDAE,Western Cattle Egret,,1,55.45542423,-4.62454674,Africa,Seychelles,SC,,Seychelles - Mahé,2016-11-13,
Fregata ariel,Animalia,FRIGATEBIRDS_FREGATTIDAE,Lesser Frigatebird,,1,55.45598212,-4.62452001,Africa,Seychelles,SC,,Seychelles - Mahé,2016-11-13,
Geopelia striata,Animalia,PIGEONS_AND_DOVES_COLUMBIDAE,Zebra Dove,,1,55.45529277,-4.62448973,Africa,Seychelles,SC,,Seychelles - Mahé,2016-11-13,
Bubulcus ibis,Animalia,HERONS_ARDEIDAE,Western Cattle Egret,,1,55.45571927,-4.6235736,Africa,Seychelles,SC,,Seychelles - Mahé,2016-11-13,
Nesoenas picturatus,Animalia,PIGEONS_AND_DOVES_COLUMBIDAE,Malagasy Turtle Dove,,2,55.45205001,-4.647164,Africa,Seychelles,SC,,Seychelles - Mahé,2016-11-13,
Pteropus seychellensis,Animalia,OLD_WORLD_FRUITEATING_BATS_PTEROPODIDAE,Seychelles Flying Fox,,1,55.45240942,-4.64738856,Africa,Seychelles,SC,,Seychelles - Mahé,2016-11-13,
Foudia madagascariensis,Animalia,WEAVERS_PLOCEIDAE,Red Fody,,1,55.45272592,-4.64737252,Africa,Seychelles,SC,,Seychelles - Mahé,2016-11-13,
Phaethon lepturus,Animalia,TROPICBIRDS_PHAETHONTIDAE,White-tailed Tropicbird,,1,55.44716892,-4.64762366,Africa,Seychelles,SC,,Seychelles - Mahé,2016-11-13,
Hypsipetes crassirostris,Animalia,BULBULS_PYCNONOTIDAE,Seychelles Bulbul,,1,55.45216266,-4.64707845,Africa,Seychelles,SC,,Seychelles - Mahé,2016-11-13,
Gygis alba,Animalia,GULLS_TERNS_AND_SKIMMERS_LARIDAE,White Tern,,1,55.44510899,-4.64448659,Africa,Seychelles,SC,,Seychelles - Mahé,2016-11-13,
Coracopsis barklyi,Animalia,PSITTACULIDAE,Seychelles Black Parrot,,1,55.76428235,-4.35385579,Africa,Seychelles,SC,,Seychelles - Praslin,2016-11-20,
Fregata minor,Animalia,FRIGATEBIRDS_FREGATTIDAE,Great Frigatebird,,1,55.69739163,-4.32487879,Africa,Seychelles,SC,,Seychelles - Praslin,2016-11-20,
Calidris alba,Animalia,SANDPIPERS_AND_ALLIES_SCOLOPACIDAE,Sanderling,,1,55.74743271,-4.3160769,Africa,Seychelles,SC,,Seychelles - Praslin,2016-11-20,
Aerodramus elaphrus,Animalia,SWIFTS_APODIDAE,Seychelles Swiftlet,,1,55.69728881,-4.32532134,Africa,Seychelles,SC,,Seychelles - Praslin,2016-11-20,
Foudia madagascariensis,Animalia,WEAVERS_PLOCEIDAE,Red Fody,,250,55.71669818,-4.32799789,Africa,Seychelles,SC,,Seychelles - Praslin,2016-11-21,
Pluvialis squatarola,Animalia,PLOVERS_CHARADRIIDAE,Grey Plover,,1,55.6822801,-4.30491561,Africa,Seychelles,SC,,Seychelles - Praslin,2016-11-21,
Gygis alba,Animalia,GULLS_TERNS_AND_SKIMMERS_LARIDAE,White Tern,,1,55.66474972,-4.32871404,Africa,Seychelles,SC,,Seychelles - Praslin,2016-11-21,
Aerodramus elaphrus,Animalia,SWIFTS_APODIDAE,Seychelles Swiftlet,,5,55.73912144,-4.32902757,Africa,Seychelles,SC,,Seychelles - Praslin,2016-11-19,
Coracopsis barklyi,Animalia,PSITTACULIDAE,Seychelles Black Parrot,,1,55.73995471,-4.33145749,Africa,Seychelles,SC,,Seychelles - Praslin,2016-11-19,
Tringa glareola,Animalia,SANDPIPERS_AND_ALLIES_SCOLOPACIDAE,Wood Sandpiper,,1,55.69363511,-4.32478398,Africa,Seychelles,SC,,Seychelles - Praslin,2016-11-21,
Coracias garrulus,Animalia,ROLLERS_CORACIIDAE,European Roller,,1,55.69481015,-4.32472279,Africa,Seychelles,SC,,Seychelles - Praslin,2016-11-21,
Tringa nebularia,Animalia,SANDPIPERS_AND_ALLIES_SCOLOPACIDAE,Common Greenshank,,1,55.204095896333,-3.7227663352111,Africa,Seychelles,SC,,Seychelles - Indian Ocean,2016-11-18,
Merops persicus,Animalia,BEEEATERS_MEROPIDAE,Blue-cheeked Bee-eater,,5,55.206248871982,-3.7137878049164,Africa,Seychelles,SC,,Seychelles - Indian Ocean,2016-11-17,
Dromas ardeola,Animalia,CRABPLOVER_DROMADIDAE,Crab-plover,,2,55.206474177539,-3.712792117883,Africa,Seychelles,SC,,Seychelles - Indian Ocean,2016-11-17,
Sula sula,Animalia,GANNETS_AND_BOOBIES_SULIDAE,Red-footed Booby,,7,55.20475756377,-3.7179418419242,Africa,Seychelles,SC,,Seychelles - Indian Ocean,2016-11-17,
Calandrella brachydactyla,Animalia,LARKS_ALAUDIDAE,Greater Short-toed Lark,,1,55.206420533359,-3.7145693649192,Africa,Seychelles,SC,,Seychelles - Indian Ocean,2016-11-17,
Gygis alba,Animalia,GULLS_TERNS_AND_SKIMMERS_LARIDAE,White Tern,,1,55.204392783344,-3.7234341340031,Africa,Seychelles,SC,,Seychelles - Indian Ocean,2016-11-16,
Anthus cervinus,Animalia,PIPITS_EN_WAGTAILS_MOTACILLIDAE,Red-throated Pipit,,1,55.20605575,-3.71619672,Africa,Seychelles,SC,,Seychelles - Indian Ocean,2016-11-16,
Ardea alba,Animalia,HERONS_ARDEIDAE,Great Egret,,1,55.203673951328,-3.7258644355507,Africa,Seychelles,SC,,Seychelles - Indian Ocean,2016-11-16,
Actitis hypoleucos,Animalia,SANDPIPERS_AND_ALLIES_SCOLOPACIDAE,Common Sandpiper,,1,55.208255164325,-3.719205179196,Africa,Seychelles,SC,,Seychelles - Indian Ocean,2016-11-16,
Thalasseus bergii,Animalia,GULLS_TERNS_AND_SKIMMERS_LARIDAE,Greater Crested Tern,,10,55.207042805851,-3.7120105563067,Africa,Seychelles,SC,,Seychelles - Indian Ocean,2016-11-16,
Charadrius leschenaultii,Animalia,PLOVERS_CHARADRIIDAE,Greater Sand Plover,,1,55.206431262195,-3.7126957610137,Africa,Seychelles,SC,,Seychelles - Indian Ocean,2016-11-16,
Calidris ferruginea,Animalia,SANDPIPERS_AND_ALLIES_SCOLOPACIDAE,Curlew Sandpiper,,1,55.206431262195,-3.7126957610137,Africa,Seychelles,SC,,Seychelles - Indian Ocean,2016-11-16,
Calidris alba,Animalia,SANDPIPERS_AND_ALLIES_SCOLOPACIDAE,Sanderling,,1,55.206431262195,-3.7126957610137,Africa,Seychelles,SC,,Seychelles - Indian Ocean,2016-11-16,
Numenius phaeopus,Animalia,SANDPIPERS_AND_ALLIES_SCOLOPACIDAE,Eurasian Whimbrel,,1,55.206431262195,-3.7126957610137,Africa,Seychelles,SC,,Seychelles - Indian Ocean,2016-11-16,
Pluvialis squatarola,Animalia,PLOVERS_CHARADRIIDAE,Grey Plover,,1,55.206431262195,-3.7126957610137,Africa,Seychelles,SC,,Seychelles - Indian Ocean,2016-11-16,
Dromas ardeola,Animalia,CRABPLOVER_DROMADIDAE,Crab-plover,,2,55.20643126,-3.71269576,Africa,Seychelles,SC,,Seychelles - Indian Ocean,2016-11-16,07:20
Merops persicus,Animalia,BEEEATERS_MEROPIDAE,Blue-cheeked Bee-eater,,8,55.207203738391,-3.7124281029883,Africa,Seychelles,SC,,Seychelles - Indian Ocean,2016-11-16,
Motacilla flava,Animalia,PIPITS_EN_WAGTAILS_MOTACILLIDAE,Western Yellow Wagtail,,1,55.207203738391,-3.7124281029883,Africa,Seychelles,SC,,Seychelles - Indian Ocean,2016-11-16,
Motacilla alba,Animalia,PIPITS_EN_WAGTAILS_MOTACILLIDAE,White Wagtail,,1,55.207203738391,-3.7124281029883,Africa,Seychelles,SC,,Seychelles - Indian Ocean,2016-11-16,
Calidris ferruginea,Animalia,SANDPIPERS_AND_ALLIES_SCOLOPACIDAE,Curlew Sandpiper,,1,55.202379450202,-3.7255941049835,Africa,Seychelles,SC,,Seychelles - Indian Ocean,2016-11-15,
Arenaria interpres,Animalia,SANDPIPERS_AND_ALLIES_SCOLOPACIDAE,Ruddy Turnstone,,1,55.202379450202,-3.7255941049835,Africa,Seychelles,SC,,Seychelles - Indian Ocean,2016-11-15,
Calidris alba,Animalia,SANDPIPERS_AND_ALLIES_SCOLOPACIDAE,Sanderling,,1,55.202379450202,-3.7255941049835,Africa,Seychelles,SC,,Seychelles - Indian Ocean,2016-11-15,
Ardea alba,Animalia,HERONS_ARDEIDAE,Great Egret,,1,55.203645452857,-3.7232815707967,Africa,Seychelles,SC,,Seychelles - Indian Ocean,2016-11-15,
Onychoprion anaethetus,Animalia,GULLS_TERNS_AND_SKIMMERS_LARIDAE,Bridled Tern,,1,55.203645452857,-3.7232815707967,Africa,Seychelles,SC,,Seychelles - Indian Ocean,2016-11-15,
Phaethon lepturus,Animalia,TROPICBIRDS_PHAETHONTIDAE,White-tailed Tropicbird,,1,55.20364545,-3.72328157,Africa,Seychelles,SC,,Seychelles - Indian Ocean,2016-11-15,
Motacilla flava,Animalia,PIPITS_EN_WAGTAILS_MOTACILLIDAE,Western Yellow Wagtail,,1,55.206660088152,-3.7156627447892,Africa,Seychelles,SC,,Seychelles - Indian Ocean,2016-11-15,
Anthus cervinus,Animalia,PIPITS_EN_WAGTAILS_MOTACILLIDAE,Red-throated Pipit,,1,55.20583933,-3.71552356,Africa,Seychelles,SC,,Seychelles - Indian Ocean,2016-11-15,
Anthus trivialis,Animalia,PIPITS_EN_WAGTAILS_MOTACILLIDAE,Tree Pipit,,1,55.205839332193,-3.715523563094,Africa,Seychelles,SC,,Seychelles - Indian Ocean,2016-11-15,
Merops persicus,Animalia,BEEEATERS_MEROPIDAE,Blue-cheeked Bee-eater,,4,55.20515981,-3.72071409,Africa,Seychelles,SC,,Seychelles - Indian Ocean,2016-11-15,07:20
Charadrius leschenaultii,Animalia,PLOVERS_CHARADRIIDAE,Greater Sand Plover,,1,55.207182280719,-3.7228238810187,Africa,Seychelles,SC,,Seychelles - Indian Ocean,2016-11-14,
Motacilla flava,Animalia,PIPITS_EN_WAGTAILS_MOTACILLIDAE,Western Yellow Wagtail,,1,55.208038743585,-3.7175363423949,Africa,Seychelles,SC,,Seychelles - Indian Ocean,2016-11-14,
Alectroenas pulcherrimus,Animalia,PIGEONS_AND_DOVES_COLUMBIDAE,Seychelles Blue Pigeon,,1,55.203931443393,-3.7178561918741,Africa,Seychelles,SC,,Seychelles - Indian Ocean,2016-11-14,
Foudia madagascariensis,Animalia,WEAVERS_PLOCEIDAE,Red Fody,,1,55.204521529377,-3.7226954066523,Africa,Seychelles,SC,,Seychelles - Indian Ocean,2016-11-14,
Riparia riparia,Animalia,SWALLOWS_HIRUNDINIDAE,Sand Martin,,1,55.208083502948,-3.7215926675699,Africa,Seychelles,SC,,Seychelles - Indian Ocean,2016-11-14,
Hirundo rustica,Animalia,SWALLOWS_HIRUNDINIDAE,Barn Swallow,,5,55.208083502948,-3.7215926675699,Africa,Seychelles,SC,,Seychelles - Indian Ocean,2016-11-14,
Phaethon lepturus,Animalia,TROPICBIRDS_PHAETHONTIDAE,White-tailed Tropicbird,,1,55.204017274082,-3.7229309429764,Africa,Seychelles,SC,,Seychelles - Indian Ocean,2016-11-14,
Gallinula chloropus orientalis,Animalia,RAILS_RALLIDAE,Common Moorhen ssp orientalis,,1,55.20438205,-3.72137854,Africa,Seychelles,SC,,Seychelles - Indian Ocean,2016-11-14,
Pluvialis squatarola,Animalia,PLOVERS_CHARADRIIDAE,Grey Plover,,1,55.20925110206,-3.7188960364504,Africa,Seychelles,SC,,Seychelles - Indian Ocean,2016-11-14,
Numenius phaeopus,Animalia,SANDPIPERS_AND_ALLIES_SCOLOPACIDAE,Eurasian Whimbrel,,5,55.203706137836,-3.7170425159837,Africa,Seychelles,SC,,Seychelles - Indian Ocean,2016-11-14,
Tringa glareola,Animalia,SANDPIPERS_AND_ALLIES_SCOLOPACIDAE,Wood Sandpiper,,2,55.206570737064,-3.7224491640643,Africa,Seychelles,SC,,Seychelles - Indian Ocean,2016-11-14,
Glareola pratincola,Animalia,COURSERS_AND_PRATINCOLES_GLAREOLIDAE,Collared Pratincole,,1,55.208416096866,-3.7216569048359,Africa,Seychelles,SC,,Seychelles - Indian Ocean,2016-11-14,
Calidris alba,Animalia,SANDPIPERS_AND_ALLIES_SCOLOPACIDAE,Sanderling,,1,55.207139365375,-3.7228988243905,Africa,Seychelles,SC,,Seychelles - Indian Ocean,2016-11-14,
Calidris ferruginea,Animalia,SANDPIPERS_AND_ALLIES_SCOLOPACIDAE,Curlew Sandpiper,,1,55.207139365375,-3.7228988243905,Africa,Seychelles,SC,,Seychelles - Indian Ocean,2016-11-14,
Arenaria interpres,Animalia,SANDPIPERS_AND_ALLIES_SCOLOPACIDAE,Ruddy Turnstone,,1,55.207139365375,-3.7228988243905,Africa,Seychelles,SC,,Seychelles - Indian Ocean,2016-11-14,
Onychoprion anaethetus,Animalia,GULLS_TERNS_AND_SKIMMERS_LARIDAE,Bridled Tern,,1,55.207707993686,-3.7231450668527,Africa,Seychelles,SC,,Seychelles - Indian Ocean,2016-11-14,
Onychoprion fuscatus,Animalia,GULLS_TERNS_AND_SKIMMERS_LARIDAE,Sooty Tern,,1,55.207707993686,-3.7231450668527,Africa,Seychelles,SC,,Seychelles - Indian Ocean,2016-11-14,
Gygis alba,Animalia,GULLS_TERNS_AND_SKIMMERS_LARIDAE,White Tern,,1,55.207707993686,-3.7231450668527,Africa,Seychelles,SC,,Seychelles - Indian Ocean,2016-11-14,
Anous tenuirostris,Animalia,GULLS_TERNS_AND_SKIMMERS_LARIDAE,Lesser Noddy,,1,55.209370963275,-3.7212286563076,Africa,Seychelles,SC,,Seychelles - Indian Ocean,2016-11-14,
Anous stolidus,Animalia,GULLS_TERNS_AND_SKIMMERS_LARIDAE,Brown Noddy,,1,55.204188935459,-3.7223956330578,Africa,Seychelles,SC,,Seychelles - Indian Ocean,2016-11-14,
Otus insularis,Animalia,OWLS_STRIGIDAE,Seychelles Scops Owl,,1,55.44350635,-4.65447024,Africa,Seychelles,SC,,Seychelles - Mahé,2016-11-13,20:30
Pteropus seychellensis,Animalia,OLD_WORLD_FRUITEATING_BATS_PTEROPODIDAE,Seychelles Flying Fox,,1,55.452454118058,-4.6472192009959,Africa,Seychelles,SC,,Seychelles - Mahé,2016-11-11,18:00
Bubulcus ibis,Animalia,HERONS_ARDEIDAE,Western Cattle Egret,,4,55.514610037208,-4.6701625377918,Africa,Seychelles,SC,,Seychelles - Mahé,2016-11-11,13:30
Thalasseus bergii,Animalia,GULLS_TERNS_AND_SKIMMERS_LARIDAE,Greater Crested Tern,,3,55.40969979018,-4.6604557043093,Africa,Seychelles,SC,,Seychelles - Mahé,2016-11-11,17:00
Acridotheres tristis,Animalia,STARLINGS_STURNIDAE,Common Myna,,1,55.452786711976,-4.6472272211692,Africa,Seychelles,SC,,Seychelles - Mahé,2016-11-11,16:00
Cinnyris dussumieri,Animalia,SUNBIRDS_NECTARINIIDAE,Seychelles Sunbird,,1,55.452786711976,-4.6472272211692,Africa,Seychelles,SC,,Seychelles - Mahé,2016-11-11,16:00
Hypsipetes crassirostris,Animalia,BULBULS_PYCNONOTIDAE,Seychelles Bulbul,,1,55.452786711976,-4.6472272211692,Africa,Seychelles,SC,,Seychelles - Mahé,2016-11-11,16:00
Alectroenas pulcherrimus,Animalia,PIGEONS_AND_DOVES_COLUMBIDAE,Seychelles Blue Pigeon,,1,55.452035693452,-4.6473796044441,Africa,Seychelles,SC,,Seychelles - Mahé,2016-11-11,16:00
Geopelia striata,Animalia,PIGEONS_AND_DOVES_COLUMBIDAE,Zebra Dove,,1,55.452035693452,-4.6473796044441,Africa,Seychelles,SC,,Seychelles - Mahé,2016-11-11,16:00
Nesoenas picturatus,Animalia,PIGEONS_AND_DOVES_COLUMBIDAE,Malagasy Turtle Dove,,1,55.452035693452,-4.6473796044441,Africa,Seychelles,SC,,Seychelles - Mahé,2016-11-11,16:00
Acridotheres tristis,Animalia,STARLINGS_STURNIDAE,Common Myna,,2,55.431731371209,-4.6064808935139,Africa,Seychelles,SC,,Seychelles - Mahé,2016-11-12,13:00
Nesoenas picturatus,Animalia,PIGEONS_AND_DOVES_COLUMBIDAE,Malagasy Turtle Dove,,1,55.432050554082,-4.607186709029,Africa,Seychelles,SC,,Seychelles - Mahé,2016-11-12,13:00
Geopelia striata,Animalia,PIGEONS_AND_DOVES_COLUMBIDAE,Zebra Dove,,1,55.432050554082,-4.607186709029,Africa,Seychelles,SC,,Seychelles - Mahé,2016-11-12,13:00
Foudia madagascariensis,Animalia,WEAVERS_PLOCEIDAE,Red Fody,,1,55.431733131409,-4.6068344697449,Africa,Seychelles,SC,,Seychelles - Mahé,2016-11-12,13:00
Butorides striata,Animalia,HERONS_ARDEIDAE,Striated Heron,,1,55.431733131409,-4.6068344697449,Africa,Seychelles,SC,,Seychelles - Mahé,2016-11-12,13:00
Platalea alba,Animalia,IBISSES_AND_SPOONBILLS_THRESKIORNITHIDAE,African Spoonbill,,1,55.46075832,-4.63088793,Africa,Seychelles,SC,,Seychelles - Mahé,2016-11-12,11:30
Anthus trivialis,Animalia,PIPITS_EN_WAGTAILS_MOTACILLIDAE,Tree Pipit,,1,55.944793447852,-4.5823714598013,Africa,Seychelles,SC,,Seychelles - Indian Ocean,2016-11-07,
Coracias garrulus,Animalia,ROLLERS_CORACIIDAE,European Roller,,1,55.943752583116,-4.5813445324355,Africa,Seychelles,SC,,Seychelles - Indian Ocean,2016-11-04,
Bubulcus ibis,Animalia,HERONS_ARDEIDAE,Western Cattle Egret,,1,55.946584995836,-4.5859485242963,Africa,Seychelles,SC,,Seychelles - Indian Ocean,2016-11-04,
Sterna hirundo,Animalia,GULLS_TERNS_AND_SKIMMERS_LARIDAE,Common Tern,,1,55.944070927799,-4.5812055867352,Africa,Seychelles,SC,,Seychelles - Indian Ocean,2016-10-26,
Glareola pratincola,Animalia,COURSERS_AND_PRATINCOLES_GLAREOLIDAE,Collared Pratincole,,1,55.944510810077,-4.5820932345684,Africa,Seychelles,SC,,Seychelles - Indian Ocean,2016-10-28,
Puffinus bailloni,Animalia,PETRELS_AND_SHEARWATERS_PROCELLARIIDAE,Tropical Shearwater,,1,55.600905418396,-4.4614485040956,Africa,Seychelles,SC,,Seychelles - Indian Ocean,2016-10-20,
Ardenna pacifica,Animalia,PETRELS_AND_SHEARWATERS_PROCELLARIIDAE,Wedge-tailed Shearwater,,1,55.60090542,-4.4614485,Africa,Seychelles,SC,,Seychelles - Indian Ocean,2016-10-20,
Calidris alba,Animalia,SANDPIPERS_AND_ALLIES_SCOLOPACIDAE,Sanderling,,1,55.935402028263,-4.5809061390249,Africa,Seychelles,SC,,Seychelles - Indian Ocean,2016-10-12,
Dromas ardeola,Animalia,CRABPLOVER_DROMADIDAE,Crab-plover,,2,55.944982878864,-4.5819649000101,Africa,Seychelles,SC,,Seychelles - Indian Ocean,2016-10-09,
Ardea cinerea,Animalia,HERONS_ARDEIDAE,Grey Heron,,1,55.943446811289,-4.5843336548026,Africa,Seychelles,SC,,Seychelles - Indian Ocean,2016-10-01,
Pluvialis fulva,Animalia,PLOVERS_CHARADRIIDAE,Pacific Golden Plover,,1,55.946656577289,-4.5846278373741,Africa,Seychelles,SC,,Seychelles - Indian Ocean,2016-10-02,
Charadrius hiaticula,Animalia,PLOVERS_CHARADRIIDAE,Common Ringed Plover,,1,55.944843739271,-4.5826712411022,Africa,Seychelles,SC,,Seychelles - Indian Ocean,2016-09-28,
Zosterops modestus,Animalia,WHITEEYES_ZOSTEROPIDAE,Seychelles White-eye,,3,55.945830456913,-4.5875581264579,Africa,Seychelles,SC,,Seychelles - Indian Ocean,2016-09-20,
Charadrius leschenaultii,Animalia,PLOVERS_CHARADRIIDAE,Greater Sand Plover,,2,55.944428499788,-4.5814354361622,Africa,Seychelles,SC,,Seychelles - Indian Ocean,2016-09-20,
Butorides striata,Animalia,HERONS_ARDEIDAE,Striated Heron,,1,55.946884481236,-4.5868254299882,Africa,Seychelles,SC,,Seychelles - Indian Ocean,2016-08-30,
Pluvialis squatarola,Animalia,PLOVERS_CHARADRIIDAE,Grey Plover,,1,55.945732053369,-4.5832855918536,Africa,Seychelles,SC,,Seychelles - Indian Ocean,2016-08-30,
Calidris ferruginea,Animalia,SANDPIPERS_AND_ALLIES_SCOLOPACIDAE,Curlew Sandpiper,,1,55.945506747812,-4.5830449649392,Africa,Seychelles,SC,,Seychelles - Indian Ocean,2016-08-27,
Cinnyris dussumieri,Animalia,SUNBIRDS_NECTARINIIDAE,Seychelles Sunbird,,1,55.942604765296,-4.5872909319147,Africa,Seychelles,SC,,Seychelles - Indian Ocean,2016-08-20,
Copsychus sechellarum,Animalia,OLD_WORLD_FLYCATCHERS_MUSCICAPIDAE,Seychelles Magpie-Robin,,1,55.942604765296,-4.5872909319147,Africa,Seychelles,SC,,Seychelles - Indian Ocean,2016-08-20,
Acrocephalus sechellensis,Animalia,Acrocephalidae,Seychelles Warbler,,1,55.942604765296,-4.5872909319147,Africa,Seychelles,SC,,Seychelles - Indian Ocean,2016-08-20,
Fregata ariel,Animalia,FRIGATEBIRDS_FREGATTIDAE,Lesser Frigatebird,,2,55.941016897559,-4.592360091639,Africa,Seychelles,SC,,Seychelles - Indian Ocean,2016-08-20,
Fregata minor,Animalia,FRIGATEBIRDS_FREGATTIDAE,Great Frigatebird,,5,55.941016897559,-4.592360091639,Africa,Seychelles,SC,,Seychelles - Indian Ocean,2016-08-20,
