scientificName,kingdom,family,vernacularName,previousIdentifications,individualCount,longitudeDecimal,latitudeDecimal,continent,country,countryCode,stateProvince,locality,eventDate,eventTime
Sylvia mystacea,Animalia,OLD_WORLD_WARBLERS_SYLVIIDAE,Menetries's Warbler,,1,45.176725387573,10.004015193747,Africa,Somalia,SO,,Somalia - Togdheer,2012-12-28,
Ichthyaetus leucophthalmus,Animalia,GULLS_TERNS_AND_SKIMMERS_LARIDAE,White-eyed Gull,,1,44.996807165444,10.443461008219,Africa,Somalia,SO,,Somalia,2012-12-29,
Ichthyaetus hemprichii,Animalia,GULLS_TERNS_AND_SKIMMERS_LARIDAE,Sooty Gull,,10,44.996807165444,10.443461008219,Africa,Somalia,SO,,Somalia,2012-12-29,
Pandion haliaetus,Animalia,OSPREY_PANDIONIDAE,Western Osprey,,4,44.996807165444,10.443461008219,Africa,Somalia,SO,,Somalia,2012-12-29,
Pandion haliaetus,Animalia,OSPREY_PANDIONIDAE,Western Osprey,,3,44.996807165444,10.443461008219,Africa,Somalia,SO,,Somalia,2012-12-28,
Dinemellia dinemelli,Animalia,WEAVERS_PLOCEIDAE,White-headed Buffalo Weaver,,2,45.170348184183,9.9497987193013,Africa,Somalia,SO,,Somalia,2012-12-28,
Merops pusillus cyanostictus,Animalia,BEEEATERS_MEROPIDAE,Little Bee-eater ssp cyanostictus,,1,45.170348184183,9.9497987193013,Africa,Somalia,SO,,Somalia,2012-12-28,
Laniarius funebris,Animalia,HELMETSHRIKES_BUSHSHRIKES_MALACONOTIDAE,Slate-colored Boubou,,1,45.170348184183,9.9497987193013,Africa,Somalia,SO,,Somalia,2012-12-28,
Tricholaema melanocephala,Animalia,Lybiidae,Black-throated Barbet,,1,45.170348184183,9.9497987193013,Africa,Somalia,SO,,Somalia,2012-12-28,
Emberiza tahapisi,Animalia,BUNTINGS_EMBERIZIDAE,Cinnamon-breasted Bunting,,2,45.170348184183,9.9497987193013,Africa,Somalia,SO,,Somalia,2012-12-28,
Oenanthe melanura,Animalia,OLD_WORLD_FLYCATCHERS_MUSCICAPIDAE,Blackstart,,2,45.189357523341,9.9314551934919,Africa,Somalia,SO,,Somalia,2012-12-28,
Coracias naevius,Animalia,ROLLERS_CORACIIDAE,Purple Roller,,2,45.190387491602,9.9436293745739,Africa,Somalia,SO,,Somalia,2012-12-27,
Rhynchostruthus louisae,Animalia,FINCHES_FRINGILLIDAE,Somali Golden-winged Grosbeak,,1,45.190387491602,9.9436293745739,Africa,Somalia,SO,,Somalia,2012-12-27,
Oenanthe phillipsi,Animalia,OLD_WORLD_FLYCATCHERS_MUSCICAPIDAE,Somali Wheatear,,1,45.190387491602,9.9436293745739,Africa,Somalia,SO,,Somalia,2012-12-27,
Corvus edithae,Animalia,CROWS_AND_JAYS_CORVIDAE,Somali Crow,,5,45.182888098061,9.935925442939,Africa,Somalia,SO,,Somalia,2012-12-27,
Corvus rhipidurus,Animalia,CROWS_AND_JAYS_CORVIDAE,Fan-tailed Raven,,10,45.182888098061,9.935925442939,Africa,Somalia,SO,,Somalia,2012-12-27,
Merops pusillus cyanostictus,Animalia,BEEEATERS_MEROPIDAE,Little Bee-eater ssp cyanostictus,,1,45.164373280713,9.8919004247027,Africa,Somalia,SO,,Somalia,2012-12-27,
Laniarius funebris,Animalia,HELMETSHRIKES_BUSHSHRIKES_MALACONOTIDAE,Slate-colored Boubou,,1,45.164373280713,9.8919004247027,Africa,Somalia,SO,,Somalia,2012-12-27,
Dicrurus divaricatus lugubris,Animalia,DRONGOS_DICRURIDAE,Glossy-backed Drongo ssp lugubris,,3,45.164373280713,9.8919004247027,Africa,Somalia,SO,,Somalia,2012-12-27,
Nilaus afer,Animalia,HELMETSHRIKES_BUSHSHRIKES_MALACONOTIDAE,Brubru,,1,45.164373280713,9.8919004247027,Africa,Somalia,SO,,Somalia,2012-12-27,
Corythaixoides leucogaster,Animalia,TURACOS_MUSOPHAGIDAE,White-bellied Go-away-bird,,14,45.164373280713,9.8919004247027,Africa,Somalia,SO,,Somalia,2012-12-27,
Polihierax semitorquatus,Animalia,CARACAS_AND_FALCONS_FALCONIDAE,Pygmy Falcon,,1,45.164373280713,9.8919004247027,Africa,Somalia,SO,,Somalia,2012-12-27,
Campethera nubica,Animalia,WOODPECKERS_PICIDAE,Nubian Woodpecker,,1,45.164373280713,9.8919004247027,Africa,Somalia,SO,,Somalia,2012-12-27,
Pycnonotus somaliensis,Animalia,BULBULS_PYCNONOTIDAE,Somali Bulbul,,20,45.182424536906,9.9388619073496,Africa,Somalia,SO,,Somalia,2012-12-27,
Terpsiphone viridis ferreti,Animalia,MONARCHS_MONARCHIDAE,African Paradise Flycatcher ssp ferreti,,2,45.182424536906,9.9388619073496,Africa,Somalia,SO,,Somalia,2012-12-27,
Laniarius funebris,Animalia,HELMETSHRIKES_BUSHSHRIKES_MALACONOTIDAE,Slate-colored Boubou,,1,45.182424536906,9.9388619073496,Africa,Somalia,SO,,Somalia,2012-12-27,
Nilaus afer,Animalia,HELMETSHRIKES_BUSHSHRIKES_MALACONOTIDAE,Brubru,,1,45.182424536906,9.9388619073496,Africa,Somalia,SO,,Somalia,2012-12-27,
Tockus flavirostris,Animalia,HORNBILLS_BUCEROTIDAE,Eastern Yellow-billed Hornbill,,5,45.182424536906,9.9388619073496,Africa,Somalia,SO,,Somalia,2012-12-27,
Crithagra tristriata,Animalia,FINCHES_FRINGILLIDAE,Brown-rumped Seedeater,,4,45.182424536906,9.9388619073496,Africa,Somalia,SO,,Somalia,2012-12-27,
Onychognathus blythii,Animalia,STARLINGS_STURNIDAE,Somali Starling,,5,45.078758248128,10.361280993439,Africa,Somalia,SO,,Somalia,2012-12-26,
Ichthyaetus leucophthalmus,Animalia,GULLS_TERNS_AND_SKIMMERS_LARIDAE,White-eyed Gull,,2,45.007329932414,10.439640083439,Africa,Somalia,SO,,Somalia,2012-12-26,
Ichthyaetus hemprichii,Animalia,GULLS_TERNS_AND_SKIMMERS_LARIDAE,Sooty Gull,,10,45.007329932414,10.439640083439,Africa,Somalia,SO,,Somalia,2012-12-26,
Corvus splendens,Animalia,CROWS_AND_JAYS_CORVIDAE,House Crow,,101,45.0,10.43,Africa,Somalia,SO,,Somalia,2012-12-26,
Threskiornis aethiopicus,Animalia,IBISSES_AND_SPOONBILLS_THRESKIORNITHIDAE,African Sacred Ibis,,50,45.007329932414,10.439640083439,Africa,Somalia,SO,,Somalia,2012-12-26,
Charadrius tricollaris,Animalia,PLOVERS_CHARADRIIDAE,Three-banded Plover,,3,44.732757434249,9.9867939503361,Africa,Somalia,SO,,Somalia,2012-12-26,
Nilaus afer,Animalia,HELMETSHRIKES_BUSHSHRIKES_MALACONOTIDAE,Brubru,,1,44.732757434249,9.9867939503361,Africa,Somalia,SO,,Somalia,2012-12-26,
Dicrurus divaricatus lugubris,Animalia,DRONGOS_DICRURIDAE,Glossy-backed Drongo ssp lugubris,,1,44.732757434249,9.9867939503361,Africa,Somalia,SO,,Somalia,2012-12-26,
Rhinopomastus minor,Animalia,WOOD_HOOPOES_PHOENICULIDAE,Abyssinian Scimitarbill,,2,44.732757434249,9.9867939503361,Africa,Somalia,SO,,Somalia,2012-12-26,
Eurocephalus rueppelli,Animalia,SHRIKES_LANIIDAE,,,3,44.105575494468,9.5474410104641,Africa,Somalia,SO,,Somalia,2012-12-26,
Necrosyrtes monachus,Animalia,HAWKS_AND_EAGLES_ACCIPITRIDAE,Hooded Vulture,,40,44.105575494468,9.5474410104641,Africa,Somalia,SO,,Somalia,2012-12-26,
Dicrurus divaricatus lugubris,Animalia,DRONGOS_DICRURIDAE,Glossy-backed Drongo ssp lugubris,,2,44.105575494468,9.5474410104641,Africa,Somalia,SO,,Somalia,2012-12-26,
Oenanthe pleschanka,Animalia,OLD_WORLD_FLYCATCHERS_MUSCICAPIDAE,Pied Wheatear,,1,44.105575494468,9.5474410104641,Africa,Somalia,SO,,Somalia,2012-12-26,
Eremomela icteropygialis,Animalia,CISTICOLAS_AND_ALLIES_CISTICOLIDAE,Yellow-bellied Eremomela,,1,43.740280084312,9.6855483132086,Africa,Somalia,SO,,Somalia,2012-12-25,
Lanius somalicus,Animalia,SHRIKES_LANIIDAE,Somali Fiscal,,10,43.333785943687,9.8127734021315,Africa,Somalia,SO,,Somalia,2012-12-25,
Corvus albus,Animalia,CROWS_AND_JAYS_CORVIDAE,Pied Crow,,2,43.333785943687,9.8127734021315,Africa,Somalia,SO,,Somalia,2012-12-25,
Lophotis gindiana,Animalia,BUSTARDS_OTIDIDAE,Buff-crested Bustard,,1,43.33378594,9.8127734,Africa,Somalia,SO,,Somalia,2012-12-25,
Cursorius somalensis,Animalia,COURSERS_AND_PRATINCOLES_GLAREOLIDAE,Somali Courser,,18,43.333785943687,9.8127734021315,Africa,Somalia,SO,,Somalia,2012-12-25,
Trachyphonus margaritatus,Animalia,Lybiidae,Yellow-breasted Barbet,,3,43.333785943687,9.8127734021315,Africa,Somalia,SO,,Somalia,2012-12-25,
Lamprotornis superbus,Animalia,STARLINGS_STURNIDAE,Superb Starling,,10,43.214236734202,9.9508709647953,Africa,Somalia,SO,,Somalia,2012-12-24,
Creatophora cinerea,Animalia,STARLINGS_STURNIDAE,Wattled Starling,,10,43.214236734202,9.9508709647953,Africa,Somalia,SO,,Somalia,2012-12-24,
Eremomela icteropygialis,Animalia,CISTICOLAS_AND_ALLIES_CISTICOLIDAE,Yellow-bellied Eremomela,,1,43.214236734202,9.9508709647953,Africa,Somalia,SO,,Somalia,2012-12-24,
Cercotrichas galactotes,Animalia,OLD_WORLD_FLYCATCHERS_MUSCICAPIDAE,Rufous-tailed Scrub Robin,,1,43.214236734202,9.9508709647953,Africa,Somalia,SO,,Somalia,2012-12-24,
Emberiza poliopleura,Animalia,BUNTINGS_EMBERIZIDAE,Somali Bunting,,2,43.214236734202,9.9508709647953,Africa,Somalia,SO,,Somalia,2012-12-24,
Spilopelia senegalensis,Animalia,PIGEONS_AND_DOVES_COLUMBIDAE,Laughing Dove,,25,43.214236734202,9.9508709647953,Africa,Somalia,SO,,Somalia,2012-12-24,
Oena capensis,Animalia,PIGEONS_AND_DOVES_COLUMBIDAE,Namaqua Dove,,5,43.214236734202,9.9508709647953,Africa,Somalia,SO,,Somalia,2012-12-24,
Buphagus erythrorynchus,Animalia,Buphagidae,Red-billed Oxpecker,,5,43.214236734202,9.9508709647953,Africa,Somalia,SO,,Somalia,2012-12-24,
Aquila nipalensis,Animalia,HAWKS_AND_EAGLES_ACCIPITRIDAE,Steppe Eagle,,1,43.214236734202,9.9508709647953,Africa,Somalia,SO,,Somalia,2012-12-24,
Milvus aegyptius,Animalia,HAWKS_AND_EAGLES_ACCIPITRIDAE,Yellow-billed Kite,,50,43.214236734202,9.9508709647953,Africa,Somalia,SO,,Somalia,2012-12-24,
Leptoptilos crumenifer,Animalia,STORKS_CICONIIDAE,Marabou Stork,,80,43.214236734202,9.9508709647953,Africa,Somalia,SO,,Somalia,2012-12-24,
Amadina fasciata alexanderi,Animalia,WAXBILLS_MUNIAS_ALLIES_ESTRILDIDAE,Cut-throat Finch ssp alexanderi,,10,43.186629291158,9.9208848449647,Africa,Somalia,SO,,Somalia- Awdal,2012-12-24,
Melierax poliopterus,Animalia,HAWKS_AND_EAGLES_ACCIPITRIDAE,Eastern Chanting Goshawk,,1,43.186629291158,9.9208848449647,Africa,Somalia,SO,,Somalia- Awdal,2012-12-24,
Lanius nubicus,Animalia,SHRIKES_LANIIDAE,Masked Shrike,,1,43.186629291158,9.9208848449647,Africa,Somalia,SO,,Somalia- Awdal,2012-12-24,
Milvus aegyptius,Animalia,HAWKS_AND_EAGLES_ACCIPITRIDAE,Yellow-billed Kite,,10,43.179674862768,9.9550422575003,Africa,Somalia,SO,,Somalia- Awdal,2012-12-24,
Telophorus cruentus,Animalia,HELMETSHRIKES_BUSHSHRIKES_MALACONOTIDAE,Rosy-patched Bushshrike,,3,43.179674862768,9.9550422575003,Africa,Somalia,SO,,Somalia- Awdal,2012-12-24,
Euodice cantans,Animalia,WAXBILLS_MUNIAS_ALLIES_ESTRILDIDAE,African Silverbill,,50,43.179674862768,9.9550422575003,Africa,Somalia,SO,,Somalia- Awdal,2012-12-24,
Upupa epops senegalensis,Animalia,HOOPOES_UPUPIDAE,Eurasian Hoopoe ssp senegalensis,,1,43.179674862768,9.9550422575003,Africa,Somalia,SO,,Somalia- Awdal,2012-12-24,
Prinia somalica somalica,Animalia,CISTICOLAS_AND_ALLIES_CISTICOLIDAE,Pale Prinia ssp somalica,,1,43.179674862768,9.9550422575003,Africa,Somalia,SO,,Somalia- Awdal,2012-12-24,
Creatophora cinerea,Animalia,STARLINGS_STURNIDAE,Wattled Starling,,20,43.179674862768,9.9550422575003,Africa,Somalia,SO,,Somalia- Awdal,2012-12-24,
Hirundo aethiopica,Animalia,SWALLOWS_HIRUNDINIDAE,Ethiopian Swallow,,10,43.179674862768,9.9550422575003,Africa,Somalia,SO,,Somalia- Awdal,2012-12-24,
Eremopterix leucotis,Animalia,LARKS_ALAUDIDAE,Chestnut-backed Sparrow-Lark,,20,43.179674862768,9.9550422575003,Africa,Somalia,SO,,Somalia- Awdal,2012-12-24,
Amadina fasciata alexanderi,Animalia,WAXBILLS_MUNIAS_ALLIES_ESTRILDIDAE,Cut-throat Finch ssp alexanderi,,50,43.179674862768,9.9550422575003,Africa,Somalia,SO,,Somalia- Awdal,2012-12-24,
Quelea quelea,Animalia,WEAVERS_PLOCEIDAE,Red-billed Quelea,,501,43.179674862768,9.9550422575003,Africa,Somalia,SO,,Somalia- Awdal,2012-12-24,
Lanius isabellinus,Animalia,SHRIKES_LANIIDAE,Isabelline Shrike,,1,43.340171948075,9.8042256026665,Africa,Somalia,SO,,Somalia,2012-12-23,
Hirundo aethiopica,Animalia,SWALLOWS_HIRUNDINIDAE,Ethiopian Swallow,,1,43.340171948075,9.8042256026665,Africa,Somalia,SO,,Somalia,2012-12-23,
Ardeotis kori,Animalia,BUSTARDS_OTIDIDAE,Kori Bustard,,2,43.340171948075,9.8042256026665,Africa,Somalia,SO,,Somalia,2012-12-23,
Lamprotornis regius,Animalia,STARLINGS_STURNIDAE,Golden-breasted Starling,,3,43.840496130288,9.6138275976965,Africa,Somalia,SO,,Somalia,2012-12-23,
Upupa epops,Animalia,HOOPOES_UPUPIDAE,Eurasian Hoopoe,,3,43.840496130288,9.6138275976965,Africa,Somalia,SO,,Somalia,2012-12-23,
Crithagra dorsostriata,Animalia,FINCHES_FRINGILLIDAE,White-bellied Canary,,10,43.840496130288,9.6138275976965,Africa,Somalia,SO,,Somalia,2012-12-23,
Melaenornis microrhynchus,Animalia,OLD_WORLD_FLYCATCHERS_MUSCICAPIDAE,African Grey Flycatcher,,5,43.840496130288,9.6138275976965,Africa,Somalia,SO,,Somalia,2012-12-23,
Passer swainsonii,Animalia,OLD_WORLD_SPARROWS_PASSERIDAE,Swainson's Sparrow,,4,44.050126254297,9.5571456290337,Africa,Somalia,SO,,Somalia,2012-12-23,
Batis orientalis,Animalia,WATTLEEYES_BATISES_PLATYSTEIRIDAE,Grey-headed Batis,,2,44.050126254297,9.5571456290337,Africa,Somalia,SO,,Somalia,2012-12-23,
Anthreptes orientalis,Animalia,SUNBIRDS_NECTARINIIDAE,Eastern Violet-backed Sunbird,,1,44.050126254297,9.5571456290337,Africa,Somalia,SO,,Somalia,2012-12-23,
Trachyphonus erythrocephalus,Animalia,Lybiidae,Red-and-yellow Barbet,,1,44.234510413371,9.647907298052,Africa,Somalia,SO,,Somalia,2012-12-22,
Galerida cristata somaliensis,Animalia,LARKS_ALAUDIDAE,Crested Lark ssp somaliensis,,2,44.234510413371,9.647907298052,Africa,Somalia,SO,,Somalia,2012-12-22,
Lanius somalicus,Animalia,SHRIKES_LANIIDAE,Somali Fiscal,,5,44.234510413371,9.647907298052,Africa,Somalia,SO,,Somalia,2012-12-22,
Vanellus coronatus,Animalia,PLOVERS_CHARADRIIDAE,Crowned Lapwing,,3,44.234510413371,9.647907298052,Africa,Somalia,SO,,Somalia,2012-12-22,
Nilaus afer,Animalia,HELMETSHRIKES_BUSHSHRIKES_MALACONOTIDAE,Brubru,,1,44.234510413371,9.647907298052,Africa,Somalia,SO,,Somalia,2012-12-22,
Cinnyris mariquensis,Animalia,SUNBIRDS_NECTARINIIDAE,Marico Sunbird,,2,44.051224082577,9.5568159761261,Africa,Somalia,SO,,Somalia,2012-12-22,
Passer swainsonii,Animalia,OLD_WORLD_SPARROWS_PASSERIDAE,Swainson's Sparrow,,10,44.051224082577,9.5568159761261,Africa,Somalia,SO,,Somalia,2012-12-22,
Urocolius macrourus,Animalia,MOUSEBIRDS_COLIIDAE,Blue-naped Mousebird,,5,44.051224082577,9.5568159761261,Africa,Somalia,SO,,Somalia,2012-12-22,
Streptopelia decipiens,Animalia,PIGEONS_AND_DOVES_COLUMBIDAE,Mourning Collared Dove,,10,44.051224082577,9.5568159761261,Africa,Somalia,SO,,Somalia,2012-12-22,
Corythaixoides leucogaster,Animalia,TURACOS_MUSOPHAGIDAE,White-bellied Go-away-bird,,4,44.051224082577,9.5568159761261,Africa,Somalia,SO,,Somalia,2012-12-22,
Necrosyrtes monachus,Animalia,HAWKS_AND_EAGLES_ACCIPITRIDAE,Hooded Vulture,,10,44.051224082577,9.5568159761261,Africa,Somalia,SO,,Somalia,2012-12-22,
