scientificName,kingdom,family,vernacularName,previousIdentifications,individualCount,longitudeDecimal,latitudeDecimal,continent,country,countryCode,stateProvince,locality,eventDate,eventTime
Merops persicus,Animalia,BEEEATERS_MEROPIDAE,Blue-cheeked Bee-eater,,12,33.9341560007,18.2568694611,Africa,Sudan,SD,,Sudan - Nile Valley - Artoli-Berber,2014-05-11,
Vanellus spinosus,Animalia,PLOVERS_CHARADRIIDAE,Spur-winged Lapwing,,1,33.9339387416,18.2553207621,Africa,Sudan,SD,,Sudan - Nile Valley - Artoli-Berber,2014-05-11,
Pluvianus aegyptius,Animalia,Pluvianidae,Egyptian Plover,,1,33.9339387416,18.2553207621,Africa,Sudan,SD,,Sudan - Nile Valley - Artoli-Berber,2014-05-11,
Neophron percnopterus,Animalia,HAWKS_AND_EAGLES_ACCIPITRIDAE,Egyptian Vulture,,2,33.7502235174,16.9390257962,Africa,Sudan,SD,,Sudan - Northern,2014-05-11,
Vanellus spinosus,Animalia,PLOVERS_CHARADRIIDAE,Spur-winged Lapwing,,1,32.5074076653,15.6087155522,Africa,Sudan,SD,,Sudan - Khartoum,2013-11-23,
Euodice cantans orientalis,Animalia,WAXBILLS_MUNIAS_ALLIES_ESTRILDIDAE,African Silverbill ssp orientalis,,1,32.5079387426,15.6062045755,Africa,Sudan,SD,,Sudan - Khartoum,2013-11-23,
Zizeeria knysna,Animalia,GOSSAMERWINGED_BUTTERFLIES_LYCAENIDAE,African Grass Blue,,1,32.5079387426,15.6062045755,Africa,Sudan,SD,,Sudan - Khartoum,2013-11-23,
Spilopelia senegalensis senegalensis,Animalia,PIGEONS_AND_DOVES_COLUMBIDAE,Laughing Dove ssp senegalensis,,1,32.5166290998,15.6071810701,Africa,Sudan,SD,,Sudan - Khartoum,2013-11-23,
Portulaca oleracea,Plantae,PORTULACACEAE,Common Purslane,,1,32.5166290998,15.6071810701,Africa,Sudan,SD,,Sudan - Khartoum,2013-11-23,
Zizeeria knysna,Animalia,GOSSAMERWINGED_BUTTERFLIES_LYCAENIDAE,African Grass Blue,,1,32.5166290998,15.6071810701,Africa,Sudan,SD,,Sudan - Khartoum,2013-11-23,
Zizeeria knysna,Animalia,GOSSAMERWINGED_BUTTERFLIES_LYCAENIDAE,African Grass Blue,,1,32.5069141388,15.6583294468,Africa,Sudan,SD,,Sudan - Khartoum,2013-11-22,
Papilio demodocus,Animalia,SWALLOWTAILS_PAPILIONIDAE,Christmas Butterfly,,1,32.5069141388,15.6583294468,Africa,Sudan,SD,,Sudan - Khartoum,2013-11-22,
Danaus chrysippus alcippus,Animalia,BRUSHFOOTED_BUTTERFLIES_NYMPHALIDAE,,,1,32.5069141388,15.6583294468,Africa,Sudan,SD,,Sudan - Khartoum,2013-11-22,
Merops pusillus ocularis,Animalia,BEEEATERS_MEROPIDAE,Little Bee-eater ssp ocularis,,1,32.5069141388,15.6583294468,Africa,Sudan,SD,,Sudan - Khartoum,2013-11-22,
Motacilla flava thunbergi,Animalia,PIPITS_EN_WAGTAILS_MOTACILLIDAE,Grey-headed Wagtail,,1,32.5069141388,15.6583294468,Africa,Sudan,SD,,Sudan - Khartoum,2013-11-22,
Tringa nebularia,Animalia,SANDPIPERS_AND_ALLIES_SCOLOPACIDAE,Common Greenshank,,1,32.5069141388,15.6583294468,Africa,Sudan,SD,,Sudan - Khartoum,2013-11-22,
Vanellus spinosus,Animalia,PLOVERS_CHARADRIIDAE,Spur-winged Lapwing,,1,32.5069141388,15.6583294468,Africa,Sudan,SD,,Sudan - Khartoum,2013-11-22,
Chlidonias leucopterus,Animalia,GULLS_TERNS_AND_SKIMMERS_LARIDAE,White-winged Tern,,1,32.5069141388,15.6583294468,Africa,Sudan,SD,,Sudan - Khartoum,2013-11-22,
Bubulcus ibis,Animalia,HERONS_ARDEIDAE,Western Cattle Egret,,1,32.5069141388,15.6583294468,Africa,Sudan,SD,,Sudan - Khartoum,2013-11-22,
Urocolius macrourus griseogularis,Animalia,MOUSEBIRDS_COLIIDAE,Blue-naped Mousebird ssp griseogularis,,1,32.5069141388,15.6583294468,Africa,Sudan,SD,,Sudan - Khartoum,2013-11-22,
Estrilda rhodopyga rhodopyga,Animalia,WAXBILLS_MUNIAS_ALLIES_ESTRILDIDAE,Crimson-rumped Waxbill ssp rhodopyga,,1,32.5069141388,15.6583294468,Africa,Sudan,SD,,Sudan - Khartoum,2013-11-22,
Lanius excubitor leucopygos,Animalia,SHRIKES_LANIIDAE,Great Grey Shrike ssp leucopygos,,1,33.273666501,16.2693967078,Africa,Sudan,SD,,Sudan - Northern,2013-11-22,
Aerva javanica,Plantae,AMARANTHACEAE,Kapokbush,,1,32.586607933,16.0201996536,Africa,Sudan,SD,,Sudan - Nile Valley - Shendi-Khartoum,2013-11-22,
Zizeeria knysna,Animalia,GOSSAMERWINGED_BUTTERFLIES_LYCAENIDAE,African Grass Blue,,1,32.586607933,16.0201996536,Africa,Sudan,SD,,Sudan - Nile Valley - Shendi-Khartoum,2013-11-22,
Papilio demodocus,Animalia,SWALLOWTAILS_PAPILIONIDAE,Christmas Butterfly,,1,32.586607933,16.0201996536,Africa,Sudan,SD,,Sudan - Nile Valley - Shendi-Khartoum,2013-11-22,
Sphingonotus savignyi,Animalia,SHORTHORNED_GRASSHOPPERS_ACRIDIDAE,,,1,32.586607933,16.0201996536,Africa,Sudan,SD,,Sudan - Nile Valley - Shendi-Khartoum,2013-11-22,
Oena capensis capensis,Animalia,PIGEONS_AND_DOVES_COLUMBIDAE,Namaqua Dove ssp capensis,,1,33.2736772299,16.2693967078,Africa,Sudan,SD,,Sudan - Northern,2013-11-22,
Oena capensis capensis,Animalia,PIGEONS_AND_DOVES_COLUMBIDAE,Namaqua Dove ssp capensis,,1,33.2736772299,16.2693967078,Africa,Sudan,SD,,Sudan - Northern,2013-11-22,
Oenanthe deserti homochroa,Animalia,OLD_WORLD_FLYCATCHERS_MUSCICAPIDAE,Desert Wheatear ssp homochroa,,1,33.2736772299,16.2693967078,Africa,Sudan,SD,,Sudan - Northern,2013-11-22,
Spiloptila clamans,Animalia,CISTICOLAS_AND_ALLIES_CISTICOLIDAE,Cricket Warbler,,1,33.2736772299,16.2693967078,Africa,Sudan,SD,,Sudan - Northern,2013-11-22,
Euodice cantans orientalis,Animalia,WAXBILLS_MUNIAS_ALLIES_ESTRILDIDAE,African Silverbill ssp orientalis,,1,33.2736772299,16.2693967078,Africa,Sudan,SD,,Sudan - Northern,2013-11-22,
Lanius excubitor leucopygos,Animalia,SHRIKES_LANIIDAE,Great Grey Shrike ssp leucopygos,,1,33.2792079449,16.2688971959,Africa,Sudan,SD,,Sudan - Northern,2013-11-22,
Oena capensis capensis,Animalia,PIGEONS_AND_DOVES_COLUMBIDAE,Namaqua Dove ssp capensis,,1,33.2792079449,16.2688971959,Africa,Sudan,SD,,Sudan - Northern,2013-11-22,
Spiloptila clamans,Animalia,CISTICOLAS_AND_ALLIES_CISTICOLIDAE,Cricket Warbler,,1,33.2792079449,16.2688971959,Africa,Sudan,SD,,Sudan - Northern,2013-11-22,
Oenanthe melanura,Animalia,OLD_WORLD_FLYCATCHERS_MUSCICAPIDAE,Blackstart,,1,33.2792079449,16.2688971959,Africa,Sudan,SD,,Sudan - Northern,2013-11-22,
Hyles livornica,Animalia,Sphingidae,Striped Hawk-moth,,1,33.2795083523,16.2689589913,Africa,Sudan,SD,,Sudan - Northern,2013-11-21,
Leptadenia pyrotechnica,Plantae,APOCYNACEAE,,,1,33.2795083523,16.2689589913,Africa,Sudan,SD,,Sudan - Northern,2013-11-21,
Eremopterix nigriceps albifrons,Animalia,LARKS_ALAUDIDAE,Black-crowned Sparrow-Lark ssp albifrons,,1,33.2795083523,16.2689589913,Africa,Sudan,SD,,Sudan - Northern,2013-11-21,
Oena capensis capensis,Animalia,PIGEONS_AND_DOVES_COLUMBIDAE,Namaqua Dove ssp capensis,,1,33.2795083523,16.2689589913,Africa,Sudan,SD,,Sudan - Northern,2013-11-21,
Oena capensis capensis,Animalia,PIGEONS_AND_DOVES_COLUMBIDAE,Namaqua Dove ssp capensis,,1,33.2795083523,16.2689589913,Africa,Sudan,SD,,Sudan - Northern,2013-11-21,
Lanius excubitor leucopygos,Animalia,SHRIKES_LANIIDAE,Great Grey Shrike ssp leucopygos,,1,33.2795083523,16.2689589913,Africa,Sudan,SD,,Sudan - Northern,2013-11-21,
Spiloptila clamans,Animalia,CISTICOLAS_AND_ALLIES_CISTICOLIDAE,Cricket Warbler,,1,33.2795083523,16.2689589913,Africa,Sudan,SD,,Sudan - Northern,2013-11-21,
Eremopterix nigriceps albifrons,Animalia,LARKS_ALAUDIDAE,Black-crowned Sparrow-Lark ssp albifrons,,1,33.2803881168,16.269185574,Africa,Sudan,SD,,Sudan - Northern,2013-11-21,
Eremopterix nigriceps albifrons,Animalia,LARKS_ALAUDIDAE,Black-crowned Sparrow-Lark ssp albifrons,,1,33.2803881168,16.269185574,Africa,Sudan,SD,,Sudan - Northern,2013-11-21,
Spatula clypeata,Animalia,DUCKS_GEESE_AND_SWANS_ANATIDAE,Northern Shoveler,,1,33.3303201199,16.410115584,Africa,Sudan,SD,,Sudan - Northern,2013-11-21,
Hyphaene thebaica,Plantae,Arecaceae,,,1,30.4405617714,19.4501511295,Africa,Sudan,SD,,Sudan - Northern,2013-11-12,
Tockus erythrorhynchus,Animalia,HORNBILLS_BUCEROTIDAE,Northern Red-billed Hornbill,,1,33.710603714,16.9368632919,Africa,Sudan,SD,,Sudan - Nile Valley - Atbara-Shendi,2013-11-20,
Cercotrichas podobe podobe,Animalia,OLD_WORLD_FLYCATCHERS_MUSCICAPIDAE,Black Scrub Robin ssp podobe,,1,33.710603714,16.9368632919,Africa,Sudan,SD,,Sudan - Nile Valley - Atbara-Shendi,2013-11-20,
Upupa epops senegalensis,Animalia,HOOPOES_UPUPIDAE,Eurasian Hoopoe ssp senegalensis,,1,33.710603714,16.9368632919,Africa,Sudan,SD,,Sudan - Nile Valley - Atbara-Shendi,2013-11-20,
Trachyphonus margaritatus margaritatus,Animalia,Lybiidae,Yellow-breasted Barbet ssp margaritatus,,1,33.710603714,16.9368632919,Africa,Sudan,SD,,Sudan - Nile Valley - Atbara-Shendi,2013-11-20,
Hedydipna metallica,Animalia,SUNBIRDS_NECTARINIIDAE,Nile Valley Sunbird,,1,33.710603714,16.9368632919,Africa,Sudan,SD,,Sudan - Nile Valley - Atbara-Shendi,2013-11-20,
Blepharis ciliaris,Plantae,ACANTHACEAE,,,1,33.9669799805,17.5059025745,Africa,Sudan,SD,,Sudan - Nile Valley - Atbara-Shendi,2013-11-20,
Ciconia nigra,Animalia,STORKS_CICONIIDAE,Black Stork,,1,33.9929491282,17.5691147205,Africa,Sudan,SD,,Sudan - Nile Valley - Atbara-Shendi,2013-11-20,
Colotis protomedia,Animalia,WHITES_PIERIDAE,Yellow Splendour,,1,33.9725536108,17.6955442711,Africa,Sudan,SD,,Sudan - Nile Valley - Berber-Atbara,2013-11-20,
Catopsilia florella,Animalia,WHITES_PIERIDAE,African Migrant,,1,33.9725536108,17.6955442711,Africa,Sudan,SD,,Sudan - Nile Valley - Berber-Atbara,2013-11-20,
Milvus aegyptius aegyptius,Animalia,HAWKS_AND_EAGLES_ACCIPITRIDAE,Yellow-billed Kite ssp aegyptius,,1,33.9725536108,17.6955442711,Africa,Sudan,SD,,Sudan - Nile Valley - Berber-Atbara,2013-11-20,
Senna italica,Plantae,Fabaceae,Italian Senna,,1,33.8557434082,17.6603798943,Africa,Sudan,SD,,Sudan - Northern,2013-11-20,
Farsetia aegyptia,Plantae,Brassicaceae,,,1,33.8557434082,17.6603798943,Africa,Sudan,SD,,Sudan - Northern,2013-11-20,
Citrullus colocynthis,Plantae,CUCURBITACEAE,Colocynth,,1,33.8557434082,17.6603798943,Africa,Sudan,SD,,Sudan - Northern,2013-11-20,
Oenanthe deserti homochroa,Animalia,OLD_WORLD_FLYCATCHERS_MUSCICAPIDAE,Desert Wheatear ssp homochroa,,1,33.0674743652,18.3473565344,Africa,Sudan,SD,,Sudan - Northern,2013-11-20,
Tribulus terrestris,Plantae,ZYGOPHYLLACEAE,Small Caltrops,,1,33.0674743652,18.3473565344,Africa,Sudan,SD,,Sudan - Northern,2013-11-20,
Nomophila noctuella,Animalia,Crambidae,,,1,33.0688476562,18.3545255291,Africa,Sudan,SD,,Sudan - Northern,2013-11-19,
Vespa orientalis,Animalia,Vespidae,Oriental Hornet,,1,32.7431201935,18.5039067136,Africa,Sudan,SD,,Sudan - Northern,2013-11-19,
Aerva javanica,Plantae,AMARANTHACEAE,Kapokbush,,1,32.7431201935,18.5039067136,Africa,Sudan,SD,,Sudan - Northern,2013-11-19,
Spatula clypeata,Animalia,DUCKS_GEESE_AND_SWANS_ANATIDAE,Northern Shoveler,,1,32.7431201935,18.5039067136,Africa,Sudan,SD,,Sudan - Northern,2013-11-19,
Motacilla alba alba,Animalia,PIPITS_EN_WAGTAILS_MOTACILLIDAE,White Wagtail ssp alba,,1,32.7431201935,18.5039067136,Africa,Sudan,SD,,Sudan - Northern,2013-11-19,
Senna italica,Plantae,Fabaceae,Italian Senna,,1,31.9169998169,18.5687242815,Africa,Sudan,SD,,Sudan - Northern,2013-11-19,
Phoenix dactylifera,Plantae,Arecaceae,Date Palm,,1,31.9169998169,18.5687242815,Africa,Sudan,SD,,Sudan - Northern,2013-11-19,
Falco naumanni,Animalia,CARACAS_AND_FALCONS_FALCONIDAE,Lesser Kestrel,,1,31.9169998169,18.5687242815,Africa,Sudan,SD,,Sudan - Northern,2013-11-19,
Tarucus rosaceus,Animalia,GOSSAMERWINGED_BUTTERFLIES_LYCAENIDAE,Mediterranean Blue,,1,31.9169998169,18.5687242815,Africa,Sudan,SD,,Sudan - Northern,2013-11-19,
Oenanthe deserti homochroa,Animalia,OLD_WORLD_FLYCATCHERS_MUSCICAPIDAE,Desert Wheatear ssp homochroa,,1,31.9156694412,18.5649408811,Africa,Sudan,SD,,Sudan - Northern,2013-11-19,
Falco biarmicus tanypterus,Animalia,CARACAS_AND_FALCONS_FALCONIDAE,Lanner Falcon ssp tanypterus,,1,31.8288516998,18.535932025,Africa,Sudan,SD,,Sudan - Northern,2013-11-19,
Apus apus apus,Animalia,SWIFTS_APODIDAE,Common Swift ssp apus,,1,31.8288516998,18.535932025,Africa,Sudan,SD,,Sudan - Northern,2013-11-19,
Aerva javanica,Plantae,AMARANTHACEAE,Kapokbush,,1,31.8443012238,18.568642919,Africa,Sudan,SD,,Sudan - Northern,2013-11-19,
Dipterygium glaucum,Plantae,CAPPARACEAE,,,1,31.7333221436,18.4180558711,Africa,Sudan,SD,,Sudan - Northern,2013-11-18,
Hibiscus sabdariffa,Plantae,MALVACEAE,Roselle,,1,32.7224779129,19.2936055757,Africa,Sudan,SD,,Sudan - Northern,2013-11-18,
Tamarix passerinoides,Plantae,TAMARICACEAE,,,1,32.7224779129,19.2936055757,Africa,Sudan,SD,,Sudan - Northern,2013-11-18,
Cyperus rotundus,Plantae,CYPERACEAE,Purple Nutsedge,,1,32.7224779129,19.2936055757,Africa,Sudan,SD,,Sudan - Northern,2013-11-18,
Oenanthe deserti homochroa,Animalia,OLD_WORLD_FLYCATCHERS_MUSCICAPIDAE,Desert Wheatear ssp homochroa,,1,32.7224779129,19.2936055757,Africa,Sudan,SD,,Sudan - Northern,2013-11-18,
Motacilla alba alba,Animalia,PIPITS_EN_WAGTAILS_MOTACILLIDAE,White Wagtail ssp alba,,1,32.7224779129,19.2936055757,Africa,Sudan,SD,,Sudan - Northern,2013-11-18,
Threskiornis aethiopicus,Animalia,IBISSES_AND_SPOONBILLS_THRESKIORNITHIDAE,African Sacred Ibis,,1,32.7224779129,19.2936055757,Africa,Sudan,SD,,Sudan - Northern,2013-11-18,
Bubulcus ibis,Animalia,HERONS_ARDEIDAE,Western Cattle Egret,,1,32.7224779129,19.2936055757,Africa,Sudan,SD,,Sudan - Northern,2013-11-18,
Vanellus spinosus,Animalia,PLOVERS_CHARADRIIDAE,Spur-winged Lapwing,,1,32.7224779129,19.2936055757,Africa,Sudan,SD,,Sudan - Northern,2013-11-18,
Schistocerca gregaria,Animalia,SHORTHORNED_GRASSHOPPERS_ACRIDIDAE,Desert Locust,,1,32.8353881836,19.4678870152,Africa,Sudan,SD,,Sudan - Northern,2013-11-17,
Tephrosia purpurea,Plantae,Fabaceae,Wild indigo,,1,32.8353881836,19.4678870152,Africa,Sudan,SD,,Sudan - Northern,2013-11-17,
Dipterygium glaucum,Plantae,CAPPARACEAE,,,1,32.8353881836,19.4678870152,Africa,Sudan,SD,,Sudan - Northern,2013-11-17,
Hirundo rustica rustica,Animalia,SWALLOWS_HIRUNDINIDAE,Barn Swallow ssp rustica,,1,32.9809570312,19.861018847,Africa,Sudan,SD,,Sudan - Wadi Halfa-Abu Hamad (rail)road,2013-11-17,
Motacilla alba alba,Animalia,PIPITS_EN_WAGTAILS_MOTACILLIDAE,White Wagtail ssp alba,,1,32.5360107422,21.145992165,Africa,Sudan,SD,,Sudan - Northern,2013-11-17,
Trithemis annulata,Animalia,SKIMMERS_LIBELLULIDAE,Violet Dropwing,,1,32.4096679688,21.0845000835,Africa,Sudan,SD,,Sudan - Wadi Halfa-Abu Hamad (rail)road,2013-11-16,
Phylloscopus collybita collybita,Animalia,LEAF_WARBLERS_AND_ALLIES_PHYLLOSCOPIDAE,Common Chiffchaff ssp collybita,,1,31.7559814453,21.6038116996,Africa,Sudan,SD,,Sudan - Wadi Halfa-Abu Hamad (rail)road,2013-11-16,
Ptyonoprogne rupestris,Animalia,SWALLOWS_HIRUNDINIDAE,Eurasian Crag Martin,,1,31.3492512703,21.8006068972,Africa,Sudan,SD,,Sudan - Wadi Halfa,2013-11-16,
Pelecanus onocrotalus,Animalia,PELICANS_PELECANIDAE,Great White Pelican,,1,31.3492512703,21.8006068972,Africa,Sudan,SD,,Sudan - Wadi Halfa,2013-11-16,
Passer domesticus rufidorsalis,Animalia,OLD_WORLD_SPARROWS_PASSERIDAE,House Sparrow ssp rufidorsalis,,1,31.3200688362,21.8018022758,Africa,Sudan,SD,,Sudan - Wadi Halfa,2013-11-16,
Galerida cristata halfae,Animalia,LARKS_ALAUDIDAE,Crested Lark ssp halfae,,1,31.3200688362,21.8018022758,Africa,Sudan,SD,,Sudan - Wadi Halfa,2013-11-16,
Gelochelidon nilotica nilotica,Animalia,GULLS_TERNS_AND_SKIMMERS_LARIDAE,Gull-billed Tern ssp nilotica,,1,31.3200688362,21.8018022758,Africa,Sudan,SD,,Sudan - Wadi Halfa,2013-11-16,
Gelochelidon nilotica nilotica,Animalia,GULLS_TERNS_AND_SKIMMERS_LARIDAE,Gull-billed Tern ssp nilotica,,1,31.3200688362,21.8018022758,Africa,Sudan,SD,,Sudan - Wadi Halfa,2013-11-16,
Motacilla flava flava,Animalia,PIPITS_EN_WAGTAILS_MOTACILLIDAE,Blue-headed Wagtail,,1,31.3200688362,21.8018022758,Africa,Sudan,SD,,Sudan - Wadi Halfa,2013-11-16,
Calidris minuta,Animalia,SANDPIPERS_AND_ALLIES_SCOLOPACIDAE,Little Stint,,1,31.3200688362,21.8018022758,Africa,Sudan,SD,,Sudan - Wadi Halfa,2013-11-16,
Calidris minuta,Animalia,SANDPIPERS_AND_ALLIES_SCOLOPACIDAE,Little Stint,,1,31.3200688362,21.8018022758,Africa,Sudan,SD,,Sudan - Wadi Halfa,2013-11-16,
Calidris pugnax,Animalia,SANDPIPERS_AND_ALLIES_SCOLOPACIDAE,Ruff,,1,31.3200688362,21.8018022758,Africa,Sudan,SD,,Sudan - Wadi Halfa,2013-11-16,
Calidris pugnax,Animalia,SANDPIPERS_AND_ALLIES_SCOLOPACIDAE,Ruff,,1,31.3200688362,21.8018022758,Africa,Sudan,SD,,Sudan - Wadi Halfa,2013-11-16,
Tringa totanus totanus,Animalia,SANDPIPERS_AND_ALLIES_SCOLOPACIDAE,Common Redshank ssp totanus,,1,31.3200688362,21.8018022758,Africa,Sudan,SD,,Sudan - Wadi Halfa,2013-11-16,
Tringa totanus totanus,Animalia,SANDPIPERS_AND_ALLIES_SCOLOPACIDAE,Common Redshank ssp totanus,,1,31.3200688362,21.8018022758,Africa,Sudan,SD,,Sudan - Wadi Halfa,2013-11-16,
Tringa nebularia,Animalia,SANDPIPERS_AND_ALLIES_SCOLOPACIDAE,Common Greenshank,,1,31.3200688362,21.8018022758,Africa,Sudan,SD,,Sudan - Wadi Halfa,2013-11-16,
Charadrius pecuarius,Animalia,PLOVERS_CHARADRIIDAE,Kittlitz's Plover,,1,31.3200688362,21.8018022758,Africa,Sudan,SD,,Sudan - Wadi Halfa,2013-11-16,
Charadrius alexandrinus alexandrinus,Animalia,PLOVERS_CHARADRIIDAE,Kentish Plover ssp alexandrinus,,1,31.3200688362,21.8018022758,Africa,Sudan,SD,,Sudan - Wadi Halfa,2013-11-16,
Charadrius dubius curonicus,Animalia,PLOVERS_CHARADRIIDAE,Little Ringed Plover ssp curonicus,,1,31.3200688362,21.8018022758,Africa,Sudan,SD,,Sudan - Wadi Halfa,2013-11-16,
Vanellus spinosus,Animalia,PLOVERS_CHARADRIIDAE,Spur-winged Lapwing,,1,31.3200688362,21.8018022758,Africa,Sudan,SD,,Sudan - Wadi Halfa,2013-11-16,
Himantopus himantopus,Animalia,STILTS_AND_AVOCETS_RECURVIROSTRIDAE,Black-winged Stilt,,1,31.3200688362,21.8018022758,Africa,Sudan,SD,,Sudan - Wadi Halfa,2013-11-16,
Plegadis falcinellus,Animalia,IBISSES_AND_SPOONBILLS_THRESKIORNITHIDAE,Glossy Ibis,,1,31.3200688362,21.8018022758,Africa,Sudan,SD,,Sudan - Wadi Halfa,2013-11-16,
Ardea cinerea cinerea,Animalia,HERONS_ARDEIDAE,Grey Heron ssp cinerea,,1,31.3200688362,21.8018022758,Africa,Sudan,SD,,Sudan - Wadi Halfa,2013-11-16,
Ardea alba alba,Animalia,HERONS_ARDEIDAE,Great Egret ssp alba,,1,31.3200688362,21.8018022758,Africa,Sudan,SD,,Sudan - Wadi Halfa,2013-11-16,
Egretta garzetta garzetta,Animalia,HERONS_ARDEIDAE,Little Egret ssp garzetta,,1,31.3200688362,21.8018022758,Africa,Sudan,SD,,Sudan - Wadi Halfa,2013-11-16,
Ardeola ralloides,Animalia,HERONS_ARDEIDAE,Squacco Heron,,1,31.3200688362,21.8018022758,Africa,Sudan,SD,,Sudan - Wadi Halfa,2013-11-16,
Anas acuta,Animalia,DUCKS_GEESE_AND_SWANS_ANATIDAE,Northern Pintail,,1,31.3200688362,21.8018022758,Africa,Sudan,SD,,Sudan - Wadi Halfa,2013-11-16,
Spatula clypeata,Animalia,DUCKS_GEESE_AND_SWANS_ANATIDAE,Northern Shoveler,,1,31.3200688362,21.8018022758,Africa,Sudan,SD,,Sudan - Wadi Halfa,2013-11-16,
Anas crecca crecca,Animalia,DUCKS_GEESE_AND_SWANS_ANATIDAE,,,1,31.3200688362,21.8018022758,Africa,Sudan,SD,,Sudan - Wadi Halfa,2013-11-16,
Anas crecca crecca,Animalia,DUCKS_GEESE_AND_SWANS_ANATIDAE,,,1,31.3200688362,21.8018022758,Africa,Sudan,SD,,Sudan - Wadi Halfa,2013-11-16,
Mareca penelope,Animalia,DUCKS_GEESE_AND_SWANS_ANATIDAE,Eurasian Wigeon,,1,31.3200688362,21.8018022758,Africa,Sudan,SD,,Sudan - Wadi Halfa,2013-11-16,
Galerida cristata halfae,Animalia,LARKS_ALAUDIDAE,Crested Lark ssp halfae,,1,31.3511395454,21.7960643675,Africa,Sudan,SD,,Sudan - Wadi Halfa,2013-11-16,
Echinochloa spec.,Plantae,Poaceae,,,1,31.3511395454,21.7960643675,Africa,Sudan,SD,,Sudan - Wadi Halfa,2013-11-16,
Sonchus oleraceus,Plantae,Asteraceae,Smooth Sow-thistle,,1,31.3511395454,21.7960643675,Africa,Sudan,SD,,Sudan - Wadi Halfa,2013-11-16,
Zizeeria knysna,Animalia,GOSSAMERWINGED_BUTTERFLIES_LYCAENIDAE,African Grass Blue,,1,31.3493800163,21.7971203193,Africa,Sudan,SD,,Sudan - Wadi Halfa,2013-11-16,
Solanum nigrum subsp. nigrum,Plantae,SOLANACEAE,Black Nightshade,,1,31.3493800163,21.7971203193,Africa,Sudan,SD,,Sudan - Wadi Halfa,2013-11-16,
Milvus aegyptius aegyptius,Animalia,HAWKS_AND_EAGLES_ACCIPITRIDAE,Yellow-billed Kite ssp aegyptius,,1,31.3822746277,21.77751421,Africa,Sudan,SD,,Sudan - Wadi Halfa,2013-11-16,
Oenanthe leucopyga leucopyga,Animalia,OLD_WORLD_FLYCATCHERS_MUSCICAPIDAE,White-crowned Wheatear ssp leucopyga,,1,31.3886260986,21.7502524826,Africa,Sudan,SD,,Sudan - Wadi Halfa,2013-11-16,
Aerva javanica,Plantae,AMARANTHACEAE,Kapokbush,,1,31.39534235,21.7476017607,Africa,Sudan,SD,,Sudan - Wadi Halfa,2013-11-15,
Phylloscopus collybita collybita,Animalia,LEAF_WARBLERS_AND_ALLIES_PHYLLOSCOPIDAE,Common Chiffchaff ssp collybita,,1,30.3331017494,20.7492715504,Africa,Sudan,SD,,Sudan - Northern,2013-11-15,
Prinia gracilis gracilis,Animalia,CISTICOLAS_AND_ALLIES_CISTICOLIDAE,Graceful Prinia ssp gracilis,,1,30.3331017494,20.7492715504,Africa,Sudan,SD,,Sudan - Northern,2013-11-15,
Vanessa cardui,Animalia,BRUSHFOOTED_BUTTERFLIES_NYMPHALIDAE,Painted Lady,,1,30.3322434425,20.736990708,Africa,Sudan,SD,,Sudan - Northern,2013-11-15,
Argya fulva acaciae,Animalia,Leiothrichidae,Fulvous Babbler ssp acaciae,,1,30.3394532204,20.4449685324,Africa,Sudan,SD,,Sudan - Northern,2013-11-15,
Cercotrichas podobe podobe,Animalia,OLD_WORLD_FLYCATCHERS_MUSCICAPIDAE,Black Scrub Robin ssp podobe,,1,30.3394532204,20.4449685324,Africa,Sudan,SD,,Sudan - Northern,2013-11-15,
Streptopelia decipiens decipiens,Animalia,PIGEONS_AND_DOVES_COLUMBIDAE,Mourning Collared Dove ssp decipiens,,1,30.3394532204,20.4449685324,Africa,Sudan,SD,,Sudan - Northern,2013-11-15,
Actitis hypoleucos,Animalia,SANDPIPERS_AND_ALLIES_SCOLOPACIDAE,Common Sandpiper,,1,30.3394532204,20.4449685324,Africa,Sudan,SD,,Sudan - Northern,2013-11-15,
Cercotrichas podobe podobe,Animalia,OLD_WORLD_FLYCATCHERS_MUSCICAPIDAE,Black Scrub Robin ssp podobe,,1,30.3394532204,20.4449685324,Africa,Sudan,SD,,Sudan - Northern,2013-11-15,
Ardea purpurea purpurea,Animalia,HERONS_ARDEIDAE,Purple Heron ssp purpurea,,1,30.3394532204,20.4449685324,Africa,Sudan,SD,,Sudan - Northern,2013-11-15,
Sylvia communis communis,Animalia,OLD_WORLD_WARBLERS_SYLVIIDAE,Common Whitethroat ssp communis,,1,30.3394532204,20.4449685324,Africa,Sudan,SD,,Sudan - Northern,2013-11-15,
Phylloscopus collybita collybita,Animalia,LEAF_WARBLERS_AND_ALLIES_PHYLLOSCOPIDAE,Common Chiffchaff ssp collybita,,1,30.3394532204,20.4449685324,Africa,Sudan,SD,,Sudan - Northern,2013-11-15,
Pycnonotus barbatus arsinoe,Animalia,BULBULS_PYCNONOTIDAE,Common Bulbul ssp arsinoe,,1,30.3394532204,20.4449685324,Africa,Sudan,SD,,Sudan - Northern,2013-11-15,
Ceryle rudis rudis,Animalia,KINGFISHERS_ALCEDINIDAE,Pied Kingfisher ssp rudis,,1,30.3394532204,20.4449685324,Africa,Sudan,SD,,Sudan - Northern,2013-11-15,
Vanellus spinosus,Animalia,PLOVERS_CHARADRIIDAE,Spur-winged Lapwing,,1,30.3394532204,20.4449685324,Africa,Sudan,SD,,Sudan - Northern,2013-11-15,
Galerida cristata halfae,Animalia,LARKS_ALAUDIDAE,Crested Lark ssp halfae,,1,30.3394532204,20.4449685324,Africa,Sudan,SD,,Sudan - Northern,2013-11-15,
Hibiscus sabdariffa,Plantae,MALVACEAE,Roselle,,1,30.3361487389,20.4368857027,Africa,Sudan,SD,,Sudan - Northern,2013-11-14,
Phylloscopus collybita collybita,Animalia,LEAF_WARBLERS_AND_ALLIES_PHYLLOSCOPIDAE,Common Chiffchaff ssp collybita,,1,30.3361487389,20.4368857027,Africa,Sudan,SD,,Sudan - Northern,2013-11-14,
Upupa epops senegalensis,Animalia,HOOPOES_UPUPIDAE,Eurasian Hoopoe ssp senegalensis,,1,30.3361487389,20.4368857027,Africa,Sudan,SD,,Sudan - Northern,2013-11-14,
Argya fulva acaciae,Animalia,Leiothrichidae,Fulvous Babbler ssp acaciae,,1,30.3361487389,20.4368857027,Africa,Sudan,SD,,Sudan - Northern,2013-11-14,
Pluvianus aegyptius,Animalia,Pluvianidae,Egyptian Plover,,1,30.3390669823,20.4451494865,Africa,Sudan,SD,,Sudan - Northern,2013-11-14,
Cercotrichas podobe podobe,Animalia,OLD_WORLD_FLYCATCHERS_MUSCICAPIDAE,Black Scrub Robin ssp podobe,,1,30.3390669823,20.4451494865,Africa,Sudan,SD,,Sudan - Northern,2013-11-14,
Phylloscopus collybita collybita,Animalia,LEAF_WARBLERS_AND_ALLIES_PHYLLOSCOPIDAE,Common Chiffchaff ssp collybita,,1,30.3390669823,20.4451494865,Africa,Sudan,SD,,Sudan - Northern,2013-11-14,
Passer domesticus rufidorsalis,Animalia,OLD_WORLD_SPARROWS_PASSERIDAE,House Sparrow ssp rufidorsalis,,1,30.3436160088,20.4489092605,Africa,Sudan,SD,,Sudan - Northern,2013-11-14,
Schistocerca gregaria,Animalia,SHORTHORNED_GRASSHOPPERS_ACRIDIDAE,Desert Locust,,1,30.3219223022,19.8968568885,Africa,Sudan,SD,,Sudan - Northern,2013-11-14,
Leptadenia pyrotechnica,Plantae,APOCYNACEAE,,,1,30.3219223022,19.8968568885,Africa,Sudan,SD,,Sudan - Northern,2013-11-14,
Galerida cristata halfae,Animalia,LARKS_ALAUDIDAE,Crested Lark ssp halfae,,1,30.3219223022,19.8968568885,Africa,Sudan,SD,,Sudan - Northern,2013-11-14,
Estrilda rhodopyga rhodopyga,Animalia,WAXBILLS_MUNIAS_ALLIES_ESTRILDIDAE,Crimson-rumped Waxbill ssp rhodopyga,,1,30.3914558887,19.7109097218,Africa,Sudan,SD,,Sudan - Northern,2013-11-13,
Passer domesticus rufidorsalis,Animalia,OLD_WORLD_SPARROWS_PASSERIDAE,House Sparrow ssp rufidorsalis,,1,30.3914558887,19.7109097218,Africa,Sudan,SD,,Sudan - Northern,2013-11-13,
Euodice cantans orientalis,Animalia,WAXBILLS_MUNIAS_ALLIES_ESTRILDIDAE,African Silverbill ssp orientalis,,1,30.3914558887,19.7109097218,Africa,Sudan,SD,,Sudan - Northern,2013-11-13,
Catopsilia florella,Animalia,WHITES_PIERIDAE,African Migrant,,1,30.4123395681,19.6014518922,Africa,Sudan,SD,,Sudan - Northern,2013-11-13,
Tephrosia purpurea,Plantae,Fabaceae,Wild indigo,,1,30.4123395681,19.6014518922,Africa,Sudan,SD,,Sudan - Northern,2013-11-13,
Cercotrichas podobe podobe,Animalia,OLD_WORLD_FLYCATCHERS_MUSCICAPIDAE,Black Scrub Robin ssp podobe,,1,30.4123395681,19.6014518922,Africa,Sudan,SD,,Sudan - Northern,2013-11-13,
Corvus rhipidurus rhipidurus,Animalia,CROWS_AND_JAYS_CORVIDAE,Fan-tailed Raven ssp rhipidurus,,1,30.4185891151,19.5755099586,Africa,Sudan,SD,,Sudan - Northern,2013-11-13,
Passer domesticus rufidorsalis,Animalia,OLD_WORLD_SPARROWS_PASSERIDAE,House Sparrow ssp rufidorsalis,,1,30.4185891151,19.5755099586,Africa,Sudan,SD,,Sudan - Northern,2013-11-13,
Merops orientalis cleopatra,Animalia,BEEEATERS_MEROPIDAE,Green Bee-eater ssp cleopatra,,1,30.4185891151,19.5755099586,Africa,Sudan,SD,,Sudan - Northern,2013-11-13,
Argya fulva acaciae,Animalia,Leiothrichidae,Fulvous Babbler ssp acaciae,,1,30.4185891151,19.5755099586,Africa,Sudan,SD,,Sudan - Northern,2013-11-13,
Vanessa cardui,Animalia,BRUSHFOOTED_BUTTERFLIES_NYMPHALIDAE,Painted Lady,,1,30.4405242205,19.4501738918,Africa,Sudan,SD,,Sudan - Northern,2013-11-12,
Motacilla alba alba,Animalia,PIPITS_EN_WAGTAILS_MOTACILLIDAE,White Wagtail ssp alba,,1,30.4405242205,19.4501738918,Africa,Sudan,SD,,Sudan - Northern,2013-11-12,
Passer domesticus rufidorsalis,Animalia,OLD_WORLD_SPARROWS_PASSERIDAE,House Sparrow ssp rufidorsalis,,1,30.4405242205,19.4501738918,Africa,Sudan,SD,,Sudan - Northern,2013-11-12,
Merops orientalis cleopatra,Animalia,BEEEATERS_MEROPIDAE,Green Bee-eater ssp cleopatra,,1,30.4405242205,19.4501738918,Africa,Sudan,SD,,Sudan - Northern,2013-11-12,
Upupa epops senegalensis,Animalia,HOOPOES_UPUPIDAE,Eurasian Hoopoe ssp senegalensis,,1,30.4405242205,19.4501738918,Africa,Sudan,SD,,Sudan - Northern,2013-11-12,
Merops orientalis cleopatra,Animalia,BEEEATERS_MEROPIDAE,Green Bee-eater ssp cleopatra,,1,30.7332658768,18.2549476799,Africa,Sudan,SD,,Sudan - Northern,2013-11-12,
Oenanthe deserti homochroa,Animalia,OLD_WORLD_FLYCATCHERS_MUSCICAPIDAE,Desert Wheatear ssp homochroa,,1,30.7332658768,18.2549476799,Africa,Sudan,SD,,Sudan - Northern,2013-11-12,
Upupa epops senegalensis,Animalia,HOOPOES_UPUPIDAE,Eurasian Hoopoe ssp senegalensis,,1,30.7455611229,18.2212396097,Africa,Sudan,SD,,Sudan - Northern,2013-11-12,
Vanellus spinosus,Animalia,PLOVERS_CHARADRIIDAE,Spur-winged Lapwing,,1,30.7455611229,18.2212396097,Africa,Sudan,SD,,Sudan - Northern,2013-11-12,
Neophron percnopterus percnopterus,Animalia,HAWKS_AND_EAGLES_ACCIPITRIDAE,Egyptian Vulture ssp percnopterus,,1,30.7455611229,18.2212396097,Africa,Sudan,SD,,Sudan - Northern,2013-11-12,
Milvus aegyptius aegyptius,Animalia,HAWKS_AND_EAGLES_ACCIPITRIDAE,Yellow-billed Kite ssp aegyptius,,1,30.7455611229,18.2212396097,Africa,Sudan,SD,,Sudan - Northern,2013-11-12,
Passer domesticus rufidorsalis,Animalia,OLD_WORLD_SPARROWS_PASSERIDAE,House Sparrow ssp rufidorsalis,,1,30.7455611229,18.2212396097,Africa,Sudan,SD,,Sudan - Northern,2013-11-12,
Taphozous nudiventris,Animalia,SACWINGED_BATS_EMBALLONURIDAE,Naked-rumped Tomb Bat,,1,30.7455611229,18.2212396097,Africa,Sudan,SD,,Sudan - Northern,2013-11-12,
Senna italica,Plantae,Fabaceae,Italian Senna,,1,30.7455611229,18.2212396097,Africa,Sudan,SD,,Sudan - Northern,2013-11-12,
Sphingonotus savignyi,Animalia,SHORTHORNED_GRASSHOPPERS_ACRIDIDAE,,,1,30.7931113244,18.2066915614,Africa,Sudan,SD,,Sudan - Northern,2013-11-11,
Vanessa cardui,Animalia,BRUSHFOOTED_BUTTERFLIES_NYMPHALIDAE,Painted Lady,,1,30.7972311974,18.2053870185,Africa,Sudan,SD,,Sudan - Northern,2013-11-11,
Citrullus colocynthis,Plantae,CUCURBITACEAE,Colocynth,,1,31.8076300621,16.7021405211,Africa,Sudan,SD,,Sudan - Northern,2013-11-11,
Passer domesticus rufidorsalis,Animalia,OLD_WORLD_SPARROWS_PASSERIDAE,House Sparrow ssp rufidorsalis,,1,31.8076300621,16.7021405211,Africa,Sudan,SD,,Sudan - Northern,2013-11-11,
Spilopelia senegalensis senegalensis,Animalia,PIGEONS_AND_DOVES_COLUMBIDAE,Laughing Dove ssp senegalensis,,1,31.8076300621,16.7021405211,Africa,Sudan,SD,,Sudan - Northern,2013-11-11,
Motacilla alba alba,Animalia,PIPITS_EN_WAGTAILS_MOTACILLIDAE,White Wagtail ssp alba,,1,31.8076300621,16.7021405211,Africa,Sudan,SD,,Sudan - Northern,2013-11-11,
Tarucus rosaceus,Animalia,GOSSAMERWINGED_BUTTERFLIES_LYCAENIDAE,Mediterranean Blue,,1,32.4903005362,15.6289934037,Africa,Sudan,SD,,Sudan - Khartoum,2013-11-10,
Calotropis procera,Plantae,APOCYNACEAE,Roostertree,,1,32.4903005362,15.6289934037,Africa,Sudan,SD,,Sudan - Khartoum,2013-11-10,
Passer domesticus rufidorsalis,Animalia,OLD_WORLD_SPARROWS_PASSERIDAE,House Sparrow ssp rufidorsalis,,1,32.4903005362,15.6289934037,Africa,Sudan,SD,,Sudan - Khartoum,2013-11-10,
Merops pusillus ocularis,Animalia,BEEEATERS_MEROPIDAE,Little Bee-eater ssp ocularis,,1,32.4944204092,15.6137012482,Africa,Sudan,SD,,Sudan - Khartoum,2013-11-10,
Urocolius macrourus griseogularis,Animalia,MOUSEBIRDS_COLIIDAE,Blue-naped Mousebird ssp griseogularis,,1,32.5119030476,15.6074807341,Africa,Sudan,SD,,Sudan - Khartoum,2013-11-10,
Ardea alba alba,Animalia,HERONS_ARDEIDAE,Great Egret ssp alba,,1,32.5141131878,15.6074600677,Africa,Sudan,SD,,Sudan - Khartoum,2013-11-10,
Chlidonias hybrida,Animalia,GULLS_TERNS_AND_SKIMMERS_LARIDAE,Whiskered Tern,,1,32.558,15.609,Africa,Sudan,SD,,Sudan - Khartoum,2008-09-05,
Vanellus senegallus,Animalia,PLOVERS_CHARADRIIDAE,African Wattled Lapwing,,2,32.0225216168,3.58701850004,Africa,Sudan,SD,,Sudan - Equatoria,2012-04-07,
Uraeginthus bengalus,Animalia,WAXBILLS_MUNIAS_ALLIES_ESTRILDIDAE,Red-cheeked Cordon-bleu,,4,31.5969577253,4.84793391856,Africa,Sudan,SD,,Sudan - Badinglo NP,2012-04-09,
Uraeginthus bengalus,Animalia,WAXBILLS_MUNIAS_ALLIES_ESTRILDIDAE,Red-cheeked Cordon-bleu,,4,31.5966144025,4.84571030053,Africa,Sudan,SD,,Sudan - Badinglo NP,2012-04-03,
Coracias abyssinicus,Animalia,ROLLERS_CORACIIDAE,Abyssinian Roller,,1,31.5966144025,4.84571030053,Africa,Sudan,SD,,Sudan - Badinglo NP,2012-04-03,
Necrosyrtes monachus,Animalia,HAWKS_AND_EAGLES_ACCIPITRIDAE,Hooded Vulture,,1,31.5983310163,4.84519715687,Africa,Sudan,SD,,Sudan - Badinglo NP,2012-03-24,
Uraeginthus bengalus,Animalia,WAXBILLS_MUNIAS_ALLIES_ESTRILDIDAE,Red-cheeked Cordon-bleu,,1,31.598674339,4.84143409145,Africa,Sudan,SD,,Sudan - Badinglo NP,2012-03-17,
Coracias abyssinicus,Animalia,ROLLERS_CORACIIDAE,Abyssinian Roller,,2,31.570865196,4.83185528505,Africa,Sudan,SD,,Sudan - Badinglo NP,2012-03-17,
Ardeola ralloides,Animalia,HERONS_ARDEIDAE,Squacco Heron,,4,30.4723101631,19.0268710389,Africa,Sudan,SD,,Sudan - Northern,2012-03-14,15:00
Tringa nebularia,Animalia,SANDPIPERS_AND_ALLIES_SCOLOPACIDAE,Common Greenshank,,1,30.4664611816,19.020577111,Africa,Sudan,SD,,Sudan - Northern,2012-03-01,15:00
Elanus caeruleus,Animalia,HAWKS_AND_EAGLES_ACCIPITRIDAE,Black-winged Kite,,1,30.4705810547,19.020577111,Africa,Sudan,SD,,Sudan - Northern,2012-03-01,15:00
Oenanthe deserti,Animalia,OLD_WORLD_FLYCATCHERS_MUSCICAPIDAE,Desert Wheatear,,1,30.4850006104,19.0536807556,Africa,Sudan,SD,,Sudan - Northern,2012-02-28,16:00
Apis mellifera,Animalia,Apidae,Western Honey Bee,,1000,30.472984314,19.0196033745,Africa,Sudan,SD,,Sudan - Northern,2012-02-27,10:00
Lanius nubicus,Animalia,SHRIKES_LANIIDAE,Masked Shrike,,1,30.4870605469,18.9322685114,Africa,Sudan,SD,,Sudan - Northern,2012-02-27,
Estrilda rhodopyga,Animalia,WAXBILLS_MUNIAS_ALLIES_ESTRILDIDAE,Crimson-rumped Waxbill,,1,32.5854492188,15.6124561272,Africa,Sudan,SD,,Sudan - Khartoum,2008-09-12,
Ploceus taeniopterus,Animalia,WEAVERS_PLOCEIDAE,Northern Masked Weaver,,1,30.4716110229,19.0132739483,Africa,Sudan,SD,,Sudan - Northern,2012-02-07,12:00
Bucanetes githagineus,Animalia,FINCHES_FRINGILLIDAE,Trumpeter Finch,,4,30.4697227478,19.008404995,Africa,Sudan,SD,,Sudan - Northern,2012-02-07,12:00
Oenanthe deserti,Animalia,OLD_WORLD_FLYCATCHERS_MUSCICAPIDAE,Desert Wheatear,,1,30.4825115204,19.0219565613,Africa,Sudan,SD,,Sudan - Northern,2012-02-12,12:00
Ciconia ciconia,Animalia,STORKS_CICONIIDAE,White Stork,,1,30.282721,19.126759999,Africa,Sudan,SD,,Sudan - Northern,2012-02-10,16:15
Upupa epops,Animalia,HOOPOES_UPUPIDAE,Eurasian Hoopoe,,1,30.4824539255,19.0225783353,Africa,Sudan,SD,,Sudan - Northern,2012-02-07,09:00
Danaus chrysippus,Animalia,BRUSHFOOTED_BUTTERFLIES_NYMPHALIDAE,African Monarch,,5,30.4756733,19.02281162,Africa,Sudan,SD,,Sudan - Northern,2012-02-03,12:15
Merops orientalis,Animalia,BEEEATERS_MEROPIDAE,Green Bee-eater,,10,30.2821639999,19.13163999,Africa,Sudan,SD,,Sudan - Northern,2012-02-03,12:00
Argya fulva,Animalia,Leiothrichidae,Fulvous Babbler,,4,30.4789924622,19.0258514178,Africa,Sudan,SD,,Sudan - Northern,2012-01-28,08:20
Cercotrichas podobe,Animalia,OLD_WORLD_FLYCATCHERS_MUSCICAPIDAE,Black Scrub Robin,,2,30.4761882853,19.0244344823,Africa,Sudan,SD,,Sudan - Northern,2012-01-28,08:15
Bubulcus ibis,Animalia,HERONS_ARDEIDAE,Western Cattle Egret,,1,30.473785026,19.0247590524,Africa,Sudan,SD,,Sudan - Northern,2012-01-28,08:00
Megachile spec.,Animalia,MEGACHILIDAE,,,5,30.4827221464,19.0229688379,Africa,Sudan,SD,,Sudan - Northern,2012-01-27,12:00
Caprimulgus aegyptius,Animalia,NIGHTJARS_CAPRIMULGIDAE,Egyptian Nightjar,,4,30.4827224164,19.0229688379,Africa,Sudan,SD,,Sudan - Northern,2012-01-26,10:00
Varanus niloticus,Animalia,Varanidae,Nile Monitor,,2,32.5886269426,15.5946235846,Africa,Sudan,SD,,Sudan - Khartoum,2012-01-21,15:16
Ceryle rudis,Animalia,KINGFISHERS_ALCEDINIDAE,Pied Kingfisher,,1,32.4901771546,15.6226786387,Africa,Sudan,SD,,Sudan - Khartoum,2012-01-20,15:00
Vanellus spinosus,Animalia,PLOVERS_CHARADRIIDAE,Spur-winged Lapwing,,30,32.4987026285,15.5881132794,Africa,Sudan,SD,,Sudan - Khartoum,2012-01-20,14:00
Pluvianus aegyptius,Animalia,Pluvianidae,Egyptian Plover,,2,32.4902912211,15.6228332932,Africa,Sudan,SD,,Sudan - Khartoum,2012-01-20,15:00
Turtur abyssinicus,Animalia,PIGEONS_AND_DOVES_COLUMBIDAE,Black-billed Wood Dove,,1,31.6056060791,6.18728963135,Africa,Sudan,SD,,Sudan - Upper Nile,2008-12-23,
Oena capensis,Animalia,PIGEONS_AND_DOVES_COLUMBIDAE,Namaqua Dove,,1,31.6056060791,6.18728963135,Africa,Sudan,SD,,Sudan - Upper Nile,2008-10-05,
Oena capensis,Animalia,PIGEONS_AND_DOVES_COLUMBIDAE,Namaqua Dove,,1,32.5531768799,15.5783682192,Africa,Sudan,SD,,Sudan - Khartoum,2008-08-30,
Tchagra senegalus,Animalia,HELMETSHRIKES_BUSHSHRIKES_MALACONOTIDAE,Black-crowned Tchagra,,1,31.6124725342,6.067130414,Africa,Sudan,SD,,Sudan - Upper Nile,2009-02-04,
Tchagra senegalus,Animalia,HELMETSHRIKES_BUSHSHRIKES_MALACONOTIDAE,Black-crowned Tchagra,,1,31.6066360474,6.19275076894,Africa,Sudan,SD,,Sudan - Upper Nile,2008-11-18,
Ardea melanocephala,Animalia,HERONS_ARDEIDAE,Black-headed Heron,,1,31.4329147339,7.17070030345,Africa,Sudan,SD,,Sudan - Upper Nile,2009-01-20,
Ardea melanocephala,Animalia,HERONS_ARDEIDAE,Black-headed Heron,,1,31.6086959839,6.19070284896,Africa,Sudan,SD,,Sudan - Upper Nile,2008-10-02,
Ardea melanocephala,Animalia,HERONS_ARDEIDAE,Black-headed Heron,,1,31.6533279419,9.53876797879,Africa,Sudan,SD,,Sudan - Upper Nile,2008-09-21,
Ardea melanocephala,Animalia,HERONS_ARDEIDAE,Black-headed Heron,,1,32.5521469116,15.6120979158,Africa,Sudan,SD,,Sudan - Khartoum,2008-08-30,
Vanellus tectus,Animalia,PLOVERS_CHARADRIIDAE,Black-headed Lapwing,,1,31.6114425659,6.18660698518,Africa,Sudan,SD,,Sudan - Upper Nile,2008-10-14,
Laniarius erythrogaster,Animalia,HELMETSHRIKES_BUSHSHRIKES_MALACONOTIDAE,Black-headed Gonolek,,1,31.615562439,6.06371640604,Africa,Sudan,SD,,Sudan - Upper Nile,2009-01-29,
Laniarius erythrogaster,Animalia,HELMETSHRIKES_BUSHSHRIKES_MALACONOTIDAE,Black-headed Gonolek,,1,31.614189148,6.1852416902,Africa,Sudan,SD,,Sudan - Upper Nile,2009-01-28,
Laniarius erythrogaster,Animalia,HELMETSHRIKES_BUSHSHRIKES_MALACONOTIDAE,Black-headed Gonolek,,1,31.6828536988,9.52996489255,Africa,Sudan,SD,,Sudan - Upper Nile,2008-09-26,
Balearica pavonina,Animalia,CRANES_GRUIDAE,Black Crowned Crane,,1,31.4274215698,7.17410666582,Africa,Sudan,SD,,Sudan - Upper Nile,2009-02-05,
Balearica pavonina,Animalia,CRANES_GRUIDAE,Black Crowned Crane,,1,31.6526412964,9.53267355866,Africa,Sudan,SD,,Sudan - Upper Nile,2008-09-25,
Plegadis falcinellus,Animalia,IBISSES_AND_SPOONBILLS_THRESKIORNITHIDAE,Glossy Ibis,,1,31.6025161743,4.86894044481,Africa,Sudan,SD,,Sudan - Badinglo NP,2008-11-08,
Rhinopomastus aterrimus,Animalia,WOOD_HOOPOES_PHOENICULIDAE,Black Scimitarbill,,1,31.6121292114,6.18592433813,Africa,Sudan,SD,,Sudan - Upper Nile,2009-02-09,
Lissotis melanogaster,Animalia,BUSTARDS_OTIDIDAE,Black-bellied Bustard,,1,31.4294815064,7.17461761797,Africa,Sudan,SD,,Sudan - Upper Nile,2009-02-07,
Merops hirundineus,Animalia,BEEEATERS_MEROPIDAE,Swallow-tailed Bee-eater,,1,31.6121292114,6.18711896989,Africa,Sudan,SD,,Sudan - Upper Nile,2009-01-31,
Anthreptes longuemarei,Animalia,SUNBIRDS_NECTARINIIDAE,Western Violet-backed Sunbird,,1,31.6121292114,6.18711896989,Africa,Sudan,SD,,Sudan - Upper Nile,2009-01-30,
Empidornis semipartitus,Animalia,OLD_WORLD_FLYCATCHERS_MUSCICAPIDAE,Silverbird,,1,31.4287948609,7.18006773862,Africa,Sudan,SD,,Sudan - Upper Nile,2009-01-29,
Empidornis semipartitus,Animalia,OLD_WORLD_FLYCATCHERS_MUSCICAPIDAE,Silverbird,,1,31.603717804,6.19394538527,Africa,Sudan,SD,,Sudan - Upper Nile,2008-10-02,
Euodice cantans,Animalia,WAXBILLS_MUNIAS_ALLIES_ESTRILDIDAE,African Silverbill,,1,32.5409889221,15.6082953351,Africa,Sudan,SD,,Sudan - Khartoum,2008-08-28,
Ephippiorhynchus senegalensis,Animalia,STORKS_CICONIIDAE,Saddle-billed Stork,,1,31.4231300354,7.16746423559,Africa,Sudan,SD,,Sudan - Upper Nile,2009-02-07,
Ephippiorhynchus senegalensis,Animalia,STORKS_CICONIIDAE,Saddle-billed Stork,,1,31.6105842591,6.19019086772,Africa,Sudan,SD,,Sudan - Upper Nile,2008-10-31,
Ephippiorhynchus senegalensis,Animalia,STORKS_CICONIIDAE,Saddle-billed Stork,,1,31.6569328308,9.53165781139,Africa,Sudan,SD,,Sudan - Upper Nile,2008-09-25,
Dendrocygna viduata,Animalia,DUCKS_GEESE_AND_SWANS_ANATIDAE,White-faced Whistling Duck,,1,31.4095687866,7.1775130027,Africa,Sudan,SD,,Sudan - Upper Nile,2009-02-05,
Dendrocygna viduata,Animalia,DUCKS_GEESE_AND_SWANS_ANATIDAE,White-faced Whistling Duck,,1,31.6059494019,4.864835426,Africa,Sudan,SD,,Sudan - Badinglo NP,2008-11-08,
Dendrocygna viduata,Animalia,DUCKS_GEESE_AND_SWANS_ANATIDAE,White-faced Whistling Duck,,1,31.6062927246,6.19377472596,Africa,Sudan,SD,,Sudan - Upper Nile,2008-10-12,
Dendrocygna viduata,Animalia,DUCKS_GEESE_AND_SWANS_ANATIDAE,White-faced Whistling Duck,,1,31.6605377197,9.52861055143,Africa,Sudan,SD,,Sudan - Upper Nile,2008-09-25,
Dendrocygna viduata,Animalia,DUCKS_GEESE_AND_SWANS_ANATIDAE,White-faced Whistling Duck,,1,32.5518035889,15.613420536,Africa,Sudan,SD,,Sudan - Khartoum,2008-08-31,
Chlidonias leucopterus,Animalia,GULLS_TERNS_AND_SKIMMERS_LARIDAE,White-winged Tern,,1,31.6534996033,9.53199639415,Africa,Sudan,SD,,Sudan - Upper Nile,2008-09-25,
Chlidonias leucopterus,Animalia,GULLS_TERNS_AND_SKIMMERS_LARIDAE,White-winged Tern,,1,32.5580922712,15.6092477832,Africa,Sudan,SD,,Sudan - Khartoum,2008-09-05,
Chlidonias leucopterus,Animalia,GULLS_TERNS_AND_SKIMMERS_LARIDAE,White-winged Tern,,1,32.5580922712,15.6092477832,Africa,Sudan,SD,,Sudan - Khartoum,2008-08-31,
Chlidonias leucopterus,Animalia,GULLS_TERNS_AND_SKIMMERS_LARIDAE,White-winged Tern,,1,32.5580922712,15.6092477832,Africa,Sudan,SD,,Sudan - Khartoum,2008-08-30,
Motacilla alba,Animalia,PIPITS_EN_WAGTAILS_MOTACILLIDAE,White Wagtail,,1,31.6105214704,6.18503021678,Africa,Sudan,SD,,Sudan - Upper Nile,2008-11-07,
Gyps africanus,Animalia,HAWKS_AND_EAGLES_ACCIPITRIDAE,White-backed Vulture,,1,31.6105214704,6.18503021678,Africa,Sudan,SD,,Sudan - Upper Nile,2008-10-05,
Gyps africanus,Animalia,HAWKS_AND_EAGLES_ACCIPITRIDAE,White-backed Vulture,,1,31.6750661481,9.51892023045,Africa,Sudan,SD,,Sudan - Upper Nile,2008-09-26,
Trigonoceps occipitalis,Animalia,HAWKS_AND_EAGLES_ACCIPITRIDAE,White-headed Vulture,,1,31.4237538923,7.16844542486,Africa,Sudan,SD,,Sudan - Upper Nile,2009-01-29,
Trigonoceps occipitalis,Animalia,HAWKS_AND_EAGLES_ACCIPITRIDAE,White-headed Vulture,,1,31.6084615339,6.19117401888,Africa,Sudan,SD,,Sudan - Upper Nile,2008-10-01,
Trigonoceps occipitalis,Animalia,HAWKS_AND_EAGLES_ACCIPITRIDAE,White-headed Vulture,,1,31.6551534284,9.53720390111,Africa,Sudan,SD,,Sudan - Upper Nile,2008-09-23,
Turdoides leucocephala,Animalia,Leiothrichidae,White-headed Babbler,,1,32.5210134137,15.631070229,Africa,Sudan,SD,,Sudan - Khartoum,2009-02-23,
Streptopelia vinacea,Animalia,PIGEONS_AND_DOVES_COLUMBIDAE,Vinaceous Dove,,1,31.6173879255,6.18571286499,Africa,Sudan,SD,,Sudan - Upper Nile,2008-12-18,
Oriolus oriolus,Animalia,ORIOLES_AND_FIG_BIRDS_ORIOLIDAE,Eurasian Golden Oriole,,1,32.5141469587,15.6271026844,Africa,Sudan,SD,,Sudan - Khartoum,2008-09-15,
Centropus superciliosus,Animalia,CUCKOOS_AND_COUCALS_CUCULIDAE,White-browed Coucal,,1,32.5141469587,15.6271026844,Africa,Sudan,SD,,Sudan - Khartoum,2008-08-30,
Hieraaetus wahlbergi,Animalia,HAWKS_AND_EAGLES_ACCIPITRIDAE,Wahlberg's Eagle,,1,31.6083526612,6.1924094495,Africa,Sudan,SD,,Sudan - Upper Nile,2008-10-22,
Lagonosticta senegala,Animalia,WAXBILLS_MUNIAS_ALLIES_ESTRILDIDAE,Red-billed Firefinch,,1,31.6083526612,6.1924094495,Africa,Sudan,SD,,Sudan - Upper Nile,2009-01-31,
Lagonosticta senegala,Animalia,WAXBILLS_MUNIAS_ALLIES_ESTRILDIDAE,Red-billed Firefinch,,1,31.65,9.53,Africa,Sudan,SD,,Sudan - Upper Nile,2008-09-26,
Pandion haliaetus,Animalia,OSPREY_PANDIONIDAE,Western Osprey,,1,31.657447815,9.53402788366,Africa,Sudan,SD,,Sudan - Upper Nile,2008-09-22,
Melaenornis pallidus,Animalia,OLD_WORLD_FLYCATCHERS_MUSCICAPIDAE,Pale Flycatcher,,1,31.6066360474,6.19343340717,Africa,Sudan,SD,,Sudan - Upper Nile,2009-01-29,
Phoenicurus phoenicurus,Animalia,OLD_WORLD_FLYCATCHERS_MUSCICAPIDAE,Common Redstart,,1,31.6241455078,6.17741962071,Africa,Sudan,SD,,Sudan - Upper Nile,2009-01-28,
Bubo cinerascens,Animalia,OWLS_STRIGIDAE,Greyish Eagle-Owl,,1,31.6057149518,6.19424589314,Africa,Sudan,SD,,Sudan - Upper Nile,2008-12-17,
Bubo cinerascens,Animalia,OWLS_STRIGIDAE,Greyish Eagle-Owl,,1,31.6757527936,9.53246378425,Africa,Sudan,SD,,Sudan - Upper Nile,2008-09-30,
Streptopelia decipiens,Animalia,PIGEONS_AND_DOVES_COLUMBIDAE,Mourning Collared Dove,,1,31.6070882428,6.19253929853,Africa,Sudan,SD,,Sudan - Upper Nile,2008-12-15,
Streptopelia decipiens,Animalia,PIGEONS_AND_DOVES_COLUMBIDAE,Mourning Collared Dove,,1,31.6551534284,9.53720390111,Africa,Sudan,SD,,Sudan - Upper Nile,2008-09-25,
Streptopelia decipiens,Animalia,PIGEONS_AND_DOVES_COLUMBIDAE,Mourning Collared Dove,,1,32.5374929059,15.580808991,Africa,Sudan,SD,,Sudan - Khartoum,2008-09-12,
Falco tinnunculus,Animalia,CARACAS_AND_FALCONS_FALCONIDAE,Common Kestrel,,1,31.4141408552,7.18683956986,Africa,Sudan,SD,,Sudan - Upper Nile,2009-02-05,
Lagonosticta senegala,Animalia,WAXBILLS_MUNIAS_ALLIES_ESTRILDIDAE,Red-billed Firefinch,,1,31.6118947614,6.18571286499,Africa,Sudan,SD,,Sudan - Upper Nile,2008-10-10,
Estrilda rhodopyga,Animalia,WAXBILLS_MUNIAS_ALLIES_ESTRILDIDAE,Crimson-rumped Waxbill,,1,32.5292531598,15.613876981,Africa,Sudan,SD,,Sudan - Khartoum,2008-09-12,
Oenanthe oenanthe,Animalia,OLD_WORLD_FLYCATCHERS_MUSCICAPIDAE,Northern Wheatear,,1,31.6080749295,6.19173372042,Africa,Sudan,SD,,Sudan - Upper Nile,2009-01-29,
Oenanthe isabellina,Animalia,OLD_WORLD_FLYCATCHERS_MUSCICAPIDAE,Isabelline Wheatear,,1,31.6080749295,6.19173372042,Africa,Sudan,SD,,Sudan - Upper Nile,2008-12-15,
Oenanthe oenanthe,Animalia,OLD_WORLD_FLYCATCHERS_MUSCICAPIDAE,Northern Wheatear,,1,31.6080749295,6.19173372042,Africa,Sudan,SD,,Sudan - Upper Nile,2008-11-19,
Oenanthe oenanthe,Animalia,OLD_WORLD_FLYCATCHERS_MUSCICAPIDAE,Northern Wheatear,,1,31.6121948025,4.86586860902,Africa,Sudan,SD,,Sudan - Badinglo NP,2008-11-09,
Oenanthe oenanthe,Animalia,OLD_WORLD_FLYCATCHERS_MUSCICAPIDAE,Northern Wheatear,,1,31.6067016385,6.19105107999,Africa,Sudan,SD,,Sudan - Upper Nile,2008-10-22,
Oenanthe oenanthe,Animalia,OLD_WORLD_FLYCATCHERS_MUSCICAPIDAE,Northern Wheatear,,1,31.6657531521,9.51947546367,Africa,Sudan,SD,,Sudan - Upper Nile,2008-09-25,
Lagonosticta rufopicta,Animalia,WAXBILLS_MUNIAS_ALLIES_ESTRILDIDAE,Bar-breasted Firefinch,,1,31.6097259521,6.19107261383,Africa,Sudan,SD,,Sudan - Upper Nile,2008-10-05,
Himantopus himantopus,Animalia,STILTS_AND_AVOCETS_RECURVIROSTRIDAE,Black-winged Stilt,,1,31.4216506741,7.17411356242,Africa,Sudan,SD,,Sudan - Upper Nile,2009-02-05,
Himantopus himantopus,Animalia,STILTS_AND_AVOCETS_RECURVIROSTRIDAE,Black-winged Stilt,,1,31.6118514798,6.18115269471,Africa,Sudan,SD,,Sudan - Upper Nile,2008-10-16,
Himantopus himantopus,Animalia,STILTS_AND_AVOCETS_RECURVIROSTRIDAE,Black-winged Stilt,,1,32.5511825345,15.6094593444,Africa,Sudan,SD,,Sudan - Khartoum,2008-09-05,
Columba livia domestica,Animalia,PIGEONS_AND_DOVES_COLUMBIDAE,Feral Pigeon,,1,32.5511825345,15.6094593444,Africa,Sudan,SD,,Sudan - Khartoum,2008-09-03,
Butastur rufipennis,Animalia,HAWKS_AND_EAGLES_ACCIPITRIDAE,Grasshopper Buzzard,,1,31.6070449612,6.1927576794,Africa,Sudan,SD,,Sudan - Upper Nile,2008-12-18,
Butastur rufipennis,Animalia,HAWKS_AND_EAGLES_ACCIPITRIDAE,Grasshopper Buzzard,,1,31.6091048977,4.86518443783,Africa,Sudan,SD,,Sudan - Badinglo NP,2008-11-09,
Vanellus spinosus,Animalia,PLOVERS_CHARADRIIDAE,Spur-winged Lapwing,,1,31.6108215115,6.19344031762,Africa,Sudan,SD,,Sudan - Upper Nile,2008-10-14,
Vanellus spinosus,Animalia,PLOVERS_CHARADRIIDAE,Spur-winged Lapwing,,1,32.5858581326,15.5515856237,Africa,Sudan,SD,,Sudan - Khartoum,2008-09-05,
Plectropterus gambensis,Animalia,DUCKS_GEESE_AND_SWANS_ANATIDAE,Spur-winged Goose,,1,31.4254272244,7.15946602374,Africa,Sudan,SD,,Sudan - Upper Nile,2009-02-05,
Plectropterus gambensis,Animalia,DUCKS_GEESE_AND_SWANS_ANATIDAE,Spur-winged Goose,,1,31.653393533,9.53572763731,Africa,Sudan,SD,,Sudan - Upper Nile,2008-09-21,
Passer luteus,Animalia,OLD_WORLD_SPARROWS_PASSERIDAE,Sudan Golden Sparrow,,1,32.536419656,15.6011926684,Africa,Sudan,SD,,Sudan - Khartoum,2008-08-30,
Vidua paradisaea,Animalia,INDIGOBIRDS_AND_WHYDAHS_VIDUIDAE,Long-tailed Paradise Whydah,,1,31.6080749295,6.19105107999,Africa,Sudan,SD,,Sudan - Upper Nile,2008-10-22,
Vidua paradisaea,Animalia,INDIGOBIRDS_AND_WHYDAHS_VIDUIDAE,Long-tailed Paradise Whydah,,1,31.6540801785,9.53640479442,Africa,Sudan,SD,,Sudan - Upper Nile,2008-09-25,
Circaetus beaudouini,Animalia,HAWKS_AND_EAGLES_ACCIPITRIDAE,Beaudouin's Snake Eagle,,1,31.4350402615,7.16491632569,Africa,Sudan,SD,,Sudan - Upper Nile,2009-01-29,
Circaetus beaudouini,Animalia,HAWKS_AND_EAGLES_ACCIPITRIDAE,Beaudouin's Snake Eagle,,1,31.6108215115,6.19173372042,Africa,Sudan,SD,,Sudan - Upper Nile,2009-01-28,
Circaetus beaudouini,Animalia,HAWKS_AND_EAGLES_ACCIPITRIDAE,Beaudouin's Snake Eagle,,1,31.5991485379,4.86997362153,Africa,Sudan,SD,,Sudan - Badinglo NP,2008-11-08,
Estrilda astrild,Animalia,WAXBILLS_MUNIAS_ALLIES_ESTRILDIDAE,Common Waxbill,,1,31.6094482205,6.18695521891,Africa,Sudan,SD,,Sudan - Upper Nile,2008-11-05,
Halcyon senegalensis,Animalia,KINGFISHERS_ALCEDINIDAE,Woodland Kingfisher,,1,31.6094482205,6.18695521891,Africa,Sudan,SD,,Sudan - Upper Nile,2008-10-05,
Halcyon senegalensis,Animalia,KINGFISHERS_ALCEDINIDAE,Woodland Kingfisher,,1,31.6554534695,9.5391134094,Africa,Sudan,SD,,Sudan - Upper Nile,2008-09-26,
Sylvietta brachyura,Animalia,Macrosphenidae,Northern Crombec,,1,31.608761575,6.06816152425,Africa,Sudan,SD,,Sudan - Upper Nile,2009-02-04,
Sylvietta brachyura,Animalia,Macrosphenidae,Northern Crombec,,1,31.6087799072,6.19150814435,Africa,Sudan,SD,,Sudan - Upper Nile,2008-10-19,
Burhinus senegalensis,Animalia,THICKKNEES_BURHINIDAE,Senegal Thick-knee,,1,31.4261138699,7.17581673402,Africa,Sudan,SD,,Sudan - Upper Nile,2009-02-07,
Burhinus senegalensis,Animalia,THICKKNEES_BURHINIDAE,Senegal Thick-knee,,1,31.607388284,6.19105107999,Africa,Sudan,SD,,Sudan - Upper Nile,2008-11-05,
Burhinus senegalensis,Animalia,THICKKNEES_BURHINIDAE,Senegal Thick-knee,,1,31.653393533,9.53437331907,Africa,Sudan,SD,,Sudan - Upper Nile,2008-09-27,
Burhinus senegalensis,Animalia,THICKKNEES_BURHINIDAE,Senegal Thick-knee,,1,32.5377929471,15.683844415,Africa,Sudan,SD,,Sudan - Khartoum,2008-09-15,
Sporopipes frontalis,Animalia,WEAVERS_PLOCEIDAE,Speckle-fronted Weaver,,1,31.608761575,6.19105107999,Africa,Sudan,SD,,Sudan - Upper Nile,2009-02-09,
Corvus albus,Animalia,CROWS_AND_JAYS_CORVIDAE,Pied Crow,,1,31.608761575,6.19105107999,Africa,Sudan,SD,,Sudan - Upper Nile,2008-10-31,
Corvus albus,Animalia,CROWS_AND_JAYS_CORVIDAE,Pied Crow,,1,31.6582000515,9.53437331907,Africa,Sudan,SD,,Sudan - Upper Nile,2008-09-21,
Coracias garrulus,Animalia,ROLLERS_CORACIIDAE,European Roller,,1,31.6046417019,4.8576585089,Africa,Sudan,SD,,Sudan - Badinglo NP,2008-11-09,
Coracias abyssinicus,Animalia,ROLLERS_CORACIIDAE,Abyssinian Roller,,1,31.6121948025,6.18763786463,Africa,Sudan,SD,,Sudan - Upper Nile,2008-10-31,
Coracias abyssinicus,Animalia,ROLLERS_CORACIIDAE,Abyssinian Roller,,1,32.5474059842,15.6792168002,Africa,Sudan,SD,,Sudan - Khartoum,2008-09-15,
Gyps rueppelli,Animalia,HAWKS_AND_EAGLES_ACCIPITRIDAE,RÃ¼ppell's Vulture,,1,31.6080749295,6.18968579649,Africa,Sudan,SD,,Sudan - Upper Nile,2008-11-19,
Lybius guifsobalito,Animalia,Lybiidae,Black-billed Barbet,,1,31.6080749295,6.18968579649,Africa,Sudan,SD,,Sudan - Upper Nile,2009-01-29,
Tockus erythrorhynchus,Animalia,HORNBILLS_BUCEROTIDAE,Northern Red-billed Hornbill,,1,31.6080749295,6.18968579649,Africa,Sudan,SD,,Sudan - Upper Nile,2008-10-08,
Euplectes axillaris,Animalia,WEAVERS_PLOCEIDAE,Fan-tailed Widowbird,,1,31.4178741238,7.17445419725,Africa,Sudan,SD,,Sudan - Upper Nile,2008-09-27,
Euplectes axillaris,Animalia,WEAVERS_PLOCEIDAE,Fan-tailed Widowbird,,1,31.6623199246,9.53843625767,Africa,Sudan,SD,,Sudan - Upper Nile,2008-09-27,
Campephaga phoenicea,Animalia,CUCKOOSHRIKES_CAMPEPHAGIDAE,Red-shouldered Cuckooshrike,,1,31.612881448,6.18968579649,Africa,Sudan,SD,,Sudan - Upper Nile,2008-10-17,
Falco chicquera,Animalia,CARACAS_AND_FALCONS_FALCONIDAE,Red-necked Falcon,,1,31.610134866,4.85560596824,Africa,Sudan,SD,,Sudan - Badinglo NP,2009-02-15,
Lanius senator,Animalia,SHRIKES_LANIIDAE,Woodchat Shrike,,1,31.607388284,6.19173372042,Africa,Sudan,SD,,Sudan - Upper Nile,2008-12-18,
Lanius senator,Animalia,SHRIKES_LANIIDAE,Woodchat Shrike,,1,31.6616332791,9.52760164721,Africa,Sudan,SD,,Sudan - Upper Nile,2008-09-25,
Lybius vieilloti,Animalia,Lybiidae,Vieillot's Barbet,,1,32.5611388943,15.7076419184,Africa,Sudan,SD,,Sudan - Khartoum,2008-09-15,
Cecropis semirufa,Animalia,SWALLOWS_HIRUNDINIDAE,Red-breasted Swallow,,1,31.6128997803,6.18331639753,Africa,Sudan,SD,,Sudan - Upper Nile,2009-01-31,
Chalcomitra senegalensis,Animalia,SUNBIRDS_NECTARINIIDAE,Scarlet-chested Sunbird,,1,31.6128997803,6.18331639753,Africa,Sudan,SD,,Sudan - Upper Nile,2008-10-04,
Quelea quelea,Animalia,WEAVERS_PLOCEIDAE,Red-billed Quelea,,1,31.6128997803,6.18331639753,Africa,Sudan,SD,,Sudan - Upper Nile,2009-02-02,
Prinia subflava,Animalia,CISTICOLAS_AND_ALLIES_CISTICOLIDAE,Tawny-flanked Prinia,,1,31.6128997803,6.18331639753,Africa,Sudan,SD,,Sudan - Upper Nile,2009-01-31,
Monticola saxatilis,Animalia,OLD_WORLD_FLYCATCHERS_MUSCICAPIDAE,Common Rock Thrush,,1,31.6128997803,6.18331639753,Africa,Sudan,SD,,Sudan - Upper Nile,2009-01-04,
Saxicola rubetra,Animalia,OLD_WORLD_FLYCATCHERS_MUSCICAPIDAE,Whinchat,,1,31.6128997803,6.18331639753,Africa,Sudan,SD,,Sudan - Upper Nile,2008-11-01,
Ardeola ralloides,Animalia,HERONS_ARDEIDAE,Squacco Heron,,1,31.6100692749,6.06405780781,Africa,Sudan,SD,,Sudan - Upper Nile,2009-02-04,
Ardeola ralloides,Animalia,HERONS_ARDEIDAE,Squacco Heron,,1,31.5956497193,4.85354649524,Africa,Sudan,SD,,Sudan - Badinglo NP,2008-11-09,
Ardeola ralloides,Animalia,HERONS_ARDEIDAE,Squacco Heron,,1,31.6595077515,9.53368930291,Africa,Sudan,SD,,Sudan - Upper Nile,2008-09-25,
Ardeola ralloides,Animalia,HERONS_ARDEIDAE,Squacco Heron,,1,31.6135025025,6.18012180262,Africa,Sudan,SD,,Sudan - Upper Nile,2008-11-05,
Ardeola ralloides,Animalia,HERONS_ARDEIDAE,Squacco Heron,,1,32.5528335572,15.6970589013,Africa,Sudan,SD,,Sudan - Khartoum,2008-09-05,
Ardea purpurea,Animalia,HERONS_ARDEIDAE,Purple Heron,,1,31.6107559204,6.18967888599,Africa,Sudan,SD,,Sudan - Upper Nile,2008-11-05,
Ardea purpurea,Animalia,HERONS_ARDEIDAE,Purple Heron,,1,31.662940979,9.55332643025,Africa,Sudan,SD,,Sudan - Upper Nile,2008-09-22,
Tringa glareola,Animalia,SANDPIPERS_AND_ALLIES_SCOLOPACIDAE,Wood Sandpiper,,1,32.541847229,15.6692934369,Africa,Sudan,SD,,Sudan - Khartoum,2008-09-05,
Ptilostomus afer,Animalia,CROWS_AND_JAYS_CORVIDAE,Piapiac,,1,31.6547012329,9.54655513486,Africa,Sudan,SD,,Sudan - Upper Nile,2008-09-23,
Spilopelia senegalensis,Animalia,PIGEONS_AND_DOVES_COLUMBIDAE,Laughing Dove,,1,31.6066360474,6.18831359895,Africa,Sudan,SD,,Sudan - Upper Nile,2009-02-02,
Spilopelia senegalensis,Animalia,PIGEONS_AND_DOVES_COLUMBIDAE,Laughing Dove,,1,32.5761795044,15.6626820555,Africa,Sudan,SD,,Sudan - Khartoum,2008-08-30,
Saxicola rubetra,Animalia,OLD_WORLD_FLYCATCHERS_MUSCICAPIDAE,Whinchat,,1,31.4171218872,7.17444730065,Africa,Sudan,SD,,Sudan - Upper Nile,2009-02-07,
Saxicola rubetra,Animalia,OLD_WORLD_FLYCATCHERS_MUSCICAPIDAE,Whinchat,,1,31.6258621216,6.06815461217,Africa,Sudan,SD,,Sudan - Upper Nile,2009-02-04,
Euplectes franciscanus,Animalia,WEAVERS_PLOCEIDAE,Northern Red Bishop,,1,31.6162490845,6.18558301427,Africa,Sudan,SD,,Sudan - Upper Nile,2008-10-05,
Euplectes franciscanus,Animalia,WEAVERS_PLOCEIDAE,Northern Red Bishop,,1,31.662940979,9.53842940275,Africa,Sudan,SD,,Sudan - Upper Nile,2008-09-21,
Euplectes franciscanus,Animalia,WEAVERS_PLOCEIDAE,Northern Red Bishop,,1,32.5555801392,15.6798712021,Africa,Sudan,SD,,Sudan - Khartoum,2008-09-05,
Riparia riparia,Animalia,SWALLOWS_HIRUNDINIDAE,Sand Martin,,1,31.6107559204,6.19070284896,Africa,Sudan,SD,,Sudan - Upper Nile,2009-02-06,
Actitis hypoleucos,Animalia,SANDPIPERS_AND_ALLIES_SCOLOPACIDAE,Common Sandpiper,,1,31.6107559204,6.19070284896,Africa,Sudan,SD,,Sudan - Upper Nile,2009-02-10,
Actitis hypoleucos,Animalia,SANDPIPERS_AND_ALLIES_SCOLOPACIDAE,Common Sandpiper,,1,31.6807937622,9.52725620494,Africa,Sudan,SD,,Sudan - Upper Nile,2008-09-26,
Actitis hypoleucos,Animalia,SANDPIPERS_AND_ALLIES_SCOLOPACIDAE,Common Sandpiper,,1,32.5569534302,15.7152366218,Africa,Sudan,SD,,Sudan - Khartoum,2008-09-25,
Campethera nubica,Animalia,WOODPECKERS_PICIDAE,Nubian Woodpecker,,1,31.6107559204,6.19138548984,Africa,Sudan,SD,,Sudan - Upper Nile,2008-10-23,
Merops nubicus,Animalia,BEEEATERS_MEROPIDAE,Northern Carmine Bee-eater,,1,31.6107559204,6.19138548984,Africa,Sudan,SD,,Sudan - Upper Nile,2008-10-04,
Estrilda troglodytes,Animalia,WAXBILLS_MUNIAS_ALLIES_ESTRILDIDAE,Black-rumped Waxbill,,1,31.6117858887,6.1852416902,Africa,Sudan,SD,,Sudan - Upper Nile,2008-10-04,
Crithagra mozambica,Animalia,FINCHES_FRINGILLIDAE,Yellow-fronted Canary,,1,31.6117858887,6.1852416902,Africa,Sudan,SD,,Sudan - Upper Nile,2008-10-08,
Caprimulgus climacurus,Animalia,NIGHTJARS_CAPRIMULGIDAE,Long-tailed Nightjar,,1,31.6117858887,6.1852416902,Africa,Sudan,SD,,Sudan - Upper Nile,2008-10-29,
Ardea intermedia,Animalia,HERONS_ARDEIDAE,Intermediate Egret,,1,31.6104125977,6.0691788084,Africa,Sudan,SD,,Sudan - Upper Nile,2009-02-04,
Pytilia melba,Animalia,WAXBILLS_MUNIAS_ALLIES_ESTRILDIDAE,Green-winged Pytilia,,1,31.6090393067,6.18387639169,Africa,Sudan,SD,,Sudan - Upper Nile,2009-02-02,
Lanius nubicus,Animalia,SHRIKES_LANIIDAE,Masked Shrike,,1,32.5758361817,15.6702851257,Africa,Sudan,SD,,Sudan - Khartoum,2009-02-23,
Pseudonigrita arnaudi,Animalia,WEAVERS_PLOCEIDAE,Grey-capped Social Weaver,,1,31.6080093384,6.19138548984,Africa,Sudan,SD,,Sudan - Upper Nile,2008-11-18,
Butorides striata,Animalia,HERONS_ARDEIDAE,Striated Heron,,1,32.5744628906,15.6564010449,Africa,Sudan,SD,,Sudan - Khartoum,2008-09-05,
Alcedo cristata,Animalia,KINGFISHERS_ALCEDINIDAE,,,1,31.6066360474,6.19275076894,Africa,Sudan,SD,,Sudan - Upper Nile,2008-10-05,
Alcedo cristata,Animalia,KINGFISHERS_ALCEDINIDAE,,,1,31.6543579102,9.53809082637,Africa,Sudan,SD,,Sudan - Upper Nile,2008-09-26,
Platalea leucorodia,Animalia,IBISSES_AND_SPOONBILLS_THRESKIORNITHIDAE,Eurasian Spoonbill,,1,31.422958374,7.1679751952,Africa,Sudan,SD,,Sudan - Upper Nile,2009-01-22,
Vanellus senegallus,Animalia,PLOVERS_CHARADRIIDAE,African Wattled Lapwing,,1,31.422958374,7.1679751952,Africa,Sudan,SD,,Sudan - Upper Nile,2009-02-06,
Vanellus senegallus,Animalia,PLOVERS_CHARADRIIDAE,African Wattled Lapwing,,1,31.6059494019,6.19275076894,Africa,Sudan,SD,,Sudan - Upper Nile,2008-10-05,
Vanellus senegallus,Animalia,PLOVERS_CHARADRIIDAE,African Wattled Lapwing,,1,31.6622543335,9.53605936106,Africa,Sudan,SD,,Sudan - Upper Nile,2008-09-25,
Falco biarmicus,Animalia,CARACAS_AND_FALCONS_FALCONIDAE,Lanner Falcon,,1,31.6148757935,6.18592433813,Africa,Sudan,SD,,Sudan - Upper Nile,2009-01-02,
Vanellus crassirostris,Animalia,PLOVERS_CHARADRIIDAE,Long-toed Lapwing,,1,31.6148757935,6.18592433813,Africa,Sudan,SD,,Sudan - Upper Nile,2008-10-12,
Gelochelidon nilotica,Animalia,GULLS_TERNS_AND_SKIMMERS_LARIDAE,Gull-billed Tern,,1,31.6025161743,4.85457276948,Africa,Sudan,SD,,Sudan - Badinglo NP,2008-11-08,
Calidris ferruginea,Animalia,SANDPIPERS_AND_ALLIES_SCOLOPACIDAE,Curlew Sandpiper,,1,32.5569534302,15.7317604144,Africa,Sudan,SD,,Sudan - Khartoum,2009-02-23,
Pluvianus aegyptius,Animalia,Pluvianidae,Egyptian Plover,,1,32.5490570069,15.6970589013,Africa,Sudan,SD,,Sudan - Khartoum,2008-09-05,
Bubulcus ibis,Animalia,HERONS_ARDEIDAE,Western Cattle Egret,,1,31.6083526612,6.19138548984,Africa,Sudan,SD,,Sudan - Upper Nile,2009-01-12,
Bubulcus ibis,Animalia,HERONS_ARDEIDAE,Western Cattle Egret,,1,32.5651931763,15.689126297,Africa,Sudan,SD,,Sudan - Khartoum,2008-08-31,
Sarkidiornis melanotos,Animalia,DUCKS_GEESE_AND_SWANS_ANATIDAE,Knob-billed Duck,,1,31.4322280884,7.17444730065,Africa,Sudan,SD,,Sudan - Upper Nile,2009-02-07,
Sarkidiornis melanotos,Animalia,DUCKS_GEESE_AND_SWANS_ANATIDAE,Knob-billed Duck,,1,31.6093826294,6.18831359895,Africa,Sudan,SD,,Sudan - Upper Nile,2008-10-01,
Egretta garzetta,Animalia,HERONS_ARDEIDAE,Little Egret,,1,31.4336013794,7.19488492385,Africa,Sudan,SD,,Sudan - Upper Nile,2009-02-05,
Egretta garzetta,Animalia,HERONS_ARDEIDAE,Little Egret,,1,31.6148757935,4.8631249941,Africa,Sudan,SD,,Sudan - Badinglo NP,2008-11-08,
Egretta garzetta,Animalia,HERONS_ARDEIDAE,Little Egret,,1,31.6189956665,6.18558301427,Africa,Sudan,SD,,Sudan - Upper Nile,2008-10-16,
Egretta garzetta,Animalia,HERONS_ARDEIDAE,Little Egret,,1,32.54322052,15.7393609083,Africa,Sudan,SD,,Sudan - Khartoum,2008-08-31,
Pelecanus rufescens,Animalia,PELICANS_PELECANIDAE,Pink-backed Pelican,,1,31.657447815,9.53639793946,Africa,Sudan,SD,,Sudan - Upper Nile,2008-09-22,
Pelecanus rufescens,Animalia,PELICANS_PELECANIDAE,Pink-backed Pelican,,1,32.5487136841,15.700364062,Africa,Sudan,SD,,Sudan - Khartoum,2008-09-05,
Lanius minor,Animalia,SHRIKES_LANIIDAE,Lesser Grey Shrike,,1,32.5487136841,15.700364062,Africa,Sudan,SD,,Sudan - Khartoum,2008-09-15,
Merops orientalis,Animalia,BEEEATERS_MEROPIDAE,Green Bee-eater,,1,31.6114425659,6.1811457841,Africa,Sudan,SD,,Sudan - Upper Nile,2008-10-05,
Circaetus cinerascens,Animalia,HAWKS_AND_EAGLES_ACCIPITRIDAE,Western Banded Snake Eagle,,1,31.6114425659,6.1811457841,Africa,Sudan,SD,,Sudan - Upper Nile,2008-10-17,
Calidris pugnax,Animalia,SANDPIPERS_AND_ALLIES_SCOLOPACIDAE,Ruff,,1,32.5645065308,15.7496046027,Africa,Sudan,SD,,Sudan - Khartoum,2008-09-05,
Passer eminibey,Animalia,OLD_WORLD_SPARROWS_PASSERIDAE,Chestnut Sparrow,,1,31.6135025025,6.19206812983,Africa,Sudan,SD,,Sudan - Upper Nile,2008-11-18,
Necrosyrtes monachus,Animalia,HAWKS_AND_EAGLES_ACCIPITRIDAE,Hooded Vulture,,1,31.6135025025,6.19206812983,Africa,Sudan,SD,,Sudan - Upper Nile,2008-10-04,
Necrosyrtes monachus,Animalia,HAWKS_AND_EAGLES_ACCIPITRIDAE,Hooded Vulture,,1,31.6595077515,9.53944512985,Africa,Sudan,SD,,Sudan - Upper Nile,2008-09-21,
Corvus capensis,Animalia,CROWS_AND_JAYS_CORVIDAE,Cape Crow,,1,31.6070882428,6.19219797895,Africa,Sudan,SD,,Sudan - Upper Nile,2008-10-08,
Polyboroides typus,Animalia,HAWKS_AND_EAGLES_ACCIPITRIDAE,African Harrier-Hawk,,1,31.6070882428,6.19219797895,Africa,Sudan,SD,,Sudan - Upper Nile,2009-01-02,
Clamator glandarius,Animalia,CUCKOOS_AND_COUCALS_CUCULIDAE,Great Spotted Cuckoo,,1,31.6070882428,6.19219797895,Africa,Sudan,SD,,Sudan - Upper Nile,2008-11-01,
Lanius collurio,Animalia,SHRIKES_LANIIDAE,Red-backed Shrike,,1,32.57182518,15.64164997,Africa,Sudan,SD,,Sudan - Khartoum,2008-09-05,
Passer domesticus,Animalia,OLD_WORLD_SPARROWS_PASSERIDAE,House Sparrow,,1,32.5718251813,15.6416499719,Africa,Sudan,SD,,Sudan - Khartoum,2008-09-05,
Upupa epops,Animalia,HOOPOES_UPUPIDAE,Eurasian Hoopoe,,1,31.6151563276,6.18178762577,Africa,Sudan,SD,,Sudan - Upper Nile,2009-02-02,
Upupa epops,Animalia,HOOPOES_UPUPIDAE,Eurasian Hoopoe,,1,32.5764600385,15.6867730414,Africa,Sudan,SD,,Sudan - Khartoum,2008-09-05,
Oenanthe heuglini,Animalia,OLD_WORLD_FLYCATCHERS_MUSCICAPIDAE,Heuglin's Wheatear,,1,31.4462415326,7.19790976128,Africa,Sudan,SD,,Sudan - Upper Nile,2009-02-06,
Numida meleagris,Animalia,GUINEAFOWL_NUMIDIDAE,Helmeted Guineafowl,,1,31.6165296186,6.20772779642,Africa,Sudan,SD,,Sudan - Upper Nile,2008-10-04,
Threskiornis aethiopicus,Animalia,IBISSES_AND_SPOONBILLS_THRESKIORNITHIDAE,African Sacred Ibis,,1,31.4160291303,7.1720221224,Africa,Sudan,SD,,Sudan - Upper Nile,2009-01-19,
Threskiornis aethiopicus,Animalia,IBISSES_AND_SPOONBILLS_THRESKIORNITHIDAE,African Sacred Ibis,,1,31.6106931318,6.19100335868,Africa,Sudan,SD,,Sudan - Upper Nile,2008-12-15,
Threskiornis aethiopicus,Animalia,IBISSES_AND_SPOONBILLS_THRESKIORNITHIDAE,African Sacred Ibis,,1,31.6542951215,9.53703461236,Africa,Sudan,SD,,Sudan - Upper Nile,2008-09-21,
Threskiornis aethiopicus,Animalia,IBISSES_AND_SPOONBILLS_THRESKIORNITHIDAE,African Sacred Ibis,,1,32.528394853,15.6752039737,Africa,Sudan,SD,,Sudan - Khartoum,2008-08-31,
Scopus umbretta,Animalia,HAMERKOP_SCOPIDAE,Hamerkop,,1,31.4180890668,7.17781290645,Africa,Sudan,SD,,Sudan - Upper Nile,2009-01-20,
Scopus umbretta,Animalia,HAMERKOP_SCOPIDAE,Hamerkop,,1,31.6154996503,6.20772779642,Africa,Sudan,SD,,Sudan - Upper Nile,2008-10-02,
Psittacula krameri,Animalia,PSITTACULIDAE,Rose-ringed Parakeet,,1,32.5285665143,15.67008032,Africa,Sudan,SD,,Sudan - Khartoum,2008-09-15,
Kaupifalco monogrammicus,Animalia,HAWKS_AND_EAGLES_ACCIPITRIDAE,Lizard Buzzard,,1,31.6112081159,6.18707815875,Africa,Sudan,SD,,Sudan - Upper Nile,2008-10-05,
Bostrychia hagedash,Animalia,IBISSES_AND_SPOONBILLS_THRESKIORNITHIDAE,Hadada Ibis,,1,31.4281082154,7.17623562936,Africa,Sudan,SD,,Sudan - Upper Nile,2009-01-20,
Bostrychia hagedash,Animalia,IBISSES_AND_SPOONBILLS_THRESKIORNITHIDAE,Hadada Ibis,,1,31.6131591797,6.18737496206,Africa,Sudan,SD,,Sudan - Upper Nile,2008-10-05,
Bostrychia hagedash,Animalia,IBISSES_AND_SPOONBILLS_THRESKIORNITHIDAE,Hadada Ibis,,1,31.6571044922,9.53208103979,Africa,Sudan,SD,,Sudan - Upper Nile,2008-09-26,
Columba guinea,Animalia,PIGEONS_AND_DOVES_COLUMBIDAE,Speckled Pigeon,,1,31.6571044922,9.53208103979,Africa,Sudan,SD,,Sudan - Upper Nile,2008-09-27,
Ardea alba,Animalia,HERONS_ARDEIDAE,Great Egret,,1,32.5682830811,15.6419374581,Africa,Sudan,SD,,Sudan - Khartoum,2008-08-30,
Ploceus cucullatus,Animalia,WEAVERS_PLOCEIDAE,Village Weaver,,1,31.6557312012,9.53411252879,Africa,Sudan,SD,,Sudan - Upper Nile,2008-09-21,
Ploceus cucullatus,Animalia,WEAVERS_PLOCEIDAE,Village Weaver,,1,32.5360107422,15.7045780642,Africa,Sudan,SD,,Sudan - Khartoum,2008-08-30,
Tringa nebularia,Animalia,SANDPIPERS_AND_ALLIES_SCOLOPACIDAE,Common Greenshank,,1,31.6086959839,6.18967888599,Africa,Sudan,SD,,Sudan - Upper Nile,2008-10-10,
Vidua funerea,Animalia,INDIGOBIRDS_AND_WHYDAHS_VIDUIDAE,Dusky Indigobird,,1,31.6086959839,6.18967888599,Africa,Sudan,SD,,Sudan - Upper Nile,2008-10-10,
Vidua chalybeata,Animalia,INDIGOBIRDS_AND_WHYDAHS_VIDUIDAE,Village Indigobird,,1,31.6708374024,9.53978370488,Africa,Sudan,SD,,Sudan - Upper Nile,2008-09-26,
Elanus caeruleus,Animalia,HAWKS_AND_EAGLES_ACCIPITRIDAE,Black-winged Kite,,1,31.4511108399,7.16354685955,Africa,Sudan,SD,,Sudan - Upper Nile,2009-02-05,
Falco ardosiaceus,Animalia,CARACAS_AND_FALCONS_FALCONIDAE,Grey Kestrel,,1,31.6110992432,6.18831359895,Africa,Sudan,SD,,Sudan - Upper Nile,2008-10-15,
Lophoceros nasutus,Animalia,HORNBILLS_BUCEROTIDAE,African Grey Hornbill,,1,31.6110992432,6.18831359895,Africa,Sudan,SD,,Sudan - Upper Nile,2008-11-06,
Lanius excubitoroides,Animalia,SHRIKES_LANIIDAE,Grey-backed Fiscal,,1,31.4366912842,7.15537135764,Africa,Sudan,SD,,Sudan - Upper Nile,2009-01-29,
Lanius excubitoroides,Animalia,SHRIKES_LANIIDAE,Grey-backed Fiscal,,1,31.6255187988,4.86791419246,Africa,Sudan,SD,,Sudan - Badinglo NP,2008-11-08,
Lanius excubitoroides,Animalia,SHRIKES_LANIIDAE,Grey-backed Fiscal,,1,31.6646575928,9.53436646406,Africa,Sudan,SD,,Sudan - Upper Nile,2008-09-26,
Passer griseus,Animalia,OLD_WORLD_SPARROWS_PASSERIDAE,Northern Grey-headed Sparrow,,1,31.6066360474,6.19377472596,Africa,Sudan,SD,,Sudan - Upper Nile,2009-02-02,
Passer griseus,Animalia,OLD_WORLD_SPARROWS_PASSERIDAE,Northern Grey-headed Sparrow,,1,31.6564178467,9.53301214042,Africa,Sudan,SD,,Sudan - Upper Nile,2008-09-26,
Halcyon leucocephala,Animalia,KINGFISHERS_ALCEDINIDAE,Grey-headed Kingfisher,,1,31.6080093384,6.19036152819,Africa,Sudan,SD,,Sudan - Upper Nile,2008-12-23,
Dendropicos goertae,Animalia,WOODPECKERS_PICIDAE,African Grey Woodpecker,,1,31.4126586914,7.16150299781,Africa,Sudan,SD,,Sudan - Upper Nile,2009-01-29,
Dendropicos goertae,Animalia,WOODPECKERS_PICIDAE,African Grey Woodpecker,,1,31.6073226929,6.19309208817,Africa,Sudan,SD,,Sudan - Upper Nile,2009-01-02,
Muscicapa striata,Animalia,OLD_WORLD_FLYCATCHERS_MUSCICAPIDAE,Spotted Flycatcher,,1,31.6073226929,6.19309208817,Africa,Sudan,SD,,Sudan - Upper Nile,2008-10-31,
Muscicapa striata,Animalia,OLD_WORLD_FLYCATCHERS_MUSCICAPIDAE,Spotted Flycatcher,,1,32.5638198853,15.6335894369,Africa,Sudan,SD,,Sudan - Khartoum,2008-09-15,
Lanius collurio,Animalia,SHRIKES_LANIIDAE,Red-backed Shrike,,1,31.6107559204,6.18831359895,Africa,Sudan,SD,,Sudan - Upper Nile,2008-11-06,
Lanius collurio,Animalia,SHRIKES_LANIIDAE,Red-backed Shrike,,1,32.5267410279,15.6706156875,Africa,Sudan,SD,,Sudan - Khartoum,2008-09-05,
Circus pygargus,Animalia,HAWKS_AND_EAGLES_ACCIPITRIDAE,Montagu's Harrier,,1,32.6739513874,6.53707025959,Africa,Sudan,SD,,Sudan - Upper Nile,2009-02-06,
Circus pygargus,Animalia,HAWKS_AND_EAGLES_ACCIPITRIDAE,Montagu's Harrier,,1,31.4167034626,7.16699585544,Africa,Sudan,SD,,Sudan - Upper Nile,2009-01-29,
Pycnonotus barbatus,Animalia,BULBULS_PYCNONOTIDAE,Common Bulbul,,1,31.6625225544,9.53644026173,Africa,Sudan,SD,,Sudan - Upper Nile,2008-09-26,
Pycnonotus barbatus,Animalia,BULBULS_PYCNONOTIDAE,Common Bulbul,,1,32.564034462,15.5810913951,Africa,Sudan,SD,,Sudan - Khartoum,2008-08-27,
Sylvia communis,Animalia,OLD_WORLD_WARBLERS_SYLVIIDAE,Common Whitethroat,,1,32.54322052,15.5968871702,Africa,Sudan,SD,,Sudan - Khartoum,2008-09-15,
Lonchura cucullata,Animalia,WAXBILLS_MUNIAS_ALLIES_ESTRILDIDAE,Bronze Mannikin,,1,31.6165494919,4.87073638267,Africa,Sudan,SD,,Sudan - Badinglo NP,2008-11-09,
Cichladusa guttata,Animalia,OLD_WORLD_FLYCATCHERS_MUSCICAPIDAE,Spotted Palm Thrush,,1,31.408495903,7.17248864687,Africa,Sudan,SD,,Sudan - Upper Nile,2009-01-21,
Cichladusa guttata,Animalia,OLD_WORLD_FLYCATCHERS_MUSCICAPIDAE,Spotted Palm Thrush,,1,31.6144895554,6.18703363914,Africa,Sudan,SD,,Sudan - Upper Nile,2008-10-05,
Colius striatus,Animalia,MOUSEBIRDS_COLIIDAE,Speckled Mousebird,,1,31.6103696823,6.18839892949,Africa,Sudan,SD,,Sudan - Upper Nile,2009-02-02,
Halcyon chelicuti,Animalia,KINGFISHERS_ALCEDINIDAE,Striped Kingfisher,,1,31.6103696823,6.18839892949,Africa,Sudan,SD,,Sudan - Upper Nile,2008-10-28,
Motacilla flava,Animalia,PIPITS_EN_WAGTAILS_MOTACILLIDAE,Western Yellow Wagtail,,1,31.6103696823,6.18839892949,Africa,Sudan,SD,,Sudan - Upper Nile,2008-11-01,
Motacilla flava,Animalia,PIPITS_EN_WAGTAILS_MOTACILLIDAE,Western Yellow Wagtail,,1,32.5524473191,15.6383007382,Africa,Sudan,SD,,Sudan - Khartoum,2008-09-15,
Phoenicurus phoenicurus,Animalia,OLD_WORLD_FLYCATCHERS_MUSCICAPIDAE,Common Redstart,,1,31.4047193527,7.16312105577,Africa,Sudan,SD,,Sudan - Upper Nile,2009-01-29,
Pycnonotus tricolor,Animalia,BULBULS_PYCNONOTIDAE,Dark-capped Bulbul,,1,31.6097259522,6.1905321886,Africa,Sudan,SD,,Sudan - Upper Nile,2009-01-30,
Milvus aegyptius,Animalia,HAWKS_AND_EAGLES_ACCIPITRIDAE,Yellow-billed Kite,,1,31.6093826294,6.19087350926,Africa,Sudan,SD,,Sudan - Upper Nile,2008-11-02,
Milvus aegyptius,Animalia,HAWKS_AND_EAGLES_ACCIPITRIDAE,Yellow-billed Kite,,1,32.562789917,15.658219252,Africa,Sudan,SD,,Sudan - Khartoum,2008-08-27,
Ploceus taeniopterus,Animalia,WEAVERS_PLOCEIDAE,Northern Masked Weaver,,1,31.6674041748,9.54063014099,Africa,Sudan,SD,,Sudan - Upper Nile,2008-09-21,
Micronisus gabar,Animalia,HAWKS_AND_EAGLES_ACCIPITRIDAE,Gabar Goshawk,,1,31.6145324707,6.18780161539,Africa,Sudan,SD,,Sudan - Upper Nile,2009-02-10,
Dicrurus adsimilis,Animalia,DRONGOS_DICRURIDAE,Fork-tailed Drongo,,1,31.6145324707,6.18780161539,Africa,Sudan,SD,,Sudan - Upper Nile,2008-12-21,
Cinnyris pulchellus,Animalia,SUNBIRDS_NECTARINIIDAE,Beautiful Sunbird,,1,31.6145324707,6.18780161539,Africa,Sudan,SD,,Sudan - Upper Nile,2008-10-05,
Cinnyris pulchellus,Animalia,SUNBIRDS_NECTARINIIDAE,Beautiful Sunbird,,1,31.6553878784,9.53098064486,Africa,Sudan,SD,,Sudan - Upper Nile,2008-09-26,
Cinnyris pulchellus,Animalia,SUNBIRDS_NECTARINIIDAE,Beautiful Sunbird,,1,32.5885391236,15.7000335484,Africa,Sudan,SD,,Sudan - Khartoum,2008-09-15,
Hirundo aethiopica,Animalia,SWALLOWS_HIRUNDINIDAE,Ethiopian Swallow,,1,31.6114974282,6.18893915552,Africa,Sudan,SD,,Sudan - Upper Nile,2009-02-02,
Ploceus luteolus,Animalia,WEAVERS_PLOCEIDAE,Little Weaver,,1,31.6114974282,6.18893915552,Africa,Sudan,SD,,Sudan - Upper Nile,2008-10-05,
Merops pusillus,Animalia,BEEEATERS_MEROPIDAE,Little Bee-eater,,1,31.6114974282,6.18893915552,Africa,Sudan,SD,,Sudan - Upper Nile,2008-11-11,
Merops pusillus,Animalia,BEEEATERS_MEROPIDAE,Little Bee-eater,,1,32.5666213295,15.6646102028,Africa,Sudan,SD,,Sudan - Khartoum,2008-08-30,
Hieraaetus pennatus,Animalia,HAWKS_AND_EAGLES_ACCIPITRIDAE,Booted Eagle,,1,31.4226699135,7.1682588613,Africa,Sudan,SD,,Sudan - Upper Nile,2009-02-06,
Batis orientalis,Animalia,WATTLEEYES_BATISES_PLATYSTEIRIDAE,Grey-headed Batis,,1,31.6005111001,6.06741471321,Africa,Sudan,SD,,Sudan - Upper Nile,2009-01-31,
Melierax metabates,Animalia,HAWKS_AND_EAGLES_ACCIPITRIDAE,Dark Chanting Goshawk,,1,31.6063475869,4.86272569185,Africa,Sudan,SD,,Sudan - Badinglo NP,2009-02-15,
Melierax metabates,Animalia,HAWKS_AND_EAGLES_ACCIPITRIDAE,Dark Chanting Goshawk,,1,31.6152739785,6.18654989756,Africa,Sudan,SD,,Sudan - Upper Nile,2008-10-11,
Melierax metabates,Animalia,HAWKS_AND_EAGLES_ACCIPITRIDAE,Dark Chanting Goshawk,,1,31.6568160317,9.53126259896,Africa,Sudan,SD,,Sudan - Upper Nile,2008-09-21,
Vidua macroura,Animalia,INDIGOBIRDS_AND_WHYDAHS_VIDUIDAE,Pin-tailed Whydah,,1,31.6164863369,6.18823517891,Africa,Sudan,SD,,Sudan - Upper Nile,2008-10-08,
Chrysococcyx caprius,Animalia,CUCKOOS_AND_COUCALS_CUCULIDAE,Diederik Cuckoo,,1,31.6164863369,6.18823517891,Africa,Sudan,SD,,Sudan - Upper Nile,2008-10-22,
Tricholaema diademata,Animalia,Lybiidae,Red-fronted Barbet,,1,31.6164863369,6.18823517891,Africa,Sudan,SD,,Sudan - Upper Nile,2009-01-29,
Trachyphonus darnaudii,Animalia,Lybiidae,D'Arnaud's Barbet,,1,31.6164863369,6.18823517891,Africa,Sudan,SD,,Sudan - Upper Nile,2008-10-05,
Pternistis clappertoni,Animalia,FRANCOLINS_QUAILS_PARTRIDGES_AND_PHEASANTS_PHASIANIDAE,Clapperton's Spurfowl,,1,31.6164863369,6.18823517891,Africa,Sudan,SD,,Sudan - Upper Nile,2008-10-17,
Buteo buteo,Animalia,HAWKS_AND_EAGLES_ACCIPITRIDAE,Common Buzzard,,1,31.6164863369,6.18823517891,Africa,Sudan,SD,,Sudan - Upper Nile,2008-10-05,
Dendropicos obsoletus,Animalia,WOODPECKERS_PICIDAE,Brown-backed Woodpecker,,1,31.6164863369,6.18823517891,Africa,Sudan,SD,,Sudan - Upper Nile,2009-01-30,
Circus aeruginosus,Animalia,HAWKS_AND_EAGLES_ACCIPITRIDAE,Western Marsh Harrier,,1,31.6055858395,6.06269911159,Africa,Sudan,SD,,Sudan - Upper Nile,2009-02-04,
Circus aeruginosus,Animalia,HAWKS_AND_EAGLES_ACCIPITRIDAE,Western Marsh Harrier,,1,31.608761575,6.19429361416,Africa,Sudan,SD,,Sudan - Upper Nile,2009-01-27,
Nilaus afer,Animalia,HELMETSHRIKES_BUSHSHRIKES_MALACONOTIDAE,Brubru,,1,31.6207778714,6.0449458887,Africa,Sudan,SD,,Sudan - Upper Nile,2009-01-30,
Ceryle rudis,Animalia,KINGFISHERS_ALCEDINIDAE,Pied Kingfisher,,1,31.6061866543,6.06133349978,Africa,Sudan,SD,,Sudan - Upper Nile,2009-02-04,
Ceryle rudis,Animalia,KINGFISHERS_ALCEDINIDAE,Pied Kingfisher,,1,31.6094482205,6.19053909909,Africa,Sudan,SD,,Sudan - Upper Nile,2008-11-05,
Ceryle rudis,Animalia,KINGFISHERS_ALCEDINIDAE,Pied Kingfisher,,1,31.657513406,9.53183395787,Africa,Sudan,SD,,Sudan - Upper Nile,2008-09-27,
Ceryle rudis,Animalia,KINGFISHERS_ALCEDINIDAE,Pied Kingfisher,,1,32.5563323758,15.617229716,Africa,Sudan,SD,,Sudan - Khartoum,2008-08-31,
Charadrius hiaticula,Animalia,PLOVERS_CHARADRIIDAE,Common Ringed Plover,,1,32.5563323758,15.617229716,Africa,Sudan,SD,,Sudan - Khartoum,2009-02-23,
Hirundo rustica,Animalia,SWALLOWS_HIRUNDINIDAE,Barn Swallow,,1,31.6097915432,6.19292833904,Africa,Sudan,SD,,Sudan - Upper Nile,2008-10-02,
Prinia somalica,Animalia,CISTICOLAS_AND_ALLIES_CISTICOLIDAE,Pale Prinia,,1,31.6640365384,9.52912528509,Africa,Sudan,SD,,Sudan - Upper Nile,2008-09-21,
Urocolius macrourus,Animalia,MOUSEBIRDS_COLIIDAE,Blue-naped Mousebird,,1,32.5463760159,15.6674820211,Africa,Sudan,SD,,Sudan - Khartoum,2008-09-05,
Uraeginthus bengalus,Animalia,WAXBILLS_MUNIAS_ALLIES_ESTRILDIDAE,Red-cheeked Cordon-bleu,,1,31.6166579983,6.18712588042,Africa,Sudan,SD,,Sudan - Upper Nile,2009-01-12,
Uraeginthus bengalus,Animalia,WAXBILLS_MUNIAS_ALLIES_ESTRILDIDAE,Red-cheeked Cordon-bleu,,1,31.6578567288,9.5325111227,Africa,Sudan,SD,,Sudan - Upper Nile,2008-09-26,
Ardea cinerea,Animalia,HERONS_ARDEIDAE,Grey Heron,,1,31.4240539334,7.16764145223,Africa,Sudan,SD,,Sudan - Upper Nile,2009-02-06,
Ardea cinerea,Animalia,HERONS_ARDEIDAE,Grey Heron,,1,31.6578567288,9.5325111227,Africa,Sudan,SD,,Sudan - Upper Nile,2008-09-26,
Ardea cinerea,Animalia,HERONS_ARDEIDAE,Grey Heron,,1,32.5244033597,15.6721099018,Africa,Sudan,SD,,Sudan - Khartoum,2008-09-15,
Lamprotornis purpuroptera,Animalia,STARLINGS_STURNIDAE,RÃ¼ppell's Starling,,1,31.6099632046,6.06457682218,Africa,Sudan,SD,,Sudan - Upper Nile,2009-02-04,
Lamprotornis purpuroptera,Animalia,STARLINGS_STURNIDAE,RÃ¼ppell's Starling,,1,31.6163146756,6.18968579649,Africa,Sudan,SD,,Sudan - Upper Nile,2008-10-08,
Lamprotornis purpuroptera,Animalia,STARLINGS_STURNIDAE,RÃ¼ppell's Starling,,1,31.6609466336,9.53098749994,Africa,Sudan,SD,,Sudan - Upper Nile,2008-09-25,
Camaroptera brevicaudata,Animalia,CISTICOLAS_AND_ALLIES_CISTICOLIDAE,Grey-backed Camaroptera,,1,31.6108215115,6.18832050946,Africa,Sudan,SD,,Sudan - Upper Nile,2008-12-25,
Ciconia episcopus,Animalia,STORKS_CICONIIDAE,Woolly-necked Stork,,1,31.4068877957,7.17104783748,Africa,Sudan,SD,,Sudan - Upper Nile,2009-02-05,
Ciconia episcopus,Animalia,STORKS_CICONIIDAE,Woolly-necked Stork,,1,31.6170013211,6.18866183155,Africa,Sudan,SD,,Sudan - Upper Nile,2008-10-08,
Ciconia episcopus,Animalia,STORKS_CICONIIDAE,Woolly-necked Stork,,1,31.6599166653,9.53031033208,Africa,Sudan,SD,,Sudan - Upper Nile,2008-09-25,
Merops apiaster,Animalia,BEEEATERS_MEROPIDAE,European Bee-eater,,1,32.5450027249,15.5839969156,Africa,Sudan,SD,,Sudan - Khartoum,2008-09-15,
Terathopius ecaudatus,Animalia,HAWKS_AND_EAGLES_ACCIPITRIDAE,Bateleur,,1,31.4285171292,7.17377292734,Africa,Sudan,SD,,Sudan - Upper Nile,2009-01-29,
Terathopius ecaudatus,Animalia,HAWKS_AND_EAGLES_ACCIPITRIDAE,Bateleur,,1,31.6103065274,6.19361097704,Africa,Sudan,SD,,Sudan - Upper Nile,2008-10-17,
Amadina fasciata,Animalia,WAXBILLS_MUNIAS_ALLIES_ESTRILDIDAE,Cut-throat Finch,,1,31.6103065274,6.19361097704,Africa,Sudan,SD,,Sudan - Upper Nile,2009-01-28,
Crinifer zonurus,Animalia,TURACOS_MUSOPHAGIDAE,Eastern Plantain-eater,,1,31.6111648343,6.06628382614,Africa,Sudan,SD,,Sudan - Upper Nile,2009-01-31,
Ficedula semitorquata,Animalia,OLD_WORLD_FLYCATCHERS_MUSCICAPIDAE,Semicollared Flycatcher,,1,32.5590789578,15.5871385549,Africa,Sudan,SD,,Sudan - Khartoum,2008-09-15,
Lophaetus occipitalis,Animalia,HAWKS_AND_EAGLES_ACCIPITRIDAE,Long-crested Eagle,,1,31.6719329617,5.05518591283,Africa,Sudan,SD,,Sudan - Badinglo NP,2009-02-15,
Haliaeetus vocifer,Animalia,HAWKS_AND_EAGLES_ACCIPITRIDAE,African Fish Eagle,,1,31.438473489,7.15520793002,Africa,Sudan,SD,,Sudan - Upper Nile,2009-01-22,
Haliaeetus vocifer,Animalia,HAWKS_AND_EAGLES_ACCIPITRIDAE,African Fish Eagle,,1,31.6097915432,6.19326965815,Africa,Sudan,SD,,Sudan - Upper Nile,2008-10-06,
Anhinga rufa,Animalia,ANHINGAS_ANHINGIDAE,African Darter,,1,31.6008651516,6.06713732609,Africa,Sudan,SD,,Sudan - Upper Nile,2009-02-04,
Saxicola torquatus,Animalia,OLD_WORLD_FLYCATCHERS_MUSCICAPIDAE,African Stonechat,,1,31.4261138699,7.17479483183,Africa,Sudan,SD,,Sudan - Upper Nile,2009-02-07,
Terpsiphone viridis,Animalia,MONARCHS_MONARCHIDAE,African Paradise Flycatcher,,1,31.6156280301,6.18900315342,Africa,Sudan,SD,,Sudan - Upper Nile,2008-10-05,
Terpsiphone viridis,Animalia,MONARCHS_MONARCHIDAE,African Paradise Flycatcher,,1,31.6592300198,9.5326804137,Africa,Sudan,SD,,Sudan - Upper Nile,2008-09-26,
Cypsiurus parvus,Animalia,SWIFTS_APODIDAE,African Palm Swift,,1,31.6131591797,6.18834204342,Africa,Sudan,SD,,Sudan - Upper Nile,2009-02-09,
Turdus pelios,Animalia,THRUSHES_TURDIDAE,African Thrush,,1,31.5819168091,6.21694122199,Africa,Sudan,SD,,Sudan - Upper Nile,2009-01-29,
Turdus pelios,Animalia,THRUSHES_TURDIDAE,African Thrush,,1,31.6883468628,9.53703277303,Africa,Sudan,SD,,Sudan - Upper Nile,2008-09-26,
Mycteria ibis,Animalia,STORKS_CICONIIDAE,Yellow-billed Stork,,1,31.6087388993,6.06392978217,Africa,Sudan,SD,,Sudan - Upper Nile,2009-01-31,
Mycteria ibis,Animalia,STORKS_CICONIIDAE,Yellow-billed Stork,,1,31.3963508606,7.17018934689,Africa,Sudan,SD,,Sudan - Upper Nile,2009-01-22,
Mycteria ibis,Animalia,STORKS_CICONIIDAE,Yellow-billed Stork,,1,31.6177940369,6.1864363235,Africa,Sudan,SD,,Sudan - Upper Nile,2008-11-01,
Leptoptilos crumenifer,Animalia,STORKS_CICONIIDAE,Marabou Stork,,1,31.6177940369,6.1864363235,Africa,Sudan,SD,,Sudan - Upper Nile,2009-01-13,
Leptoptilos crumenifer,Animalia,STORKS_CICONIIDAE,Marabou Stork,,1,31.6534996033,9.53724438396,Africa,Sudan,SD,,Sudan - Upper Nile,2008-09-21,
Leptoptilos crumenifer,Animalia,STORKS_CICONIIDAE,Marabou Stork,,1,32.5790977478,15.6628473426,Africa,Sudan,SD,,Sudan - Khartoum,2008-09-12,
Platalea alba,Animalia,IBISSES_AND_SPOONBILLS_THRESKIORNITHIDAE,African Spoonbill,,1,31.6565465927,9.53261007455,Africa,Sudan,SD,,Sudan - Upper Nile,2008-09-26,
Actophilornis africanus,Animalia,JACANAS_JACANIDAE,African Jacana,,1,31.6056704521,6.19586529869,Africa,Sudan,SD,,Sudan - Upper Nile,2008-10-15,
Anastomus lamelligerus,Animalia,STORKS_CICONIIDAE,African Openbill,,1,31.4284729958,7.15922493278,Africa,Sudan,SD,,Sudan - Upper Nile,2009-02-05,
Ispidina picta,Animalia,KINGFISHERS_ALCEDINIDAE,African Pygmy Kingfisher,,1,31.6074085236,6.20290492148,Africa,Sudan,SD,,Sudan - Upper Nile,2008-10-04,
Microcarbo africanus,Animalia,CORMORANTS_PHALACROCORACIDAE,Reed Cormorant,,1,31.6110134125,6.20128368335,Africa,Sudan,SD,,Sudan - Upper Nile,2008-11-05,
Microcarbo africanus,Animalia,CORMORANTS_PHALACROCORACIDAE,Reed Cormorant,,1,32.5018072129,15.5789469617,Africa,Sudan,SD,,Sudan - Khartoum,2008-09-05,
Motacilla aguimp,Animalia,PIPITS_EN_WAGTAILS_MOTACILLIDAE,African Pied Wagtail,,1,31.5953063965,4.86246932835,Africa,Sudan,SD,,Sudan - Badinglo NP,2008-11-08,
Phyllolais pulchella,Animalia,CISTICOLAS_AND_ALLIES_CISTICOLIDAE,Buff-bellied Warbler,,1,31.6127097867,6.19241635996,Africa,Sudan,SD,,Sudan - Upper Nile,2008-10-17,
Ciconia abdimii,Animalia,STORKS_CICONIIDAE,Abdim's Stork,,1,31.389721658,7.16355375631,Africa,Sudan,SD,,Sudan - Upper Nile,2009-02-07,
Ciconia abdimii,Animalia,STORKS_CICONIIDAE,Abdim's Stork,,1,31.6041362286,6.19525732686,Africa,Sudan,SD,,Sudan - Upper Nile,2009-01-31,
Ciconia abdimii,Animalia,STORKS_CICONIIDAE,Abdim's Stork,,1,32.5344081949,15.5535527703,Africa,Sudan,SD,,Sudan - Khartoum,2008-08-28,
Neophron percnopterus,Animalia,HAWKS_AND_EAGLES_ACCIPITRIDAE,Egyptian Vulture,,1,33.7489485741,16.9371404059,Africa,Sudan,SD,,Sudan - Northern,2009-02-21,
Oenanthe cypriaca,Animalia,OLD_WORLD_FLYCATCHERS_MUSCICAPIDAE,Cyprus Wheatear,,1,35.4284845337,13.8317790411,Africa,Sudan,SD,,Sudan - Kassala,2010-01-24,
Torgos tracheliotos,Animalia,HAWKS_AND_EAGLES_ACCIPITRIDAE,Lappet-faced Vulture,,7,35.68359375,14.2338578527,Africa,Sudan,SD,,Sudan - Al Qadarif-Kassala,1983-04-19,
Lanius excubitor,Animalia,SHRIKES_LANIIDAE,Great Grey Shrike,,4,35.1672363281,14.0314356677,Africa,Sudan,SD,,Sudan - Wadi Madani-Al Qadarif,1983-04-19,
Torgos tracheliotos,Animalia,HAWKS_AND_EAGLES_ACCIPITRIDAE,Lappet-faced Vulture,,1,32.9974365234,15.24461647,Africa,Sudan,SD,,Sudan - Khartoum-Wadi Madani,1983-04-17,
Riparia paludicola,Animalia,SWALLOWS_HIRUNDINIDAE,Brown-throated Martin,,40,32.51146317,15.61231284,Africa,Sudan,SD,,Sudan - Khartoum,1983-04-16,
Riparia paludicola,Animalia,SWALLOWS_HIRUNDINIDAE,Brown-throated Martin,,170,32.5303459167,15.615950024,Africa,Sudan,SD,,Sudan - Khartoum,1983-04-15,
Torgos tracheliotos,Animalia,HAWKS_AND_EAGLES_ACCIPITRIDAE,Lappet-faced Vulture,,5,33.6827087402,16.8546663091,Africa,Sudan,SD,,Sudan - Nile Valley - Atbara-Shendi,1983-04-14,
Torgos tracheliotos,Animalia,HAWKS_AND_EAGLES_ACCIPITRIDAE,Lappet-faced Vulture,,7,33.8667297363,17.3940644989,Africa,Sudan,SD,,Sudan - Nile Valley - Atbara-Shendi,1983-04-14,
Torgos tracheliotos,Animalia,HAWKS_AND_EAGLES_ACCIPITRIDAE,Lappet-faced Vulture,,2,33.9752197266,17.6810104907,Africa,Sudan,SD,,Sudan - Nile Valley - Berber-Atbara,1983-04-14,
Milvus aegyptius,Animalia,HAWKS_AND_EAGLES_ACCIPITRIDAE,Yellow-billed Kite,,1,32.511034011841,15.646014916481,Africa,Sudan,SD,,Sudan,2008-09-19,16:00
Columba guinea,Animalia,PIGEONS_AND_DOVES_COLUMBIDAE,Speckled Pigeon,,1,29.69604492,7.10634367,Africa,Sudan,SD,,Sudan - Bahr el Ghazal,2020-04-20,11:29
Columba guinea,Animalia,PIGEONS_AND_DOVES_COLUMBIDAE,Speckled Pigeon,,1,29.6814537,6.87180775,Africa,Sudan,SD,,Sudan - Bahr el Ghazal,2020-04-20,07:25
Columba guinea,Animalia,PIGEONS_AND_DOVES_COLUMBIDAE,Speckled Pigeon,,1,29.6814537,6.87180775,Africa,Sudan,SD,,Sudan - Bahr el Ghazal,2020-04-20,07:25
Columba guinea,Animalia,PIGEONS_AND_DOVES_COLUMBIDAE,Speckled Pigeon,,2,29.6814537,6.87180775,Africa,Sudan,SD,,Sudan - Bahr el Ghazal,2020-04-20,07:25
Lamprotornis caudatus,Animalia,STARLINGS_STURNIDAE,Long-tailed Glossy Starling,,1,22.5467509,12.71754187,Africa,Sudan,SD,,Sudan - Darfur,2019-01-21,
Hedydipna platura,Animalia,SUNBIRDS_NECTARINIIDAE,Pygmy Sunbird,,1,22.52031505,12.70146616,Africa,Sudan,SD,,Sudan - Darfur,2019-01-21,
Merops orientalis,Animalia,BEEEATERS_MEROPIDAE,Green Bee-eater,,1,22.53108546,12.72265101,Africa,Sudan,SD,,Sudan - Darfur,2019-01-21,
Bucorvus abyssinicus,Animalia,GROUND_HORNBILLS_BUCORVIDAE,Abyssinian Ground Hornbill,,1,22.53108546,12.72265101,Africa,Sudan,SD,,Sudan - Darfur,2019-01-21,
Rhinopomastus aterrimus,Animalia,WOOD_HOOPOES_PHOENICULIDAE,Black Scimitarbill,,1,22.55481899,12.81213348,Africa,Sudan,SD,,Sudan - Darfur,2019-01-21,
Lybius vieilloti,Animalia,Lybiidae,Vieillot's Barbet,,1,22.55481899,12.81213348,Africa,Sudan,SD,,Sudan - Darfur,2019-01-21,
Emberiza tahapisi,Animalia,BUNTINGS_EMBERIZIDAE,Cinnamon-breasted Bunting,,1,22.51859844,12.76291677,Africa,Sudan,SD,,Sudan - Darfur,2019-01-21,
Crinifer zonurus,Animalia,TURACOS_MUSOPHAGIDAE,Eastern Plantain-eater,,1,22.56122947,12.68588923,Africa,Sudan,SD,,Sudan - Darfur,2019-01-21,
Cercotrichas podobe,Animalia,OLD_WORLD_FLYCATCHERS_MUSCICAPIDAE,Black Scrub Robin,,1,22.54194304,12.72959995,Africa,Sudan,SD,,Sudan - Darfur,2019-01-21,
Dendropicos goertae,Animalia,WOODPECKERS_PICIDAE,African Grey Woodpecker,,1,22.51872584,12.76522075,Africa,Sudan,SD,,Sudan - Darfur,2019-01-21,
Caprimulgus climacurus,Animalia,NIGHTJARS_CAPRIMULGIDAE,Long-tailed Nightjar,,1,33.44510078,14.38333101,Africa,Sudan,SD,,Sudan - Blue Nile,2008-07-09,
Leptoptilos crumenifer,Animalia,STORKS_CICONIIDAE,Marabou Stork,,1,33.44192503,14.36449269,Africa,Sudan,SD,,Sudan - Blue Nile,2008-07-07,
Vidua macroura,Animalia,INDIGOBIRDS_AND_WHYDAHS_VIDUIDAE,Pin-tailed Whydah,,1,33.45619261,14.34070643,Africa,Sudan,SD,,Sudan - Blue Nile,2008-07-06,
Quelea quelea,Animalia,WEAVERS_PLOCEIDAE,Red-billed Quelea,,1,33.56500625,14.26179881,Africa,Sudan,SD,,Sudan - Blue Nile,2008-07-14,
Coturnix coturnix,Animalia,FRANCOLINS_QUAILS_PARTRIDGES_AND_PHEASANTS_PHASIANIDAE,Common Quail,,1,33.56500625,14.26179881,Africa,Sudan,SD,,Sudan - Blue Nile,2008-07-09,
Centropus superciliosus,Animalia,CUCKOOS_AND_COUCALS_CUCULIDAE,White-browed Coucal,,1,33.55304718,14.28313763,Africa,Sudan,SD,,Sudan - Blue Nile,2008-07-08,
Laniarius erythrogaster,Animalia,HELMETSHRIKES_BUSHSHRIKES_MALACONOTIDAE,Black-headed Gonolek,,1,33.56548727,14.26125221,Africa,Sudan,SD,,Sudan - Blue Nile,2008-07-06,
Lybius vieilloti,Animalia,Lybiidae,Vieillot's Barbet,,1,33.56548727,14.26125221,Africa,Sudan,SD,,Sudan - Blue Nile,2008-07-06,
Passer luteus,Animalia,OLD_WORLD_SPARROWS_PASSERIDAE,Sudan Golden Sparrow,,1,33.17504872,15.07459878,Africa,Sudan,SD,,Sudan - Khartoum-Wadi Madani,2008-07-05,
Colius striatus,Animalia,MOUSEBIRDS_COLIIDAE,Speckled Mousebird,,1,32.52170563,15.60971167,Africa,Sudan,SD,,Sudan - Khartoum,2008-07-04,
Euplectes franciscanus,Animalia,WEAVERS_PLOCEIDAE,Northern Red Bishop,,1,32.52170563,15.60971167,Africa,Sudan,SD,,Sudan - Khartoum,2008-07-04,
Merops pusillus,Animalia,BEEEATERS_MEROPIDAE,Little Bee-eater,,1,32.52170563,15.60971167,Africa,Sudan,SD,,Sudan - Khartoum,2008-07-04,
Oena capensis,Animalia,PIGEONS_AND_DOVES_COLUMBIDAE,Namaqua Dove,,1,32.52170563,15.60971167,Africa,Sudan,SD,,Sudan - Khartoum,2008-07-04,
Vanellus spinosus,Animalia,PLOVERS_CHARADRIIDAE,Spur-winged Lapwing,,1,32.52170563,15.60971167,Africa,Sudan,SD,,Sudan - Khartoum,2008-07-04,
Threskiornis aethiopicus,Animalia,IBISSES_AND_SPOONBILLS_THRESKIORNITHIDAE,African Sacred Ibis,,1,32.52170563,15.60971167,Africa,Sudan,SD,,Sudan - Khartoum,2008-07-03,
Ardea alba,Animalia,HERONS_ARDEIDAE,Great Egret,,1,32.52170563,15.60971167,Africa,Sudan,SD,,Sudan - Khartoum,2008-07-03,
Ardea melanocephala,Animalia,HERONS_ARDEIDAE,Black-headed Heron,,1,32.52170563,15.60971167,Africa,Sudan,SD,,Sudan - Khartoum,2008-07-03,
Microcarbo africanus,Animalia,CORMORANTS_PHALACROCORACIDAE,Reed Cormorant,,1,32.52170563,15.60971167,Africa,Sudan,SD,,Sudan - Khartoum,2008-07-03,
Passer domesticus,Animalia,OLD_WORLD_SPARROWS_PASSERIDAE,House Sparrow,,1,32.52170563,15.60971167,Africa,Sudan,SD,,Sudan - Khartoum,2008-07-03,
Pycnonotus barbatus,Animalia,BULBULS_PYCNONOTIDAE,Common Bulbul,,1,32.52170563,15.60971167,Africa,Sudan,SD,,Sudan - Khartoum,2008-07-03,
Ciconia abdimii,Animalia,STORKS_CICONIIDAE,Abdim's Stork,,1,32.52170563,15.60971167,Africa,Sudan,SD,,Sudan - Khartoum,2008-07-03,
Spilopelia senegalensis,Animalia,PIGEONS_AND_DOVES_COLUMBIDAE,Laughing Dove,,1,32.52170563,15.60971167,Africa,Sudan,SD,,Sudan - Khartoum,2008-07-03,
Streptopelia decipiens,Animalia,PIGEONS_AND_DOVES_COLUMBIDAE,Mourning Collared Dove,,1,32.52170563,15.60971167,Africa,Sudan,SD,,Sudan - Khartoum,2008-07-03,
Bubulcus ibis,Animalia,HERONS_ARDEIDAE,Western Cattle Egret,,1,32.52170563,15.60971167,Africa,Sudan,SD,,Sudan - Khartoum,2008-07-03,
Ciconia ciconia,Animalia,STORKS_CICONIIDAE,White Stork,,1,31.230806666667,17.949538333333,Africa,Sudan,SD,,Sudan - Northern,2016-03-02,10:22
Milvus aegyptius,Animalia,HAWKS_AND_EAGLES_ACCIPITRIDAE,Yellow-billed Kite,,1,31.230921666667,17.94942,Africa,Sudan,SD,,Sudan - Northern,2016-03-02,10:12
Upupa epops,Animalia,HOOPOES_UPUPIDAE,Eurasian Hoopoe,,1,22.59613037,13.34919813,Africa,Sudan,SD,,Sudan - Darfur,2018-01-19,
Euodice cantans,Animalia,WAXBILLS_MUNIAS_ALLIES_ESTRILDIDAE,African Silverbill,,3,22.59613037,13.34919813,Africa,Sudan,SD,,Sudan - Darfur,2018-01-19,
Milvus aegyptius,Animalia,HAWKS_AND_EAGLES_ACCIPITRIDAE,Yellow-billed Kite,,1,31.6056704521,6.19586529869,Africa,Sudan,SD,,Sudan - Upper Nile,2008-10-15,
Aves indet.,Animalia,unknown,Unidentified bird,,1,31.6056704521,6.19586529869,Africa,Sudan,SD,,Sudan - Upper Nile,2008-10-15,
Aves indet.,Animalia,unknown,Unidentified bird,,1,31.6056704521,6.19586529869,Africa,Sudan,SD,,Sudan - Upper Nile,2008-10-15,
Milvus aegyptius,Animalia,HAWKS_AND_EAGLES_ACCIPITRIDAE,Yellow-billed Kite,,1,31.6108215115,6.18832050946,Africa,Sudan,SD,,Sudan - Upper Nile,2008-12-31,
Milvus aegyptius,Animalia,HAWKS_AND_EAGLES_ACCIPITRIDAE,Yellow-billed Kite,,1,31.6108215115,6.18832050946,Africa,Sudan,SD,,Sudan - Upper Nile,2008-12-31,
Milvus aegyptius,Animalia,HAWKS_AND_EAGLES_ACCIPITRIDAE,Yellow-billed Kite,,1,31.6103065274,6.19361097704,Africa,Sudan,SD,,Sudan - Upper Nile,2009-01-28,
Milvus aegyptius,Animalia,HAWKS_AND_EAGLES_ACCIPITRIDAE,Yellow-billed Kite,,1,32.558,15.609,Africa,Sudan,SD,,Sudan - Khartoum,2008-09-06,
Milvus aegyptius,Animalia,HAWKS_AND_EAGLES_ACCIPITRIDAE,Yellow-billed Kite,,1,32.564034462,15.5810913951,Africa,Sudan,SD,,Sudan - Khartoum,2008-08-27,
Milvus aegyptius,Animalia,HAWKS_AND_EAGLES_ACCIPITRIDAE,Yellow-billed Kite,,1,32.558,15.609,Africa,Sudan,SD,,Sudan - Khartoum,2008-09-05,
Dendrocygna viduata,Animalia,DUCKS_GEESE_AND_SWANS_ANATIDAE,White-faced Whistling Duck,,1,31.6059494019,4.864835426,Africa,Sudan,SD,,Sudan - Badinglo NP,2008-11-08,
Aves indet.,Animalia,unknown,Unidentified bird,,1,31.606180071831,6.1949951174713,Africa,Sudan,SD,,Sudan - Upper Nile,2009-02-14,
Aves indet.,Animalia,unknown,Unidentified bird,,1,31.6056704521,6.19586529869,Africa,Sudan,SD,,Sudan - Upper Nile,2008-10-15,
Chlorocebus aethiops,Animalia,OLD_WORLD_MONKEYS_CERCOPITHECIDAE,Grivet Monkey,,1,32.505573034286,15.59310669868,Africa,Sudan,SD,,Sudan - Khartoum,2009-02-23,
Cisticola marginatus marginatus,Animalia,CISTICOLAS_AND_ALLIES_CISTICOLIDAE,Winding Cisticola ssp marginatus,,1,31.6106931318,6.19100335868,Africa,Sudan,SD,,Sudan - Upper Nile,2008-12-15,
Canis mesomelas,Animalia,DOGS_CANIDAE,Black-backed Jackal,,1,31.605893075466,6.1953377685174,Africa,Sudan,SD,,Sudan - Upper Nile,2008-10-02,
Eidolon helvum,Animalia,OLD_WORLD_FRUITEATING_BATS_PTEROPODIDAE,African Straw-coloured Fruit Bat,,1,31.605893075466,6.1953377685174,Africa,Sudan,SD,,Sudan - Upper Nile,2009-02-07,
Eidolon helvum,Animalia,OLD_WORLD_FRUITEATING_BATS_PTEROPODIDAE,African Straw-coloured Fruit Bat,,1,31.605893075466,6.1953377685174,Africa,Sudan,SD,,Sudan - Upper Nile,2009-01-20,
Taphozous mauritianus,Animalia,SACWINGED_BATS_EMBALLONURIDAE,Mauritian Tomb Bat,,1,31.605893075466,6.1953377685174,Africa,Sudan,SD,,Sudan - Upper Nile,2008-11-19,
Nycteris spec.,Animalia,SLITFACED_BATS_NYCTERIDAE,,,1,31.413939110935,7.3324172487062,Africa,Sudan,SD,,Sudan - Upper Nile,2009-02-06,
Nycteris spec.,Animalia,SLITFACED_BATS_NYCTERIDAE,,,1,31.413939110935,7.3324172487062,Africa,Sudan,SD,,Sudan - Upper Nile,2009-01-20,
Nycteris spec.,Animalia,SLITFACED_BATS_NYCTERIDAE,,,1,31.606493890285,6.1954230979262,Africa,Sudan,SD,,Sudan - Upper Nile,2008-10-17,
Leptailurus serval,Animalia,CATS_FELIDAE,Serval,,1,31.606322228909,6.1955084273212,Africa,Sudan,SD,,Sudan - Upper Nile,2008-10-26,
Damaliscus lunatus tiang,Animalia,BOVIDS_BOVIDAE,Tiang,,1,31.606322228909,6.1955084273212,Africa,Sudan,SD,,Sudan - Upper Nile,2009-02-06,
Kobus kob,Animalia,BOVIDS_BOVIDAE,Kob,,1,31.606493890285,6.1955084273212,Africa,Sudan,SD,,Sudan - Upper Nile,2009-02-02,
Danaus chrysippus,Animalia,BRUSHFOOTED_BUTTERFLIES_NYMPHALIDAE,African Monarch,,1,31.605921238661,6.1954664292613,Africa,Sudan,SD,,Sudan - Upper Nile,2009-02-02,
Amegilla atrocincta,Animalia,Apidae,,,1,31.605921238661,6.1954664292613,Africa,Sudan,SD,,Sudan - Upper Nile,2009-02-10,
Sylvicapra grimmia,Animalia,BOVIDS_BOVIDAE,Common Duiker,,1,31.605921238661,6.1954664292613,Africa,Sudan,SD,,Sudan - Upper Nile,2009-01-13,
Bitis arietans,Animalia,Viperidae,Puff Adder,,1,31.605921238661,6.1954664292613,Africa,Sudan,SD,,Sudan - Upper Nile,2008-11-17,
Junonia oenone,Animalia,BRUSHFOOTED_BUTTERFLIES_NYMPHALIDAE,Dark Blue Pansy,,1,31.606180071831,6.1949951174713,Africa,Sudan,SD,,Sudan - Upper Nile,2009-02-02,
Colotis protomedia,Animalia,WHITES_PIERIDAE,Yellow Splendour,,1,31.606180071831,6.1949951174713,Africa,Sudan,SD,,Sudan - Upper Nile,2009-02-02,
Xerus erythropus,Animalia,SQUIRRELS_CHIPMUNKS_AND_PRAIRIEDOGS_SCIURIDAE,Striped Ground Squirrel,,1,31.606180071831,6.1949951174713,Africa,Sudan,SD,,Sudan - Upper Nile,2009-01-30,
Xerus erythropus,Animalia,SQUIRRELS_CHIPMUNKS_AND_PRAIRIEDOGS_SCIURIDAE,Striped Ground Squirrel,,1,31.606180071831,6.1949951174713,Africa,Sudan,SD,,Sudan - Upper Nile,2008-11-06,
Xerus erythropus,Animalia,SQUIRRELS_CHIPMUNKS_AND_PRAIRIEDOGS_SCIURIDAE,Striped Ground Squirrel,,1,31.606180071831,6.1949951174713,Africa,Sudan,SD,,Sudan - Upper Nile,2008-10-22,
Erythrocebus patas,Animalia,OLD_WORLD_MONKEYS_CERCOPITHECIDAE,Patas Monkey,,1,31.606180071831,6.1949951174713,Africa,Sudan,SD,,Sudan - Upper Nile,2008-11-09,
Erythrocebus patas,Animalia,OLD_WORLD_MONKEYS_CERCOPITHECIDAE,Patas Monkey,,1,31.606180071831,6.1949951174713,Africa,Sudan,SD,,Sudan - Upper Nile,2009-02-14,
Chlorocebus aethiops,Animalia,OLD_WORLD_MONKEYS_CERCOPITHECIDAE,Grivet Monkey,,1,32.553638219833,15.596909560856,Africa,Sudan,SD,,Sudan - Khartoum,2009-02-23,
Papio anubis,Animalia,OLD_WORLD_MONKEYS_CERCOPITHECIDAE,Olive Baboon,,1,31.605836749077,6.1951657763859,Africa,Sudan,SD,,Sudan - Upper Nile,2009-02-11,
Papio anubis,Animalia,OLD_WORLD_MONKEYS_CERCOPITHECIDAE,Olive Baboon,,1,31.605836749077,6.1951657763859,Africa,Sudan,SD,,Sudan - Upper Nile,2009-01-11,
Papio anubis,Animalia,OLD_WORLD_MONKEYS_CERCOPITHECIDAE,Olive Baboon,,1,31.605836749077,6.1951657763859,Africa,Sudan,SD,,Sudan - Upper Nile,2008-10-10,
Papio anubis,Animalia,OLD_WORLD_MONKEYS_CERCOPITHECIDAE,Olive Baboon,,1,31.605836749077,6.1951657763859,Africa,Sudan,SD,,Sudan - Upper Nile,2008-10-08,
Papio anubis,Animalia,OLD_WORLD_MONKEYS_CERCOPITHECIDAE,Olive Baboon,,1,31.605836749077,6.1951657763859,Africa,Sudan,SD,,Sudan - Upper Nile,2008-10-06,
Belenois gidica,Animalia,WHITES_PIERIDAE,African Veined White,,1,31.605836749077,6.1951657763859,Africa,Sudan,SD,,Sudan - Upper Nile,2009-01-30,
Eronia leda,Animalia,WHITES_PIERIDAE,Orange and Lemon,,1,31.605836749077,6.1951657763859,Africa,Sudan,SD,,Sudan - Upper Nile,2009-01-30,
Belenois creona creona,Animalia,WHITES_PIERIDAE,,,1,31.605836749077,6.1951657763859,Africa,Sudan,SD,,Sudan - Upper Nile,2008-10-17,
Belenois gidica,Animalia,WHITES_PIERIDAE,African Veined White,,1,31.605836749077,6.1951657763859,Africa,Sudan,SD,,Sudan - Upper Nile,2008-10-17,
Mungos mungo,Animalia,MONGOOSES_HERPESTIDAE,Banded Mongoose,,1,31.605836749077,6.1951657763859,Africa,Sudan,SD,,Sudan - Upper Nile,2008-10-17,
Herpestes ichneumon,Animalia,MONGOOSES_HERPESTIDAE,Egyptian Mongoose,,4,31.605836749077,6.1951657763859,Africa,Sudan,SD,,Sudan - Upper Nile,2008-10-08,
Diplacodes luminans,Animalia,SKIMMERS_LIBELLULIDAE,Luminous Percher,,1,31.605836749077,6.1951657763859,Africa,Sudan,SD,,Sudan - Upper Nile,2008-10-04,
Crocothemis erythraea,Animalia,SKIMMERS_LIBELLULIDAE,Broad Scarlet,,1,31.605836749077,6.1951657763859,Africa,Sudan,SD,,Sudan - Upper Nile,2009-02-06,
Bunaea alcinoe,Animalia,Saturniidae,Cabbage tree emperor moth,,1,31.605836749077,6.1951657763859,Africa,Sudan,SD,,Sudan - Upper Nile,2008-09-23,
Hemidactylus brookii,Animalia,Gekkonidae,Brook's House Gecko,,2,31.605148762465,6.1957224173839,Africa,Sudan,SD,,Sudan - Upper Nile,2008-10-17,
Junonia orithya,Animalia,BRUSHFOOTED_BUTTERFLIES_NYMPHALIDAE,Blue Pansy,,1,31.677475869656,9.5714658735757,Africa,Sudan,SD,,Sudan - Upper Nile,2008-09-26,
Junonia oenone,Animalia,BRUSHFOOTED_BUTTERFLIES_NYMPHALIDAE,Dark Blue Pansy,,1,31.604848355055,6.1956370880235,Africa,Sudan,SD,,Sudan - Upper Nile,2008-10-04,
Oenanthe oenanthe,Animalia,OLD_WORLD_FLYCATCHERS_MUSCICAPIDAE,Northern Wheatear,,1,31.608,6.192,Africa,Sudan,SD,,Sudan - Upper Nile,2008-12-15,
Bubulcus ibis,Animalia,HERONS_ARDEIDAE,Western Cattle Egret,,1,32.51354207,15.60658001,Africa,Sudan,SD,,Sudan - Khartoum,2015-10-28,10:21
