scientificName,kingdom,family,vernacularName,previousIdentifications,individualCount,longitudeDecimal,latitudeDecimal,continent,country,countryCode,stateProvince,locality,eventDate,eventTime
Cecropis domicella,Animalia,SWALLOWS_HIRUNDINIDAE,West African Swallow,,1,1.0993194580078,9.9884620959459,Africa,Togo,TG,,Togo,2009-12-31,
Lagonosticta senegala,Animalia,WAXBILLS_MUNIAS_ALLIES_ESTRILDIDAE,Red-billed Firefinch,,1,1.1418914794922,8.9810534774767,Africa,Togo,TG,,Togo,2009-12-28,
Zonocerus variegatus,Animalia,Pyrgomorphidae,Variegated grasshopper,,1,0.61471939086914,6.8962635684626,Africa,Togo,TG,,Togo,2009-12-25,
Argina  leonina,Animalia,EREBIDAE,,,1,0.61712265014648,6.89643398787,Africa,Togo,TG,,Togo,2009-12-25,
Chiasmia angolaria,Animalia,Geometridae,,,1,0.61712265014648,6.89643398787,Africa,Togo,TG,,Togo,2009-12-25,
Phylloscopus trochilus,Animalia,LEAF_WARBLERS_AND_ALLIES_PHYLLOSCOPIDAE,Willow Warbler,,1,1.38324737549,6.23032300053,Africa,Togo,TG,,Togo,2009-12-23,
Cypsiurus parvus,Animalia,SWIFTS_APODIDAE,African Palm Swift,,1,0.600128173828,7.58441164099,Africa,Togo,TG,,Togo,2009-12-26,
Buteo auguralis,Animalia,HAWKS_AND_EAGLES_ACCIPITRIDAE,Red-necked Buzzard,,1,1.13914489746,9.99995793564,Africa,Togo,TG,,Togo,2009-12-31,
Hirundo lucida,Animalia,SWALLOWS_HIRUNDINIDAE,Red-chested Swallow,,1,1.13914489746,9.99995793564,Africa,Togo,TG,,Togo,2009-12-31,
Turdoides plebejus,Animalia,Leiothrichidae,Brown Babbler,,1,1.13914489746,9.99995793564,Africa,Togo,TG,,Togo,2009-12-31,
Kaupifalco monogrammicus,Animalia,HAWKS_AND_EAGLES_ACCIPITRIDAE,Lizard Buzzard,,1,1.13914489746,9.99995793564,Africa,Togo,TG,,Togo,2009-12-31,
Pycnonotus barbatus,Animalia,BULBULS_PYCNONOTIDAE,Common Bulbul,,1,0.615234375,6.89916069003,Africa,Togo,TG,,Togo,2009-12-25,
Aviceda cuculoides,Animalia,HAWKS_AND_EAGLES_ACCIPITRIDAE,African Cuckoo-Hawk,,1,0.615234375,6.89916069003,Africa,Togo,TG,,Togo,2009-12-25,
Necrosyrtes monachus,Animalia,HAWKS_AND_EAGLES_ACCIPITRIDAE,Hooded Vulture,,1,1.20849609375,9.53845761832,Africa,Togo,TG,,Togo,2009-12-29,
Turdoides plebejus,Animalia,Leiothrichidae,Brown Babbler,,1,1.20849609375,9.53845761832,Africa,Togo,TG,,Togo,2009-12-29,
Streptopelia semitorquata,Animalia,PIGEONS_AND_DOVES_COLUMBIDAE,Red-eyed Dove,,1,0.789642333984,9.24851444273,Africa,Togo,TG,,Togo,2009-12-28,
Cecropis daurica,Animalia,SWALLOWS_HIRUNDINIDAE,Red-rumped Swallow,,1,0.613861083984,7.57828585197,Africa,Togo,TG,,Togo,2009-12-26,
Lamprotornis caudatus,Animalia,STARLINGS_STURNIDAE,Long-tailed Glossy Starling,,1,1.12678527832,9.99928172103,Africa,Togo,TG,,Togo,2009-12-31,
Poicephalus senegalus,Animalia,PARROTS_PSITTACIDAE,Senegal Parrot,,1,1.12678527832,9.99928172103,Africa,Togo,TG,,Togo,2009-12-31,
Lamprotornis chalcurus,Animalia,STARLINGS_STURNIDAE,Bronze-tailed Starling,,1,1.12678527832,9.99928172103,Africa,Togo,TG,,Togo,2009-12-31,
Prionops plumatus,Animalia,VANGAS_VANGIDAE,White-crested Helmetshrike,,1,1.12678527832,9.99928172103,Africa,Togo,TG,,Togo,2009-12-31,
Lophoceros nasutus,Animalia,HORNBILLS_BUCEROTIDAE,African Grey Hornbill,,1,1.12678527832,9.99928172103,Africa,Togo,TG,,Togo,2009-12-31,
Anthus trivialis,Animalia,PIPITS_EN_WAGTAILS_MOTACILLIDAE,Tree Pipit,,1,1.12678527832,10.0013103606,Africa,Togo,TG,,Togo,2009-12-31,
Milvus migrans,Animalia,HAWKS_AND_EAGLES_ACCIPITRIDAE,Black Kite,,1,1.12403869629,10.0161866639,Africa,Togo,TG,,Togo,2009-12-31,
Coracias abyssinicus,Animalia,ROLLERS_CORACIIDAE,Abyssinian Roller,,1,1.12403869629,10.0161866639,Africa,Togo,TG,,Togo,2009-12-31,
Oriolus auratus,Animalia,ORIOLES_AND_FIG_BIRDS_ORIOLIDAE,African Golden Oriole,,1,1.12403869629,10.0161866639,Africa,Togo,TG,,Togo,2009-12-31,
Centropus senegalensis,Animalia,CUCKOOS_AND_COUCALS_CUCULIDAE,Senegal Coucal,,1,1.12403869629,10.0161866639,Africa,Togo,TG,,Togo,2009-12-31,
Malaconotus blanchoti,Animalia,HELMETSHRIKES_BUSHSHRIKES_MALACONOTIDAE,Grey-headed Bushshrike,,1,1.12403869629,10.0161866639,Africa,Togo,TG,,Togo,2009-12-31,
Pycnonotus barbatus,Animalia,BULBULS_PYCNONOTIDAE,Common Bulbul,,1,1.12403869629,10.0161866639,Africa,Togo,TG,,Togo,2009-12-31,
Lagonosticta senegala,Animalia,WAXBILLS_MUNIAS_ALLIES_ESTRILDIDAE,Red-billed Firefinch,,1,1.142578125,8.98274904162,Africa,Togo,TG,,Togo,2009-12-27,
Cinnyris venustus,Animalia,SUNBIRDS_NECTARINIIDAE,Variable Sunbird,,1,1.24488830566,6.15079527192,Africa,Togo,TG,,Togo,2009-12-22,
Lonchura cucullata,Animalia,WAXBILLS_MUNIAS_ALLIES_ESTRILDIDAE,Bronze Mannikin,,1,1.24488830566,6.15079527192,Africa,Togo,TG,,Togo,2009-12-22,
Turdus pelios,Animalia,THRUSHES_TURDIDAE,African Thrush,,1,1.42959594727,6.22520355094,Africa,Togo,TG,,Togo,2009-12-23,
Pycnonotus barbatus,Animalia,BULBULS_PYCNONOTIDAE,Common Bulbul,,1,1.42959594727,6.22520355094,Africa,Togo,TG,,Togo,2009-12-23,
Actitis hypoleucos,Animalia,SANDPIPERS_AND_ALLIES_SCOLOPACIDAE,Common Sandpiper,,1,1.42959594727,6.22520355094,Africa,Togo,TG,,Togo,2009-12-23,
Motacilla flava thunbergi,Animalia,PIPITS_EN_WAGTAILS_MOTACILLIDAE,Grey-headed Wagtail,,1,1.42959594727,6.22520355094,Africa,Togo,TG,,Togo,2009-12-23,
Milvus aegyptius,Animalia,HAWKS_AND_EAGLES_ACCIPITRIDAE,Yellow-billed Kite,,1,1.42959594727,6.22520355094,Africa,Togo,TG,,Togo,2009-12-23,
Hirundo leucosoma,Animalia,SWALLOWS_HIRUNDINIDAE,Pied-winged Swallow,,1,0.609741210938,6.90052403522,Africa,Togo,TG,,Togo,2009-12-25,
Cinnyris coccinigastrus,Animalia,SUNBIRDS_NECTARINIIDAE,Splendid Sunbird,,1,0.609741210938,6.90052403522,Africa,Togo,TG,,Togo,2009-12-25,
Malimbus rubricollis,Animalia,WEAVERS_PLOCEIDAE,Red-headed Malimbe,,1,0.609741210938,6.90052403522,Africa,Togo,TG,,Togo,2009-12-25,
Merops albicollis,Animalia,BEEEATERS_MEROPIDAE,White-throated Bee-eater,,1,0.609741210938,6.90052403522,Africa,Togo,TG,,Togo,2009-12-25,
Eurystomus glaucurus,Animalia,ROLLERS_CORACIIDAE,Broad-billed Roller,,1,0.606994628906,6.90052403522,Africa,Togo,TG,,Togo,2009-12-25,
Corvus albus,Animalia,CROWS_AND_JAYS_CORVIDAE,Pied Crow,,1,1.19888305664,9.55369320579,Africa,Togo,TG,,Togo,2009-12-29,
Lamprotornis chalcurus,Animalia,STARLINGS_STURNIDAE,Bronze-tailed Starling,,1,1.19888305664,9.55369320579,Africa,Togo,TG,,Togo,2009-12-29,
Columba guinea,Animalia,PIGEONS_AND_DOVES_COLUMBIDAE,Speckled Pigeon,,1,1.19888305664,9.55369320579,Africa,Togo,TG,,Togo,2009-12-29,
Lybius dubius,Animalia,Lybiidae,Bearded Barbet,,1,1.19888305664,9.55369320579,Africa,Togo,TG,,Togo,2009-12-29,
Dendropicos goertae,Animalia,WOODPECKERS_PICIDAE,African Grey Woodpecker,,1,1.19888305664,9.55369320579,Africa,Togo,TG,,Togo,2009-12-29,
Corvinella corvina,Animalia,SHRIKES_LANIIDAE,Yellow-billed Shrike,,1,1.19888305664,9.55369320579,Africa,Togo,TG,,Togo,2009-12-29,
Dicrurus divaricatus divaricatus,Animalia,DRONGOS_DICRURIDAE,Glossy-backed Drongo ssp divaricatus,,1,1.19888305664,9.55369320579,Africa,Togo,TG,,Togo,2009-12-29,
Ptilostomus afer,Animalia,CROWS_AND_JAYS_CORVIDAE,Piapiac,,1,1.19888305664,9.55369320579,Africa,Togo,TG,,Togo,2009-12-29,
Cypsiurus parvus,Animalia,SWIFTS_APODIDAE,African Palm Swift,,1,0.776596069336,9.25732468567,Africa,Togo,TG,,Togo,2009-12-28,
Numida meleagris,Animalia,GUINEAFOWL_NUMIDIDAE,Helmeted Guineafowl,,1,0.605621337891,7.58645355128,Africa,Togo,TG,,Togo,2009-12-26,
Necrosyrtes monachus,Animalia,HAWKS_AND_EAGLES_ACCIPITRIDAE,Hooded Vulture,,1,0.605621337891,7.58645355128,Africa,Togo,TG,,Togo,2009-12-26,
Amauris tartarea tartarea,Animalia,BRUSHFOOTED_BUTTERFLIES_NYMPHALIDAE,,,1,0.594635009766,6.90393238102,Africa,Togo,TG,,Togo,2009-12-25,
Papilio demodocus,Animalia,SWALLOWTAILS_PAPILIONIDAE,Christmas Butterfly,,1,0.601501464844,6.91279396519,Africa,Togo,TG,,Togo,2009-12-25,
Amauris niavius niavius,Animalia,BRUSHFOOTED_BUTTERFLIES_NYMPHALIDAE,,,1,0.612487792969,6.90734070228,Africa,Togo,TG,,Togo,2009-12-25,
Cyrestis camillus camillus,Animalia,BRUSHFOOTED_BUTTERFLIES_NYMPHALIDAE,,,1,0.604248046875,6.89098053647,Africa,Togo,TG,,Togo,2009-12-25,
Aterica galene galene,Animalia,BRUSHFOOTED_BUTTERFLIES_NYMPHALIDAE,,,1,0.620727539062,6.88280024177,Africa,Togo,TG,,Togo,2009-12-25,
Junonia terea terea,Animalia,BRUSHFOOTED_BUTTERFLIES_NYMPHALIDAE,,,1,0.604248046875,6.89643398787,Africa,Togo,TG,,Togo,2009-12-25,
Acraea bonasia,Animalia,BRUSHFOOTED_BUTTERFLIES_NYMPHALIDAE,,,1,0.604248046875,6.88825378724,Africa,Togo,TG,,Togo,2009-12-25,
Mylothris chloris chloris,Animalia,WHITES_PIERIDAE,,,1,0.606994628906,6.89643398787,Africa,Togo,TG,,Togo,2009-12-25,
Chlorocebus tantalus,Animalia,OLD_WORLD_MONKEYS_CERCOPITHECIDAE,Tantalus Monkey,,1,0.6789717568295328,10.134180000000072,Africa,Togo,TG,,Togo - Kéran NP,1991-01-03,
Plectropterus gambensis,Animalia,DUCKS_GEESE_AND_SWANS_ANATIDAE,Spur-winged Goose,,5,0.6789717568295328,10.134180000000072,Africa,Togo,TG,,Togo - Kéran NP,1991-01-03,
Mycteria ibis,Animalia,STORKS_CICONIIDAE,Yellow-billed Stork,,23,0.6789717568295328,10.134180000000072,Africa,Togo,TG,,Togo - Kéran NP,1991-01-03,
Papio anubis,Animalia,OLD_WORLD_MONKEYS_CERCOPITHECIDAE,Olive Baboon,,12,0.6789717568295328,10.134180000000072,Africa,Togo,TG,,Togo - Kéran NP,1991-01-02,
Syncerus caffer brachyceros,Animalia,BOVIDS_BOVIDAE,Lake Chad Buffalo,,1,0.6789717568295328,10.134180000000072,Africa,Togo,TG,,Togo - Kéran NP,1990-12-25,
Lamprotornis purpureus,Animalia,STARLINGS_STURNIDAE,Purple Starling,,1,1.127,9.999,Africa,Togo,TG,,Togo - Kara,2009-12-30,
Turdoides plebejus platycirca,Animalia,Leiothrichidae,Brown Babbler ssp platycirca,,1,1.127,9.999,Africa,Togo,TG,,Togo - Kara,2009-12-30,
Scopus umbretta umbretta,Animalia,HAMERKOP_SCOPIDAE,Hamerkop ssp umbretta,,1,1.127,9.999,Africa,Togo,TG,,Togo - Kara,2009-12-30,
Coracias abyssinicus,Animalia,ROLLERS_CORACIIDAE,Abyssinian Roller,,1,1.127,9.999,Africa,Togo,TG,,Togo - Kara,2009-12-30,
Pycnonotus barbatus inornatus,Animalia,BULBULS_PYCNONOTIDAE,Common Bulbul ssp inornatus,,1,1.127,9.999,Africa,Togo,TG,,Togo - Kara,2009-12-30,
Papilio demodocus,Animalia,SWALLOWTAILS_PAPILIONIDAE,Christmas Butterfly,,1,1.199,9.554,Africa,Togo,TG,,Togo - Kara,2009-12-29,
Dicrurus divaricatus divaricatus,Animalia,DRONGOS_DICRURIDAE,Glossy-backed Drongo ssp divaricatus,,1,1.199,9.554,Africa,Togo,TG,,Togo - Kara,2009-12-29,
Dicrurus divaricatus divaricatus,Animalia,DRONGOS_DICRURIDAE,Glossy-backed Drongo ssp divaricatus,,1,1.199,9.554,Africa,Togo,TG,,Togo - Kara,2009-12-29,
Ptilostomus afer,Animalia,CROWS_AND_JAYS_CORVIDAE,Piapiac,,1,1.199,9.554,Africa,Togo,TG,,Togo - Kara,2009-12-29,
Ptilostomus afer,Animalia,CROWS_AND_JAYS_CORVIDAE,Piapiac,,1,1.199,9.554,Africa,Togo,TG,,Togo - Kara,2009-12-29,
Ptilostomus afer,Animalia,CROWS_AND_JAYS_CORVIDAE,Piapiac,,1,1.199,9.554,Africa,Togo,TG,,Togo - Kara,2009-12-29,
Ptilostomus afer,Animalia,CROWS_AND_JAYS_CORVIDAE,Piapiac,,1,1.199,9.554,Africa,Togo,TG,,Togo - Kara,2009-12-29,
Lagonosticta senegala senegala,Animalia,WAXBILLS_MUNIAS_ALLIES_ESTRILDIDAE,Red-billed Firefinch ssp senegala,,1,1.143,8.983,Africa,Togo,TG,,Togo - Centrale,2009-12-27,
Lagonosticta senegala senegala,Animalia,WAXBILLS_MUNIAS_ALLIES_ESTRILDIDAE,Red-billed Firefinch ssp senegala,,1,1.143,8.983,Africa,Togo,TG,,Togo - Centrale,2009-12-27,
Merops albicollis,Animalia,BEEEATERS_MEROPIDAE,White-throated Bee-eater,,1,0.606,7.586,Africa,Togo,TG,,Togo - Plateaux,2009-12-26,
Merops albicollis,Animalia,BEEEATERS_MEROPIDAE,White-throated Bee-eater,,1,0.606,7.586,Africa,Togo,TG,,Togo - Plateaux,2009-12-26,
Necrosyrtes monachus,Animalia,HAWKS_AND_EAGLES_ACCIPITRIDAE,Hooded Vulture,,1,0.606,7.586,Africa,Togo,TG,,Togo - Plateaux,2009-12-26,
Necrosyrtes monachus,Animalia,HAWKS_AND_EAGLES_ACCIPITRIDAE,Hooded Vulture,,1,0.606,7.586,Africa,Togo,TG,,Togo - Plateaux,2009-12-26,
Merops albicollis,Animalia,BEEEATERS_MEROPIDAE,White-throated Bee-eater,,1,0.61,6.901,Africa,Togo,TG,,Togo - Plateaux,2009-12-25,
Merops albicollis,Animalia,BEEEATERS_MEROPIDAE,White-throated Bee-eater,,1,0.61,6.901,Africa,Togo,TG,,Togo - Plateaux,2009-12-25,
Turdus pelios saturatus,Animalia,THRUSHES_TURDIDAE,African Thrush ssp saturatus,,1,1.43,6.225,Africa,Togo,TG,,Togo - Maritime,2009-12-23,
Mylothris chloris chloris,Animalia,WHITES_PIERIDAE,,,1,1.43,6.225,Africa,Togo,TG,,Togo - Maritime,2009-12-23,
Dicrurus divaricatus,Animalia,DRONGOS_DICRURIDAE,Glossy-backed Drongo,,1,0.608685195446014,6.91964864730835,Africa,Togo,TG,,Togo - Plateaux,2019-11-06,15:03
Amauris tartarea tartarea,Animalia,BRUSHFOOTED_BUTTERFLIES_NYMPHALIDAE,,,1,0.75271368,6.85981338,Africa,Togo,TG,,Togo - Plateaux,2014-11-12,
Junonia oenone oenone,Animalia,BRUSHFOOTED_BUTTERFLIES_NYMPHALIDAE,,,1,0.74908733,6.87253207,Africa,Togo,TG,,Togo - Plateaux,2014-11-12,
Junonia chorimene,Animalia,BRUSHFOOTED_BUTTERFLIES_NYMPHALIDAE,Golden Pansy,,1,0.74908733,6.87253207,Africa,Togo,TG,,Togo - Plateaux,2014-11-12,
Precis pelarga,Animalia,BRUSHFOOTED_BUTTERFLIES_NYMPHALIDAE,Fashion commodore,,1,0.74908733,6.87253207,Africa,Togo,TG,,Togo - Plateaux,2014-11-12,
Hypolimnas misippus,Animalia,BRUSHFOOTED_BUTTERFLIES_NYMPHALIDAE,Danaid Eggfly,,2,0.74908733,6.87253207,Africa,Togo,TG,,Togo - Plateaux,2014-11-12,
Junonia terea terea,Animalia,BRUSHFOOTED_BUTTERFLIES_NYMPHALIDAE,,,1,0.74908733,6.87253207,Africa,Togo,TG,,Togo - Plateaux,2014-11-12,
Precis octavia octavia,Animalia,BRUSHFOOTED_BUTTERFLIES_NYMPHALIDAE,,,3,0.74908733,6.87253207,Africa,Togo,TG,,Togo - Plateaux,2014-11-12,
Junonia sophia sophia,Animalia,BRUSHFOOTED_BUTTERFLIES_NYMPHALIDAE,,,1,0.63262582,6.91440224,Africa,Togo,TG,,Togo - Plateaux,2014-11-03,
Spilopelia senegalensis,Animalia,PIGEONS_AND_DOVES_COLUMBIDAE,Laughing Dove,,1,1.49738977,6.20989074,Africa,Togo,TG,,Togo - Maritime,2017-11-01,
Ploceus cucullatus,Animalia,WEAVERS_PLOCEIDAE,Village Weaver,,1,1.49738977,6.20989074,Africa,Togo,TG,,Togo - Maritime,2017-11-01,
Spilopelia senegalensis,Animalia,PIGEONS_AND_DOVES_COLUMBIDAE,Laughing Dove,,1,1.49738977,6.20989074,Africa,Togo,TG,,Togo - Maritime,2017-11-01,
Lonchura cucullata,Animalia,WAXBILLS_MUNIAS_ALLIES_ESTRILDIDAE,Bronze Mannikin,,1,1.49738977,6.20989074,Africa,Togo,TG,,Togo - Maritime,2017-11-01,
Turdoides plebejus,Animalia,Leiothrichidae,Brown Babbler,,1,1.49738977,6.20989074,Africa,Togo,TG,,Togo - Maritime,2017-11-01,
Corvus albus,Animalia,CROWS_AND_JAYS_CORVIDAE,Pied Crow,,1,1.21835021,6.12028966,Africa,Togo,TG,,Togo - Maritime,2017-11-22,
Vanellus senegallus,Animalia,PLOVERS_CHARADRIIDAE,African Wattled Lapwing,,1,1.11838761,9.65341186,Africa,Togo,TG,,Togo - Kara,2017-11-18,
Bubulcus ibis,Animalia,HERONS_ARDEIDAE,Western Cattle Egret,,1,1.11838761,9.65341186,Africa,Togo,TG,,Togo - Kara,2017-11-18,
Euplectes franciscanus,Animalia,WEAVERS_PLOCEIDAE,Northern Red Bishop,,1,1.47880949,6.21102556,Africa,Togo,TG,,Togo - Maritime,2017-11-01,
Hirundo aethiopica,Animalia,SWALLOWS_HIRUNDINIDAE,Ethiopian Swallow,,1,1.47880949,6.21102556,Africa,Togo,TG,,Togo - Maritime,2017-11-01,
Corythornis cristatus,Animalia,KINGFISHERS_ALCEDINIDAE,Malachite Kingfisher,,1,1.63877692,6.24798003,Africa,Togo,TG,,Togo - Maritime,2017-11-01,
Halcyon senegalensis,Animalia,KINGFISHERS_ALCEDINIDAE,Woodland Kingfisher,,1,1.63877692,6.24798003,Africa,Togo,TG,,Togo - Maritime,2017-11-01,
Cacyreus lingeus,Animalia,GOSSAMERWINGED_BUTTERFLIES_LYCAENIDAE,,,1,0.63284039,6.91537146,Africa,Togo,TG,,Togo,2014-11-03,
Pardaleodes edipus,Animalia,SKIPPERS_HESPERIIDAE,,,2,0.63156366,6.91500934,Africa,Togo,TG,,Togo,2014-11-03,
Spilopelia senegalensis,Animalia,PIGEONS_AND_DOVES_COLUMBIDAE,Laughing Dove,,1,0.63156366,6.91500934,Africa,Togo,TG,,Togo,2014-11-10,
Pycnonotus barbatus,Animalia,BULBULS_PYCNONOTIDAE,Common Bulbul,,1,0.63156366,6.91500934,Africa,Togo,TG,,Togo,2014-11-02,
Passer griseus,Animalia,OLD_WORLD_SPARROWS_PASSERIDAE,Northern Grey-headed Sparrow,,3,0.63156366,6.91500934,Africa,Togo,TG,,Togo,2014-11-01,
Spilopelia senegalensis,Animalia,PIGEONS_AND_DOVES_COLUMBIDAE,Laughing Dove,,2,0.63156366,6.91500934,Africa,Togo,TG,,Togo,2014-11-01,
Numida meleagris,Animalia,GUINEAFOWL_NUMIDIDAE,Helmeted Guineafowl,,1,1.16271967,9.67602709,Africa,Togo,TG,,Togo,2011-07-29,
Gypohierax angolensis,Animalia,HAWKS_AND_EAGLES_ACCIPITRIDAE,Palm-nut Vulture,,1,1.05480552,9.54192801,Africa,Togo,TG,,Togo,2017-07-20,
Polyboroides typus,Animalia,HAWKS_AND_EAGLES_ACCIPITRIDAE,African Harrier-Hawk,,1,1.05480552,9.54192801,Africa,Togo,TG,,Togo,2017-07-20,
Vidua macroura,Animalia,INDIGOBIRDS_AND_WHYDAHS_VIDUIDAE,Pin-tailed Whydah,,1,1.05480552,9.54192801,Africa,Togo,TG,,Togo,2017-07-20,
Falco ardosiaceus,Animalia,CARACAS_AND_FALCONS_FALCONIDAE,Grey Kestrel,,1,1.05480552,9.54192801,Africa,Togo,TG,,Togo,2017-07-20,
Falco ardosiaceus,Animalia,CARACAS_AND_FALCONS_FALCONIDAE,Grey Kestrel,,1,1.05480552,9.54192801,Africa,Togo,TG,,Togo,2017-07-20,
Erythrocebus patas,Animalia,OLD_WORLD_MONKEYS_CERCOPITHECIDAE,Patas Monkey,,1,1.05480552,9.54192801,Africa,Togo,TG,,Togo,2017-07-20,
Chlorocebus tantalus,Animalia,OLD_WORLD_MONKEYS_CERCOPITHECIDAE,Tantalus Monkey,,1,1.05480552,9.54192801,Africa,Togo,TG,,Togo,2017-07-20,
Palpopleura portia,Animalia,SKIMMERS_LIBELLULIDAE,Portia Widow,,1,1.01145767,6.32903857,Africa,Togo,TG,,Togo,2017-07-15,
Bradinopyga strachani,Animalia,SKIMMERS_LIBELLULIDAE,Red Rock-dweller,,1,1.01145767,6.32903857,Africa,Togo,TG,,Togo,2017-07-15,
Acisoma inflatum,Animalia,SKIMMERS_LIBELLULIDAE,Stout Pintail,,1,1.01145767,6.32903857,Africa,Togo,TG,,Togo,2017-07-15,
Spilopelia senegalensis,Animalia,PIGEONS_AND_DOVES_COLUMBIDAE,Laughing Dove,,1,0.74524641,6.87615365,Africa,Togo,TG,,Togo,2017-07-18,
Necrosyrtes monachus,Animalia,HAWKS_AND_EAGLES_ACCIPITRIDAE,Hooded Vulture,,15,0.74524641,6.87615365,Africa,Togo,TG,,Togo,2017-07-18,
Lophoceros fasciatus semifasciatus,Animalia,HORNBILLS_BUCEROTIDAE,African Pied Hornbill ssp semifasciatus,,1,0.74524641,6.87615365,Africa,Togo,TG,,Togo,2017-07-18,
Motacilla aguimp,Animalia,PIPITS_EN_WAGTAILS_MOTACILLIDAE,African Pied Wagtail,,1,1.21267498,6.42333211,Africa,Togo,TG,,Togo,2017-07-14,
Crinifer piscator,Animalia,TURACOS_MUSOPHAGIDAE,Western Plantain-eater,,1,1.14681333,7.51738483,Africa,Togo,TG,,Togo,2017-07-14,
Spilopelia senegalensis,Animalia,PIGEONS_AND_DOVES_COLUMBIDAE,Laughing Dove,,1,1.25530601,6.13517845,Africa,Togo,TG,,Togo,2017-07-09,
Corvus albus,Animalia,CROWS_AND_JAYS_CORVIDAE,Pied Crow,,1,1.25530601,6.13517845,Africa,Togo,TG,,Togo,2017-07-09,
Passer griseus,Animalia,OLD_WORLD_SPARROWS_PASSERIDAE,Northern Grey-headed Sparrow,,1,1.6049628,6.2315282,Africa,Togo,TG,,Togo,2017-07-20,
Egretta gularis,Animalia,HERONS_ARDEIDAE,Western Reef Heron,,1,1.6049628,6.2315282,Africa,Togo,TG,,Togo,2017-07-20,
Ceryle rudis,Animalia,KINGFISHERS_ALCEDINIDAE,Pied Kingfisher,,1,1.6049628,6.2315282,Africa,Togo,TG,,Togo,2017-07-20,
Lamprotornis purpureus,Animalia,STARLINGS_STURNIDAE,Purple Starling,,1,1.48565076,6.22420632,Africa,Togo,TG,,Togo,2017-07-20,
Cinnyris venustus,Animalia,SUNBIRDS_NECTARINIIDAE,Variable Sunbird,,1,1.48565076,6.22420632,Africa,Togo,TG,,Togo,2017-07-20,
Hirundo aethiopica,Animalia,SWALLOWS_HIRUNDINIDAE,Ethiopian Swallow,,1,1.48565076,6.22420632,Africa,Togo,TG,,Togo,2017-07-20,
Lanius humeralis,Animalia,SHRIKES_LANIIDAE,Northern Fiscal,,1,1.48565076,6.22420632,Africa,Togo,TG,,Togo,2017-07-20,
Ardea purpurea,Animalia,HERONS_ARDEIDAE,Purple Heron,,1,1.48498558,6.22516622,Africa,Togo,TG,,Togo,2017-07-20,
Ploceus cucullatus,Animalia,WEAVERS_PLOCEIDAE,Village Weaver,,1,1.47837728,6.23358662,Africa,Togo,TG,,Togo,2017-07-20,
Anastomus lamelligerus,Animalia,STORKS_CICONIIDAE,African Openbill,,4,1.47837728,6.23358662,Africa,Togo,TG,,Togo,2017-07-20,
Spilopelia senegalensis,Animalia,PIGEONS_AND_DOVES_COLUMBIDAE,Laughing Dove,,1,1.47837728,6.23358662,Africa,Togo,TG,,Togo,2017-07-20,
Dendrocygna viduata,Animalia,DUCKS_GEESE_AND_SWANS_ANATIDAE,White-faced Whistling Duck,,1,1.01204759,6.3290559,Africa,Togo,TG,,Togo,2017-07-21,
Euplectes franciscanus,Animalia,WEAVERS_PLOCEIDAE,Northern Red Bishop,,1,1.01204759,6.3290559,Africa,Togo,TG,,Togo,2017-07-21,
Halcyon malimbica,Animalia,KINGFISHERS_ALCEDINIDAE,Blue-breasted Kingfisher,,1,1.01204759,6.3290559,Africa,Togo,TG,,Togo,2017-07-21,
Turtur afer,Animalia,PIGEONS_AND_DOVES_COLUMBIDAE,Blue-spotted Wood Dove,,1,1.01204759,6.3290559,Africa,Togo,TG,,Togo,2017-07-21,
Chrysococcyx caprius,Animalia,CUCKOOS_AND_COUCALS_CUCULIDAE,Diederik Cuckoo,,1,1.01204759,6.3290559,Africa,Togo,TG,,Togo,2017-07-19,
Butorides striata,Animalia,HERONS_ARDEIDAE,Striated Heron,,1,1.01204759,6.3290559,Africa,Togo,TG,,Togo,2017-07-19,
Lagonosticta senegala,Animalia,WAXBILLS_MUNIAS_ALLIES_ESTRILDIDAE,Red-billed Firefinch,,1,1.01204759,6.3290559,Africa,Togo,TG,,Togo,2017-07-19,
Cypsiurus parvus,Animalia,SWIFTS_APODIDAE,African Palm Swift,,1,1.01204759,6.3290559,Africa,Togo,TG,,Togo,2017-07-19,
Estrilda melpoda,Animalia,WAXBILLS_MUNIAS_ALLIES_ESTRILDIDAE,Orange-cheeked Waxbill,,1,1.01204759,6.3290559,Africa,Togo,TG,,Togo,2017-07-19,
Lonchura bicolor,Animalia,WAXBILLS_MUNIAS_ALLIES_ESTRILDIDAE,Black-and-white Mannikin,,1,1.01204759,6.3290559,Africa,Togo,TG,,Togo,2017-07-19,
Cinnyris cupreus,Animalia,SUNBIRDS_NECTARINIIDAE,Copper Sunbird,,1,1.01204759,6.3290559,Africa,Togo,TG,,Togo,2017-07-19,
Turtur abyssinicus,Animalia,PIGEONS_AND_DOVES_COLUMBIDAE,Black-billed Wood Dove,,1,1.01204759,6.3290559,Africa,Togo,TG,,Togo,2017-07-19,
Lanius humeralis,Animalia,SHRIKES_LANIIDAE,Northern Fiscal,,1,1.01204759,6.3290559,Africa,Togo,TG,,Togo,2017-07-19,
Vidua macroura,Animalia,INDIGOBIRDS_AND_WHYDAHS_VIDUIDAE,Pin-tailed Whydah,,1,1.01204759,6.3290559,Africa,Togo,TG,,Togo,2017-07-19,
Prinia subflava,Animalia,CISTICOLAS_AND_ALLIES_CISTICOLIDAE,Tawny-flanked Prinia,,1,1.01204759,6.3290559,Africa,Togo,TG,,Togo,2017-07-19,
Camaroptera brevicaudata,Animalia,CISTICOLAS_AND_ALLIES_CISTICOLIDAE,Grey-backed Camaroptera,,1,1.01204759,6.3290559,Africa,Togo,TG,,Togo,2017-07-19,
Aves indet.,Animalia,unknown,Unidentified bird,,1,1.01204759,6.3290559,Africa,Togo,TG,,Togo,2017-07-15,
Elanus caeruleus,Animalia,HAWKS_AND_EAGLES_ACCIPITRIDAE,Black-winged Kite,,1,1.01204759,6.3290559,Africa,Togo,TG,,Togo,2017-07-15,
Corvinella corvina,Animalia,SHRIKES_LANIIDAE,Yellow-billed Shrike,,1,1.01204759,6.3290559,Africa,Togo,TG,,Togo,2017-07-15,
Hirundo aethiopica,Animalia,SWALLOWS_HIRUNDINIDAE,Ethiopian Swallow,,1,1.01204759,6.3290559,Africa,Togo,TG,,Togo,2017-07-15,
Euplectes franciscanus,Animalia,WEAVERS_PLOCEIDAE,Northern Red Bishop,,1,1.01204759,6.3290559,Africa,Togo,TG,,Togo,2017-07-15,
Lonchura cucullata,Animalia,WAXBILLS_MUNIAS_ALLIES_ESTRILDIDAE,Bronze Mannikin,,1,1.01204759,6.3290559,Africa,Togo,TG,,Togo,2017-07-15,
Euplectes macroura,Animalia,WEAVERS_PLOCEIDAE,Yellow-mantled Widowbird,,1,1.01204759,6.3290559,Africa,Togo,TG,,Togo,2017-07-15,
Chrysococcyx caprius,Animalia,CUCKOOS_AND_COUCALS_CUCULIDAE,Diederik Cuckoo,,1,1.01204759,6.3290559,Africa,Togo,TG,,Togo,2017-07-15,
Phoeniculus purpureus,Animalia,WOOD_HOOPOES_PHOENICULIDAE,Green Wood Hoopoe,,1,1.01204759,6.3290559,Africa,Togo,TG,,Togo,2017-07-15,
Cisticola cantans,Animalia,CISTICOLAS_AND_ALLIES_CISTICOLIDAE,Singing Cisticola,,1,1.01204759,6.3290559,Africa,Togo,TG,,Togo,2017-07-15,
Centropus senegalensis,Animalia,CUCKOOS_AND_COUCALS_CUCULIDAE,Senegal Coucal,,1,1.01204759,6.3290559,Africa,Togo,TG,,Togo,2017-07-12,
Turtur afer,Animalia,PIGEONS_AND_DOVES_COLUMBIDAE,Blue-spotted Wood Dove,,1,1.01204759,6.3290559,Africa,Togo,TG,,Togo,2017-07-12,
Dendrocygna viduata,Animalia,DUCKS_GEESE_AND_SWANS_ANATIDAE,White-faced Whistling Duck,,1,1.01130378,6.32930249,Africa,Togo,TG,,Togo,2017-07-10,
Microcarbo africanus,Animalia,CORMORANTS_PHALACROCORACIDAE,Reed Cormorant,,1,1.01130378,6.32930249,Africa,Togo,TG,,Togo,2017-07-10,
Pternistis bicalcaratus,Animalia,FRANCOLINS_QUAILS_PARTRIDGES_AND_PHEASANTS_PHASIANIDAE,Double-spurred Spurfowl,,1,1.01130378,6.32930249,Africa,Togo,TG,,Togo,2017-07-10,
Ispidina picta,Animalia,KINGFISHERS_ALCEDINIDAE,African Pygmy Kingfisher,,1,1.01130378,6.32930249,Africa,Togo,TG,,Togo,2017-07-09,
Lanius humeralis,Animalia,SHRIKES_LANIIDAE,Northern Fiscal,,1,1.20443344,6.15483452,Africa,Togo,TG,,Togo,2017-02-17,
Corvus albus,Animalia,CROWS_AND_JAYS_CORVIDAE,Pied Crow,,1,1.20443344,6.15483452,Africa,Togo,TG,,Togo,2017-02-17,
Tchagra senegalus,Animalia,HELMETSHRIKES_BUSHSHRIKES_MALACONOTIDAE,Black-crowned Tchagra,,1,0.59790462255478,6.9331885570682,Africa,Togo,TG,,Togo,2012-02-13,07:52
Merops bulocki,Animalia,BEEEATERS_MEROPIDAE,Red-throated Bee-eater,,1,0.7582637680817035,8.767970000000048,Africa,Togo,TG,,Togo - Fazao-Malfakassa NP,2012-02-12,09:48
Accipiter badius,Animalia,HAWKS_AND_EAGLES_ACCIPITRIDAE,Shikra,,1,0.7582637680817035,8.767970000000048,Africa,Togo,TG,,Togo - Fazao-Malfakassa NP,2012-02-12,10:46
