scientificName,kingdom,family,vernacularName,previousIdentifications,individualCount,longitudeDecimal,latitudeDecimal,continent,country,countryCode,stateProvince,locality,eventDate,eventTime
Hippobroma longiflora,Plantae,CAMPANULACEAE,Madamfate,,1,-174.91627179,-21.31386306,Australia,Tonga,TO,,Tonga,2014-04-09,11:08
Pterodroma heraldica,Animalia,PETRELS_AND_SHEARWATERS_PROCELLARIIDAE,Herald Petrel,,1,-175.07087414,-21.76634661,Australia,Tonga,TO,,Tonga - Pacific Ocean,2014-04-08,16:08
Gygis alba,Animalia,GULLS_TERNS_AND_SKIMMERS_LARIDAE,White Tern,,2,-175.07001777,-21.6986487,Australia,Tonga,TO,,Tonga - Pacific Ocean,2014-04-08,16:32
Pterodroma cervicalis,Animalia,PETRELS_AND_SHEARWATERS_PROCELLARIIDAE,White-necked Petrel,,3,-176.10964212,-25.99605616,Australia,Tonga,TO,,Tonga - Pacific Ocean,2014-04-07,14:34
Pterodroma cookii,Animalia,PETRELS_AND_SHEARWATERS_PROCELLARIIDAE,Cook's Petrel,,1,-176.11010623,-25.99776278,Australia,Tonga,TO,,Tonga - Pacific Ocean,2014-04-07,14:33
Pterodroma nigripennis,Animalia,PETRELS_AND_SHEARWATERS_PROCELLARIIDAE,Black-winged Petrel,,1,-175.07000624,-21.69051179,Australia,Tonga,TO,,Tonga - Pacific Ocean,2014-04-08,16:35
Pterodroma heraldica,Animalia,PETRELS_AND_SHEARWATERS_PROCELLARIIDAE,Herald Petrel,,1,-175.07008818,-21.67712171,Australia,Tonga,TO,,Tonga - Pacific Ocean,2014-04-08,16:40
Pterodroma heraldica,Animalia,PETRELS_AND_SHEARWATERS_PROCELLARIIDAE,Herald Petrel,,1,-175.07413774,-21.97838686,Australia,Tonga,TO,,Tonga - Pacific Ocean,2014-04-08,14:51
Pterodroma heraldica,Animalia,PETRELS_AND_SHEARWATERS_PROCELLARIIDAE,Herald Petrel,,1,-175.07008818,-21.67712171,Australia,Tonga,TO,,Tonga - Pacific Ocean,2014-04-08,16:40
Pterodroma nigripennis,Animalia,PETRELS_AND_SHEARWATERS_PROCELLARIIDAE,Black-winged Petrel,,1,-175.07153294,-21.79062852,Australia,Tonga,TO,,Tonga - Pacific Ocean,2014-04-08,15:59
Gygis alba,Animalia,GULLS_TERNS_AND_SKIMMERS_LARIDAE,White Tern,,1,-175.07039555,-21.7284201,Australia,Tonga,TO,,Tonga - Pacific Ocean,2014-04-08,16:22
Pterodroma nigripennis,Animalia,PETRELS_AND_SHEARWATERS_PROCELLARIIDAE,Black-winged Petrel,,1,-175.07110726,-21.77801836,Australia,Tonga,TO,,Tonga - Pacific Ocean,2014-04-08,16:04
Phaethon lepturus,Animalia,TROPICBIRDS_PHAETHONTIDAE,White-tailed Tropicbird,,1,-175.07659626,-22.12195754,Australia,Tonga,TO,,Tonga - Pacific Ocean,2014-04-08,14:00
Mola mola,Animalia,OCEAN_SUNFISHES_MOLIDAE,Ocean Sunfish,,2,-175.07420629,-22.01636105,Australia,Tonga,TO,,Tonga - Pacific Ocean,2014-04-08,14:38
Pterodroma cookii,Animalia,PETRELS_AND_SHEARWATERS_PROCELLARIIDAE,Cook's Petrel,,1,-176.31014022,-26.64725623,Australia,Tonga,TO,,Tonga - Pacific Ocean,2014-04-07,10:54
Gygis alba,Animalia,GULLS_TERNS_AND_SKIMMERS_LARIDAE,White Tern,,60,-175.07010602,-21.67542553,Australia,Tonga,TO,,Tonga - Pacific Ocean,2014-04-08,16:40
Sula sula,Animalia,GANNETS_AND_BOOBIES_SULIDAE,Red-footed Booby,,1,-175.0727031,-21.82498871,Australia,Tonga,TO,,Tonga - Pacific Ocean,2014-04-08,15:47
Pterodroma heraldica,Animalia,PETRELS_AND_SHEARWATERS_PROCELLARIIDAE,Herald Petrel,,1,-175.07306595,-21.84830603,Australia,Tonga,TO,,Tonga - Pacific Ocean,2014-04-08,15:38
Sula sula,Animalia,GANNETS_AND_BOOBIES_SULIDAE,Red-footed Booby,,2,-175.07310954,-21.84889266,Australia,Tonga,TO,,Tonga - Pacific Ocean,2014-04-08,15:38
Ardenna pacifica,Animalia,PETRELS_AND_SHEARWATERS_PROCELLARIIDAE,Wedge-tailed Shearwater,,4,-176.16000789,-26.15722607,Australia,Tonga,TO,,Tonga - Pacific Ocean,2014-04-07,13:39
Ardenna pacifica,Animalia,PETRELS_AND_SHEARWATERS_PROCELLARIIDAE,Wedge-tailed Shearwater,,2,-176.14768639,-26.11562368,Australia,Tonga,TO,,Tonga - Pacific Ocean,2014-04-07,13:53
Pterodroma nigripennis,Animalia,PETRELS_AND_SHEARWATERS_PROCELLARIIDAE,Black-winged Petrel,,1,-176.02266779,-25.68750768,Australia,Tonga,TO,,Tonga - Pacific Ocean,2014-04-07,16:18
Pterodroma heraldica,Animalia,PETRELS_AND_SHEARWATERS_PROCELLARIIDAE,Herald Petrel,,1,-175.07306595,-21.84830603,Australia,Tonga,TO,,Tonga - Pacific Ocean,2014-04-08,15:38
Phaethon lepturus,Animalia,TROPICBIRDS_PHAETHONTIDAE,White-tailed Tropicbird,,1,-175.99294435,-25.58531908,Australia,Tonga,TO,,Tonga - Pacific Ocean,2014-04-07,16:53
Physeter macrocephalus,Animalia,SPERM_WHALES_PHYSETERIDAE,Sperm Whale,,2,-175.29108861,-23.21981966,Australia,Tonga,TO,,Tonga - Pacific Ocean,2014-04-08,07:17
Sula dactylatra tasmani,Animalia,GANNETS_AND_BOOBIES_SULIDAE,Masked Booby ssp tasmani,,1,-175.26243043,-23.12549587,Australia,Tonga,TO,,Tonga - Pacific Ocean,2014-04-08,07:52
Puffinus bailloni,Animalia,PETRELS_AND_SHEARWATERS_PROCELLARIIDAE,Tropical Shearwater,,1,-175.07676394,-22.13570137,Australia,Tonga,TO,,Tonga - Pacific Ocean,2014-04-08,13:55
Pterodroma heraldica,Animalia,PETRELS_AND_SHEARWATERS_PROCELLARIIDAE,Herald Petrel,,1,-175.0769553,-22.12301666,Australia,Tonga,TO,,Tonga - Pacific Ocean,2014-04-08,14:00
Phaethon lepturus,Animalia,TROPICBIRDS_PHAETHONTIDAE,White-tailed Tropicbird,,1,-175.07659626,-22.12195754,Australia,Tonga,TO,,Tonga - Pacific Ocean,2014-04-08,14:00
Pterodroma heraldica,Animalia,PETRELS_AND_SHEARWATERS_PROCELLARIIDAE,Herald Petrel,,1,-175.074312,-22.02509809,Australia,Tonga,TO,,Tonga - Pacific Ocean,2014-04-08,14:35
Sula sula rubripes,Animalia,GANNETS_AND_BOOBIES_SULIDAE,Red-footed Booby ssp rubripes,,2,-175.09060286,-22.51604323,Australia,Tonga,TO,,Tonga - Pacific Ocean,2014-04-08,11:41
Puffinus bailloni,Animalia,PETRELS_AND_SHEARWATERS_PROCELLARIIDAE,Tropical Shearwater,,1,-175.07676394,-22.13570137,Australia,Tonga,TO,,Tonga - Pacific Ocean,2014-04-08,13:55
Pterodroma heraldica,Animalia,PETRELS_AND_SHEARWATERS_PROCELLARIIDAE,Herald Petrel,,1,-175.0769553,-22.12301666,Australia,Tonga,TO,,Tonga - Pacific Ocean,2014-04-08,14:00
Pterodroma cervicalis,Animalia,PETRELS_AND_SHEARWATERS_PROCELLARIIDAE,White-necked Petrel,,3,-176.10964212,-25.99605616,Australia,Tonga,TO,,Tonga - Pacific Ocean,2014-04-07,14:34
Fregata ariel,Animalia,FRIGATEBIRDS_FREGATTIDAE,Lesser Frigatebird,,3,-173.99636208,-18.85696135,Australia,Tonga,TO,,Tonga,2014-04-10,09:40
Fregata minor,Animalia,FRIGATEBIRDS_FREGATTIDAE,Great Frigatebird,,3,-173.99636208,-18.85696135,Australia,Tonga,TO,,Tonga,2014-04-10,09:41
Sula sula,Animalia,GANNETS_AND_BOOBIES_SULIDAE,Red-footed Booby,,11,-173.99636208,-18.85696135,Australia,Tonga,TO,,Tonga,2014-04-10,09:41
Gygis alba,Animalia,GULLS_TERNS_AND_SKIMMERS_LARIDAE,White Tern,,101,-173.99636208,-18.85696135,Australia,Tonga,TO,,Tonga,2014-04-10,09:42
Anous minutus,Animalia,GULLS_TERNS_AND_SKIMMERS_LARIDAE,Black Noddy,,1001,-173.99636208,-18.85696135,Australia,Tonga,TO,,Tonga,2014-04-10,09:42
Anous stolidus,Animalia,GULLS_TERNS_AND_SKIMMERS_LARIDAE,Brown Noddy,,501,-173.99636208,-18.85696135,Australia,Tonga,TO,,Tonga,2014-04-10,09:43
Pluvialis fulva,Animalia,PLOVERS_CHARADRIIDAE,Pacific Golden Plover,,5,-173.99636208,-18.85696135,Australia,Tonga,TO,,Tonga,2014-04-10,09:43
Pteropus tonganus,Animalia,OLD_WORLD_FRUITEATING_BATS_PTEROPODIDAE,Pacific Flying Fox,,15,-174.0861461,-18.71944734,Australia,Tonga,TO,,Tonga,2014-04-10,17:21
Pteropus tonganus,Animalia,OLD_WORLD_FRUITEATING_BATS_PTEROPODIDAE,Pacific Flying Fox,,20,-174.01020035,-18.67021824,Australia,Tonga,TO,,Tonga,2014-04-11,08:59
Todiramphus sacer sacer,Animalia,KINGFISHERS_ALCEDINIDAE,Pacific Kingfisher ssp sacer,,2,-174.01176182,-18.66763775,Australia,Tonga,TO,,Tonga,2014-04-11,09:31
Puffinus bailloni,Animalia,PETRELS_AND_SHEARWATERS_PROCELLARIIDAE,Tropical Shearwater,,2,-174.45781069,-17.99098463,Australia,Tonga,TO,,Tonga,2014-04-11,16:42
Puffinus bailloni,Animalia,PETRELS_AND_SHEARWATERS_PROCELLARIIDAE,Tropical Shearwater,,2,-174.47754331,-17.95201872,Australia,Tonga,TO,,Tonga,2014-04-11,16:58
Sula dactylatra,Animalia,GANNETS_AND_BOOBIES_SULIDAE,Masked Booby,,1,-174.49313457,-17.92128648,Australia,Tonga,TO,,Tonga,2014-04-11,17:12
Physeter macrocephalus,Animalia,SPERM_WHALES_PHYSETERIDAE,Sperm Whale,,1,-174.57420385,-17.76878503,Australia,Tonga,TO,,Tonga,2014-04-11,18:17
Megapodius pritchardii,Animalia,MEGAPODES_MEGAPODIIDAE,Tongan Megapode,,1,-175.63711691,-15.60226702,Australia,Tonga,TO,,Tonga,2014-04-12,13:47
Fregata minor,Animalia,FRIGATEBIRDS_FREGATTIDAE,Great Frigatebird,,6,-175.61879125,-15.60115425,Australia,Tonga,TO,,Tonga,2014-04-12,13:49
Physeter macrocephalus,Animalia,SPERM_WHALES_PHYSETERIDAE,Sperm Whale,,3,-175.27237321,-23.15877654,Australia,Tonga,TO,,Tonga - Pacific Ocean,2014-04-08,07:40
Puffinus bailloni,Animalia,PETRELS_AND_SHEARWATERS_PROCELLARIIDAE,Tropical Shearwater,,1,-175.07676394,-22.13570137,Australia,Tonga,TO,,Tonga - Pacific Ocean,2014-04-08,13:55
Pterodroma heraldica,Animalia,PETRELS_AND_SHEARWATERS_PROCELLARIIDAE,Herald Petrel,,1,-175.0769553,-22.12301666,Australia,Tonga,TO,,Tonga - Pacific Ocean,2014-04-08,14:00
Phaethon lepturus,Animalia,TROPICBIRDS_PHAETHONTIDAE,White-tailed Tropicbird,,1,-175.07659626,-22.12195754,Australia,Tonga,TO,,Tonga - Pacific Ocean,2014-04-08,14:00
Pterodroma heraldica,Animalia,PETRELS_AND_SHEARWATERS_PROCELLARIIDAE,Herald Petrel,,1,-175.074312,-22.02509809,Australia,Tonga,TO,,Tonga - Pacific Ocean,2014-04-08,14:35
Mola mola,Animalia,OCEAN_SUNFISHES_MOLIDAE,Ocean Sunfish,,2,-175.07420629,-22.01636105,Australia,Tonga,TO,,Tonga - Pacific Ocean,2014-04-08,14:38
Pterodroma heraldica,Animalia,PETRELS_AND_SHEARWATERS_PROCELLARIIDAE,Herald Petrel,,1,-175.07413774,-21.97838686,Australia,Tonga,TO,,Tonga - Pacific Ocean,2014-04-08,14:51
Sula sula,Animalia,GANNETS_AND_BOOBIES_SULIDAE,Red-footed Booby,,2,-175.07310954,-21.84889266,Australia,Tonga,TO,,Tonga - Pacific Ocean,2014-04-08,15:38
Pterodroma heraldica,Animalia,PETRELS_AND_SHEARWATERS_PROCELLARIIDAE,Herald Petrel,,1,-175.07306595,-21.84830603,Australia,Tonga,TO,,Tonga - Pacific Ocean,2014-04-08,15:38
Sula sula,Animalia,GANNETS_AND_BOOBIES_SULIDAE,Red-footed Booby,,1,-175.0727031,-21.82498871,Australia,Tonga,TO,,Tonga - Pacific Ocean,2014-04-08,15:47
Pterodroma nigripennis,Animalia,PETRELS_AND_SHEARWATERS_PROCELLARIIDAE,Black-winged Petrel,,1,-175.07153294,-21.79062852,Australia,Tonga,TO,,Tonga - Pacific Ocean,2014-04-08,15:59
Pterodroma nigripennis,Animalia,PETRELS_AND_SHEARWATERS_PROCELLARIIDAE,Black-winged Petrel,,1,-175.07110726,-21.77801836,Australia,Tonga,TO,,Tonga - Pacific Ocean,2014-04-08,16:04
Gygis alba,Animalia,GULLS_TERNS_AND_SKIMMERS_LARIDAE,White Tern,,1,-175.07039555,-21.7284201,Australia,Tonga,TO,,Tonga - Pacific Ocean,2014-04-08,16:22
Gygis alba,Animalia,GULLS_TERNS_AND_SKIMMERS_LARIDAE,White Tern,,2,-175.07001777,-21.6986487,Australia,Tonga,TO,,Tonga - Pacific Ocean,2014-04-08,16:32
Pterodroma nigripennis,Animalia,PETRELS_AND_SHEARWATERS_PROCELLARIIDAE,Black-winged Petrel,,1,-175.07000624,-21.69051179,Australia,Tonga,TO,,Tonga - Pacific Ocean,2014-04-08,16:35
Pterodroma heraldica,Animalia,PETRELS_AND_SHEARWATERS_PROCELLARIIDAE,Herald Petrel,,1,-175.07008818,-21.67712171,Australia,Tonga,TO,,Tonga - Pacific Ocean,2014-04-08,16:40
Gygis alba,Animalia,GULLS_TERNS_AND_SKIMMERS_LARIDAE,White Tern,,60,-175.07010602,-21.67542553,Australia,Tonga,TO,,Tonga - Pacific Ocean,2014-04-08,16:40
Pterodroma cookii,Animalia,PETRELS_AND_SHEARWATERS_PROCELLARIIDAE,Cook's Petrel,,1,-176.31014022,-26.64725623,Australia,Tonga,TO,,Tonga - Pacific Ocean,2014-04-07,10:54
Ardenna pacifica,Animalia,PETRELS_AND_SHEARWATERS_PROCELLARIIDAE,Wedge-tailed Shearwater,,4,-176.16000789,-26.15722607,Australia,Tonga,TO,,Tonga - Pacific Ocean,2014-04-07,13:39
Ardenna pacifica,Animalia,PETRELS_AND_SHEARWATERS_PROCELLARIIDAE,Wedge-tailed Shearwater,,2,-176.14768639,-26.11562368,Australia,Tonga,TO,,Tonga - Pacific Ocean,2014-04-07,13:53
Pterodroma cookii,Animalia,PETRELS_AND_SHEARWATERS_PROCELLARIIDAE,Cook's Petrel,,1,-176.11010623,-25.99776278,Australia,Tonga,TO,,Tonga - Pacific Ocean,2014-04-07,14:33
Pterodroma cervicalis,Animalia,PETRELS_AND_SHEARWATERS_PROCELLARIIDAE,White-necked Petrel,,3,-176.10964212,-25.99605616,Australia,Tonga,TO,,Tonga - Pacific Ocean,2014-04-07,14:34
Pterodroma nigripennis,Animalia,PETRELS_AND_SHEARWATERS_PROCELLARIIDAE,Black-winged Petrel,,1,-176.02266779,-25.68750768,Australia,Tonga,TO,,Tonga - Pacific Ocean,2014-04-07,16:18
Phaethon lepturus,Animalia,TROPICBIRDS_PHAETHONTIDAE,White-tailed Tropicbird,,1,-175.99294435,-25.58531908,Australia,Tonga,TO,,Tonga - Pacific Ocean,2014-04-07,16:53
Pterodroma cookii,Animalia,PETRELS_AND_SHEARWATERS_PROCELLARIIDAE,Cook's Petrel,,1,-176.31014022,-26.64725623,Australia,Tonga,TO,,Tonga - Pacific Ocean,2014-04-07,10:54
Ardenna pacifica,Animalia,PETRELS_AND_SHEARWATERS_PROCELLARIIDAE,Wedge-tailed Shearwater,,4,-176.16000789,-26.15722607,Australia,Tonga,TO,,Tonga - Pacific Ocean,2014-04-07,13:39
Ardenna pacifica,Animalia,PETRELS_AND_SHEARWATERS_PROCELLARIIDAE,Wedge-tailed Shearwater,,2,-176.14768639,-26.11562368,Australia,Tonga,TO,,Tonga - Pacific Ocean,2014-04-07,13:53
Pterodroma cookii,Animalia,PETRELS_AND_SHEARWATERS_PROCELLARIIDAE,Cook's Petrel,,1,-176.11010623,-25.99776278,Australia,Tonga,TO,,Tonga - Pacific Ocean,2014-04-07,14:33
Pterodroma cervicalis,Animalia,PETRELS_AND_SHEARWATERS_PROCELLARIIDAE,White-necked Petrel,,3,-176.10964212,-25.99605616,Australia,Tonga,TO,,Tonga - Pacific Ocean,2014-04-07,14:34
Pterodroma nigripennis,Animalia,PETRELS_AND_SHEARWATERS_PROCELLARIIDAE,Black-winged Petrel,,1,-176.02266779,-25.68750768,Australia,Tonga,TO,,Tonga - Pacific Ocean,2014-04-07,16:18
Phaethon lepturus,Animalia,TROPICBIRDS_PHAETHONTIDAE,White-tailed Tropicbird,,1,-175.99294435,-25.58531908,Australia,Tonga,TO,,Tonga - Pacific Ocean,2014-04-07,16:53
Puffinus bailloni,Animalia,PETRELS_AND_SHEARWATERS_PROCELLARIIDAE,Tropical Shearwater,,1,-175.07676394,-22.13570137,Australia,Tonga,TO,,Tonga - Pacific Ocean,2014-04-08,13:55
Pterodroma heraldica,Animalia,PETRELS_AND_SHEARWATERS_PROCELLARIIDAE,Herald Petrel,,1,-175.0769553,-22.12301666,Australia,Tonga,TO,,Tonga - Pacific Ocean,2014-04-08,14:00
Phaethon lepturus,Animalia,TROPICBIRDS_PHAETHONTIDAE,White-tailed Tropicbird,,1,-175.07659626,-22.12195754,Australia,Tonga,TO,,Tonga - Pacific Ocean,2014-04-08,14:00
Pterodroma heraldica,Animalia,PETRELS_AND_SHEARWATERS_PROCELLARIIDAE,Herald Petrel,,1,-175.074312,-22.02509809,Australia,Tonga,TO,,Tonga - Pacific Ocean,2014-04-08,14:35
Mola mola,Animalia,OCEAN_SUNFISHES_MOLIDAE,Ocean Sunfish,,2,-175.07420629,-22.01636105,Australia,Tonga,TO,,Tonga - Pacific Ocean,2014-04-08,14:38
Pterodroma heraldica,Animalia,PETRELS_AND_SHEARWATERS_PROCELLARIIDAE,Herald Petrel,,1,-175.07413774,-21.97838686,Australia,Tonga,TO,,Tonga - Pacific Ocean,2014-04-08,14:51
Sula sula,Animalia,GANNETS_AND_BOOBIES_SULIDAE,Red-footed Booby,,2,-175.07310954,-21.84889266,Australia,Tonga,TO,,Tonga - Pacific Ocean,2014-04-08,15:38
Pterodroma heraldica,Animalia,PETRELS_AND_SHEARWATERS_PROCELLARIIDAE,Herald Petrel,,1,-175.07306595,-21.84830603,Australia,Tonga,TO,,Tonga - Pacific Ocean,2014-04-08,15:38
Sula sula,Animalia,GANNETS_AND_BOOBIES_SULIDAE,Red-footed Booby,,1,-175.0727031,-21.82498871,Australia,Tonga,TO,,Tonga - Pacific Ocean,2014-04-08,15:47
Pterodroma nigripennis,Animalia,PETRELS_AND_SHEARWATERS_PROCELLARIIDAE,Black-winged Petrel,,1,-175.07153294,-21.79062852,Australia,Tonga,TO,,Tonga - Pacific Ocean,2014-04-08,15:59
Pterodroma nigripennis,Animalia,PETRELS_AND_SHEARWATERS_PROCELLARIIDAE,Black-winged Petrel,,1,-175.07110726,-21.77801836,Australia,Tonga,TO,,Tonga - Pacific Ocean,2014-04-08,16:04
Gygis alba,Animalia,GULLS_TERNS_AND_SKIMMERS_LARIDAE,White Tern,,1,-175.07039555,-21.7284201,Australia,Tonga,TO,,Tonga - Pacific Ocean,2014-04-08,16:22
Gygis alba,Animalia,GULLS_TERNS_AND_SKIMMERS_LARIDAE,White Tern,,2,-175.07001777,-21.6986487,Australia,Tonga,TO,,Tonga - Pacific Ocean,2014-04-08,16:32
Pterodroma nigripennis,Animalia,PETRELS_AND_SHEARWATERS_PROCELLARIIDAE,Black-winged Petrel,,1,-175.07000624,-21.69051179,Australia,Tonga,TO,,Tonga - Pacific Ocean,2014-04-08,16:35
Pterodroma heraldica,Animalia,PETRELS_AND_SHEARWATERS_PROCELLARIIDAE,Herald Petrel,,1,-175.07008818,-21.67712171,Australia,Tonga,TO,,Tonga - Pacific Ocean,2014-04-08,16:40
Gygis alba,Animalia,GULLS_TERNS_AND_SKIMMERS_LARIDAE,White Tern,,60,-175.07010602,-21.67542553,Australia,Tonga,TO,,Tonga - Pacific Ocean,2014-04-08,16:40
