scientificName,kingdom,family,vernacularName,previousIdentifications,individualCount,longitudeDecimal,latitudeDecimal,continent,country,countryCode,stateProvince,locality,eventDate,eventTime
Fregata magnificens,Animalia,FRIGATEBIRDS_FREGATTIDAE,Magnificent Frigatebird,,3,-61.694383623,10.1909149742,South America,Trinidad and Tobago,TT,,Trinidad and Tobago - Trinidad,2013-01-14,
Momotus bahamensis,Animalia,MOTMOTS_MOMOTIDAE,Trinidad Motmot,,1,-60.5406904212,11.3301927924,South America,Trinidad and Tobago,TT,,Trinidad and Tobago - Tabago,2013-09-02,
Ameiva ameiva,Animalia,Teiidae,Giant Ameiva,,3,-60.5512690545,11.3200515785,South America,Trinidad and Tobago,TT,,Trinidad and Tobago - Tabago,2013-09-01,
Boa constrictor,Animalia,Boidae,Boa Constrictor,,1,-60.5534148221,11.3161380684,South America,Trinidad and Tobago,TT,,Trinidad and Tobago - Tabago,2013-08-31,
Pavo cristatus,Animalia,FRANCOLINS_QUAILS_PARTRIDGES_AND_PHEASANTS_PHASIANIDAE,Indian Peafowl,,3,-60.5480074874,11.3192310085,South America,Trinidad and Tobago,TT,,Trinidad and Tobago - Tabago,2013-08-31,
Momotus bahamensis,Animalia,MOTMOTS_MOMOTIDAE,Trinidad Motmot,,1,-60.5016589156,11.2997049488,South America,Trinidad and Tobago,TT,,Trinidad and Tobago - Tabago,2013-08-29,
Phaethon aethereus mesonauta,Animalia,TROPICBIRDS_PHAETHONTIDAE,Red-billed Tropicbird ssp mesonauta,,1,-60.4988479606,11.2985686931,South America,Trinidad and Tobago,TT,,Trinidad and Tobago - Tabago,2013-08-29,
Ameiva ameiva,Animalia,Teiidae,Giant Ameiva,,1,-60.5036795135,11.3005396026,South America,Trinidad and Tobago,TT,,Trinidad and Tobago - Tabago,2013-08-29,
Ameiva ameiva,Animalia,Teiidae,Giant Ameiva,,1,-60.5402326586,11.329659792,South America,Trinidad and Tobago,TT,,Trinidad and Tobago - Tabago,2013-08-28,
Momotus bahamensis,Animalia,MOTMOTS_MOMOTIDAE,Trinidad Motmot,,1,-60.5512154103,11.3200259794,South America,Trinidad and Tobago,TT,,Trinidad and Tobago - Tabago,2013-08-25,
Tangara gyrola viridissima,Animalia,TANAGERS_AND_ALLIES_THRAUPIDAE,Bay-headed Tanager ssp viridissima,,1,-61.2984180446,10.7175222136,South America,Trinidad and Tobago,TT,,Trinidad and Tobago,2013-08-25,06:00
Cyanerpes caeruleus longirostris,Animalia,TANAGERS_AND_ALLIES_THRAUPIDAE,Purple Honeycreeper ssp longirostris,,1,-61.2984180446,10.7175222136,South America,Trinidad and Tobago,TT,,Trinidad and Tobago,2013-08-25,06:00
Ramphastos vitellinus vitellinus,Animalia,TOUCANS_BARBETS_RAMPHASTIDAE,Channel-billed Toucan ssp vitellinus,,1,-61.2984180446,10.7175222136,South America,Trinidad and Tobago,TT,,Trinidad and Tobago,2013-08-25,06:00
Mimus gilvus tobagensis,Animalia,THRASHERS_MIMIDAE,Tropical Mockingbird ssp tobagensis,,1,-61.2984180446,10.7175222136,South America,Trinidad and Tobago,TT,,Trinidad and Tobago,2013-08-25,06:00
Thraupis palmarum melanoptera,Animalia,TANAGERS_AND_ALLIES_THRAUPIDAE,Palm Tanager ssp melanoptera,,1,-61.2984180446,10.7175222136,South America,Trinidad and Tobago,TT,,Trinidad and Tobago,2013-08-25,06:00
Tangara gyrola viridissima,Animalia,TANAGERS_AND_ALLIES_THRAUPIDAE,Bay-headed Tanager ssp viridissima,,10,-61.3102698317,10.7352900468,South America,Trinidad and Tobago,TT,,Trinidad and Tobago,2013-08-24,07:00
Thraupis palmarum melanoptera,Animalia,TANAGERS_AND_ALLIES_THRAUPIDAE,Palm Tanager ssp melanoptera,,2,-61.3102698317,10.7352900468,South America,Trinidad and Tobago,TT,,Trinidad and Tobago,2013-08-24,07:00
Tangara gyrola viridissima,Animalia,TANAGERS_AND_ALLIES_THRAUPIDAE,Bay-headed Tanager ssp viridissima,,1,-61.2983644008,10.7174224176,South America,Trinidad and Tobago,TT,,Trinidad and Tobago,2013-08-23,10:00
Mimus gilvus tobagensis,Animalia,THRASHERS_MIMIDAE,Tropical Mockingbird ssp tobagensis,,1,-61.2983644008,10.7174224176,South America,Trinidad and Tobago,TT,,Trinidad and Tobago,2013-08-23,07:00
Ramphastos vitellinus vitellinus,Animalia,TOUCANS_BARBETS_RAMPHASTIDAE,Channel-billed Toucan ssp vitellinus,,1,-61.2983644008,10.7174224176,South America,Trinidad and Tobago,TT,,Trinidad and Tobago,2013-08-23,07:00
Cyanerpes caeruleus longirostris,Animalia,TANAGERS_AND_ALLIES_THRAUPIDAE,Purple Honeycreeper ssp longirostris,,1,-61.2983644008,10.7174224176,South America,Trinidad and Tobago,TT,,Trinidad and Tobago,2013-08-23,07:00
Thraupis palmarum melanoptera,Animalia,TANAGERS_AND_ALLIES_THRAUPIDAE,Palm Tanager ssp melanoptera,,1,-61.2983644008,10.7174224176,South America,Trinidad and Tobago,TT,,Trinidad and Tobago,2013-08-23,07:00
Pandion haliaetus,Animalia,OSPREY_PANDIONIDAE,Western Osprey,,3,-61.4476346952,10.329443238,South America,Trinidad and Tobago,TT,,Trinidad and Tobago,2013-08-22,13:00
Milvago chimachima,Animalia,CARACAS_AND_FALCONS_FALCONIDAE,Yellow-headed Caracara,,3,-61.4476346952,10.329443238,South America,Trinidad and Tobago,TT,,Trinidad and Tobago,2013-08-22,13:00
Nycticorax nycticorax hoactli,Animalia,HERONS_ARDEIDAE,Black-crowned Night Heron ssp hoactli,,2,-61.4476346952,10.329443238,South America,Trinidad and Tobago,TT,,Trinidad and Tobago,2013-08-22,13:00
Butorides striata striata,Animalia,HERONS_ARDEIDAE,Striated Heron ssp striata,,3,-61.4476346952,10.329443238,South America,Trinidad and Tobago,TT,,Trinidad and Tobago,2013-08-22,13:00
Paroaria nigrogenis,Animalia,TANAGERS_AND_ALLIES_THRAUPIDAE,Masked Cardinal,,3,-61.4476346952,10.329443238,South America,Trinidad and Tobago,TT,,Trinidad and Tobago,2013-08-22,13:00
Anhinga anhinga anhinga,Animalia,ANHINGAS_ANHINGIDAE,Anhinga ssp anhinga,,2,-61.4476346952,10.329443238,South America,Trinidad and Tobago,TT,,Trinidad and Tobago,2013-08-22,13:00
Cairina moschata,Animalia,DUCKS_GEESE_AND_SWANS_ANATIDAE,Muscovy Duck,,25,-61.4476346952,10.329443238,South America,Trinidad and Tobago,TT,,Trinidad and Tobago,2013-08-22,13:00
Dendrocygna autumnalis,Animalia,DUCKS_GEESE_AND_SWANS_ANATIDAE,Black-bellied Whistling Duck,,25,-61.4476346952,10.329443238,South America,Trinidad and Tobago,TT,,Trinidad and Tobago,2013-08-22,13:00
Dendrocygna bicolor,Animalia,DUCKS_GEESE_AND_SWANS_ANATIDAE,Fulvous Whistling Duck,,1,-61.4476346952,10.329443238,South America,Trinidad and Tobago,TT,,Trinidad and Tobago,2013-08-22,13:00
Porphyrio martinica,Animalia,RAILS_RALLIDAE,Purple Gallinule,,5,-61.4476346952,10.329443238,South America,Trinidad and Tobago,TT,,Trinidad and Tobago,2013-08-22,13:00
Tangara gyrola viridissima,Animalia,TANAGERS_AND_ALLIES_THRAUPIDAE,Bay-headed Tanager ssp viridissima,,1,-61.2983447314,10.7174593135,South America,Trinidad and Tobago,TT,,Trinidad and Tobago,2013-08-22,09:00
Cyanerpes caeruleus longirostris,Animalia,TANAGERS_AND_ALLIES_THRAUPIDAE,Purple Honeycreeper ssp longirostris,,1,-61.2983447314,10.7174593135,South America,Trinidad and Tobago,TT,,Trinidad and Tobago,2013-08-22,07:00
Mimus gilvus tobagensis,Animalia,THRASHERS_MIMIDAE,Tropical Mockingbird ssp tobagensis,,1,-61.2983447314,10.7174593135,South America,Trinidad and Tobago,TT,,Trinidad and Tobago,2013-08-22,07:00
Thraupis palmarum melanoptera,Animalia,TANAGERS_AND_ALLIES_THRAUPIDAE,Palm Tanager ssp melanoptera,,1,-61.2983447314,10.7174593135,South America,Trinidad and Tobago,TT,,Trinidad and Tobago,2013-08-22,07:00
Ameiva ameiva,Animalia,Teiidae,Giant Ameiva,,2,-61.2976026537,10.7198048292,South America,Trinidad and Tobago,TT,,Trinidad and Tobago,2013-08-21,
Ramphastos vitellinus vitellinus,Animalia,TOUCANS_BARBETS_RAMPHASTIDAE,Channel-billed Toucan ssp vitellinus,,2,-61.2983876468,10.7174224176,South America,Trinidad and Tobago,TT,,Trinidad and Tobago,2013-08-20,06:00
Tersina viridis occidentalis,Animalia,TANAGERS_AND_ALLIES_THRAUPIDAE,Swallow Tanager ssp occidentalis,,1,-61.2983876468,10.7174224176,South America,Trinidad and Tobago,TT,,Trinidad and Tobago,2013-08-20,06:00
Cyanerpes caeruleus longirostris,Animalia,TANAGERS_AND_ALLIES_THRAUPIDAE,Purple Honeycreeper ssp longirostris,,1,-61.2983876468,10.7174224176,South America,Trinidad and Tobago,TT,,Trinidad and Tobago,2013-08-20,06:00
Mimus gilvus tobagensis,Animalia,THRASHERS_MIMIDAE,Tropical Mockingbird ssp tobagensis,,6,-61.2983876468,10.7174224176,South America,Trinidad and Tobago,TT,,Trinidad and Tobago,2013-08-20,06:00
Thraupis palmarum melanoptera,Animalia,TANAGERS_AND_ALLIES_THRAUPIDAE,Palm Tanager ssp melanoptera,,10,-61.2983876468,10.7174224176,South America,Trinidad and Tobago,TT,,Trinidad and Tobago,2013-08-20,06:00
Dasyprocta leporina,Animalia,AGOUTIS_AND_ACUCHIS_DASYPROCTIDAE,Red-rumped Agouti,,1,-61.2983876468,10.7174224176,South America,Trinidad and Tobago,TT,,Trinidad and Tobago,2013-08-20,06:00
Mimus gilvus tobagensis,Animalia,THRASHERS_MIMIDAE,Tropical Mockingbird ssp tobagensis,,1,-61.2983876468,10.7174224176,South America,Trinidad and Tobago,TT,,Trinidad and Tobago,2013-08-19,07:00
Tersina viridis occidentalis,Animalia,TANAGERS_AND_ALLIES_THRAUPIDAE,Swallow Tanager ssp occidentalis,,1,-61.2983876468,10.7174224176,South America,Trinidad and Tobago,TT,,Trinidad and Tobago,2013-08-19,07:00
Cyanerpes caeruleus longirostris,Animalia,TANAGERS_AND_ALLIES_THRAUPIDAE,Purple Honeycreeper ssp longirostris,,1,-61.2983876468,10.7174224176,South America,Trinidad and Tobago,TT,,Trinidad and Tobago,2013-08-19,07:00
Thraupis palmarum melanoptera,Animalia,TANAGERS_AND_ALLIES_THRAUPIDAE,Palm Tanager ssp melanoptera,,10,-61.2983876468,10.7174224176,South America,Trinidad and Tobago,TT,,Trinidad and Tobago,2013-08-19,07:00
Tangara gyrola viridissima,Animalia,TANAGERS_AND_ALLIES_THRAUPIDAE,Bay-headed Tanager ssp viridissima,,1,-61.2983876468,10.7174224176,South America,Trinidad and Tobago,TT,,Trinidad and Tobago,2013-08-18,07:00
Cyanerpes caeruleus longirostris,Animalia,TANAGERS_AND_ALLIES_THRAUPIDAE,Purple Honeycreeper ssp longirostris,,1,-61.2983876468,10.7174224176,South America,Trinidad and Tobago,TT,,Trinidad and Tobago,2013-08-18,07:00
Mimus gilvus tobagensis,Animalia,THRASHERS_MIMIDAE,Tropical Mockingbird ssp tobagensis,,1,-61.2983876468,10.7174224176,South America,Trinidad and Tobago,TT,,Trinidad and Tobago,2013-08-18,07:00
Dasyprocta leporina,Animalia,AGOUTIS_AND_ACUCHIS_DASYPROCTIDAE,Red-rumped Agouti,,1,-61.2983876468,10.7174224176,South America,Trinidad and Tobago,TT,,Trinidad and Tobago,2013-08-18,07:00
Thraupis palmarum melanoptera,Animalia,TANAGERS_AND_ALLIES_THRAUPIDAE,Palm Tanager ssp melanoptera,,1,-61.2983876468,10.7174224176,South America,Trinidad and Tobago,TT,,Trinidad and Tobago,2013-08-18,07:00
Tersina viridis occidentalis,Animalia,TANAGERS_AND_ALLIES_THRAUPIDAE,Swallow Tanager ssp occidentalis,,1,-61.2983822814,10.7173345737,South America,Trinidad and Tobago,TT,,Trinidad and Tobago,2013-08-16,08:00
Ramphastos vitellinus vitellinus,Animalia,TOUCANS_BARBETS_RAMPHASTIDAE,Channel-billed Toucan ssp vitellinus,,1,-61.2983822814,10.7173345737,South America,Trinidad and Tobago,TT,,Trinidad and Tobago,2013-08-16,06:00
Mimus gilvus tobagensis,Animalia,THRASHERS_MIMIDAE,Tropical Mockingbird ssp tobagensis,,3,-61.2983822814,10.7173345737,South America,Trinidad and Tobago,TT,,Trinidad and Tobago,2013-08-16,06:00
Cyanerpes caeruleus longirostris,Animalia,TANAGERS_AND_ALLIES_THRAUPIDAE,Purple Honeycreeper ssp longirostris,,4,-61.2983822814,10.7173345737,South America,Trinidad and Tobago,TT,,Trinidad and Tobago,2013-08-16,06:00
Thraupis palmarum melanoptera,Animalia,TANAGERS_AND_ALLIES_THRAUPIDAE,Palm Tanager ssp melanoptera,,10,-61.2983822814,10.7173345737,South America,Trinidad and Tobago,TT,,Trinidad and Tobago,2013-08-16,06:00
Dasyprocta leporina,Animalia,AGOUTIS_AND_ACUCHIS_DASYPROCTIDAE,Red-rumped Agouti,,1,-61.2983822814,10.7173345737,South America,Trinidad and Tobago,TT,,Trinidad and Tobago,2013-08-15,06:00
Cyanerpes caeruleus longirostris,Animalia,TANAGERS_AND_ALLIES_THRAUPIDAE,Purple Honeycreeper ssp longirostris,,2,-61.2983822814,10.7173345737,South America,Trinidad and Tobago,TT,,Trinidad and Tobago,2013-08-15,06:00
Mimus gilvus tobagensis,Animalia,THRASHERS_MIMIDAE,Tropical Mockingbird ssp tobagensis,,2,-61.2983822814,10.7173345737,South America,Trinidad and Tobago,TT,,Trinidad and Tobago,2013-08-15,06:00
Thraupis palmarum melanoptera,Animalia,TANAGERS_AND_ALLIES_THRAUPIDAE,Palm Tanager ssp melanoptera,,10,-61.2983822814,10.7173345737,South America,Trinidad and Tobago,TT,,Trinidad and Tobago,2013-08-15,06:00
Cyanerpes caeruleus longirostris,Animalia,TANAGERS_AND_ALLIES_THRAUPIDAE,Purple Honeycreeper ssp longirostris,,1,-61.2983715539,10.7174301489,South America,Trinidad and Tobago,TT,,Trinidad and Tobago,2013-08-14,08:00
Thraupis palmarum melanoptera,Animalia,TANAGERS_AND_ALLIES_THRAUPIDAE,Palm Tanager ssp melanoptera,,1,-61.2983715539,10.7174301489,South America,Trinidad and Tobago,TT,,Trinidad and Tobago,2013-08-14,08:00
Tangara gyrola viridissima,Animalia,TANAGERS_AND_ALLIES_THRAUPIDAE,Bay-headed Tanager ssp viridissima,,1,-61.2983715539,10.7174301489,South America,Trinidad and Tobago,TT,,Trinidad and Tobago,2013-08-14,08:00
Tersina viridis occidentalis,Animalia,TANAGERS_AND_ALLIES_THRAUPIDAE,Swallow Tanager ssp occidentalis,,4,-61.2983715539,10.7174301489,South America,Trinidad and Tobago,TT,,Trinidad and Tobago,2013-08-14,08:00
Dermochelys coriacea,Animalia,Dermochelydae,Leatherback Turtle,,1,-61.0505390097,10.828899823,South America,Trinidad and Tobago,TT,,Trinidad and Tobago,2013-08-13,07:00
Coragyps atratus,Animalia,NEW_WORLD_VULTURES_CATHARTIDAE,Black Vulture,,2,-61.6768169403,10.1676999607,South America,Trinidad and Tobago,TT,,Trinidad and Tobago,2013-01-31,
Bubulcus ibis,Animalia,HERONS_ARDEIDAE,Western Cattle Egret,,4,-61.6901421547,10.1730540095,South America,Trinidad and Tobago,TT,,Trinidad and Tobago,2013-01-31,
Arenaria interpres,Animalia,SANDPIPERS_AND_ALLIES_SCOLOPACIDAE,Ruddy Turnstone,,6,-61.4745783806,10.4816086572,South America,Trinidad and Tobago,TT,,Trinidad and Tobago - Trinidad,2013-02-03,
Egretta thula,Animalia,HERONS_ARDEIDAE,Snowy Egret,,1,-61.4745783806,10.4816086572,South America,Trinidad and Tobago,TT,,Trinidad and Tobago - Trinidad,2013-02-03,
Coragyps atratus,Animalia,NEW_WORLD_VULTURES_CATHARTIDAE,Black Vulture,,1,-61.3661956787,10.4236637028,South America,Trinidad and Tobago,TT,,Trinidad and Tobago,2013-02-03,
Egretta caerulea,Animalia,HERONS_ARDEIDAE,Little Blue Heron,,1,-61.4601802826,10.6010515545,South America,Trinidad and Tobago,TT,,Trinidad and Tobago,2013-02-03,
Iguana iguana,Animalia,Iguanidae,Common Green Iguana,,1,-61.4350748062,10.6051854472,South America,Trinidad and Tobago,TT,,Trinidad and Tobago,2013-02-03,
Jacana jacana,Animalia,JACANAS_JACANIDAE,Wattled Jacana,,1,-61.6243958473,10.2355957325,South America,Trinidad and Tobago,TT,,Trinidad and Tobago - Trinidad,2013-02-03,
Coragyps atratus,Animalia,NEW_WORLD_VULTURES_CATHARTIDAE,Black Vulture,,1,-61.6277861595,10.2346243867,South America,Trinidad and Tobago,TT,,Trinidad and Tobago - Trinidad,2013-02-03,
Ardea alba,Animalia,HERONS_ARDEIDAE,Great Egret,,1,-61.4554595947,10.5914337104,South America,Trinidad and Tobago,TT,,Trinidad and Tobago,2013-02-03,
Egretta tricolor,Animalia,HERONS_ARDEIDAE,Tricolored Heron,,1,-61.4554595947,10.5914337104,South America,Trinidad and Tobago,TT,,Trinidad and Tobago,2013-02-03,
Eudocimus ruber,Animalia,IBISSES_AND_SPOONBILLS_THRESKIORNITHIDAE,Scarlet Ibis,,700,-61.4554595947,10.5914337104,South America,Trinidad and Tobago,TT,,Trinidad and Tobago,2013-02-03,
Mimus gilvus,Animalia,THRASHERS_MIMIDAE,Tropical Mockingbird,,1,-61.2988293171,10.7179916681,South America,Trinidad and Tobago,TT,,Trinidad and Tobago,2013-01-06,
Coereba flaveola,Animalia,TANAGERS_AND_ALLIES_THRAUPIDAE,Bananaquit,,1,-61.2988293171,10.7179916681,South America,Trinidad and Tobago,TT,,Trinidad and Tobago,2013-01-06,
Cyanerpes caeruleus,Animalia,TANAGERS_AND_ALLIES_THRAUPIDAE,Purple Honeycreeper,,1,-61.2988293171,10.7179916681,South America,Trinidad and Tobago,TT,,Trinidad and Tobago,2013-01-06,
Cyanerpes caeruleus,Animalia,TANAGERS_AND_ALLIES_THRAUPIDAE,Purple Honeycreeper,,1,-61.2988293171,10.7179916681,South America,Trinidad and Tobago,TT,,Trinidad and Tobago,2013-01-06,
Thraupis palmarum,Animalia,TANAGERS_AND_ALLIES_THRAUPIDAE,Palm Tanager,,1,-61.2988293171,10.7179916681,South America,Trinidad and Tobago,TT,,Trinidad and Tobago,2013-01-06,
Chlorophanes spiza,Animalia,TANAGERS_AND_ALLIES_THRAUPIDAE,Green Honeycreeper,,1,-61.2988293171,10.7179916681,South America,Trinidad and Tobago,TT,,Trinidad and Tobago,2013-01-06,
Chlorophanes spiza,Animalia,TANAGERS_AND_ALLIES_THRAUPIDAE,Green Honeycreeper,,1,-61.2988293171,10.7179916681,South America,Trinidad and Tobago,TT,,Trinidad and Tobago,2013-01-06,
Ameiva ameiva,Animalia,Teiidae,Giant Ameiva,,2,-61.2983429441,10.7176170887,South America,Trinidad and Tobago,TT,,Trinidad and Tobago,2013-08-13,11:00
Mimus gilvus tobagensis,Animalia,THRASHERS_MIMIDAE,Tropical Mockingbird ssp tobagensis,,1,-61.2983429441,10.7176170887,South America,Trinidad and Tobago,TT,,Trinidad and Tobago,2013-08-13,11:00
Cyanerpes caeruleus longirostris,Animalia,TANAGERS_AND_ALLIES_THRAUPIDAE,Purple Honeycreeper ssp longirostris,,1,-61.2983429441,10.7176170887,South America,Trinidad and Tobago,TT,,Trinidad and Tobago,2013-08-13,11:00
Mimus gilvus tobagensis,Animalia,THRASHERS_MIMIDAE,Tropical Mockingbird ssp tobagensis,,1,-61.2983429441,10.7176170887,South America,Trinidad and Tobago,TT,,Trinidad and Tobago,2013-08-12,07:00
Tersina viridis occidentalis,Animalia,TANAGERS_AND_ALLIES_THRAUPIDAE,Swallow Tanager ssp occidentalis,,5,-61.2983429441,10.7176170887,South America,Trinidad and Tobago,TT,,Trinidad and Tobago,2013-08-12,07:00
Colibri delphinae,Animalia,HUMMINGBIRDS_TROCHILIDAE,Brown Violetear,,1,-61.2983429441,10.7176170887,South America,Trinidad and Tobago,TT,,Trinidad and Tobago,2013-08-12,07:00
Cyanerpes caeruleus longirostris,Animalia,TANAGERS_AND_ALLIES_THRAUPIDAE,Purple Honeycreeper ssp longirostris,,2,-61.2983429441,10.7176170887,South America,Trinidad and Tobago,TT,,Trinidad and Tobago,2013-08-12,07:00
Ameiva ameiva,Animalia,Teiidae,Giant Ameiva,,2,-61.2977528581,10.7196727091,South America,Trinidad and Tobago,TT,,Trinidad and Tobago,2013-08-12,
Mimus gilvus tobagensis,Animalia,THRASHERS_MIMIDAE,Tropical Mockingbird ssp tobagensis,,1,-61.2983554603,10.7176304402,South America,Trinidad and Tobago,TT,,Trinidad and Tobago,2013-08-11,07:00
Tersina viridis occidentalis,Animalia,TANAGERS_AND_ALLIES_THRAUPIDAE,Swallow Tanager ssp occidentalis,,5,-61.2983554603,10.7176304402,South America,Trinidad and Tobago,TT,,Trinidad and Tobago,2013-08-11,07:00
Cyanerpes caeruleus longirostris,Animalia,TANAGERS_AND_ALLIES_THRAUPIDAE,Purple Honeycreeper ssp longirostris,,1,-61.2983554603,10.7176304402,South America,Trinidad and Tobago,TT,,Trinidad and Tobago,2013-08-11,07:00
Colibri delphinae,Animalia,HUMMINGBIRDS_TROCHILIDAE,Brown Violetear,,1,-61.2983554603,10.7176304402,South America,Trinidad and Tobago,TT,,Trinidad and Tobago,2013-08-11,07:00
Milvago chimachima,Animalia,CARACAS_AND_FALCONS_FALCONIDAE,Yellow-headed Caracara,,10,-61.1604881295,10.3258066642,South America,Trinidad and Tobago,TT,,Trinidad and Tobago,2013-08-11,
Jacana jacana jacana,Animalia,JACANAS_JACANIDAE,Wattled Jacana ssp jacana,,25,-61.1604881295,10.3258066642,South America,Trinidad and Tobago,TT,,Trinidad and Tobago,2013-08-11,
Iguana iguana,Animalia,Iguanidae,Common Green Iguana,,1,-61.164779664,10.3258066642,South America,Trinidad and Tobago,TT,,Trinidad and Tobago,2013-08-11,
Alouatta macconnelli,Animalia,SPIDER_MONKEYS_ATELIDAE,Guianan Red Howler Monkey,,1,-61.164779664,10.3258066642,South America,Trinidad and Tobago,TT,,Trinidad and Tobago,2013-08-11,
Jabiru mycteria,Animalia,STORKS_CICONIIDAE,Jabiru,,1,-61.0300254857,10.310438098,South America,Trinidad and Tobago,TT,,Trinidad and Tobago,2013-08-11,
Jabiru mycteria,Animalia,STORKS_CICONIIDAE,Jabiru,,2,-61.0255622899,10.3754538168,South America,Trinidad and Tobago,TT,,Trinidad and Tobago,2013-08-11,
Caracara cheriway,Animalia,CARACAS_AND_FALCONS_FALCONIDAE,Northern Crested Caracara,,2,-61.0358047503,10.4389816919,South America,Trinidad and Tobago,TT,,Trinidad and Tobago,2013-08-11,
Thraupis episcopus nesophila,Animalia,TANAGERS_AND_ALLIES_THRAUPIDAE,Blue-grey Tanager ssp nesophila,,2,-61.2312412279,10.6446205352,South America,Trinidad and Tobago,TT,,Trinidad and Tobago,2013-08-11,
Vanellus chilensis cayennensis,Animalia,PLOVERS_CHARADRIIDAE,Southern Lapwing ssp cayennensis,,10,-61.2312412279,10.6446205352,South America,Trinidad and Tobago,TT,,Trinidad and Tobago,2013-08-11,
Ramphastos vitellinus vitellinus,Animalia,TOUCANS_BARBETS_RAMPHASTIDAE,Channel-billed Toucan ssp vitellinus,,7,-61.2983125446,10.7176982582,South America,Trinidad and Tobago,TT,,Trinidad and Tobago,2013-08-10,06:00
Mimus gilvus tobagensis,Animalia,THRASHERS_MIMIDAE,Tropical Mockingbird ssp tobagensis,,1,-61.2983125446,10.7176982582,South America,Trinidad and Tobago,TT,,Trinidad and Tobago,2013-08-10,06:00
Cyanerpes caeruleus longirostris,Animalia,TANAGERS_AND_ALLIES_THRAUPIDAE,Purple Honeycreeper ssp longirostris,,2,-61.2983125446,10.7176982582,South America,Trinidad and Tobago,TT,,Trinidad and Tobago,2013-08-10,06:00
Cyclopes didactylus,Animalia,SILKY_ANTEATER_CYCLOPEDIDAE,Pygmy Anteater,,3,-61.4531707903,10.5981268654,South America,Trinidad and Tobago,TT,,Trinidad and Tobago,2013-08-09,17:00
Milvago chimachima,Animalia,CARACAS_AND_FALCONS_FALCONIDAE,Yellow-headed Caracara,,1,-61.4531707903,10.5981268654,South America,Trinidad and Tobago,TT,,Trinidad and Tobago,2013-08-09,17:00
Egretta caerulea,Animalia,HERONS_ARDEIDAE,Little Blue Heron,,20,-61.4531707903,10.5981268654,South America,Trinidad and Tobago,TT,,Trinidad and Tobago,2013-08-09,17:00
Eudocimus ruber,Animalia,IBISSES_AND_SPOONBILLS_THRESKIORNITHIDAE,Scarlet Ibis,,200,-61.4531707903,10.5981268654,South America,Trinidad and Tobago,TT,,Trinidad and Tobago,2013-08-09,17:00
Paroaria nigrogenis,Animalia,TANAGERS_AND_ALLIES_THRAUPIDAE,Masked Cardinal,,1,-61.4315414568,10.6057197592,South America,Trinidad and Tobago,TT,,Trinidad and Tobago,2013-08-09,17:00
Steatornis caripensis,Animalia,OILBIRD_STEATORNITHIDAE,Oilbird,,20,-61.2982892992,10.7177049345,South America,Trinidad and Tobago,TT,,Trinidad and Tobago,2013-08-09,
Mimus gilvus tobagensis,Animalia,THRASHERS_MIMIDAE,Tropical Mockingbird ssp tobagensis,,1,-61.2982892992,10.7177049345,South America,Trinidad and Tobago,TT,,Trinidad and Tobago,2013-08-09,
Mimus gilvus tobagensis,Animalia,THRASHERS_MIMIDAE,Tropical Mockingbird ssp tobagensis,,1,-61.2982892992,10.7177049345,South America,Trinidad and Tobago,TT,,Trinidad and Tobago,2013-08-08,
Colibri delphinae,Animalia,HUMMINGBIRDS_TROCHILIDAE,Brown Violetear,,1,-61.2982892992,10.7177049345,South America,Trinidad and Tobago,TT,,Trinidad and Tobago,2013-08-08,
Chlorophanes spiza,Animalia,TANAGERS_AND_ALLIES_THRAUPIDAE,Green Honeycreeper,,1,-61.2982892992,10.7177049345,South America,Trinidad and Tobago,TT,,Trinidad and Tobago,2013-08-08,
Cyanerpes caeruleus,Animalia,TANAGERS_AND_ALLIES_THRAUPIDAE,Purple Honeycreeper,,6,-61.2982892992,10.7177049345,South America,Trinidad and Tobago,TT,,Trinidad and Tobago,2013-08-08,
Tachyphonus luctuosus,Animalia,TANAGERS_AND_ALLIES_THRAUPIDAE,White-shouldered Tanager,,1,-61.2982892992,10.7177049345,South America,Trinidad and Tobago,TT,,Trinidad and Tobago,2013-08-08,
Thraupis palmarum,Animalia,TANAGERS_AND_ALLIES_THRAUPIDAE,Palm Tanager,,10,-61.2982892992,10.7177049345,South America,Trinidad and Tobago,TT,,Trinidad and Tobago,2013-08-08,
Steatornis caripensis,Animalia,OILBIRD_STEATORNITHIDAE,Oilbird,,20,-61.2913513184,10.6783207844,South America,Trinidad and Tobago,TT,,Trinidad and Tobago,2012-09-29,10:00
Pipile pipile,Animalia,CURASSOWS_GUANS_AND_CHACHALACAS_CRACIDAE,Trinidad Piping Guan,,3,-61.0469055176,10.8267304313,South America,Trinidad and Tobago,TT,,Trinidad and Tobago,2012-09-30,07:00
Hydropsalis cayennensis,Animalia,NIGHTJARS_CAPRIMULGIDAE,White-tailed Nightjar,,1,-60.5352573395,11.2933342057,South America,Trinidad and Tobago,TT,,Trinidad and Tobago - Tabago,2009-07-10,
Jacana jacana,Animalia,JACANAS_JACANIDAE,Wattled Jacana,,8,-60.829720974,11.1623167392,South America,Trinidad and Tobago,TT,,Trinidad and Tobago - Tabago,2009-07-10,
Butorides virescens,Animalia,HERONS_ARDEIDAE,Green Heron,,1,-60.829720974,11.1623167392,South America,Trinidad and Tobago,TT,,Trinidad and Tobago - Tabago,2009-07-10,
Ardea alba egretta,Animalia,HERONS_ARDEIDAE,American Great Egret,,3,-60.8306007386,11.1627377739,South America,Trinidad and Tobago,TT,,Trinidad and Tobago - Tabago,2009-07-10,
Onychoprion anaethetus,Animalia,GULLS_TERNS_AND_SKIMMERS_LARIDAE,Bridled Tern,,10,-60.5118255616,11.2991417933,South America,Trinidad and Tobago,TT,,Trinidad and Tobago - Tabago,2009-07-09,
Pelecanus occidentalis,Animalia,PELICANS_PELECANIDAE,Brown Pelican,,50,-60.8436899186,11.1739581239,South America,Trinidad and Tobago,TT,,Trinidad and Tobago,2009-07-08,
Nomonyx dominicus,Animalia,DUCKS_GEESE_AND_SWANS_ANATIDAE,Masked Duck,,5,-60.7874279023,11.1534117122,South America,Trinidad and Tobago,TT,,Trinidad and Tobago,2009-07-08,
Pelecanus occidentalis,Animalia,PELICANS_PELECANIDAE,Brown Pelican,,3,-60.7397274971,11.1812626964,South America,Trinidad and Tobago,TT,,Trinidad and Tobago,2009-07-08,
Dendrocygna autumnalis,Animalia,DUCKS_GEESE_AND_SWANS_ANATIDAE,Black-bellied Whistling Duck,,4,-60.7804112435,11.2105422891,South America,Trinidad and Tobago,TT,,Trinidad and Tobago,2009-07-08,
Pelecanus occidentalis,Animalia,PELICANS_PELECANIDAE,Brown Pelican,,4,-60.6446056366,11.190714161,South America,Trinidad and Tobago,TT,,Trinidad and Tobago,2009-07-07,
Campylopterus ensipennis,Animalia,HUMMINGBIRDS_TROCHILIDAE,White-tailed Sabrewing,,3,-60.5836873055,11.2791724579,South America,Trinidad and Tobago,TT,,Trinidad and Tobago,2009-07-07,
Amazona amazonica,Animalia,PARROTS_PSITTACIDAE,Orange-winged Amazon,,10,-60.5836873055,11.2791724579,South America,Trinidad and Tobago,TT,,Trinidad and Tobago,2009-07-07,
Egretta caerulea,Animalia,HERONS_ARDEIDAE,Little Blue Heron,,3,-60.7804327012,11.2103265445,South America,Trinidad and Tobago,TT,,Trinidad and Tobago,2009-07-06,
Anthracothorax nigricollis,Animalia,HUMMINGBIRDS_TROCHILIDAE,Black-throated Mango,,3,-60.7654445172,11.2267384612,South America,Trinidad and Tobago,TT,,Trinidad and Tobago,2009-07-06,
Chrysolampis mosquitus,Animalia,HUMMINGBIRDS_TROCHILIDAE,Ruby-topaz Hummingbird,,2,-60.7654445172,11.2267384612,South America,Trinidad and Tobago,TT,,Trinidad and Tobago,2009-07-06,
Tachyphonus rufus,Animalia,TANAGERS_AND_ALLIES_THRAUPIDAE,White-lined Tanager,,5,-60.7680623532,11.2247179357,South America,Trinidad and Tobago,TT,,Trinidad and Tobago,2009-07-05,
Momotus bahamensis,Animalia,MOTMOTS_MOMOTIDAE,Trinidad Motmot,,2,-60.7680623532,11.2247179357,South America,Trinidad and Tobago,TT,,Trinidad and Tobago,2009-07-05,
Crotophaga ani,Animalia,CUCKOOS_AND_COUCALS_CUCULIDAE,Smooth-billed Ani,,1,-60.7680623532,11.2247179357,South America,Trinidad and Tobago,TT,,Trinidad and Tobago,2009-07-05,
Leucophaeus atricilla,Animalia,GULLS_TERNS_AND_SKIMMERS_LARIDAE,Laughing Gull,,3,-60.7803039551,11.2115946996,South America,Trinidad and Tobago,TT,,Trinidad and Tobago,2009-07-05,
Fregata magnificens,Animalia,FRIGATEBIRDS_FREGATTIDAE,Magnificent Frigatebird,,5,-60.7809906006,11.2120998552,South America,Trinidad and Tobago,TT,,Trinidad and Tobago,2009-07-05,
Progne dominicensis,Animalia,SWALLOWS_HIRUNDINIDAE,Caribbean Martin,,5,-60.8389263153,11.1508433085,South America,Trinidad and Tobago,TT,,Trinidad and Tobago,2009-07-05,
Bubulcus ibis,Animalia,HERONS_ARDEIDAE,Western Cattle Egret,,10,-60.8425312043,11.1489906754,South America,Trinidad and Tobago,TT,,Trinidad and Tobago,2009-07-05,
Hydropsalis cayennensis,Animalia,NIGHTJARS_CAPRIMULGIDAE,White-tailed Nightjar,,1,-60.534324646,11.2935677116,South America,Trinidad and Tobago,TT,,Trinidad and Tobago,2009-07-10,
Nyctanassa violacea,Animalia,HERONS_ARDEIDAE,Yellow-crowned Night Heron,,1,-60.534324646,11.2935677116,South America,Trinidad and Tobago,TT,,Trinidad and Tobago,2009-07-11,
Vanellus chilensis,Animalia,PLOVERS_CHARADRIIDAE,Southern Lapwing,,2,-60.534324646,11.2935677116,South America,Trinidad and Tobago,TT,,Trinidad and Tobago,2009-07-11,
Coereba flaveola,Animalia,TANAGERS_AND_ALLIES_THRAUPIDAE,Bananaquit,,10,-60.534324646,11.2935677116,South America,Trinidad and Tobago,TT,,Trinidad and Tobago,2009-07-11,
Thraupis palmarum,Animalia,TANAGERS_AND_ALLIES_THRAUPIDAE,Palm Tanager,,1,-60.534324646,11.2935677116,South America,Trinidad and Tobago,TT,,Trinidad and Tobago,2009-07-11,
Thraupis episcopus,Animalia,TANAGERS_AND_ALLIES_THRAUPIDAE,Blue-grey Tanager,,1,-60.534324646,11.2935677116,South America,Trinidad and Tobago,TT,,Trinidad and Tobago,2009-07-11,
Thraupis episcopus,Animalia,TANAGERS_AND_ALLIES_THRAUPIDAE,Blue-grey Tanager,,1,-60.534324646,11.2935677116,South America,Trinidad and Tobago,TT,,Trinidad and Tobago,2009-07-12,
Thraupis palmarum,Animalia,TANAGERS_AND_ALLIES_THRAUPIDAE,Palm Tanager,,1,-60.534324646,11.2935677116,South America,Trinidad and Tobago,TT,,Trinidad and Tobago,2009-07-12,
Tyrannus dominicensis,Animalia,TYRANT_FLYCATCHERS_TYRANNIDAE,Grey Kingbird,,1,-60.534324646,11.2935677116,South America,Trinidad and Tobago,TT,,Trinidad and Tobago,2009-07-12,
Leucophaeus atricilla,Animalia,GULLS_TERNS_AND_SKIMMERS_LARIDAE,Laughing Gull,,50,-60.534324646,11.2935677116,South America,Trinidad and Tobago,TT,,Trinidad and Tobago,2009-07-12,
Fregata magnificens,Animalia,FRIGATEBIRDS_FREGATTIDAE,Magnificent Frigatebird,,50,-60.534324646,11.2935677116,South America,Trinidad and Tobago,TT,,Trinidad and Tobago,2009-07-12,
Onychoprion anaethetus,Animalia,GULLS_TERNS_AND_SKIMMERS_LARIDAE,Bridled Tern,,20,-60.4964370728,11.3098333206,South America,Trinidad and Tobago,TT,,Trinidad and Tobago - Tabago,2009-07-12,
Hydropsalis cayennensis,Animalia,NIGHTJARS_CAPRIMULGIDAE,White-tailed Nightjar,,1,-60.5019302368,11.3004068039,South America,Trinidad and Tobago,TT,,Trinidad and Tobago - Tabago,2009-07-12,
Phaethon aethereus,Animalia,TROPICBIRDS_PHAETHONTIDAE,Red-billed Tropicbird,,40,-60.5026168823,11.3004068039,South America,Trinidad and Tobago,TT,,Trinidad and Tobago - Tabago,2009-07-12,
Onychoprion anaethetus,Animalia,GULLS_TERNS_AND_SKIMMERS_LARIDAE,Bridled Tern,,20,-60.5149765015,11.2923266858,South America,Trinidad and Tobago,TT,,Trinidad and Tobago - Tabago,2009-07-12,
Leucophaeus atricilla,Animalia,GULLS_TERNS_AND_SKIMMERS_LARIDAE,Laughing Gull,,20,-60.5115432739,11.3004068039,South America,Trinidad and Tobago,TT,,Trinidad and Tobago - Tabago,2009-07-12,
Leptotila verreauxi,Animalia,PIGEONS_AND_DOVES_COLUMBIDAE,White-tipped Dove,,1,-60.5026168823,11.3004068039,South America,Trinidad and Tobago,TT,,Trinidad and Tobago - Tabago,2009-07-12,
Coereba flaveola,Animalia,TANAGERS_AND_ALLIES_THRAUPIDAE,Bananaquit,,10,-60.5005569458,11.2977134565,South America,Trinidad and Tobago,TT,,Trinidad and Tobago - Tabago,2009-07-12,
Chrysolampis mosquitus,Animalia,HUMMINGBIRDS_TROCHILIDAE,Ruby-topaz Hummingbird,,5,-60.6356048584,11.2676425758,South America,Trinidad and Tobago,TT,,Trinidad and Tobago,2009-07-14,
Butorides virescens,Animalia,HERONS_ARDEIDAE,Green Heron,,5,-60.6991195679,11.2737032067,South America,Trinidad and Tobago,TT,,Trinidad and Tobago,2009-07-14,
Nycticorax nycticorax,Animalia,HERONS_ARDEIDAE,Black-crowned Night Heron,,1,-60.6991195679,11.2737032067,South America,Trinidad and Tobago,TT,,Trinidad and Tobago,2009-07-14,
Galbula ruficauda,Animalia,JACAMARS_GALBULIDAE,Rufous-tailed Jacamar,,1,-60.6266784668,11.2659590446,South America,Trinidad and Tobago,TT,,Trinidad and Tobago,2009-07-15,
Amazona amazonica,Animalia,PARROTS_PSITTACIDAE,Orange-winged Amazon,,50,-60.6266784668,11.2659590446,South America,Trinidad and Tobago,TT,,Trinidad and Tobago,2009-07-15,
Chrysolampis mosquitus,Animalia,HUMMINGBIRDS_TROCHILIDAE,Ruby-topaz Hummingbird,,1,-60.6266784668,11.2659590446,South America,Trinidad and Tobago,TT,,Trinidad and Tobago,2009-07-15,
Amazilia tobaci,Animalia,HUMMINGBIRDS_TROCHILIDAE,Copper-rumped Hummingbird,,1,-60.6266784668,11.2659590446,South America,Trinidad and Tobago,TT,,Trinidad and Tobago,2009-07-15,
Myiodynastes maculatus,Animalia,TYRANT_FLYCATCHERS_TYRANNIDAE,Streaked Flycatcher,,1,-60.6266784668,11.2659590446,South America,Trinidad and Tobago,TT,,Trinidad and Tobago,2009-07-15,
Mionectes oleagineus,Animalia,TYRANT_FLYCATCHERS_TYRANNIDAE,Ochre-bellied Flycatcher,,1,-60.6266784668,11.2659590446,South America,Trinidad and Tobago,TT,,Trinidad and Tobago,2009-07-16,
Crotophaga ani,Animalia,CUCKOOS_AND_COUCALS_CUCULIDAE,Smooth-billed Ani,,10,-60.7739639282,11.2201632202,South America,Trinidad and Tobago,TT,,Trinidad and Tobago,2009-07-16,
Sterna dougallii,Animalia,GULLS_TERNS_AND_SKIMMERS_LARIDAE,Roseate Tern,,3,-60.811214447,11.1726760584,South America,Trinidad and Tobago,TT,,Trinidad and Tobago,2009-07-16,
Anous stolidus,Animalia,GULLS_TERNS_AND_SKIMMERS_LARIDAE,Brown Noddy,,1,-60.811214447,11.1726760584,South America,Trinidad and Tobago,TT,,Trinidad and Tobago,2009-07-16,
Leucophaeus atricilla,Animalia,GULLS_TERNS_AND_SKIMMERS_LARIDAE,Laughing Gull,,1,-60.811214447,11.1726760584,South America,Trinidad and Tobago,TT,,Trinidad and Tobago,2009-07-16,
Egretta caerulea,Animalia,HERONS_ARDEIDAE,Little Blue Heron,,1,-60.811214447,11.1726760584,South America,Trinidad and Tobago,TT,,Trinidad and Tobago,2009-07-16,
Charadrius semipalmatus,Animalia,PLOVERS_CHARADRIIDAE,Semipalmated Plover,,1,-60.7777833939,11.2144803269,South America,Trinidad and Tobago,TT,,Trinidad and Tobago,2009-07-16,
Pelecanus occidentalis,Animalia,PELICANS_PELECANIDAE,Brown Pelican,,50,-60.7777833939,11.2144803269,South America,Trinidad and Tobago,TT,,Trinidad and Tobago,2009-07-16,
Thalasseus maximus,Animalia,GULLS_TERNS_AND_SKIMMERS_LARIDAE,Royal Tern,,20,-60.7777833939,11.2144803269,South America,Trinidad and Tobago,TT,,Trinidad and Tobago,2009-07-16,
Sterna dougallii,Animalia,GULLS_TERNS_AND_SKIMMERS_LARIDAE,Roseate Tern,,1,-60.7777833939,11.2144803269,South America,Trinidad and Tobago,TT,,Trinidad and Tobago,2009-07-16,
Anous stolidus,Animalia,GULLS_TERNS_AND_SKIMMERS_LARIDAE,Brown Noddy,,1,-60.7777833939,11.2144803269,South America,Trinidad and Tobago,TT,,Trinidad and Tobago,2009-07-16,
Dendrocygna autumnalis,Animalia,DUCKS_GEESE_AND_SWANS_ANATIDAE,Black-bellied Whistling Duck,,2,-60.7777833939,11.2144803269,South America,Trinidad and Tobago,TT,,Trinidad and Tobago,2009-07-16,
Butorides virescens,Animalia,HERONS_ARDEIDAE,Green Heron,,1,-60.7777833939,11.2144803269,South America,Trinidad and Tobago,TT,,Trinidad and Tobago,2009-07-16,
Egretta caerulea,Animalia,HERONS_ARDEIDAE,Little Blue Heron,,1,-60.7777833939,11.2144803269,South America,Trinidad and Tobago,TT,,Trinidad and Tobago,2009-07-16,
Mimus gilvus,Animalia,THRASHERS_MIMIDAE,Tropical Mockingbird,,1,-60.7777833939,11.2144803269,South America,Trinidad and Tobago,TT,,Trinidad and Tobago,2009-07-16,
Coereba flaveola,Animalia,TANAGERS_AND_ALLIES_THRAUPIDAE,Bananaquit,,1,-60.7777833939,11.2144803269,South America,Trinidad and Tobago,TT,,Trinidad and Tobago,2009-07-16,
Vanellus chilensis,Animalia,PLOVERS_CHARADRIIDAE,Southern Lapwing,,1,-60.7777833939,11.2144803269,South America,Trinidad and Tobago,TT,,Trinidad and Tobago,2009-07-16,
Tringa semipalmata,Animalia,SANDPIPERS_AND_ALLIES_SCOLOPACIDAE,Willet,,30,-60.7777833939,11.2144803269,South America,Trinidad and Tobago,TT,,Trinidad and Tobago,2009-07-16,
Thalasseus acuflavidus acuflavidus,Animalia,GULLS_TERNS_AND_SKIMMERS_LARIDAE,Cabot's Tern ssp acuflavidus,,10,-60.7777833939,11.2144803269,South America,Trinidad and Tobago,TT,,Trinidad and Tobago,2009-07-16,
Zenaida auriculata,Animalia,PIGEONS_AND_DOVES_COLUMBIDAE,Eared Dove,,1,-60.7777833939,11.2144803269,South America,Trinidad and Tobago,TT,,Trinidad and Tobago,2009-07-16,
Nomonyx dominicus,Animalia,DUCKS_GEESE_AND_SWANS_ANATIDAE,Masked Duck,,1,-60.7812166214,11.1516242958,South America,Trinidad and Tobago,TT,,Trinidad and Tobago,2009-07-17,
Anas bahamensis,Animalia,DUCKS_GEESE_AND_SWANS_ANATIDAE,White-cheeked Pintail,,1,-60.7812166214,11.1516242958,South America,Trinidad and Tobago,TT,,Trinidad and Tobago,2009-07-17,
Tringa semipalmata,Animalia,SANDPIPERS_AND_ALLIES_SCOLOPACIDAE,Willet,,5,-60.8179092407,11.1690973665,South America,Trinidad and Tobago,TT,,Trinidad and Tobago,2009-07-17,
Sterna dougallii,Animalia,GULLS_TERNS_AND_SKIMMERS_LARIDAE,Roseate Tern,,1,-60.8179092407,11.1690973665,South America,Trinidad and Tobago,TT,,Trinidad and Tobago,2009-07-17,
Actitis macularius,Animalia,SANDPIPERS_AND_ALLIES_SCOLOPACIDAE,Spotted Sandpiper,,3,-60.8179092407,11.1690973665,South America,Trinidad and Tobago,TT,,Trinidad and Tobago,2009-07-17,
Quiscalus lugubris,Animalia,ICTERIDS_ICTERIDAE,Carib Grackle,,1,-60.8179092407,11.1690973665,South America,Trinidad and Tobago,TT,,Trinidad and Tobago,2009-07-17,
Coereba flaveola,Animalia,TANAGERS_AND_ALLIES_THRAUPIDAE,Bananaquit,,1,-60.8179092407,11.1690973665,South America,Trinidad and Tobago,TT,,Trinidad and Tobago,2009-07-17,
Rynchops niger,Animalia,GULLS_TERNS_AND_SKIMMERS_LARIDAE,Black Skimmer,,80,-60.8303976059,11.1620240573,South America,Trinidad and Tobago,TT,,Trinidad and Tobago,2009-07-17,
Jacana jacana,Animalia,JACANAS_JACANIDAE,Wattled Jacana,,30,-60.8303976059,11.1620240573,South America,Trinidad and Tobago,TT,,Trinidad and Tobago,2009-07-17,
Dendrocygna autumnalis,Animalia,DUCKS_GEESE_AND_SWANS_ANATIDAE,Black-bellied Whistling Duck,,25,-60.8303976059,11.1620240573,South America,Trinidad and Tobago,TT,,Trinidad and Tobago,2009-07-17,
Ardea alba egretta,Animalia,HERONS_ARDEIDAE,American Great Egret,,1,-60.8303976059,11.1620240573,South America,Trinidad and Tobago,TT,,Trinidad and Tobago,2009-07-17,
Anhinga anhinga,Animalia,ANHINGAS_ANHINGIDAE,Anhinga,,5,-60.8303976059,11.1620240573,South America,Trinidad and Tobago,TT,,Trinidad and Tobago,2009-07-17,
Nomonyx dominicus,Animalia,DUCKS_GEESE_AND_SWANS_ANATIDAE,Masked Duck,,4,-60.7816886902,11.1507821935,South America,Trinidad and Tobago,TT,,Trinidad and Tobago,2009-07-17,
Ardea alba egretta,Animalia,HERONS_ARDEIDAE,American Great Egret,,1,-60.7816886902,11.1507821935,South America,Trinidad and Tobago,TT,,Trinidad and Tobago,2009-07-17,
Anhinga anhinga,Animalia,ANHINGAS_ANHINGIDAE,Anhinga,,8,-60.7816886902,11.1507821935,South America,Trinidad and Tobago,TT,,Trinidad and Tobago,2009-07-17,
Quiscalus lugubris,Animalia,ICTERIDS_ICTERIDAE,Carib Grackle,,1,-60.7816886902,11.1507821935,South America,Trinidad and Tobago,TT,,Trinidad and Tobago,2009-07-17,
Actitis macularius,Animalia,SANDPIPERS_AND_ALLIES_SCOLOPACIDAE,Spotted Sandpiper,,1,-60.7776546478,11.2150275733,South America,Trinidad and Tobago,TT,,Trinidad and Tobago,2009-07-17,
Charadrius semipalmatus,Animalia,PLOVERS_CHARADRIIDAE,Semipalmated Plover,,1,-60.7776546478,11.2150275733,South America,Trinidad and Tobago,TT,,Trinidad and Tobago,2009-07-17,
Dendrocygna autumnalis,Animalia,DUCKS_GEESE_AND_SWANS_ANATIDAE,Black-bellied Whistling Duck,,4,-60.7776546478,11.2150275733,South America,Trinidad and Tobago,TT,,Trinidad and Tobago,2009-07-17,
Coereba flaveola,Animalia,TANAGERS_AND_ALLIES_THRAUPIDAE,Bananaquit,,1,-60.7776546478,11.2150275733,South America,Trinidad and Tobago,TT,,Trinidad and Tobago,2009-07-18,
Quiscalus lugubris,Animalia,ICTERIDS_ICTERIDAE,Carib Grackle,,1,-60.7776546478,11.2150275733,South America,Trinidad and Tobago,TT,,Trinidad and Tobago,2009-07-18,
Nomonyx dominicus,Animalia,DUCKS_GEESE_AND_SWANS_ANATIDAE,Masked Duck,,1,-60.8057527543,11.1754737852,South America,Trinidad and Tobago,TT,,Trinidad and Tobago - Tabago,2009-07-19,
Thalasseus acuflavidus acuflavidus,Animalia,GULLS_TERNS_AND_SKIMMERS_LARIDAE,Cabot's Tern ssp acuflavidus,,10,-60.77841568,11.2186667982,South America,Trinidad and Tobago,TT,,Trinidad and Tobago,2009-07-19,
Sterna dougallii,Animalia,GULLS_TERNS_AND_SKIMMERS_LARIDAE,Roseate Tern,,10,-60.7776546478,11.2150275733,South America,Trinidad and Tobago,TT,,Trinidad and Tobago,2009-07-19,
Nyctanassa violacea,Animalia,HERONS_ARDEIDAE,Yellow-crowned Night Heron,,1,-60.7776546478,11.2150275733,South America,Trinidad and Tobago,TT,,Trinidad and Tobago,2009-07-19,
Coereba flaveola,Animalia,TANAGERS_AND_ALLIES_THRAUPIDAE,Bananaquit,,1,-60.7776546478,11.2150275733,South America,Trinidad and Tobago,TT,,Trinidad and Tobago,2009-07-19,
Thalasseus maximus,Animalia,GULLS_TERNS_AND_SKIMMERS_LARIDAE,Royal Tern,,1,-60.7837486267,11.2055137568,South America,Trinidad and Tobago,TT,,Trinidad and Tobago,2009-07-19,
Bubulcus ibis,Animalia,HERONS_ARDEIDAE,Western Cattle Egret,,10,-60.8396244049,11.1497716676,South America,Trinidad and Tobago,TT,,Trinidad and Tobago,2009-07-19,
Thalasseus acuflavidus eurygnatha,Animalia,GULLS_TERNS_AND_SKIMMERS_LARIDAE,Cayenne Tern,,10,-60.7803039551,11.1442327226,South America,Trinidad and Tobago,TT,,Trinidad and Tobago,2009-07-19,
Thalasseus acuflavidus eurygnatha,Animalia,GULLS_TERNS_AND_SKIMMERS_LARIDAE,Cayenne Tern,,10,-60.7803039551,11.1442327226,South America,Trinidad and Tobago,TT,,Trinidad and Tobago,2009-07-19,
Triacanthagyna septima,Animalia,DARNERS_AESHNIDAE,Pale-green Duskhawker,,1,-61.38895,10.63984,South America,Trinidad and Tobago,TT,,Trinidad and Tobago,1994-05-26,
Triacanthagyna septima,Animalia,DARNERS_AESHNIDAE,Pale-green Duskhawker,,1,-61.3988,10.664,South America,Trinidad and Tobago,TT,,Trinidad and Tobago,2004-07-26,
Tramea calverti,Animalia,SKIMMERS_LIBELLULIDAE,Striped Saddlebags,,1,-61.6598,10.1037,South America,Trinidad and Tobago,TT,,Trinidad and Tobago,2004-07-21,
Tramea abdominalis,Animalia,SKIMMERS_LIBELLULIDAE,Vermilion Saddlebags,,1,-61.2897,10.6922,South America,Trinidad and Tobago,TT,,Trinidad and Tobago,2004-08-01,
Perithemis domitia,Animalia,SKIMMERS_LIBELLULIDAE,Slough Amberwing,,1,-61.2897,10.6922,South America,Trinidad and Tobago,TT,,Trinidad and Tobago,2004-08-01,
Orthemis discolor,Animalia,SKIMMERS_LIBELLULIDAE,Carmine Skimmer,,1,-61.1725,10.2153,South America,Trinidad and Tobago,TT,,Trinidad and Tobago,2004-07-31,
Orthemis discolor,Animalia,SKIMMERS_LIBELLULIDAE,Carmine Skimmer,,1,-61.1418,10.2478,South America,Trinidad and Tobago,TT,,Trinidad and Tobago,2004-07-31,
Orthemis discolor,Animalia,SKIMMERS_LIBELLULIDAE,Carmine Skimmer,,1,-61.3544,10.6201,South America,Trinidad and Tobago,TT,,Trinidad and Tobago,2004-07-24,
Orthemis discolor,Animalia,SKIMMERS_LIBELLULIDAE,Carmine Skimmer,,1,-61.0322,10.7269,South America,Trinidad and Tobago,TT,,Trinidad and Tobago,2004-07-24,
Orthemis discolor,Animalia,SKIMMERS_LIBELLULIDAE,Carmine Skimmer,,1,-61.2897,10.6922,South America,Trinidad and Tobago,TT,,Trinidad and Tobago,2004-07-29,
Orthemis discolor,Animalia,SKIMMERS_LIBELLULIDAE,Carmine Skimmer,,1,-61.3651,10.6828,South America,Trinidad and Tobago,TT,,Trinidad and Tobago,2004-07-20,
Orthemis discolor,Animalia,SKIMMERS_LIBELLULIDAE,Carmine Skimmer,,1,-61.2615,10.5667,South America,Trinidad and Tobago,TT,,Trinidad and Tobago,2004-07-27,
Orthemis discolor,Animalia,SKIMMERS_LIBELLULIDAE,Carmine Skimmer,,1,-61.2344,10.6874,South America,Trinidad and Tobago,TT,,Trinidad and Tobago,2004-07-22,
Orthemis discolor,Animalia,SKIMMERS_LIBELLULIDAE,Carmine Skimmer,,1,-61.3778,10.6847,South America,Trinidad and Tobago,TT,,Trinidad and Tobago,2004-07-20,
Orthemis discolor,Animalia,SKIMMERS_LIBELLULIDAE,Carmine Skimmer,,1,-61.2897,10.6922,South America,Trinidad and Tobago,TT,,Trinidad and Tobago,2004-08-01,
Orthemis discolor,Animalia,SKIMMERS_LIBELLULIDAE,Carmine Skimmer,,1,-61.178,10.2286,South America,Trinidad and Tobago,TT,,Trinidad and Tobago,2004-07-31,
Nehalennia minuta,Animalia,POND_DAMSELS_COENAGRIONIDAE,Tropical Sprite,,1,-61.2046,10.5935,South America,Trinidad and Tobago,TT,,Trinidad and Tobago,2004-07-28,
Micrathyria aequalis,Animalia,SKIMMERS_LIBELLULIDAE,Spot-tailed Dasher,,1,-61.3544,10.6201,South America,Trinidad and Tobago,TT,,Trinidad and Tobago,2004-07-24,
Lestes tenuatus,Animalia,SPREADWINGS_LESTIDAE,Blue-striped Spreadwing,,1,-61.2046,10.5583,South America,Trinidad and Tobago,TT,,Trinidad and Tobago,2004-07-27,
Lestes forficula,Animalia,SPREADWINGS_LESTIDAE,Rainpool Spreadwing,,1,-61.2046,10.5583,South America,Trinidad and Tobago,TT,,Trinidad and Tobago,2004-07-27,
Lestes forficula,Animalia,SPREADWINGS_LESTIDAE,Rainpool Spreadwing,,1,-61.2615,10.5667,South America,Trinidad and Tobago,TT,,Trinidad and Tobago,2004-07-27,
Ischnura ramburii,Animalia,POND_DAMSELS_COENAGRIONIDAE,Rambur's Forktail,,1,-61.3544,10.6201,South America,Trinidad and Tobago,TT,,Trinidad and Tobago,2004-07-24,
Ischnura ramburii,Animalia,POND_DAMSELS_COENAGRIONIDAE,Rambur's Forktail,,1,-61.2615,10.5667,South America,Trinidad and Tobago,TT,,Trinidad and Tobago,2004-07-27,
Gynacantha nervosa,Animalia,DARNERS_AESHNIDAE,Twilight Darner,,1,-61.3988,10.664,South America,Trinidad and Tobago,TT,,Trinidad and Tobago,2004-07-26,
Erythrodiplax umbrata,Animalia,SKIMMERS_LIBELLULIDAE,Band-winged Dragonlet,,1,-61.3544,10.6201,South America,Trinidad and Tobago,TT,,Trinidad and Tobago,2004-07-24,
Erythrodiplax umbrata,Animalia,SKIMMERS_LIBELLULIDAE,Band-winged Dragonlet,,1,-61.6598,10.1037,South America,Trinidad and Tobago,TT,,Trinidad and Tobago,2004-07-21,
Erythrodiplax umbrata,Animalia,SKIMMERS_LIBELLULIDAE,Band-winged Dragonlet,,1,-61.3988,10.664,South America,Trinidad and Tobago,TT,,Trinidad and Tobago,2004-07-26,
Erythrodiplax umbrata,Animalia,SKIMMERS_LIBELLULIDAE,Band-winged Dragonlet,,1,-61.2615,10.5667,South America,Trinidad and Tobago,TT,,Trinidad and Tobago,2004-07-27,
Erythrodiplax umbrata,Animalia,SKIMMERS_LIBELLULIDAE,Band-winged Dragonlet,,1,-61.2046,10.5935,South America,Trinidad and Tobago,TT,,Trinidad and Tobago,2004-07-28,
Erythrodiplax umbrata,Animalia,SKIMMERS_LIBELLULIDAE,Band-winged Dragonlet,,1,-61.3778,10.6847,South America,Trinidad and Tobago,TT,,Trinidad and Tobago,2004-07-20,
Erythrodiplax umbrata,Animalia,SKIMMERS_LIBELLULIDAE,Band-winged Dragonlet,,1,-61.2046,10.5583,South America,Trinidad and Tobago,TT,,Trinidad and Tobago,2004-07-27,
Erythrodiplax umbrata,Animalia,SKIMMERS_LIBELLULIDAE,Band-winged Dragonlet,,1,-61.178,10.2286,South America,Trinidad and Tobago,TT,,Trinidad and Tobago,2004-07-31,
Erythrodiplax fusca,Animalia,SKIMMERS_LIBELLULIDAE,Red-faced Dragonlet,,1,-61.1725,10.2153,South America,Trinidad and Tobago,TT,,Trinidad and Tobago,2004-07-31,
Erythrodiplax fusca,Animalia,SKIMMERS_LIBELLULIDAE,Red-faced Dragonlet,,1,-61.6598,10.1037,South America,Trinidad and Tobago,TT,,Trinidad and Tobago,2004-07-21,
Erythrodiplax fusca,Animalia,SKIMMERS_LIBELLULIDAE,Red-faced Dragonlet,,1,-61.3651,10.6828,South America,Trinidad and Tobago,TT,,Trinidad and Tobago,2004-07-20,
Erythrodiplax fusca,Animalia,SKIMMERS_LIBELLULIDAE,Red-faced Dragonlet,,1,-61.2046,10.5935,South America,Trinidad and Tobago,TT,,Trinidad and Tobago,2004-07-28,
Erythrodiplax fusca,Animalia,SKIMMERS_LIBELLULIDAE,Red-faced Dragonlet,,1,-61.2046,10.5583,South America,Trinidad and Tobago,TT,,Trinidad and Tobago,2004-07-27,
Erythrodiplax fusca,Animalia,SKIMMERS_LIBELLULIDAE,Red-faced Dragonlet,,1,-61.2615,10.5667,South America,Trinidad and Tobago,TT,,Trinidad and Tobago,2004-07-27,
Erythrodiplax fusca,Animalia,SKIMMERS_LIBELLULIDAE,Red-faced Dragonlet,,1,-61.178,10.2286,South America,Trinidad and Tobago,TT,,Trinidad and Tobago,2004-07-31,
Erythemis vesiculosa,Animalia,SKIMMERS_LIBELLULIDAE,Great Pondhawk,,1,-61.3544,10.6201,South America,Trinidad and Tobago,TT,,Trinidad and Tobago,2004-07-24,
Erythemis vesiculosa,Animalia,SKIMMERS_LIBELLULIDAE,Great Pondhawk,,1,-61.3778,10.6847,South America,Trinidad and Tobago,TT,,Trinidad and Tobago,2004-07-20,
Erythemis vesiculosa,Animalia,SKIMMERS_LIBELLULIDAE,Great Pondhawk,,1,-61.2615,10.5667,South America,Trinidad and Tobago,TT,,Trinidad and Tobago,2004-07-27,
Erythemis plebeja,Animalia,SKIMMERS_LIBELLULIDAE,Pin-tailed Pondhawk,,1,-61.3544,10.6201,South America,Trinidad and Tobago,TT,,Trinidad and Tobago,2004-07-24,
Erythemis plebeja,Animalia,SKIMMERS_LIBELLULIDAE,Pin-tailed Pondhawk,,1,-61.2615,10.5667,South America,Trinidad and Tobago,TT,,Trinidad and Tobago,2004-07-27,
Erythemis plebeja,Animalia,SKIMMERS_LIBELLULIDAE,Pin-tailed Pondhawk,,1,-61.2615,10.5667,South America,Trinidad and Tobago,TT,,Trinidad and Tobago,2004-07-27,
Erythemis peruviana,Animalia,SKIMMERS_LIBELLULIDAE,Flame-tailed Pondhawk,,1,-61.0234,10.3651,South America,Trinidad and Tobago,TT,,Trinidad and Tobago,2004-07-28,
Erythemis peruviana,Animalia,SKIMMERS_LIBELLULIDAE,Flame-tailed Pondhawk,,1,-61.2046,10.5583,South America,Trinidad and Tobago,TT,,Trinidad and Tobago,2004-07-27,
Erythemis peruviana,Animalia,SKIMMERS_LIBELLULIDAE,Flame-tailed Pondhawk,,1,-61.2615,10.5667,South America,Trinidad and Tobago,TT,,Trinidad and Tobago,2004-07-27,
Erythemis mithroides,Animalia,SKIMMERS_LIBELLULIDAE,Claret Pondhawk,,1,-61.2615,10.5667,South America,Trinidad and Tobago,TT,,Trinidad and Tobago,2004-07-27,
Erythemis attala,Animalia,SKIMMERS_LIBELLULIDAE,Black Pondhawk,,1,-61.2046,10.5583,South America,Trinidad and Tobago,TT,,Trinidad and Tobago,2004-07-27,
Erythemis attala,Animalia,SKIMMERS_LIBELLULIDAE,Black Pondhawk,,1,-61.2615,10.5667,South America,Trinidad and Tobago,TT,,Trinidad and Tobago,2004-07-27,
Coryphaeschna viriditas,Animalia,DARNERS_AESHNIDAE,Mangrove Darner,,1,-61.3778,10.6847,South America,Trinidad and Tobago,TT,,Trinidad and Tobago,2004-07-20,
Brechmorhoga praecox,Animalia,SKIMMERS_LIBELLULIDAE,Slender Clubskimmer,,1,-61.3988,10.664,South America,Trinidad and Tobago,TT,,Trinidad and Tobago,2004-07-26,
Brechmorhoga praecox,Animalia,SKIMMERS_LIBELLULIDAE,Slender Clubskimmer,,1,-61.3651,10.6828,South America,Trinidad and Tobago,TT,,Trinidad and Tobago,2004-07-20,
Brechmorhoga praecox,Animalia,SKIMMERS_LIBELLULIDAE,Slender Clubskimmer,,1,-61.2344,10.6874,South America,Trinidad and Tobago,TT,,Trinidad and Tobago,2004-07-22,
Brechmorhoga praecox,Animalia,SKIMMERS_LIBELLULIDAE,Slender Clubskimmer,,1,-61.3682,10.7043,South America,Trinidad and Tobago,TT,,Trinidad and Tobago,2004-08-02,
Brechmorhoga praecox,Animalia,SKIMMERS_LIBELLULIDAE,Slender Clubskimmer,,1,-61.29,10.6893,South America,Trinidad and Tobago,TT,,Trinidad and Tobago,2004-08-01,
Brachymesia herbida,Animalia,SKIMMERS_LIBELLULIDAE,Tawny Pennant,,1,-61.2615,10.5667,South America,Trinidad and Tobago,TT,,Trinidad and Tobago,2004-07-27,
Brachymesia herbida,Animalia,SKIMMERS_LIBELLULIDAE,Tawny Pennant,,1,-61.2615,10.5667,South America,Trinidad and Tobago,TT,,Trinidad and Tobago,2004-07-27,
Argia translata,Animalia,POND_DAMSELS_COENAGRIONIDAE,Dusky Dancer,,1,-61.1418,10.2478,South America,Trinidad and Tobago,TT,,Trinidad and Tobago,2004-07-31,
Argia translata,Animalia,POND_DAMSELS_COENAGRIONIDAE,Dusky Dancer,,1,-61.29,10.6893,South America,Trinidad and Tobago,TT,,Trinidad and Tobago,2004-08-01,
Argia translata,Animalia,POND_DAMSELS_COENAGRIONIDAE,Dusky Dancer,,1,-61.3778,10.6847,South America,Trinidad and Tobago,TT,,Trinidad and Tobago,2004-07-20,
Argia translata,Animalia,POND_DAMSELS_COENAGRIONIDAE,Dusky Dancer,,1,-61.3651,10.6828,South America,Trinidad and Tobago,TT,,Trinidad and Tobago,2004-07-20,
Argia translata,Animalia,POND_DAMSELS_COENAGRIONIDAE,Dusky Dancer,,1,-61.2344,10.6874,South America,Trinidad and Tobago,TT,,Trinidad and Tobago,2004-07-22,
Pantala flavescens,Animalia,SKIMMERS_LIBELLULIDAE,Wandering Glider,,1,-61.3988,10.664,South America,Trinidad and Tobago,TT,,Trinidad and Tobago,2004-07-26,
Pantala flavescens,Animalia,SKIMMERS_LIBELLULIDAE,Wandering Glider,,1,-61.2344,10.6874,South America,Trinidad and Tobago,TT,,Trinidad and Tobago,2004-07-22,
Ortalis ruficauda,Animalia,CURASSOWS_GUANS_AND_CHACHALACAS_CRACIDAE,Rufous-vented Chachalaca,,1,-61.24502665057135,10.43972110748291,South America,Trinidad and Tobago,TT,,Trinidad and Tobago,2002-12-04,
Bubulcus ibis,Animalia,HERONS_ARDEIDAE,Western Cattle Egret,,10,-60.8396244049,11.1497716676,South America,Trinidad and Tobago,TT,,Trinidad and Tobago,2009-07-19,
Thalasseus maximus,Animalia,GULLS_TERNS_AND_SKIMMERS_LARIDAE,Royal Tern,,1,-60.7837486267,11.2055137568,South America,Trinidad and Tobago,TT,,Trinidad and Tobago,2009-07-19,
Coereba flaveola,Animalia,TANAGERS_AND_ALLIES_THRAUPIDAE,Bananaquit,,1,-60.7776546478,11.2150275733,South America,Trinidad and Tobago,TT,,Trinidad and Tobago,2009-07-19,
Nyctanassa violacea,Animalia,HERONS_ARDEIDAE,Yellow-crowned Night Heron,,1,-60.7776546478,11.2150275733,South America,Trinidad and Tobago,TT,,Trinidad and Tobago,2009-07-19,
Sterna dougallii,Animalia,GULLS_TERNS_AND_SKIMMERS_LARIDAE,Roseate Tern,,10,-60.7776546478,11.2150275733,South America,Trinidad and Tobago,TT,,Trinidad and Tobago,2009-07-19,
Thalasseus acuflavidus acuflavidus,Animalia,GULLS_TERNS_AND_SKIMMERS_LARIDAE,Cabot's Tern ssp acuflavidus,,10,-60.7776546478,11.2150275733,South America,Trinidad and Tobago,TT,,Trinidad and Tobago,2009-07-19,
Nomonyx dominicus,Animalia,DUCKS_GEESE_AND_SWANS_ANATIDAE,Masked Duck,,1,-60.7776546478,11.2150275733,South America,Trinidad and Tobago,TT,,Trinidad and Tobago,2009-07-19,
Quiscalus lugubris,Animalia,ICTERIDS_ICTERIDAE,Carib Grackle,,1,-60.7776546478,11.2150275733,South America,Trinidad and Tobago,TT,,Trinidad and Tobago,2009-07-18,
Coereba flaveola,Animalia,TANAGERS_AND_ALLIES_THRAUPIDAE,Bananaquit,,1,-60.7776546478,11.2150275733,South America,Trinidad and Tobago,TT,,Trinidad and Tobago,2009-07-18,
Dendrocygna autumnalis,Animalia,DUCKS_GEESE_AND_SWANS_ANATIDAE,Black-bellied Whistling Duck,,4,-60.7776546478,11.2150275733,South America,Trinidad and Tobago,TT,,Trinidad and Tobago,2009-07-17,
Charadrius semipalmatus,Animalia,PLOVERS_CHARADRIIDAE,Semipalmated Plover,,1,-60.7776546478,11.2150275733,South America,Trinidad and Tobago,TT,,Trinidad and Tobago,2009-07-17,
Actitis macularius,Animalia,SANDPIPERS_AND_ALLIES_SCOLOPACIDAE,Spotted Sandpiper,,1,-60.7776546478,11.2150275733,South America,Trinidad and Tobago,TT,,Trinidad and Tobago,2009-07-17,
Quiscalus lugubris,Animalia,ICTERIDS_ICTERIDAE,Carib Grackle,,1,-60.7816886902,11.1507821935,South America,Trinidad and Tobago,TT,,Trinidad and Tobago,2009-07-17,
Anhinga anhinga,Animalia,ANHINGAS_ANHINGIDAE,Anhinga,,8,-60.7816886902,11.1507821935,South America,Trinidad and Tobago,TT,,Trinidad and Tobago,2009-07-17,
Ardea alba egretta,Animalia,HERONS_ARDEIDAE,American Great Egret,,1,-60.7816886902,11.1507821935,South America,Trinidad and Tobago,TT,,Trinidad and Tobago,2009-07-17,
Nomonyx dominicus,Animalia,DUCKS_GEESE_AND_SWANS_ANATIDAE,Masked Duck,,4,-60.7816886902,11.1507821935,South America,Trinidad and Tobago,TT,,Trinidad and Tobago,2009-07-17,
Anhinga anhinga,Animalia,ANHINGAS_ANHINGIDAE,Anhinga,,5,-60.8303976059,11.1620240573,South America,Trinidad and Tobago,TT,,Trinidad and Tobago,2009-07-17,
Ardea alba egretta,Animalia,HERONS_ARDEIDAE,American Great Egret,,1,-60.8303976059,11.1620240573,South America,Trinidad and Tobago,TT,,Trinidad and Tobago,2009-07-17,
Dendrocygna autumnalis,Animalia,DUCKS_GEESE_AND_SWANS_ANATIDAE,Black-bellied Whistling Duck,,25,-60.8303976059,11.1620240573,South America,Trinidad and Tobago,TT,,Trinidad and Tobago,2009-07-17,
Jacana jacana,Animalia,JACANAS_JACANIDAE,Wattled Jacana,,30,-60.8303976059,11.1620240573,South America,Trinidad and Tobago,TT,,Trinidad and Tobago,2009-07-17,
Rynchops niger,Animalia,GULLS_TERNS_AND_SKIMMERS_LARIDAE,Black Skimmer,,80,-60.8303976059,11.1620240573,South America,Trinidad and Tobago,TT,,Trinidad and Tobago,2009-07-17,
Coereba flaveola,Animalia,TANAGERS_AND_ALLIES_THRAUPIDAE,Bananaquit,,1,-60.8179092407,11.1690973665,South America,Trinidad and Tobago,TT,,Trinidad and Tobago,2009-07-17,
Quiscalus lugubris,Animalia,ICTERIDS_ICTERIDAE,Carib Grackle,,1,-60.8179092407,11.1690973665,South America,Trinidad and Tobago,TT,,Trinidad and Tobago,2009-07-17,
Actitis macularius,Animalia,SANDPIPERS_AND_ALLIES_SCOLOPACIDAE,Spotted Sandpiper,,3,-60.8179092407,11.1690973665,South America,Trinidad and Tobago,TT,,Trinidad and Tobago,2009-07-17,
Sterna dougallii,Animalia,GULLS_TERNS_AND_SKIMMERS_LARIDAE,Roseate Tern,,1,-60.8179092407,11.1690973665,South America,Trinidad and Tobago,TT,,Trinidad and Tobago,2009-07-17,
Tringa semipalmata,Animalia,SANDPIPERS_AND_ALLIES_SCOLOPACIDAE,Willet,,5,-60.8179092407,11.1690973665,South America,Trinidad and Tobago,TT,,Trinidad and Tobago,2009-07-17,
Gallinula galeata,Animalia,RAILS_RALLIDAE,Common Gallinule,,1,-60.7812166214,11.1516242958,South America,Trinidad and Tobago,TT,,Trinidad and Tobago,2009-07-17,
Anas bahamensis,Animalia,DUCKS_GEESE_AND_SWANS_ANATIDAE,White-cheeked Pintail,,1,-60.7812166214,11.1516242958,South America,Trinidad and Tobago,TT,,Trinidad and Tobago,2009-07-17,
Nomonyx dominicus,Animalia,DUCKS_GEESE_AND_SWANS_ANATIDAE,Masked Duck,,1,-60.7812166214,11.1516242958,South America,Trinidad and Tobago,TT,,Trinidad and Tobago,2009-07-17,
Zenaida auriculata,Animalia,PIGEONS_AND_DOVES_COLUMBIDAE,Eared Dove,,1,-60.7777833939,11.2144803269,South America,Trinidad and Tobago,TT,,Trinidad and Tobago,2009-07-16,
Thalasseus acuflavidus acuflavidus,Animalia,GULLS_TERNS_AND_SKIMMERS_LARIDAE,Cabot's Tern ssp acuflavidus,,10,-60.7777833939,11.2144803269,South America,Trinidad and Tobago,TT,,Trinidad and Tobago,2009-07-16,
Tringa semipalmata,Animalia,SANDPIPERS_AND_ALLIES_SCOLOPACIDAE,Willet,,30,-60.7777833939,11.2144803269,South America,Trinidad and Tobago,TT,,Trinidad and Tobago,2009-07-16,
Vanellus chilensis,Animalia,PLOVERS_CHARADRIIDAE,Southern Lapwing,,1,-60.7777833939,11.2144803269,South America,Trinidad and Tobago,TT,,Trinidad and Tobago,2009-07-16,
Coereba flaveola,Animalia,TANAGERS_AND_ALLIES_THRAUPIDAE,Bananaquit,,1,-60.7777833939,11.2144803269,South America,Trinidad and Tobago,TT,,Trinidad and Tobago,2009-07-16,
Mimus gilvus,Animalia,THRASHERS_MIMIDAE,Tropical Mockingbird,,1,-60.7777833939,11.2144803269,South America,Trinidad and Tobago,TT,,Trinidad and Tobago,2009-07-16,
Egretta caerulea,Animalia,HERONS_ARDEIDAE,Little Blue Heron,,1,-60.7777833939,11.2144803269,South America,Trinidad and Tobago,TT,,Trinidad and Tobago,2009-07-16,
Butorides virescens,Animalia,HERONS_ARDEIDAE,Green Heron,,1,-60.7777833939,11.2144803269,South America,Trinidad and Tobago,TT,,Trinidad and Tobago,2009-07-16,
Dendrocygna autumnalis,Animalia,DUCKS_GEESE_AND_SWANS_ANATIDAE,Black-bellied Whistling Duck,,2,-60.7777833939,11.2144803269,South America,Trinidad and Tobago,TT,,Trinidad and Tobago,2009-07-16,
Anous stolidus,Animalia,GULLS_TERNS_AND_SKIMMERS_LARIDAE,Brown Noddy,,1,-60.7777833939,11.2144803269,South America,Trinidad and Tobago,TT,,Trinidad and Tobago,2009-07-16,
Sterna dougallii,Animalia,GULLS_TERNS_AND_SKIMMERS_LARIDAE,Roseate Tern,,1,-60.7777833939,11.2144803269,South America,Trinidad and Tobago,TT,,Trinidad and Tobago,2009-07-16,
Thalasseus maximus,Animalia,GULLS_TERNS_AND_SKIMMERS_LARIDAE,Royal Tern,,20,-60.7777833939,11.2144803269,South America,Trinidad and Tobago,TT,,Trinidad and Tobago,2009-07-16,
Pelecanus occidentalis,Animalia,PELICANS_PELECANIDAE,Brown Pelican,,50,-60.7777833939,11.2144803269,South America,Trinidad and Tobago,TT,,Trinidad and Tobago,2009-07-16,
Charadrius semipalmatus,Animalia,PLOVERS_CHARADRIIDAE,Semipalmated Plover,,1,-60.7777833939,11.2144803269,South America,Trinidad and Tobago,TT,,Trinidad and Tobago,2009-07-16,
Egretta caerulea,Animalia,HERONS_ARDEIDAE,Little Blue Heron,,1,-60.811214447,11.1726760584,South America,Trinidad and Tobago,TT,,Trinidad and Tobago,2009-07-16,
Leucophaeus atricilla,Animalia,GULLS_TERNS_AND_SKIMMERS_LARIDAE,Laughing Gull,,1,-60.811214447,11.1726760584,South America,Trinidad and Tobago,TT,,Trinidad and Tobago,2009-07-16,
Anous stolidus,Animalia,GULLS_TERNS_AND_SKIMMERS_LARIDAE,Brown Noddy,,1,-60.811214447,11.1726760584,South America,Trinidad and Tobago,TT,,Trinidad and Tobago,2009-07-16,
Sterna dougallii,Animalia,GULLS_TERNS_AND_SKIMMERS_LARIDAE,Roseate Tern,,3,-60.811214447,11.1726760584,South America,Trinidad and Tobago,TT,,Trinidad and Tobago,2009-07-16,
Crotophaga ani,Animalia,CUCKOOS_AND_COUCALS_CUCULIDAE,Smooth-billed Ani,,10,-60.7739639282,11.2201632202,South America,Trinidad and Tobago,TT,,Trinidad and Tobago,2009-07-16,
Mionectes oleagineus,Animalia,TYRANT_FLYCATCHERS_TYRANNIDAE,Ochre-bellied Flycatcher,,1,-60.6266784668,11.2659590446,South America,Trinidad and Tobago,TT,,Trinidad and Tobago,2009-07-16,
Myiodynastes maculatus,Animalia,TYRANT_FLYCATCHERS_TYRANNIDAE,Streaked Flycatcher,,1,-60.6266784668,11.2659590446,South America,Trinidad and Tobago,TT,,Trinidad and Tobago,2009-07-15,
Amazilia tobaci,Animalia,HUMMINGBIRDS_TROCHILIDAE,Copper-rumped Hummingbird,,1,-60.6266784668,11.2659590446,South America,Trinidad and Tobago,TT,,Trinidad and Tobago,2009-07-15,
Chrysolampis mosquitus,Animalia,HUMMINGBIRDS_TROCHILIDAE,Ruby-topaz Hummingbird,,1,-60.6266784668,11.2659590446,South America,Trinidad and Tobago,TT,,Trinidad and Tobago,2009-07-15,
Amazona amazonica,Animalia,PARROTS_PSITTACIDAE,Orange-winged Amazon,,50,-60.6266784668,11.2659590446,South America,Trinidad and Tobago,TT,,Trinidad and Tobago,2009-07-15,
Galbula ruficauda,Animalia,JACAMARS_GALBULIDAE,Rufous-tailed Jacamar,,1,-60.6266784668,11.2659590446,South America,Trinidad and Tobago,TT,,Trinidad and Tobago,2009-07-15,
Ortalis ruficauda,Animalia,CURASSOWS_GUANS_AND_CHACHALACAS_CRACIDAE,Rufous-vented Chachalaca,,10,-60.6266784668,11.2659590446,South America,Trinidad and Tobago,TT,,Trinidad and Tobago,2009-07-15,
Nycticorax nycticorax,Animalia,HERONS_ARDEIDAE,Black-crowned Night Heron,,1,-60.6991195679,11.2737032067,South America,Trinidad and Tobago,TT,,Trinidad and Tobago,2009-07-14,
Butorides virescens,Animalia,HERONS_ARDEIDAE,Green Heron,,5,-60.6991195679,11.2737032067,South America,Trinidad and Tobago,TT,,Trinidad and Tobago,2009-07-14,
Chrysolampis mosquitus,Animalia,HUMMINGBIRDS_TROCHILIDAE,Ruby-topaz Hummingbird,,5,-60.6356048584,11.2676425758,South America,Trinidad and Tobago,TT,,Trinidad and Tobago,2009-07-14,
Ortalis ruficauda,Animalia,CURASSOWS_GUANS_AND_CHACHALACAS_CRACIDAE,Rufous-vented Chachalaca,,1,-60.6356048584,11.2676425758,South America,Trinidad and Tobago,TT,,Trinidad and Tobago,2009-07-14,
Fregata magnificens,Animalia,FRIGATEBIRDS_FREGATTIDAE,Magnificent Frigatebird,,50,-60.534324646,11.2935677116,South America,Trinidad and Tobago,TT,,Trinidad and Tobago,2009-07-12,
Leucophaeus atricilla,Animalia,GULLS_TERNS_AND_SKIMMERS_LARIDAE,Laughing Gull,,50,-60.534324646,11.2935677116,South America,Trinidad and Tobago,TT,,Trinidad and Tobago,2009-07-12,
Tyrannus dominicensis,Animalia,TYRANT_FLYCATCHERS_TYRANNIDAE,Grey Kingbird,,1,-60.534324646,11.2935677116,South America,Trinidad and Tobago,TT,,Trinidad and Tobago,2009-07-12,
Thraupis palmarum,Animalia,TANAGERS_AND_ALLIES_THRAUPIDAE,Palm Tanager,,1,-60.534324646,11.2935677116,South America,Trinidad and Tobago,TT,,Trinidad and Tobago,2009-07-12,
Thraupis episcopus,Animalia,TANAGERS_AND_ALLIES_THRAUPIDAE,Blue-grey Tanager,,1,-60.534324646,11.2935677116,South America,Trinidad and Tobago,TT,,Trinidad and Tobago,2009-07-12,
Thraupis episcopus,Animalia,TANAGERS_AND_ALLIES_THRAUPIDAE,Blue-grey Tanager,,1,-60.534324646,11.2935677116,South America,Trinidad and Tobago,TT,,Trinidad and Tobago,2009-07-11,
Thraupis palmarum,Animalia,TANAGERS_AND_ALLIES_THRAUPIDAE,Palm Tanager,,1,-60.534324646,11.2935677116,South America,Trinidad and Tobago,TT,,Trinidad and Tobago,2009-07-11,
Coereba flaveola,Animalia,TANAGERS_AND_ALLIES_THRAUPIDAE,Bananaquit,,10,-60.534324646,11.2935677116,South America,Trinidad and Tobago,TT,,Trinidad and Tobago,2009-07-11,
Vanellus chilensis,Animalia,PLOVERS_CHARADRIIDAE,Southern Lapwing,,2,-60.534324646,11.2935677116,South America,Trinidad and Tobago,TT,,Trinidad and Tobago,2009-07-11,
Nyctanassa violacea,Animalia,HERONS_ARDEIDAE,Yellow-crowned Night Heron,,1,-60.534324646,11.2935677116,South America,Trinidad and Tobago,TT,,Trinidad and Tobago,2009-07-11,
Hydropsalis cayennensis,Animalia,NIGHTJARS_CAPRIMULGIDAE,White-tailed Nightjar,,1,-60.534324646,11.2935677116,South America,Trinidad and Tobago,TT,,Trinidad and Tobago,2009-07-10,
Paroaria nigrogenis,Animalia,TANAGERS_AND_ALLIES_THRAUPIDAE,Masked Cardinal,,1,-61.2419128418,10.4743081042,South America,Trinidad and Tobago,TT,,Trinidad and Tobago,2009-07-10,
Chloroceryle americana,Animalia,KINGFISHERS_ALCEDINIDAE,Green Kingfisher,,1,-61.2419128418,10.4743081042,South America,Trinidad and Tobago,TT,,Trinidad and Tobago,2009-07-10,
Anthracothorax viridigula,Animalia,HUMMINGBIRDS_TROCHILIDAE,Green-throated Mango,,1,-61.2419128418,10.4743081042,South America,Trinidad and Tobago,TT,,Trinidad and Tobago,2009-07-10,
Circus buffoni,Animalia,HAWKS_AND_EAGLES_ACCIPITRIDAE,Long-winged Harrier,,1,-61.2419128418,10.4743081042,South America,Trinidad and Tobago,TT,,Trinidad and Tobago,2009-07-10,
Pandion haliaetus,Animalia,OSPREY_PANDIONIDAE,Western Osprey,,1,-61.2419128418,10.4743081042,South America,Trinidad and Tobago,TT,,Trinidad and Tobago,2009-07-10,
Eudocimus ruber,Animalia,IBISSES_AND_SPOONBILLS_THRESKIORNITHIDAE,Scarlet Ibis,,1,-61.2419128418,10.4743081042,South America,Trinidad and Tobago,TT,,Trinidad and Tobago,2009-07-10,
Caiman crocodilus,Animalia,ALLIGATORIDAE,Spectacled Caiman,,3,-61.2419128418,10.4743081042,South America,Trinidad and Tobago,TT,,Trinidad and Tobago,2009-07-10,
Chrysomus icterocephalus,Animalia,ICTERIDS_ICTERIDAE,Yellow-hooded Blackbird,,1,-61.2419128418,10.4743081042,South America,Trinidad and Tobago,TT,,Trinidad and Tobago,2009-07-10,
Tachycineta albiventer,Animalia,SWALLOWS_HIRUNDINIDAE,White-winged Swallow,,1,-61.2419128418,10.4743081042,South America,Trinidad and Tobago,TT,,Trinidad and Tobago,2009-07-10,
Fluvicola pica,Animalia,TYRANT_FLYCATCHERS_TYRANNIDAE,Pied Water Tyrant,,1,-61.2419128418,10.4743081042,South America,Trinidad and Tobago,TT,,Trinidad and Tobago,2009-07-10,
Certhiaxis cinnamomeus,Animalia,OVENBIRDS_FURNARIIDAE,Yellow-chinned Spinetail,,1,-61.2419128418,10.4743081042,South America,Trinidad and Tobago,TT,,Trinidad and Tobago,2009-07-10,
Himantopus mexicanus,Animalia,STILTS_AND_AVOCETS_RECURVIROSTRIDAE,Black-necked Stilt,,1,-61.2419128418,10.4743081042,South America,Trinidad and Tobago,TT,,Trinidad and Tobago,2009-07-10,
Gallinula galeata,Animalia,RAILS_RALLIDAE,Common Gallinule,,1,-61.2419128418,10.4743081042,South America,Trinidad and Tobago,TT,,Trinidad and Tobago,2009-07-10,
Butorides striata,Animalia,HERONS_ARDEIDAE,Striated Heron,,1,-61.2419128418,10.4743081042,South America,Trinidad and Tobago,TT,,Trinidad and Tobago,2009-07-10,
Tupinambis teguixin,Animalia,Teiidae,Black Tegu,,2,-61.2419128418,10.4743081042,South America,Trinidad and Tobago,TT,,Trinidad and Tobago,2009-07-10,
Dasyprocta leporina,Animalia,AGOUTIS_AND_ACUCHIS_DASYPROCTIDAE,Red-rumped Agouti,,2,-61.2419128418,10.4743081042,South America,Trinidad and Tobago,TT,,Trinidad and Tobago,2009-07-10,
Euphonia violacea,Animalia,FINCHES_FRINGILLIDAE,Violaceous Euphonia,,1,-61.2419128418,10.4743081042,South America,Trinidad and Tobago,TT,,Trinidad and Tobago,2009-07-10,
Basileuterus culicivorus,Animalia,NEW_WORLD_WARBLERS_PARULIDAE,Golden-crowned Warbler,,1,-61.2419128418,10.4743081042,South America,Trinidad and Tobago,TT,,Trinidad and Tobago,2009-07-10,
Chlorophanes spiza,Animalia,TANAGERS_AND_ALLIES_THRAUPIDAE,Green Honeycreeper,,4,-61.2419128418,10.4743081042,South America,Trinidad and Tobago,TT,,Trinidad and Tobago,2009-07-10,
Manacus manacus,Animalia,MANAKINS_PIPRIDAE,White-bearded Manakin,,1,-61.2419128418,10.4743081042,South America,Trinidad and Tobago,TT,,Trinidad and Tobago,2009-07-10,
Procnias averano,Animalia,COTINGAS_COTINGIDAE,Bearded Bellbird,,2,-61.2419128418,10.4743081042,South America,Trinidad and Tobago,TT,,Trinidad and Tobago,2009-07-10,
Trogon violaceus,Animalia,TROGONS_TROGONIDAE,Guianan Trogon,,2,-61.2419128418,10.4743081042,South America,Trinidad and Tobago,TT,,Trinidad and Tobago,2009-07-10,
Amazilia brevirostris,Animalia,HUMMINGBIRDS_TROCHILIDAE,White-chested Emerald,,1,-61.2419128418,10.4743081042,South America,Trinidad and Tobago,TT,,Trinidad and Tobago,2009-07-10,
Florisuga mellivora,Animalia,HUMMINGBIRDS_TROCHILIDAE,White-necked Jacobin,,1,-61.2419128418,10.4743081042,South America,Trinidad and Tobago,TT,,Trinidad and Tobago,2009-07-10,
Nyctibius griseus,Animalia,POTOOS_NYCTIBIIDAE,Common Potoo,,1,-61.2419128418,10.4743081042,South America,Trinidad and Tobago,TT,,Trinidad and Tobago,2009-07-10,
Crypturellus soui,Animalia,TINAMOUS_TINAMIDAE,Little Tinamou,,2,-61.2419128418,10.4743081042,South America,Trinidad and Tobago,TT,,Trinidad and Tobago,2009-07-10,
Pitangus sulphuratus,Animalia,TYRANT_FLYCATCHERS_TYRANNIDAE,Great Kiskadee,,50,-61.2419128418,10.4743081042,South America,Trinidad and Tobago,TT,,Trinidad and Tobago,2009-07-10,
Anhinga anhinga,Animalia,ANHINGAS_ANHINGIDAE,Anhinga,,5,-60.8299899101,11.1619398502,South America,Trinidad and Tobago,TT,,Trinidad and Tobago,2009-07-10,
Rynchops niger,Animalia,GULLS_TERNS_AND_SKIMMERS_LARIDAE,Black Skimmer,,80,-60.8299899101,11.1619398502,South America,Trinidad and Tobago,TT,,Trinidad and Tobago,2009-07-10,
Anas bahamensis,Animalia,DUCKS_GEESE_AND_SWANS_ANATIDAE,White-cheeked Pintail,,2,-60.8299899101,11.1619398502,South America,Trinidad and Tobago,TT,,Trinidad and Tobago,2009-07-10,
Ardea alba egretta,Animalia,HERONS_ARDEIDAE,American Great Egret,,3,-60.8299899101,11.1619398502,South America,Trinidad and Tobago,TT,,Trinidad and Tobago,2009-07-10,
Gallinula galeata,Animalia,RAILS_RALLIDAE,Common Gallinule,,10,-60.8299899101,11.1619398502,South America,Trinidad and Tobago,TT,,Trinidad and Tobago,2009-07-10,
Jacana jacana,Animalia,JACANAS_JACANIDAE,Wattled Jacana,,4,-60.8299899101,11.1619398502,South America,Trinidad and Tobago,TT,,Trinidad and Tobago,2009-07-10,
Butorides virescens,Animalia,HERONS_ARDEIDAE,Green Heron,,1,-60.8299899101,11.1619398502,South America,Trinidad and Tobago,TT,,Trinidad and Tobago,2009-07-10,
Galbula ruficauda,Animalia,JACAMARS_GALBULIDAE,Rufous-tailed Jacamar,,1,-60.5367279053,11.2942410606,South America,Trinidad and Tobago,TT,,Trinidad and Tobago,2009-07-09,
Tyrannus melancholicus,Animalia,TYRANT_FLYCATCHERS_TYRANNIDAE,Tropical Kingbird,,1,-60.5367279053,11.2942410606,South America,Trinidad and Tobago,TT,,Trinidad and Tobago,2009-07-09,
Phaethon aethereus,Animalia,TROPICBIRDS_PHAETHONTIDAE,Red-billed Tropicbird,,3,-60.5367279053,11.2942410606,South America,Trinidad and Tobago,TT,,Trinidad and Tobago,2009-07-09,
Fregata magnificens,Animalia,FRIGATEBIRDS_FREGATTIDAE,Magnificent Frigatebird,,150,-60.5367279053,11.2942410606,South America,Trinidad and Tobago,TT,,Trinidad and Tobago,2009-07-09,
Leucophaeus atricilla,Animalia,GULLS_TERNS_AND_SKIMMERS_LARIDAE,Laughing Gull,,75,-60.5367279053,11.2942410606,South America,Trinidad and Tobago,TT,,Trinidad and Tobago,2009-07-09,
Coereba flaveola,Animalia,TANAGERS_AND_ALLIES_THRAUPIDAE,Bananaquit,,1,-60.5367279053,11.2942410606,South America,Trinidad and Tobago,TT,,Trinidad and Tobago,2009-07-09,
Thraupis episcopus,Animalia,TANAGERS_AND_ALLIES_THRAUPIDAE,Blue-grey Tanager,,1,-60.5367279053,11.2942410606,South America,Trinidad and Tobago,TT,,Trinidad and Tobago,2009-07-09,
Vanellus chilensis,Animalia,PLOVERS_CHARADRIIDAE,Southern Lapwing,,1,-60.7816028595,11.151876926,South America,Trinidad and Tobago,TT,,Trinidad and Tobago,2009-07-09,
Nyctanassa violacea,Animalia,HERONS_ARDEIDAE,Yellow-crowned Night Heron,,1,-60.7774829865,11.215532723,South America,Trinidad and Tobago,TT,,Trinidad and Tobago,2009-07-09,
Egretta caerulea,Animalia,HERONS_ARDEIDAE,Little Blue Heron,,2,-60.7774829865,11.215532723,South America,Trinidad and Tobago,TT,,Trinidad and Tobago,2009-07-09,
Sula leucogaster,Animalia,GANNETS_AND_BOOBIES_SULIDAE,Brown Booby,,10,-60.7774829865,11.215532723,South America,Trinidad and Tobago,TT,,Trinidad and Tobago,2009-07-09,
Thalasseus maximus,Animalia,GULLS_TERNS_AND_SKIMMERS_LARIDAE,Royal Tern,,2,-60.7774829865,11.215532723,South America,Trinidad and Tobago,TT,,Trinidad and Tobago,2009-07-09,
Charadrius semipalmatus,Animalia,PLOVERS_CHARADRIIDAE,Semipalmated Plover,,1,-60.7774829865,11.215532723,South America,Trinidad and Tobago,TT,,Trinidad and Tobago,2009-07-09,
Butorides virescens,Animalia,HERONS_ARDEIDAE,Green Heron,,3,-60.7774829865,11.215532723,South America,Trinidad and Tobago,TT,,Trinidad and Tobago,2009-07-09,
Progne dominicensis,Animalia,SWALLOWS_HIRUNDINIDAE,Caribbean Martin,,10,-60.7774829865,11.215532723,South America,Trinidad and Tobago,TT,,Trinidad and Tobago,2009-07-09,
Mimus gilvus,Animalia,THRASHERS_MIMIDAE,Tropical Mockingbird,,1,-60.7774829865,11.215532723,South America,Trinidad and Tobago,TT,,Trinidad and Tobago,2009-07-09,
Zenaida auriculata,Animalia,PIGEONS_AND_DOVES_COLUMBIDAE,Eared Dove,,1,-60.7774829865,11.215532723,South America,Trinidad and Tobago,TT,,Trinidad and Tobago,2009-07-09,
Turdus nudigenis,Animalia,THRUSHES_TURDIDAE,Spectacled Thrush,,1,-60.7774829865,11.215532723,South America,Trinidad and Tobago,TT,,Trinidad and Tobago,2009-07-09,
Tyto furcata,Animalia,BARN_OWLS_TYTONIDAE,American Barn Owl,,1,-60.7752513885,11.2211735006,South America,Trinidad and Tobago,TT,,Trinidad and Tobago,2009-07-08,
Tachyphonus rufus,Animalia,TANAGERS_AND_ALLIES_THRAUPIDAE,White-lined Tanager,,1,-60.7752513885,11.2211735006,South America,Trinidad and Tobago,TT,,Trinidad and Tobago,2009-07-08,
Thraupis palmarum,Animalia,TANAGERS_AND_ALLIES_THRAUPIDAE,Palm Tanager,,1,-60.7752513885,11.2211735006,South America,Trinidad and Tobago,TT,,Trinidad and Tobago,2009-07-08,
Turdus nudigenis,Animalia,THRUSHES_TURDIDAE,Spectacled Thrush,,1,-60.7752513885,11.2211735006,South America,Trinidad and Tobago,TT,,Trinidad and Tobago,2009-07-08,
Leucophaeus atricilla,Animalia,GULLS_TERNS_AND_SKIMMERS_LARIDAE,Laughing Gull,,20,-60.8382940292,11.1730128742,South America,Trinidad and Tobago,TT,,Trinidad and Tobago,2009-07-08,
Fregata magnificens,Animalia,FRIGATEBIRDS_FREGATTIDAE,Magnificent Frigatebird,,50,-60.8382940292,11.1730128742,South America,Trinidad and Tobago,TT,,Trinidad and Tobago,2009-07-08,
Quiscalus lugubris,Animalia,ICTERIDS_ICTERIDAE,Carib Grackle,,1,-60.8382940292,11.1730128742,South America,Trinidad and Tobago,TT,,Trinidad and Tobago,2009-07-08,
Crotophaga ani,Animalia,CUCKOOS_AND_COUCALS_CUCULIDAE,Smooth-billed Ani,,1,-60.8382940292,11.1730128742,South America,Trinidad and Tobago,TT,,Trinidad and Tobago,2009-07-08,
Sterna dougallii,Animalia,GULLS_TERNS_AND_SKIMMERS_LARIDAE,Roseate Tern,,1,-60.8382940292,11.1730128742,South America,Trinidad and Tobago,TT,,Trinidad and Tobago,2009-07-08,
Anous stolidus,Animalia,GULLS_TERNS_AND_SKIMMERS_LARIDAE,Brown Noddy,,10,-60.8382940292,11.1730128742,South America,Trinidad and Tobago,TT,,Trinidad and Tobago,2009-07-08,
Pelecanus occidentalis,Animalia,PELICANS_PELECANIDAE,Brown Pelican,,50,-60.8382940292,11.1730128742,South America,Trinidad and Tobago,TT,,Trinidad and Tobago,2009-07-08,
Nomonyx dominicus,Animalia,DUCKS_GEESE_AND_SWANS_ANATIDAE,Masked Duck,,4,-60.7814311981,11.1526348152,South America,Trinidad and Tobago,TT,,Trinidad and Tobago,2009-07-08,
Jacana jacana,Animalia,JACANAS_JACANIDAE,Wattled Jacana,,2,-60.7814311981,11.1526348152,South America,Trinidad and Tobago,TT,,Trinidad and Tobago,2009-07-08,
Gallinula galeata,Animalia,RAILS_RALLIDAE,Common Gallinule,,5,-60.7814311981,11.1526348152,South America,Trinidad and Tobago,TT,,Trinidad and Tobago,2009-07-08,
Anhinga anhinga,Animalia,ANHINGAS_ANHINGIDAE,Anhinga,,7,-60.7814311981,11.1526348152,South America,Trinidad and Tobago,TT,,Trinidad and Tobago,2009-07-08,
Butorides virescens,Animalia,HERONS_ARDEIDAE,Green Heron,,1,-60.7814311981,11.1526348152,South America,Trinidad and Tobago,TT,,Trinidad and Tobago,2009-07-08,
Vanellus chilensis,Animalia,PLOVERS_CHARADRIIDAE,Southern Lapwing,,10,-60.7814311981,11.1526348152,South America,Trinidad and Tobago,TT,,Trinidad and Tobago,2009-07-08,
Bubulcus ibis,Animalia,HERONS_ARDEIDAE,Western Cattle Egret,,20,-60.7814311981,11.1526348152,South America,Trinidad and Tobago,TT,,Trinidad and Tobago,2009-07-08,
Coereba flaveola,Animalia,TANAGERS_AND_ALLIES_THRAUPIDAE,Bananaquit,,10,-60.7785129547,11.2210893107,South America,Trinidad and Tobago,TT,,Trinidad and Tobago,2009-07-08,
Zenaida auriculata,Animalia,PIGEONS_AND_DOVES_COLUMBIDAE,Eared Dove,,10,-60.7388591766,11.1826119599,South America,Trinidad and Tobago,TT,,Trinidad and Tobago,2009-07-08,
Quiscalus lugubris,Animalia,ICTERIDS_ICTERIDAE,Carib Grackle,,30,-60.7388591766,11.1826119599,South America,Trinidad and Tobago,TT,,Trinidad and Tobago,2009-07-08,
Pelecanus occidentalis,Animalia,PELICANS_PELECANIDAE,Brown Pelican,,10,-60.7388591766,11.1826119599,South America,Trinidad and Tobago,TT,,Trinidad and Tobago,2009-07-08,
Egretta caerulea,Animalia,HERONS_ARDEIDAE,Little Blue Heron,,1,-60.7770109177,11.2222258724,South America,Trinidad and Tobago,TT,,Trinidad and Tobago,2009-07-08,
Progne dominicensis,Animalia,SWALLOWS_HIRUNDINIDAE,Caribbean Martin,,1,-60.7770109177,11.2222258724,South America,Trinidad and Tobago,TT,,Trinidad and Tobago,2009-07-08,
Nyctanassa violacea,Animalia,HERONS_ARDEIDAE,Yellow-crowned Night Heron,,1,-60.7794570923,11.2097234487,South America,Trinidad and Tobago,TT,,Trinidad and Tobago,2009-07-08,
Dendrocygna autumnalis,Animalia,DUCKS_GEESE_AND_SWANS_ANATIDAE,Black-bellied Whistling Duck,,4,-60.7794570923,11.2097234487,South America,Trinidad and Tobago,TT,,Trinidad and Tobago,2009-07-08,
Momotus bahamensis,Animalia,MOTMOTS_MOMOTIDAE,Trinidad Motmot,,1,-60.7778692245,11.2217628293,South America,Trinidad and Tobago,TT,,Trinidad and Tobago,2009-07-08,
Ortalis ruficauda,Animalia,CURASSOWS_GUANS_AND_CHACHALACAS_CRACIDAE,Rufous-vented Chachalaca,,2,-60.7778692245,11.2217628293,South America,Trinidad and Tobago,TT,,Trinidad and Tobago,2009-07-08,
Thalasseus maximus,Animalia,GULLS_TERNS_AND_SKIMMERS_LARIDAE,Royal Tern,,1,-60.7776975632,11.2141014633,South America,Trinidad and Tobago,TT,,Trinidad and Tobago,2009-07-07,
Dendrocygna autumnalis,Animalia,DUCKS_GEESE_AND_SWANS_ANATIDAE,Black-bellied Whistling Duck,,1,-60.7793283463,11.209807642,South America,Trinidad and Tobago,TT,,Trinidad and Tobago,2009-07-07,
Florisuga mellivora,Animalia,HUMMINGBIRDS_TROCHILIDAE,White-necked Jacobin,,1,-60.7772684097,11.2219733035,South America,Trinidad and Tobago,TT,,Trinidad and Tobago,2009-07-07,
Melanerpes rubricapillus,Animalia,WOODPECKERS_PICIDAE,Red-crowned Woodpecker,,1,-60.7772684097,11.2219733035,South America,Trinidad and Tobago,TT,,Trinidad and Tobago,2009-07-07,
Pelecanus occidentalis,Animalia,PELICANS_PELECANIDAE,Brown Pelican,,10,-60.6927680969,11.1906951539,South America,Trinidad and Tobago,TT,,Trinidad and Tobago,2009-07-07,
Sterna dougallii,Animalia,GULLS_TERNS_AND_SKIMMERS_LARIDAE,Roseate Tern,,1,-60.775680542,11.2199948398,South America,Trinidad and Tobago,TT,,Trinidad and Tobago,2009-07-07,
Charadrius semipalmatus,Animalia,PLOVERS_CHARADRIIDAE,Semipalmated Plover,,4,-60.775680542,11.2199948398,South America,Trinidad and Tobago,TT,,Trinidad and Tobago,2009-07-07,
Anous stolidus,Animalia,GULLS_TERNS_AND_SKIMMERS_LARIDAE,Brown Noddy,,5,-60.775680542,11.2199948398,South America,Trinidad and Tobago,TT,,Trinidad and Tobago,2009-07-07,
Molothrus bonariensis,Animalia,ICTERIDS_ICTERIDAE,Shiny Cowbird,,1,-60.775680542,11.2199948398,South America,Trinidad and Tobago,TT,,Trinidad and Tobago,2009-07-07,
Chiroxiphia pareola,Animalia,MANAKINS_PIPRIDAE,Blue-backed Manakin,,3,-60.6328582764,11.2681476333,South America,Trinidad and Tobago,TT,,Trinidad and Tobago,2009-07-07,
Myiodynastes maculatus,Animalia,TYRANT_FLYCATCHERS_TYRANNIDAE,Streaked Flycatcher,,3,-60.6328582764,11.2681476333,South America,Trinidad and Tobago,TT,,Trinidad and Tobago,2009-07-07,
Cnemotriccus fuscatus,Animalia,TYRANT_FLYCATCHERS_TYRANNIDAE,Fuscous Flycatcher,,5,-60.6328582764,11.2681476333,South America,Trinidad and Tobago,TT,,Trinidad and Tobago,2009-07-07,
Platyrinchus mystaceus,Animalia,TYRANT_FLYCATCHERS_TYRANNIDAE,White-throated Spadebill,,2,-60.6328582764,11.2681476333,South America,Trinidad and Tobago,TT,,Trinidad and Tobago,2009-07-07,
Mionectes oleagineus,Animalia,TYRANT_FLYCATCHERS_TYRANNIDAE,Ochre-bellied Flycatcher,,4,-60.6328582764,11.2681476333,South America,Trinidad and Tobago,TT,,Trinidad and Tobago,2009-07-07,
Xiphorhynchus susurrans,Animalia,OVENBIRDS_FURNARIIDAE,Cocoa Woodcreeper,,1,-60.6328582764,11.2681476333,South America,Trinidad and Tobago,TT,,Trinidad and Tobago,2009-07-07,
Colaptes rubiginosus,Animalia,WOODPECKERS_PICIDAE,Golden-olive Woodpecker,,1,-60.6328582764,11.2681476333,South America,Trinidad and Tobago,TT,,Trinidad and Tobago,2009-07-07,
Galbula ruficauda,Animalia,JACAMARS_GALBULIDAE,Rufous-tailed Jacamar,,10,-60.6328582764,11.2681476333,South America,Trinidad and Tobago,TT,,Trinidad and Tobago,2009-07-07,
Trogon collaris,Animalia,TROGONS_TROGONIDAE,Collared Trogon,,2,-60.6328582764,11.2681476333,South America,Trinidad and Tobago,TT,,Trinidad and Tobago,2009-07-07,
Campylopterus ensipennis,Animalia,HUMMINGBIRDS_TROCHILIDAE,White-tailed Sabrewing,,1,-60.6328582764,11.2681476333,South America,Trinidad and Tobago,TT,,Trinidad and Tobago,2009-07-07,
Amazona amazonica,Animalia,PARROTS_PSITTACIDAE,Orange-winged Amazon,,50,-60.6328582764,11.2681476333,South America,Trinidad and Tobago,TT,,Trinidad and Tobago,2009-07-07,
Quiscalus lugubris,Animalia,ICTERIDS_ICTERIDAE,Carib Grackle,,20,-60.7804977894,11.209670828,South America,Trinidad and Tobago,TT,,Trinidad and Tobago,2009-07-06,
Butorides virescens,Animalia,HERONS_ARDEIDAE,Green Heron,,4,-60.7804977894,11.209670828,South America,Trinidad and Tobago,TT,,Trinidad and Tobago,2009-07-06,
Nyctanassa violacea,Animalia,HERONS_ARDEIDAE,Yellow-crowned Night Heron,,5,-60.7804977894,11.209670828,South America,Trinidad and Tobago,TT,,Trinidad and Tobago,2009-07-06,
Molothrus bonariensis,Animalia,ICTERIDS_ICTERIDAE,Shiny Cowbird,,20,-60.7804977894,11.209670828,South America,Trinidad and Tobago,TT,,Trinidad and Tobago,2009-07-06,
Egretta caerulea,Animalia,HERONS_ARDEIDAE,Little Blue Heron,,2,-60.7804977894,11.209670828,South America,Trinidad and Tobago,TT,,Trinidad and Tobago,2009-07-06,
Egretta caerulea,Animalia,HERONS_ARDEIDAE,Little Blue Heron,,3,-60.7804977894,11.209670828,South America,Trinidad and Tobago,TT,,Trinidad and Tobago,2009-07-06,
Dendrocygna autumnalis,Animalia,DUCKS_GEESE_AND_SWANS_ANATIDAE,Black-bellied Whistling Duck,,2,-60.7804977894,11.209670828,South America,Trinidad and Tobago,TT,,Trinidad and Tobago,2009-07-06,
Pandion haliaetus,Animalia,OSPREY_PANDIONIDAE,Western Osprey,,1,-60.7962799072,11.1895163688,South America,Trinidad and Tobago,TT,,Trinidad and Tobago,2009-07-06,
Thalasseus maximus,Animalia,GULLS_TERNS_AND_SKIMMERS_LARIDAE,Royal Tern,,6,-60.7962799072,11.1895163688,South America,Trinidad and Tobago,TT,,Trinidad and Tobago,2009-07-06,
Florisuga mellivora,Animalia,HUMMINGBIRDS_TROCHILIDAE,White-necked Jacobin,,2,-60.7749938965,11.22151026,South America,Trinidad and Tobago,TT,,Trinidad and Tobago,2009-07-06,
Anthracothorax nigricollis,Animalia,HUMMINGBIRDS_TROCHILIDAE,Black-throated Mango,,1,-60.7749938965,11.22151026,South America,Trinidad and Tobago,TT,,Trinidad and Tobago,2009-07-06,
Zenaida auriculata,Animalia,PIGEONS_AND_DOVES_COLUMBIDAE,Eared Dove,,10,-60.7749938965,11.22151026,South America,Trinidad and Tobago,TT,,Trinidad and Tobago,2009-07-06,
Momotus bahamensis,Animalia,MOTMOTS_MOMOTIDAE,Trinidad Motmot,,10,-60.7749938965,11.22151026,South America,Trinidad and Tobago,TT,,Trinidad and Tobago,2009-07-06,
Chrysolampis mosquitus,Animalia,HUMMINGBIRDS_TROCHILIDAE,Ruby-topaz Hummingbird,,5,-60.7749938965,11.22151026,South America,Trinidad and Tobago,TT,,Trinidad and Tobago,2009-07-06,
Leptotila verreauxi,Animalia,PIGEONS_AND_DOVES_COLUMBIDAE,White-tipped Dove,,1,-60.7749938965,11.22151026,South America,Trinidad and Tobago,TT,,Trinidad and Tobago,2009-07-06,
Sula leucogaster,Animalia,GANNETS_AND_BOOBIES_SULIDAE,Brown Booby,,10,-60.7749938965,11.22151026,South America,Trinidad and Tobago,TT,,Trinidad and Tobago,2009-07-06,
Nyctanassa violacea,Animalia,HERONS_ARDEIDAE,Yellow-crowned Night Heron,,1,-60.7749938965,11.22151026,South America,Trinidad and Tobago,TT,,Trinidad and Tobago,2009-07-06,
Anous stolidus,Animalia,GULLS_TERNS_AND_SKIMMERS_LARIDAE,Brown Noddy,,20,-60.7749938965,11.22151026,South America,Trinidad and Tobago,TT,,Trinidad and Tobago,2009-07-06,
Ortalis ruficauda,Animalia,CURASSOWS_GUANS_AND_CHACHALACAS_CRACIDAE,Rufous-vented Chachalaca,,4,-60.7755088806,11.2216786395,South America,Trinidad and Tobago,TT,,Trinidad and Tobago,2009-07-06,
Momotus bahamensis,Animalia,MOTMOTS_MOMOTIDAE,Trinidad Motmot,,1,-60.7755088806,11.2216786395,South America,Trinidad and Tobago,TT,,Trinidad and Tobago,2009-07-06,
Chaetura cinereiventris,Animalia,SWIFTS_APODIDAE,Grey-rumped Swift,,4,-60.7755088806,11.2216786395,South America,Trinidad and Tobago,TT,,Trinidad and Tobago,2009-07-06,
Galbula ruficauda,Animalia,JACAMARS_GALBULIDAE,Rufous-tailed Jacamar,,1,-60.7755088806,11.2216786395,South America,Trinidad and Tobago,TT,,Trinidad and Tobago,2009-07-06,
Coereba flaveola,Animalia,TANAGERS_AND_ALLIES_THRAUPIDAE,Bananaquit,,10,-60.7755947113,11.2210893107,South America,Trinidad and Tobago,TT,,Trinidad and Tobago,2009-07-06,
Tiaris bicolor,Animalia,TANAGERS_AND_ALLIES_THRAUPIDAE,Black-faced Grassquit,,10,-60.7755947113,11.2210893107,South America,Trinidad and Tobago,TT,,Trinidad and Tobago,2009-07-05,
Coereba flaveola,Animalia,TANAGERS_AND_ALLIES_THRAUPIDAE,Bananaquit,,20,-60.7755947113,11.2210893107,South America,Trinidad and Tobago,TT,,Trinidad and Tobago,2009-07-05,
Tachyphonus rufus,Animalia,TANAGERS_AND_ALLIES_THRAUPIDAE,White-lined Tanager,,5,-60.7755947113,11.2210893107,South America,Trinidad and Tobago,TT,,Trinidad and Tobago,2009-07-05,
Thraupis palmarum,Animalia,TANAGERS_AND_ALLIES_THRAUPIDAE,Palm Tanager,,10,-60.7755947113,11.2210893107,South America,Trinidad and Tobago,TT,,Trinidad and Tobago,2009-07-05,
Turdus nudigenis,Animalia,THRUSHES_TURDIDAE,Spectacled Thrush,,5,-60.7755947113,11.2210893107,South America,Trinidad and Tobago,TT,,Trinidad and Tobago,2009-07-05,
Mimus gilvus,Animalia,THRASHERS_MIMIDAE,Tropical Mockingbird,,5,-60.7755947113,11.2210893107,South America,Trinidad and Tobago,TT,,Trinidad and Tobago,2009-07-05,
Melanerpes rubricapillus,Animalia,WOODPECKERS_PICIDAE,Red-crowned Woodpecker,,1,-60.7755947113,11.2210893107,South America,Trinidad and Tobago,TT,,Trinidad and Tobago,2009-07-05,
Momotus bahamensis,Animalia,MOTMOTS_MOMOTIDAE,Trinidad Motmot,,2,-60.7755947113,11.2210893107,South America,Trinidad and Tobago,TT,,Trinidad and Tobago,2009-07-05,
Amazilia tobaci,Animalia,HUMMINGBIRDS_TROCHILIDAE,Copper-rumped Hummingbird,,1,-60.7755947113,11.2210893107,South America,Trinidad and Tobago,TT,,Trinidad and Tobago,2009-07-05,
Tyto furcata,Animalia,BARN_OWLS_TYTONIDAE,American Barn Owl,,1,-60.7755947113,11.2210893107,South America,Trinidad and Tobago,TT,,Trinidad and Tobago,2009-07-05,
Crotophaga ani,Animalia,CUCKOOS_AND_COUCALS_CUCULIDAE,Smooth-billed Ani,,1,-60.7755947113,11.2210893107,South America,Trinidad and Tobago,TT,,Trinidad and Tobago,2009-07-05,
Butorides virescens,Animalia,HERONS_ARDEIDAE,Green Heron,,1,-60.7755947113,11.2210893107,South America,Trinidad and Tobago,TT,,Trinidad and Tobago,2009-07-05,
Progne dominicensis,Animalia,SWALLOWS_HIRUNDINIDAE,Caribbean Martin,,10,-60.7755947113,11.2210893107,South America,Trinidad and Tobago,TT,,Trinidad and Tobago,2009-07-05,
Quiscalus lugubris,Animalia,ICTERIDS_ICTERIDAE,Carib Grackle,,25,-60.7755947113,11.2210893107,South America,Trinidad and Tobago,TT,,Trinidad and Tobago,2009-07-05,
Thraupis episcopus,Animalia,TANAGERS_AND_ALLIES_THRAUPIDAE,Blue-grey Tanager,,10,-60.7755947113,11.2210893107,South America,Trinidad and Tobago,TT,,Trinidad and Tobago,2009-07-05,
Leucophaeus atricilla,Animalia,GULLS_TERNS_AND_SKIMMERS_LARIDAE,Laughing Gull,,10,-60.7755947113,11.2210893107,South America,Trinidad and Tobago,TT,,Trinidad and Tobago,2009-07-05,
Fregata magnificens,Animalia,FRIGATEBIRDS_FREGATTIDAE,Magnificent Frigatebird,,100,-60.7755947113,11.2210893107,South America,Trinidad and Tobago,TT,,Trinidad and Tobago,2009-07-05,
Zenaida auriculata,Animalia,PIGEONS_AND_DOVES_COLUMBIDAE,Eared Dove,,5,-60.7755947113,11.2210893107,South America,Trinidad and Tobago,TT,,Trinidad and Tobago,2009-07-05,
Progne dominicensis,Animalia,SWALLOWS_HIRUNDINIDAE,Caribbean Martin,,5,-60.8395385742,11.1505716676,South America,Trinidad and Tobago,TT,,Trinidad and Tobago,2009-07-05,
Vanellus chilensis,Animalia,PLOVERS_CHARADRIIDAE,Southern Lapwing,,5,-60.8395385742,11.1505716676,South America,Trinidad and Tobago,TT,,Trinidad and Tobago,2009-07-05,
Bubulcus ibis,Animalia,HERONS_ARDEIDAE,Western Cattle Egret,,20,-60.8395385742,11.1505716676,South America,Trinidad and Tobago,TT,,Trinidad and Tobago,2009-07-05,
Galbula ruficauda,Animalia,JACAMARS_GALBULIDAE,Rufous-tailed Jacamar,,1,-60.5346250534,11.3041517327,South America,Trinidad and Tobago,TT,,Trinidad and Tobago,2007-12-17,
Vanellus chilensis,Animalia,PLOVERS_CHARADRIIDAE,Southern Lapwing,,1,-60.5338954926,11.2936518803,South America,Trinidad and Tobago,TT,,Trinidad and Tobago,2007-12-12,
Patagioenas cayennensis,Animalia,PIGEONS_AND_DOVES_COLUMBIDAE,Pale-vented Pigeon,,1,-60.5303764343,11.3068660608,South America,Trinidad and Tobago,TT,,Trinidad and Tobago,2007-12-19,
Leptotila verreauxi,Animalia,PIGEONS_AND_DOVES_COLUMBIDAE,White-tipped Dove,,1,-60.5297756195,11.3066135663,South America,Trinidad and Tobago,TT,,Trinidad and Tobago,2007-12-19,
Thraupis palmarum,Animalia,TANAGERS_AND_ALLIES_THRAUPIDAE,Palm Tanager,,1,-60.5297756195,11.3066135663,South America,Trinidad and Tobago,TT,,Trinidad and Tobago,2007-12-13,
Mimus gilvus,Animalia,THRASHERS_MIMIDAE,Tropical Mockingbird,,1,-60.5348396301,11.3005536302,South America,Trinidad and Tobago,TT,,Trinidad and Tobago,2007-12-13,
Amazilia tobaci,Animalia,HUMMINGBIRDS_TROCHILIDAE,Copper-rumped Hummingbird,,1,-60.7906579971,11.2004830946,South America,Trinidad and Tobago,TT,,Trinidad and Tobago,2007-12-13,
Tringa melanoleuca,Animalia,SANDPIPERS_AND_ALLIES_SCOLOPACIDAE,Greater Yellowlegs,,1,-60.8227908611,11.1633713676,South America,Trinidad and Tobago,TT,,Trinidad and Tobago,2007-12-20,
Coereba flaveola,Animalia,TANAGERS_AND_ALLIES_THRAUPIDAE,Bananaquit,,1,-60.5294322968,11.3068660608,South America,Trinidad and Tobago,TT,,Trinidad and Tobago,2007-12-09,
Thamnophilus doliatus,Animalia,ANTBIRDS_THAMNOPHILIDAE,Barred Antshrike,,1,-60.5294322968,11.3068660608,South America,Trinidad and Tobago,TT,,Trinidad and Tobago,2007-12-17,
Thraupis episcopus,Animalia,TANAGERS_AND_ALLIES_THRAUPIDAE,Blue-grey Tanager,,1,-60.529282093,11.3070554316,South America,Trinidad and Tobago,TT,,Trinidad and Tobago,2007-12-13,
Egretta caerulea,Animalia,HERONS_ARDEIDAE,Little Blue Heron,,1,-60.5331230164,11.3035625728,South America,Trinidad and Tobago,TT,,Trinidad and Tobago,2007-12-07,
Ortalis ruficauda,Animalia,CURASSOWS_GUANS_AND_CHACHALACAS_CRACIDAE,Rufous-vented Chachalaca,,1,-60.5302906036,11.306781896,South America,Trinidad and Tobago,TT,,Trinidad and Tobago,2007-12-19,
Chrysolampis mosquitus,Animalia,HUMMINGBIRDS_TROCHILIDAE,Ruby-topaz Hummingbird,,1,-60.7907867432,11.1873692836,South America,Trinidad and Tobago,TT,,Trinidad and Tobago,2007-12-13,
Tyrannus melancholicus,Animalia,TYRANT_FLYCATCHERS_TYRANNIDAE,Tropical Kingbird,,1,-60.5375647545,11.3094961993,South America,Trinidad and Tobago,TT,,Trinidad and Tobago,2007-12-10,
Nyctanassa violacea,Animalia,HERONS_ARDEIDAE,Yellow-crowned Night Heron,,1,-60.5287992954,11.3070133492,South America,Trinidad and Tobago,TT,,Trinidad and Tobago,2007-12-10,
Coereba flaveola,Animalia,TANAGERS_AND_ALLIES_THRAUPIDAE,Bananaquit,,1,-60.5494161,11.33047266,South America,Trinidad and Tobago,TT,,Trinidad and Tobago - Tabago,2006-05-15,
Thraupis palmarum,Animalia,TANAGERS_AND_ALLIES_THRAUPIDAE,Palm Tanager,,1,-60.5494161,11.33047266,South America,Trinidad and Tobago,TT,,Trinidad and Tobago - Tabago,2006-05-15,
Thraupis episcopus,Animalia,TANAGERS_AND_ALLIES_THRAUPIDAE,Blue-grey Tanager,,1,-60.5494161,11.33047266,South America,Trinidad and Tobago,TT,,Trinidad and Tobago - Tabago,2006-05-15,
Mimus gilvus,Animalia,THRASHERS_MIMIDAE,Tropical Mockingbird,,1,-60.5494161,11.33047266,South America,Trinidad and Tobago,TT,,Trinidad and Tobago - Tabago,2006-05-15,
Tyrannus melancholicus,Animalia,TYRANT_FLYCATCHERS_TYRANNIDAE,Tropical Kingbird,,1,-60.5494161,11.33047266,South America,Trinidad and Tobago,TT,,Trinidad and Tobago - Tabago,2006-05-15,
Thamnophilus doliatus,Animalia,ANTBIRDS_THAMNOPHILIDAE,Barred Antshrike,,1,-60.5494161,11.33047266,South America,Trinidad and Tobago,TT,,Trinidad and Tobago - Tabago,2006-05-15,
Galbula ruficauda,Animalia,JACAMARS_GALBULIDAE,Rufous-tailed Jacamar,,1,-60.5494161,11.33047266,South America,Trinidad and Tobago,TT,,Trinidad and Tobago - Tabago,2006-05-15,
Patagioenas cayennensis,Animalia,PIGEONS_AND_DOVES_COLUMBIDAE,Pale-vented Pigeon,,1,-60.5494161,11.33047266,South America,Trinidad and Tobago,TT,,Trinidad and Tobago - Tabago,2006-05-15,
Vanellus chilensis,Animalia,PLOVERS_CHARADRIIDAE,Southern Lapwing,,2,-60.5494161,11.33047266,South America,Trinidad and Tobago,TT,,Trinidad and Tobago - Tabago,2006-05-15,
Ortalis ruficauda,Animalia,CURASSOWS_GUANS_AND_CHACHALACAS_CRACIDAE,Rufous-vented Chachalaca,,1,-60.5494161,11.33047266,South America,Trinidad and Tobago,TT,,Trinidad and Tobago - Tabago,2006-05-15,
Nyctanassa violacea,Animalia,HERONS_ARDEIDAE,Yellow-crowned Night Heron,,1,-60.5494161,11.33047266,South America,Trinidad and Tobago,TT,,Trinidad and Tobago - Tabago,2006-05-15,
Ortalis ruficauda,Animalia,CURASSOWS_GUANS_AND_CHACHALACAS_CRACIDAE,Rufous-vented Chachalaca,,2,-60.53523928,11.30215148,South America,Trinidad and Tobago,TT,,Trinidad and Tobago - Tabago,2006-05-13,
Ortalis ruficauda,Animalia,CURASSOWS_GUANS_AND_CHACHALACAS_CRACIDAE,Rufous-vented Chachalaca,,3,-60.53523928,11.30215148,South America,Trinidad and Tobago,TT,,Trinidad and Tobago - Tabago,2006-05-11,
Thraupis episcopus,Animalia,TANAGERS_AND_ALLIES_THRAUPIDAE,Blue-grey Tanager,,1,-60.53523928,11.30215148,South America,Trinidad and Tobago,TT,,Trinidad and Tobago - Tabago,2006-05-11,
Coereba flaveola,Animalia,TANAGERS_AND_ALLIES_THRAUPIDAE,Bananaquit,,1,-60.53523928,11.30215148,South America,Trinidad and Tobago,TT,,Trinidad and Tobago - Tabago,2006-05-11,
Mimus gilvus,Animalia,THRASHERS_MIMIDAE,Tropical Mockingbird,,1,-60.53532511,11.30257231,South America,Trinidad and Tobago,TT,,Trinidad and Tobago - Tabago,2006-05-11,
Thraupis palmarum,Animalia,TANAGERS_AND_ALLIES_THRAUPIDAE,Palm Tanager,,1,-60.53405274,11.3007218,South America,Trinidad and Tobago,TT,,Trinidad and Tobago - Tabago,2006-05-10,
Coereba flaveola,Animalia,TANAGERS_AND_ALLIES_THRAUPIDAE,Bananaquit,,1,-60.53405274,11.3007218,South America,Trinidad and Tobago,TT,,Trinidad and Tobago - Tabago,2006-05-10,
Mimus gilvus,Animalia,THRASHERS_MIMIDAE,Tropical Mockingbird,,1,-60.53405274,11.3007218,South America,Trinidad and Tobago,TT,,Trinidad and Tobago - Tabago,2006-05-10,
Tyrannus melancholicus,Animalia,TYRANT_FLYCATCHERS_TYRANNIDAE,Tropical Kingbird,,1,-60.53405274,11.3007218,South America,Trinidad and Tobago,TT,,Trinidad and Tobago - Tabago,2006-05-10,
Leptotila verreauxi,Animalia,PIGEONS_AND_DOVES_COLUMBIDAE,White-tipped Dove,,1,-60.53405274,11.3007218,South America,Trinidad and Tobago,TT,,Trinidad and Tobago - Tabago,2006-05-10,
Patagioenas cayennensis,Animalia,PIGEONS_AND_DOVES_COLUMBIDAE,Pale-vented Pigeon,,1,-60.53405274,11.3007218,South America,Trinidad and Tobago,TT,,Trinidad and Tobago - Tabago,2006-05-10,
Nyctanassa violacea,Animalia,HERONS_ARDEIDAE,Yellow-crowned Night Heron,,1,-60.53405274,11.3007218,South America,Trinidad and Tobago,TT,,Trinidad and Tobago - Tabago,2006-05-10,
Tiaris bicolor,Animalia,TANAGERS_AND_ALLIES_THRAUPIDAE,Black-faced Grassquit,,1,-60.8301079,11.1620872,South America,Trinidad and Tobago,TT,,Trinidad and Tobago - Tabago,2015-04-16,
Thalasseus acuflavidus,Animalia,GULLS_TERNS_AND_SKIMMERS_LARIDAE,Cabot's Tern,,1,-60.8301079,11.1620872,South America,Trinidad and Tobago,TT,,Trinidad and Tobago - Tabago,2015-04-18,
Ramphastos vitellinus,Animalia,TOUCANS_BARBETS_RAMPHASTIDAE,Channel-billed Toucan,,1,-61.307148,10.721022,South America,Trinidad and Tobago,TT,,Trinidad and Tobago,2015-04-21,
Progne dominicensis,Animalia,SWALLOWS_HIRUNDINIDAE,Caribbean Martin,,1,-60.784198,11.201714,South America,Trinidad and Tobago,TT,,Trinidad and Tobago - Tabago,2015-04-16,
Pelecanus occidentalis,Animalia,PELICANS_PELECANIDAE,Brown Pelican,,1,-60.8301079,11.1620872,South America,Trinidad and Tobago,TT,,Trinidad and Tobago - Tabago,2015-04-18,
Nyctanassa violacea,Animalia,HERONS_ARDEIDAE,Yellow-crowned Night Heron,,1,-60.8301079,11.1620872,South America,Trinidad and Tobago,TT,,Trinidad and Tobago - Tabago,2015-04-18,
Momotus bahamensis,Animalia,MOTMOTS_MOMOTIDAE,Trinidad Motmot,,1,-60.784198,11.201714,South America,Trinidad and Tobago,TT,,Trinidad and Tobago - Tabago,2015-04-16,
Milvago chimachima,Animalia,CARACAS_AND_FALCONS_FALCONIDAE,Yellow-headed Caracara,,1,-61.395556,10.662161,South America,Trinidad and Tobago,TT,,Trinidad and Tobago,2015-04-13,
Leucophaeus atricilla,Animalia,GULLS_TERNS_AND_SKIMMERS_LARIDAE,Laughing Gull,,1,-60.7654506,11.2269457,South America,Trinidad and Tobago,TT,,Trinidad and Tobago - Tabago,2015-04-16,
Leptotila verreauxi,Animalia,PIGEONS_AND_DOVES_COLUMBIDAE,White-tipped Dove,,1,-60.784198,11.201714,South America,Trinidad and Tobago,TT,,Trinidad and Tobago - Tabago,2015-04-16,
Jacana jacana,Animalia,JACANAS_JACANIDAE,Wattled Jacana,,1,-60.8301079,11.1620872,South America,Trinidad and Tobago,TT,,Trinidad and Tobago - Tabago,2015-04-18,
Gallinula galeata,Animalia,RAILS_RALLIDAE,Common Gallinule,,1,-60.7654506,11.2269457,South America,Trinidad and Tobago,TT,,Trinidad and Tobago - Tabago,2015-04-16,
Galbula ruficauda,Animalia,JACAMARS_GALBULIDAE,Rufous-tailed Jacamar,,1,-60.784198,11.201714,South America,Trinidad and Tobago,TT,,Trinidad and Tobago - Tabago,2015-04-16,
Eudocimus ruber,Animalia,IBISSES_AND_SPOONBILLS_THRESKIORNITHIDAE,Scarlet Ibis,,1,-61.455595,10.588622,South America,Trinidad and Tobago,TT,,Trinidad and Tobago,2015-04-20,
Egretta tricolor,Animalia,HERONS_ARDEIDAE,Tricolored Heron,,1,-60.8301079,11.1620872,South America,Trinidad and Tobago,TT,,Trinidad and Tobago - Tabago,2015-04-18,
Egretta thula,Animalia,HERONS_ARDEIDAE,Snowy Egret,,1,-60.8301079,11.1620872,South America,Trinidad and Tobago,TT,,Trinidad and Tobago - Tabago,2015-04-18,
Egretta caerulea,Animalia,HERONS_ARDEIDAE,Little Blue Heron,,1,-61.455595,10.588622,South America,Trinidad and Tobago,TT,,Trinidad and Tobago,2015-04-20,
Cyanerpes caeruleus,Animalia,TANAGERS_AND_ALLIES_THRAUPIDAE,Purple Honeycreeper,,1,-61.307148,10.721022,South America,Trinidad and Tobago,TT,,Trinidad and Tobago,2015-04-21,
Butorides virescens,Animalia,HERONS_ARDEIDAE,Green Heron,,1,-60.8301079,11.1620872,South America,Trinidad and Tobago,TT,,Trinidad and Tobago - Tabago,2015-04-18,
Ardea alba,Animalia,HERONS_ARDEIDAE,Great Egret,,1,-61.455595,10.588622,South America,Trinidad and Tobago,TT,,Trinidad and Tobago,2015-04-20,
Eudocimus ruber,Animalia,IBISSES_AND_SPOONBILLS_THRESKIORNITHIDAE,Scarlet Ibis,,200,-61.45393953,10.59774271,South America,Trinidad and Tobago,TT,,Trinidad and Tobago,2010-02-25,
Chelonia mydas,Animalia,Cheloniidae,Green Turtle,,1,-60.63021967915526,11.2524834823,South America,Trinidad and Tobago,TT,,Trinidad and Tobago - Tabago,2008-07-11,
Chelonia mydas,Animalia,Cheloniidae,Green Turtle,,1,-60.63021967915526,11.2524834823,South America,Trinidad and Tobago,TT,,Trinidad and Tobago - Tabago,2008-07-13,
Thraupis episcopus nesophila,Animalia,TANAGERS_AND_ALLIES_THRAUPIDAE,Blue-grey Tanager ssp nesophila,,1,-60.63021967915526,11.2524834823,South America,Trinidad and Tobago,TT,,Trinidad and Tobago - Tabago,2008-07-15,
Florisuga mellivora,Animalia,HUMMINGBIRDS_TROCHILIDAE,White-necked Jacobin,,1,-60.63021967915526,11.2524834823,South America,Trinidad and Tobago,TT,,Trinidad and Tobago - Tabago,2008-07-07,
Momotus bahamensis,Animalia,MOTMOTS_MOMOTIDAE,Trinidad Motmot,,2,-60.63021967915526,11.2524834823,South America,Trinidad and Tobago,TT,,Trinidad and Tobago - Tabago,2008-07-05,
Amazona amazonica,Animalia,PARROTS_PSITTACIDAE,Orange-winged Amazon,,3,-60.63021967915526,11.2524834823,South America,Trinidad and Tobago,TT,,Trinidad and Tobago - Tabago,2008-07-05,
Coereba flaveola luteola,Animalia,TANAGERS_AND_ALLIES_THRAUPIDAE,Bananaquit ssp luteola,,5,-60.63021967915526,11.2524834823,South America,Trinidad and Tobago,TT,,Trinidad and Tobago - Tabago,2008-07-04,
Nyctanassa violacea cayennensis,Animalia,HERONS_ARDEIDAE,Yellow-crowned Night Heron ssp cayennensis,,1,-60.63021967915526,11.2524834823,South America,Trinidad and Tobago,TT,,Trinidad and Tobago - Tabago,2008-07-04,
Onychoprion anaethetus,Animalia,GULLS_TERNS_AND_SKIMMERS_LARIDAE,Bridled Tern,,10,-60.5118255616,11.2991417933,South America,Trinidad and Tobago,TT,,Trinidad and Tobago - Tabago,2009-07-09,
Paroaria nigrogenis,Animalia,TANAGERS_AND_ALLIES_THRAUPIDAE,Masked Cardinal,,1,-61.4244632721,10.6077354189,South America,Trinidad and Tobago,TT,,Trinidad and Tobago,2009-07-10,
Hydropsalis cayennensis,Animalia,NIGHTJARS_CAPRIMULGIDAE,White-tailed Nightjar,,1,-60.534324646,11.2935677116,South America,Trinidad and Tobago,TT,,Trinidad and Tobago,2009-07-10,
Ardea alba egretta,Animalia,HERONS_ARDEIDAE,American Great Egret,,3,-60.8306007386,11.1627377739,South America,Trinidad and Tobago,TT,,Trinidad and Tobago - Tabago,2009-07-10,
Hydropsalis cayennensis,Animalia,NIGHTJARS_CAPRIMULGIDAE,White-tailed Nightjar,,1,-60.5352573395,11.2933342057,South America,Trinidad and Tobago,TT,,Trinidad and Tobago - Tabago,2009-07-10,
Eudocimus ruber,Animalia,IBISSES_AND_SPOONBILLS_THRESKIORNITHIDAE,Scarlet Ibis,,1001,-61.2918019295,10.6801658117,South America,Trinidad and Tobago,TT,,Trinidad and Tobago,2012-09-29,
Ramphastos vitellinus,Animalia,TOUCANS_BARBETS_RAMPHASTIDAE,Channel-billed Toucan,,1,-61.2918019295,10.6801658117,South America,Trinidad and Tobago,TT,,Trinidad and Tobago,2012-09-29,
Trogon viridis,Animalia,TROGONS_TROGONIDAE,Green-backed Trogon,,1,-61.2918019295,10.6801658117,South America,Trinidad and Tobago,TT,,Trinidad and Tobago,2012-09-29,
Cyanerpes caeruleus,Animalia,TANAGERS_AND_ALLIES_THRAUPIDAE,Purple Honeycreeper,,1,-61.31616662568926,10.4297319466,South America,Trinidad and Tobago,TT,,Trinidad and Tobago - Trinidad,2012-09-29,
Egretta tricolor,Animalia,HERONS_ARDEIDAE,Tricolored Heron,,1,-60.8299326892,11.1608904172,South America,Trinidad and Tobago,TT,,Trinidad and Tobago - Tabago,2015-08-09,
Anas bahamensis,Animalia,DUCKS_GEESE_AND_SWANS_ANATIDAE,White-cheeked Pintail,,2,-60.8302116395,11.1621429998,South America,Trinidad and Tobago,TT,,Trinidad and Tobago - Tabago,2015-08-09,
Chloroceryle americana,Animalia,KINGFISHERS_ALCEDINIDAE,Green Kingfisher,,1,-60.7276082043,11.2272414229,South America,Trinidad and Tobago,TT,,Trinidad and Tobago - Tabago,2015-08-08,
Thalasseus acuflavidus,Animalia,GULLS_TERNS_AND_SKIMMERS_LARIDAE,Cabot's Tern,,1,-60.840647221,11.1706404197,South America,Trinidad and Tobago,TT,,Trinidad and Tobago - Tabago,2015-08-07,
Momotus bahamensis,Animalia,MOTMOTS_MOMOTIDAE,Trinidad Motmot,,1,-60.7653093339,11.2211682388,South America,Trinidad and Tobago,TT,,Trinidad and Tobago - Tabago,2015-08-06,
Egretta caerulea,Animalia,HERONS_ARDEIDAE,Little Blue Heron,,1,-60.6493520728,11.2355696128,South America,Trinidad and Tobago,TT,,Trinidad and Tobago - Tabago,2015-08-05,
Actitis macularius,Animalia,SANDPIPERS_AND_ALLIES_SCOLOPACIDAE,Spotted Sandpiper,,1,-60.6495451918,11.2369165807,South America,Trinidad and Tobago,TT,,Trinidad and Tobago - Tabago,2015-08-05,
Chloroceryle americana,Animalia,KINGFISHERS_ALCEDINIDAE,Green Kingfisher,,1,-60.6503820411,11.2380109875,South America,Trinidad and Tobago,TT,,Trinidad and Tobago - Tabago,2015-08-05,
Tyrannus dominicensis,Animalia,TYRANT_FLYCATCHERS_TYRANNIDAE,Grey Kingbird,,2,-60.7762634759,11.1717445502,South America,Trinidad and Tobago,TT,,Trinidad and Tobago - Tabago,2015-07-28,
Volatinia jacarina,Animalia,TANAGERS_AND_ALLIES_THRAUPIDAE,Blue-black Grassquit,,1,-60.7762634759,11.1717445502,South America,Trinidad and Tobago,TT,,Trinidad and Tobago - Tabago,2015-08-03,
Ardea herodias,Animalia,HERONS_ARDEIDAE,Great Blue Heron,,1,-60.7873713979,11.1521716609,South America,Trinidad and Tobago,TT,,Trinidad and Tobago - Tabago,2015-08-03,
Butorides virescens,Animalia,HERONS_ARDEIDAE,Green Heron,,1,-60.7873713979,11.1521716609,South America,Trinidad and Tobago,TT,,Trinidad and Tobago - Tabago,2015-08-03,
Egretta thula,Animalia,HERONS_ARDEIDAE,Snowy Egret,,1,-60.7873713979,11.1521716609,South America,Trinidad and Tobago,TT,,Trinidad and Tobago - Tabago,2015-08-03,
Anhinga anhinga,Animalia,ANHINGAS_ANHINGIDAE,Anhinga,,1,-60.7873713979,11.1521716609,South America,Trinidad and Tobago,TT,,Trinidad and Tobago - Tabago,2015-08-03,
Nyctanassa violacea,Animalia,HERONS_ARDEIDAE,Yellow-crowned Night Heron,,1,-60.783473253,11.1464084858,South America,Trinidad and Tobago,TT,,Trinidad and Tobago - Tabago,2015-08-03,
Jacana jacana,Animalia,JACANAS_JACANIDAE,Wattled Jacana,,1,-60.787607431,11.1446452998,South America,Trinidad and Tobago,TT,,Trinidad and Tobago - Tabago,2015-08-03,
Dendrocygna autumnalis,Animalia,DUCKS_GEESE_AND_SWANS_ANATIDAE,Black-bellied Whistling Duck,,1,-60.787607431,11.1446452998,South America,Trinidad and Tobago,TT,,Trinidad and Tobago - Tabago,2015-08-03,
Tachybaptus dominicus,Animalia,GREBES_PODICIPEDIDAE,Least Grebe,,1,-60.787607431,11.1446452998,South America,Trinidad and Tobago,TT,,Trinidad and Tobago - Tabago,2015-08-03,
Gallinula galeata,Animalia,RAILS_RALLIDAE,Common Gallinule,,1,-60.787607431,11.1446452998,South America,Trinidad and Tobago,TT,,Trinidad and Tobago - Tabago,2015-08-03,
Phaethon aethereus,Animalia,TROPICBIRDS_PHAETHONTIDAE,Red-billed Tropicbird,,1,-60.5024957658,11.3019697306,South America,Trinidad and Tobago,TT,,Trinidad and Tobago - Tabago,2015-08-02,
Momotus bahamensis,Animalia,MOTMOTS_MOMOTIDAE,Trinidad Motmot,,1,-60.504705906,11.3004905052,South America,Trinidad and Tobago,TT,,Trinidad and Tobago - Tabago,2015-08-02,
Anartia amathea,Animalia,BRUSHFOOTED_BUTTERFLIES_NYMPHALIDAE,Red Peacock,,1,-60.7654434444,11.2270842719,South America,Trinidad and Tobago,TT,,Trinidad and Tobago - Tabago,2015-08-01,
Momotus bahamensis,Animalia,MOTMOTS_MOMOTIDAE,Trinidad Motmot,,1,-60.7652556897,11.2270156936,South America,Trinidad and Tobago,TT,,Trinidad and Tobago - Tabago,2015-08-01,
Tachyphonus rufus,Animalia,TANAGERS_AND_ALLIES_THRAUPIDAE,White-lined Tanager,,1,-60.7652556897,11.2270156936,South America,Trinidad and Tobago,TT,,Trinidad and Tobago - Tabago,2015-08-01,
Egretta caerulea,Animalia,HERONS_ARDEIDAE,Little Blue Heron,,1,-60.7664555312,11.2270227971,South America,Trinidad and Tobago,TT,,Trinidad and Tobago - Tabago,2015-08-01,
Galbula ruficauda,Animalia,JACAMARS_GALBULIDAE,Rufous-tailed Jacamar,,1,-60.7658278943,11.2266044867,South America,Trinidad and Tobago,TT,,Trinidad and Tobago - Tabago,2015-08-01,
Nyctanassa violacea,Animalia,HERONS_ARDEIDAE,Yellow-crowned Night Heron,,2,-60.841369629,11.1683806578,South America,Trinidad and Tobago,TT,,Trinidad and Tobago - Tabago,2015-07-31,
Leucophaeus atricilla,Animalia,GULLS_TERNS_AND_SKIMMERS_LARIDAE,Laughing Gull,,10,-60.6961011889,11.2817382558,South America,Trinidad and Tobago,TT,,Trinidad and Tobago - Tabago,2015-07-30,
Vanellus chilensis,Animalia,PLOVERS_CHARADRIIDAE,Southern Lapwing,,3,-60.8405828474,11.1689640419,South America,Trinidad and Tobago,TT,,Trinidad and Tobago - Tabago,2015-07-29,
Pelecanus occidentalis,Animalia,PELICANS_PELECANIDAE,Brown Pelican,,1,-60.8370208758,11.1722824045,South America,Trinidad and Tobago,TT,,Trinidad and Tobago - Tabago,2015-07-29,
Tachycineta albiventer,Animalia,SWALLOWS_HIRUNDINIDAE,White-winged Swallow,,1,-60.8370208758,11.1722824045,South America,Trinidad and Tobago,TT,,Trinidad and Tobago - Tabago,2015-07-29,
Bubulcus ibis,Animalia,HERONS_ARDEIDAE,Western Cattle Egret,,2,-60.7763743401,11.1718637519,South America,Trinidad and Tobago,TT,,Trinidad and Tobago - Tabago,2015-07-29,
Thraupis palmarum,Animalia,TANAGERS_AND_ALLIES_THRAUPIDAE,Palm Tanager,,1,-60.7762742047,11.1717350773,South America,Trinidad and Tobago,TT,,Trinidad and Tobago - Tabago,2015-07-28,
Leptotila verreauxi,Animalia,PIGEONS_AND_DOVES_COLUMBIDAE,White-tipped Dove,,1,-60.7762742047,11.1717350773,South America,Trinidad and Tobago,TT,,Trinidad and Tobago - Tabago,2015-07-28,
Tiaris bicolor,Animalia,TANAGERS_AND_ALLIES_THRAUPIDAE,Black-faced Grassquit,,1,-60.7762742047,11.1717350773,South America,Trinidad and Tobago,TT,,Trinidad and Tobago - Tabago,2015-07-28,
Coereba flaveola,Animalia,TANAGERS_AND_ALLIES_THRAUPIDAE,Bananaquit,,1,-60.7762742047,11.1717350773,South America,Trinidad and Tobago,TT,,Trinidad and Tobago - Tabago,2015-07-28,
Progne dominicensis,Animalia,SWALLOWS_HIRUNDINIDAE,Caribbean Martin,,1,-60.7762742047,11.1717350773,South America,Trinidad and Tobago,TT,,Trinidad and Tobago - Tabago,2015-07-28,
