scientificName,kingdom,family,vernacularName,previousIdentifications,individualCount,longitudeDecimal,latitudeDecimal,continent,country,countryCode,stateProvince,locality,eventDate,eventTime
Lanius excubitor algeriensis,Animalia,SHRIKES_LANIIDAE,Dark Desert Grey Shrike,,1,10.6292442977,35.843490327,Africa,Tunisia,TN,,Tunisia - Sousse,2014-10-17,
Utetheisa pulchella,Animalia,EREBIDAE,Crimson Speckled,,1,10.973575227,33.8628520537,Africa,Tunisia,TN,,Tunisia - Djerba,2010-10-27,15:40
Phoenicopterus roseus,Animalia,FLAMINGOS_PHOENICOPTERIDAE,Greater Flamingo,,1,10.9373509884,33.896636328,Africa,Tunisia,TN,,Tunisia - Djerba - Ras Rmel,2014-11-13,11:30
Saxicola rubicola,Animalia,OLD_WORLD_FLYCATCHERS_MUSCICAPIDAE,European Stonechat,,5,10.8964955807,33.8789661504,Africa,Tunisia,TN,,Tunisia - Djerba - Ras Rmel,2014-11-12,11:00
Pluvialis squatarola,Animalia,PLOVERS_CHARADRIIDAE,Grey Plover,,3,10.8964955807,33.8789661504,Africa,Tunisia,TN,,Tunisia - Djerba - Ras Rmel,2014-11-12,11:00
Circus aeruginosus,Animalia,HAWKS_AND_EAGLES_ACCIPITRIDAE,Western Marsh Harrier,,1,10.8964955807,33.8789661504,Africa,Tunisia,TN,,Tunisia - Djerba - Ras Rmel,2014-11-12,11:00
Tringa nebularia,Animalia,SANDPIPERS_AND_ALLIES_SCOLOPACIDAE,Common Greenshank,,1,10.9064519405,33.8766858609,Africa,Tunisia,TN,,Tunisia - Djerba - Ras Rmel,2014-11-12,11:00
Calidris alpina,Animalia,SANDPIPERS_AND_ALLIES_SCOLOPACIDAE,Dunlin,,30,10.9040486813,33.8766858609,Africa,Tunisia,TN,,Tunisia - Djerba - Ras Rmel,2014-11-12,11:00
Anthus pratensis,Animalia,PIPITS_EN_WAGTAILS_MOTACILLIDAE,Meadow Pipit,,5,10.9040486813,33.8766858609,Africa,Tunisia,TN,,Tunisia - Djerba - Ras Rmel,2014-11-12,11:00
Phoenicopterus roseus,Animalia,FLAMINGOS_PHOENICOPTERIDAE,Greater Flamingo,,100,10.9229314327,33.8849516205,Africa,Tunisia,TN,,Tunisia - Djerba - Ras Rmel,2014-11-12,11:00
Charadrius alexandrinus,Animalia,PLOVERS_CHARADRIIDAE,Kentish Plover,,10,10.900799688,33.8798200065,Africa,Tunisia,TN,,Tunisia - Djerba - Ras Rmel,2014-11-12,10:00
Ardea alba,Animalia,HERONS_ARDEIDAE,Great Egret,,1,10.900799688,33.8798200065,Africa,Tunisia,TN,,Tunisia - Djerba - Ras Rmel,2014-11-12,10:00
Hydroprogne caspia,Animalia,GULLS_TERNS_AND_SKIMMERS_LARIDAE,Caspian Tern,,5,10.900799688,33.8798200065,Africa,Tunisia,TN,,Tunisia - Djerba - Ras Rmel,2014-11-12,11:00
Saxicola rubicola,Animalia,OLD_WORLD_FLYCATCHERS_MUSCICAPIDAE,European Stonechat,,1,10.973240789,33.892075396,Africa,Tunisia,TN,,Tunisia - Djerba,2014-11-11,15:30
Charadrius alexandrinus,Animalia,PLOVERS_CHARADRIIDAE,Kentish Plover,,20,10.9387368523,33.8738341765,Africa,Tunisia,TN,,Tunisia - Djerba - Ras Rmel,2014-11-10,
Phylloscopus collybita,Animalia,LEAF_WARBLERS_AND_ALLIES_PHYLLOSCOPIDAE,Common Chiffchaff,,1,10.9737986885,33.8613267124,Africa,Tunisia,TN,,Tunisia - Djerba,2014-10-28,
Phylloscopus collybita collybita,Animalia,LEAF_WARBLERS_AND_ALLIES_PHYLLOSCOPIDAE,Common Chiffchaff ssp collybita,,1,10.9737986885,33.8613267124,Africa,Tunisia,TN,,Tunisia - Djerba,2014-10-28,
Sturnus unicolor,Animalia,STARLINGS_STURNIDAE,Spotless Starling,,8,10.9735715389,33.8626821224,Africa,Tunisia,TN,,Tunisia - Djerba,2014-11-10,08:00
Phoenicopterus roseus,Animalia,FLAMINGOS_PHOENICOPTERIDAE,Greater Flamingo,,30,10.9088551998,33.8818164266,Africa,Tunisia,TN,,Tunisia - Djerba - Ras Rmel,2014-11-08,10:30
Ardea alba,Animalia,HERONS_ARDEIDAE,Great Egret,,1,10.9088551998,33.8818164266,Africa,Tunisia,TN,,Tunisia - Djerba - Ras Rmel,2014-11-08,10:30
Sylvia melanocephala,Animalia,OLD_WORLD_WARBLERS_SYLVIIDAE,Sardinian Warbler,,1,10.9738095856,33.8613286999,Africa,Tunisia,TN,,Tunisia - Djerba,2014-11-07,16:30
Lanius excubitor elegans,Animalia,SHRIKES_LANIIDAE,Desert Grey Shrike,,2,10.97833179,33.8622017875,Africa,Tunisia,TN,,Tunisia - Djerba,2014-11-07,14:30
Sylvia melanocephala,Animalia,OLD_WORLD_WARBLERS_SYLVIIDAE,Sardinian Warbler,,1,10.9737986884,33.8613222579,Africa,Tunisia,TN,,Tunisia - Djerba,2014-11-06,08:00
Lanius excubitor elegans,Animalia,SHRIKES_LANIIDAE,Desert Grey Shrike,,3,10.9798140455,33.8616676747,Africa,Tunisia,TN,,Tunisia - Djerba,2014-11-04,
Lanius excubitor elegans,Animalia,SHRIKES_LANIIDAE,Desert Grey Shrike,,1,10.9738058973,33.8613469477,Africa,Tunisia,TN,,Tunisia - Djerba,2014-10-31,
Anthus pratensis,Animalia,PIPITS_EN_WAGTAILS_MOTACILLIDAE,Meadow Pipit,,1,10.973789804,33.8631599304,Africa,Tunisia,TN,,Tunisia - Djerba,2014-10-27,15:30
Passer hispaniolensis,Animalia,OLD_WORLD_SPARROWS_PASSERIDAE,Spanish Sparrow,,1,10.9738032151,33.8613424931,Africa,Tunisia,TN,,Tunisia - Djerba,2014-10-31,15:30
Lanius excubitor elegans,Animalia,SHRIKES_LANIIDAE,Desert Grey Shrike,,1,10.9743369747,33.8631510215,Africa,Tunisia,TN,,Tunisia - Djerba,2014-10-27,15:50
Sturnus unicolor,Animalia,STARLINGS_STURNIDAE,Spotless Starling,,6,10.9804990143,33.8612351537,Africa,Tunisia,TN,,Tunisia - Djerba,2014-11-04,
Saxicola rubicola,Animalia,OLD_WORLD_FLYCATCHERS_MUSCICAPIDAE,European Stonechat,,1,10.9669592232,33.8621795144,Africa,Tunisia,TN,,Tunisia - Djerba,2014-11-01,
Saxicola rubicola,Animalia,OLD_WORLD_FLYCATCHERS_MUSCICAPIDAE,European Stonechat,,1,10.9669592232,33.8621795144,Africa,Tunisia,TN,,Tunisia - Djerba,2014-11-01,
Sylvia melanocephala,Animalia,OLD_WORLD_WARBLERS_SYLVIIDAE,Sardinian Warbler,,1,10.9738256782,33.8613955176,Africa,Tunisia,TN,,Tunisia - Djerba,2014-10-31,14:45
Hydroprogne caspia,Animalia,GULLS_TERNS_AND_SKIMMERS_LARIDAE,Caspian Tern,,1,10.9739115089,33.8653911535,Africa,Tunisia,TN,,Tunisia - Djerba,2014-10-31,
Sylvia melanocephala,Animalia,OLD_WORLD_WARBLERS_SYLVIIDAE,Sardinian Warbler,,1,10.9738094173,33.8613821918,Africa,Tunisia,TN,,Tunisia - Djerba,2014-10-29,
Sturnus unicolor,Animalia,STARLINGS_STURNIDAE,Spotless Starling,,7,10.9714579792,33.8609804938,Africa,Tunisia,TN,,Tunisia - Djerba,2014-10-28,
Phoenicopterus roseus,Animalia,FLAMINGOS_PHOENICOPTERIDAE,Greater Flamingo,,1,10.2544820413,36.8137068276,Africa,Tunisia,TN,,Tunisia - Tunis,1979-10-05,
Sturnus unicolor,Animalia,STARLINGS_STURNIDAE,Spotless Starling,,1,10.5988374789348,35.8941597639525,Africa,Tunisia,TN,,Tunisia - Sousse,2014-08-16,17:49
Streptopelia decaocto,Animalia,PIGEONS_AND_DOVES_COLUMBIDAE,Eurasian Collared Dove,,25,10.61,35.85,Africa,Tunisia,TN,,Tunisia - Sousse,2014-07-13,06:19
Sturnus unicolor,Animalia,STARLINGS_STURNIDAE,Spotless Starling,,2,10.61,35.85,Africa,Tunisia,TN,,Tunisia - Sousse,2014-07-13,06:37
Sturnus unicolor,Animalia,STARLINGS_STURNIDAE,Spotless Starling,,10,10.61,35.85,Africa,Tunisia,TN,,Tunisia - Sousse,2014-07-14,06:22
Danaus chrysippus,Animalia,BRUSHFOOTED_BUTTERFLIES_NYMPHALIDAE,African Monarch,,2,10.61,35.85,Africa,Tunisia,TN,,Tunisia - Sousse,2014-07-16,07:03
Passer hispaniolensis,Animalia,OLD_WORLD_SPARROWS_PASSERIDAE,Spanish Sparrow,,25,10.6165258,35.85910033,Africa,Tunisia,TN,,Tunisia - Sousse,2014-07-16,07:46
Lanius excubitor elegans,Animalia,SHRIKES_LANIIDAE,Desert Grey Shrike,,1,9.45,34.45,Africa,Tunisia,TN,,Tunisia - Bou Hedma NP,2014-07-19,12:05
Streptopelia decaocto,Animalia,PIGEONS_AND_DOVES_COLUMBIDAE,Eurasian Collared Dove,,2,10.61,35.85,Africa,Tunisia,TN,,Tunisia - Sousse,2014-07-25,07:16
Danaus chrysippus,Animalia,BRUSHFOOTED_BUTTERFLIES_NYMPHALIDAE,African Monarch,,1,10.61749158,35.85974635,Africa,Tunisia,TN,,Tunisia - Sousse,2014-07-28,10:55
Streptopelia decaocto,Animalia,PIGEONS_AND_DOVES_COLUMBIDAE,Eurasian Collared Dove,,2,10.61,35.85,Africa,Tunisia,TN,,Tunisia - Sousse,2014-07-29,05:35
Sturnus unicolor,Animalia,STARLINGS_STURNIDAE,Spotless Starling,,10,10.61,35.85,Africa,Tunisia,TN,,Tunisia - Sousse,2014-07-29,05:44
Trithemis annulata,Animalia,SKIMMERS_LIBELLULIDAE,Violet Dropwing,,1,10.6175963,35.859931,Africa,Tunisia,TN,,Tunisia - Sousse,2014-07-29,14:03
Emberiza sahari sahari,Animalia,BUNTINGS_EMBERIZIDAE,House Bunting ssp sahari,,1,10.8279418387,35.3565015528,Africa,Tunisia,TN,,Tunisia - Mahdia,1990-11-17,
Cyanistes teneriffae,Animalia,TITS_PARIDAE,African Blue Tit,,1,9.85359190498,37.1268191916,Africa,Tunisia,TN,,Tunisia - Lac de Bizerte,1990-11-12,
Lanius excubitor algeriensis,Animalia,SHRIKES_LANIIDAE,Dark Desert Grey Shrike,,1,9.85359190498,37.1268191916,Africa,Tunisia,TN,,Tunisia - Lac de Bizerte,1990-11-10,
Lanius excubitor,Animalia,SHRIKES_LANIIDAE,Great Grey Shrike,,1,10.897160508370831,33.7877443095,Africa,Tunisia,TN,,Tunisia - Djerba,2004-11-22,
Phoenix dactylifera,Plantae,Arecaceae,Date Palm,,1,10.2541351249,36.8042359714,Africa,Tunisia,TN,,Tunisia - Tunis,1982-10-10,
Lanius excubitor algeriensis,Animalia,SHRIKES_LANIIDAE,Dark Desert Grey Shrike,,1,10.613590297306713,36.399729881372394,Africa,Tunisia,TN,,Tunisia - Hammamet,2007-02-24,
Porphyrio porphyrio,Animalia,RAILS_RALLIDAE,Western Swamphen,,1,10.6,36.35,Africa,Tunisia,TN,,Tunisia - Hammamet,2007-02-24,
Aquila chrysaetos,Animalia,HAWKS_AND_EAGLES_ACCIPITRIDAE,Golden Eagle,,1,9.972969961203347,33.569915342499996,Africa,Tunisia,TN,,Tunisia - Matmata area,2007-02-24,
Sylvia melanocephala,Animalia,OLD_WORLD_WARBLERS_SYLVIIDAE,Sardinian Warbler,,1,10.607396237251507,36.39498331559706,Africa,Tunisia,TN,,Tunisia - Hammamet,2007-02-20,
Fringilla coelebs spodiogenys,Animalia,FINCHES_FRINGILLIDAE,Tunisian Chaffinch,,5,10.607396237251507,36.39498331559706,Africa,Tunisia,TN,,Tunisia - Hammamet,2007-02-20,
Lanius excubitor algeriensis,Animalia,SHRIKES_LANIIDAE,Dark Desert Grey Shrike,,1,10.613590297306713,36.399729881372394,Africa,Tunisia,TN,,Tunisia - Hammamet,2007-02-20,
Spodoptera littoralis,Animalia,Noctuidae,Egyptian Cotton Leafworm,,1,10.6259223819,35.8441627113,Africa,Tunisia,TN,,Tunisia - Sousse,2013-10-26,09:32
Vanessa cardui,Animalia,BRUSHFOOTED_BUTTERFLIES_NYMPHALIDAE,Painted Lady,,5,10.626206696,35.8451302389,Africa,Tunisia,TN,,Tunisia - Sousse,2013-10-25,15:40
Utetheisa pulchella,Animalia,EREBIDAE,Crimson Speckled,,1,10.6262093782,35.8451237163,Africa,Tunisia,TN,,Tunisia - Sousse,2013-10-25,15:39
Colias crocea,Animalia,WHITES_PIERIDAE,Clouded Yellow,,1,10.6263756752,35.8448128042,Africa,Tunisia,TN,,Tunisia - Sousse,2013-10-25,14:24
Danaus chrysippus,Animalia,BRUSHFOOTED_BUTTERFLIES_NYMPHALIDAE,African Monarch,,7,10.6264185905,35.8448301979,Africa,Tunisia,TN,,Tunisia - Sousse,2013-10-25,14:15
Vanessa cardui,Animalia,BRUSHFOOTED_BUTTERFLIES_NYMPHALIDAE,Painted Lady,,25,10.6262952089,35.8448215011,Africa,Tunisia,TN,,Tunisia - Sousse,2013-10-25,14:14
Trithemis kirbyi,Animalia,SKIMMERS_LIBELLULIDAE,Orange-winged Dropwing,,1,10.6248146296,35.8456607435,Africa,Tunisia,TN,,Tunisia - Sousse,2013-10-24,16:47
Spoladea recurvalis,Animalia,Crambidae,,,10,10.6243747473,35.8453346141,Africa,Tunisia,TN,,Tunisia - Sousse,2013-10-24,16:44
Streptopelia decaocto,Animalia,PIGEONS_AND_DOVES_COLUMBIDAE,Eurasian Collared Dove,,1,10.6245142221,35.8454563692,Africa,Tunisia,TN,,Tunisia - Sousse,2013-10-24,16:38
Motacilla alba,Animalia,PIPITS_EN_WAGTAILS_MOTACILLIDAE,White Wagtail,,1,10.6242191792,35.8453085237,Africa,Tunisia,TN,,Tunisia - Sousse,2013-10-24,16:38
Trithemis kirbyi,Animalia,SKIMMERS_LIBELLULIDAE,Orange-winged Dropwing,,9,10.5944305658,35.8927440958,Africa,Tunisia,TN,,Tunisia - Sousse,2013-10-24,15:23
Trithemis annulata,Animalia,SKIMMERS_LIBELLULIDAE,Violet Dropwing,,3,10.594419837,35.892804937,Africa,Tunisia,TN,,Tunisia - Sousse,2013-10-24,15:21
Sturnus unicolor,Animalia,STARLINGS_STURNIDAE,Spotless Starling,,1,10.5996716022,35.8935306817,Africa,Tunisia,TN,,Tunisia - Sousse,2013-10-24,13:21
Utetheisa pulchella,Animalia,EREBIDAE,Crimson Speckled,,1,10.5985075235,35.893287319,Africa,Tunisia,TN,,Tunisia - Sousse,2013-10-24,12:52
Sturnus unicolor,Animalia,STARLINGS_STURNIDAE,Spotless Starling,,20,10.5110728741,36.0312580272,Africa,Tunisia,TN,,Tunisia - Hergla,2013-10-22,08:52
Lanius excubitor algeriensis,Animalia,SHRIKES_LANIIDAE,Dark Desert Grey Shrike,,1,10.391481564462499,35.91795349121102,Africa,Tunisia,TN,,Tunisia - Sousse,2010-11-27,
Muscicapa striata,Animalia,OLD_WORLD_FLYCATCHERS_MUSCICAPIDAE,Spotted Flycatcher,,1,11.118968725204,33.499319649822,Africa,Tunisia,TN,,Tunisia - Zarzis,2013-05-08,
Upupa epops,Animalia,HOOPOES_UPUPIDAE,Eurasian Hoopoe,,2,11.115819811821,33.501896259518,Africa,Tunisia,TN,,Tunisia - Zarzis,2013-05-10,
Lanius excubitor algeriensis,Animalia,SHRIKES_LANIIDAE,Dark Desert Grey Shrike,,1,11.1131429672,33.4841447261,Africa,Tunisia,TN,,Tunisia - Zarzis,2013-06-05,
Thalasseus sandvicensis,Animalia,GULLS_TERNS_AND_SKIMMERS_LARIDAE,Sandwich Tern,,1,12.601719349623,35.498063261606,Africa,Tunisia,TN,,Tunisia / Tunesie,2012-01-01,16:09
Lanius excubitor,Animalia,SHRIKES_LANIIDAE,Great Grey Shrike,,1,10.732151269913,35.762815619083,Africa,Tunisia,TN,,Tunisia / Tunesie,1986-06-19,
Galerida theklae,Animalia,LARKS_ALAUDIDAE,Thekla's Lark,,1,10.127,33.466,Africa,Tunisia,TN,,Tunisia / Tunesie,2009-11-19,
Galerida cristata,Animalia,LARKS_ALAUDIDAE,Crested Lark,,1,11.237,33.148,Africa,Tunisia,TN,,Tunisia / Tunesie,2009-11-18,
Galerida cristata,Animalia,LARKS_ALAUDIDAE,Crested Lark,,1,11.237,33.148,Africa,Tunisia,TN,,Tunisia / Tunesie,2009-11-18,
Galerida cristata,Animalia,LARKS_ALAUDIDAE,Crested Lark,,1,11.237,33.148,Africa,Tunisia,TN,,Tunisia / Tunesie,2009-11-18,
Galerida cristata,Animalia,LARKS_ALAUDIDAE,Crested Lark,,1,11.237,33.148,Africa,Tunisia,TN,,Tunisia / Tunesie,2009-11-18,
Galerida cristata,Animalia,LARKS_ALAUDIDAE,Crested Lark,,1,11.237,33.148,Africa,Tunisia,TN,,Tunisia / Tunesie,2009-11-18,
Galerida theklae,Animalia,LARKS_ALAUDIDAE,Thekla's Lark,,1,8.716,33.464,Africa,Tunisia,TN,,Tunisia / Tunesie,2009-11-12,
Galerida cristata,Animalia,LARKS_ALAUDIDAE,Crested Lark,,1,8.716,33.464,Africa,Tunisia,TN,,Tunisia / Tunesie,2009-11-12,
Galerida theklae,Animalia,LARKS_ALAUDIDAE,Thekla's Lark,,1,10.126,33.466,Africa,Tunisia,TN,,Tunisia / Tunesie,2009-11-11,
Galerida theklae,Animalia,LARKS_ALAUDIDAE,Thekla's Lark,,1,10.126,33.466,Africa,Tunisia,TN,,Tunisia / Tunesie,2009-11-11,
Galerida cristata,Animalia,LARKS_ALAUDIDAE,Crested Lark,,1,10.913,33.903,Africa,Tunisia,TN,,Tunisia - Djerba - Ras Rmel,2009-11-10,
Galerida theklae,Animalia,LARKS_ALAUDIDAE,Thekla's Lark,,1,10.486,33.348,Africa,Tunisia,TN,,Tunisia - P19 - Médenine-Foum Tataouine,2009-11-09,
Galerida theklae,Animalia,LARKS_ALAUDIDAE,Thekla's Lark,,1,10.486,33.348,Africa,Tunisia,TN,,Tunisia - P19 - Médenine-Foum Tataouine,2009-11-09,
Oenanthe halophila,Animalia,OLD_WORLD_FLYCATCHERS_MUSCICAPIDAE,,,1,7.9568481445312,34.198173096277,Africa,Tunisia,TN,,Tunisia / Tunesie,1993-01-05,
Eremophila bilopha,Animalia,LARKS_ALAUDIDAE,Temminck's Lark,,100,8.0042266845703,34.180565630834,Africa,Tunisia,TN,,Tunisia / Tunesie,1993-01-05,
Bucanetes githagineus,Animalia,FINCHES_FRINGILLIDAE,Trumpeter Finch,,4,8.6440086364746,34.481373025909,Africa,Tunisia,TN,,Tunisia / Tunesie,1993-01-04,
Sylvia sarda,Animalia,OLD_WORLD_WARBLERS_SYLVIIDAE,Marmora's Warbler,,1,7.9685211181641,34.203284252546,Africa,Tunisia,TN,,Tunisia / Tunesie,1993-01-05,
Emberiza sahari,Animalia,BUNTINGS_EMBERIZIDAE,House Bunting,,1,9.021718942354315,33.44101360599949,Africa,Tunisia,TN,,Tunisia - Douz,1993-01-03,
Alaemon alaudipes,Animalia,LARKS_ALAUDIDAE,Greater Hoopoe-Lark,,1,9.021718942354315,33.44101360599949,Africa,Tunisia,TN,,Tunisia - Douz,1993-01-03,
Plegadis falcinellus,Animalia,IBISSES_AND_SPOONBILLS_THRESKIORNITHIDAE,Glossy Ibis,,100,9.0221786499023,33.435165996326,Africa,Tunisia,TN,,Tunisia - Douz,1993-01-02,
Argya fulva,Animalia,Leiothrichidae,Fulvous Babbler,,1,9.0240669250488,33.443617518111,Africa,Tunisia,TN,,Tunisia - Douz,1993-01-02,
Sylvia deserticola,Animalia,OLD_WORLD_WARBLERS_SYLVIIDAE,Tristram's Warbler,,1,9.021718942354315,33.44101360599949,Africa,Tunisia,TN,,Tunisia - Douz,1993-01-03,
Lanius excubitor elegans,Animalia,SHRIKES_LANIIDAE,Desert Grey Shrike,,1,9.021718942354315,33.44101360599949,Africa,Tunisia,TN,,Tunisia - Douz,1993-01-02,
Chroicocephalus genei,Animalia,GULLS_TERNS_AND_SKIMMERS_LARIDAE,Slender-billed Gull,,1,10.515289306641,36.002451555546,Africa,Tunisia,TN,,Tunisia / Tunesie,1992-12-31,
Serinus serinus,Animalia,FINCHES_FRINGILLIDAE,European Serin,,1,9.66335442939895,37.151725000000056,Africa,Tunisia,TN,,Tunisia - Ichkeul NP,2000-04-27,
Cyanistes teneriffae ultramarinus,Animalia,TITS_PARIDAE,Ultramarine Blue Tit,,2,10.619337558746,36.394808516794,Africa,Tunisia,TN,,Tunisia - Hammamet,2001-04-04,
Anax parthenope,Animalia,DARNERS_AESHNIDAE,Lesser Emperor,,1,10.2950459217,36.2769081074,Africa,Tunisia,TN,,Tunisia / Tunesie,2012-09-23,
Lanius excubitor algeriensis,Animalia,SHRIKES_LANIIDAE,Dark Desert Grey Shrike,,10,10.7367324829,35.7554283693,Africa,Tunisia,TN,,Tunisia / Tunesie,1990-03-24,
Streptopelia decaocto,Animalia,PIGEONS_AND_DOVES_COLUMBIDAE,Eurasian Collared Dove,,2,10.6228834391,35.8457703193,Africa,Tunisia,TN,,Tunisia - Sousse,2012-04-03,
Sturnus unicolor,Animalia,STARLINGS_STURNIDAE,Spotless Starling,,10,10.6228834391,35.8457703193,Africa,Tunisia,TN,,Tunisia - Sousse,2012-04-03,
Lathyrus clymenum,Plantae,Fabaceae,Cicercha purpurina,,1,10.5746412278,36.4326860741,Africa,Tunisia,TN,,Tunisia - Presqu'île du Cap Bon,2009-04-03,
Anthemis tinctoria,Plantae,Asteraceae,Yellow Chamomile,,1,10.5746412278,36.4326860741,Africa,Tunisia,TN,,Tunisia - Presqu'île du Cap Bon,2009-04-03,
Pallenis maritima,Plantae,Asteraceae,,,1,10.5958199501,36.4139956742,Africa,Tunisia,TN,,Tunisia - Hammamet,2009-04-02,
Evax pygmaea,Plantae,Asteraceae,,,1,10.5958199501,36.4139956742,Africa,Tunisia,TN,,Tunisia - Hammamet,2009-04-02,
Anagallis monelli,Plantae,PRIMULACEAE,Garden Pimpernel,,1,10.5958199501,36.4139956742,Africa,Tunisia,TN,,Tunisia - Hammamet,2009-04-02,
Rosmarinus officinalis,Plantae,Lamiaceae,Rosemary,,1,8.65029305223,35.1956203676,Africa,Tunisia,TN,,Tunisia - Djebel Chambi N.P. ,2009-03-31,
Globularia alypum,Plantae,PLANTAGINACEAE,,,1,8.65029305,35.19562037,Africa,Tunisia,TN,,Tunisia - Djebel Chambi N.P. ,2009-03-31,
Nonea spec.,Plantae,BORAGINACEAE,,,1,8.78882378343,35.1685769402,Africa,Tunisia,TN,,Tunisia - P17 - Kasserine-Thélepte,2009-03-31,
Scolymus hispanicus,Plantae,Asteraceae,Golden Thistle,,1,10.6074902416,36.4208982649,Africa,Tunisia,TN,,Tunisia - Hammamet,2009-03-30,
Anthemis tinctoria,Plantae,Asteraceae,Yellow Chamomile,,1,10.6074902416,36.4208982649,Africa,Tunisia,TN,,Tunisia - Hammamet,2009-03-30,
Reseda alba,Plantae,RESEDACEAE,White Mignonette,,1,10.6074902416,36.4208982649,Africa,Tunisia,TN,,Tunisia - Hammamet,2009-03-30,
Muscari comosum,Plantae,ASPARAGACEAE,Tassel Hyacinth,,1,10.6074902416,36.4208982649,Africa,Tunisia,TN,,Tunisia - Hammamet,2009-03-30,
Sherardia arvensis,Plantae,RUBIACEAE,Field Madder,,1,10.6074902416,36.4208982649,Africa,Tunisia,TN,,Tunisia - Hammamet,2009-03-30,
Silybum marianum,Plantae,Asteraceae,Milk Thistle,,1,10.6074902416,36.4208982649,Africa,Tunisia,TN,,Tunisia - Hammamet,2009-03-30,
Smyrnium olusatrum,Plantae,Apiaceae,Alexanders,,1,10.6074902416,36.4208982649,Africa,Tunisia,TN,,Tunisia - Hammamet,2009-03-30,
Vicia faba,Plantae,Fabaceae,Field Bean,,1,10.6123691798,36.3945321595,Africa,Tunisia,TN,,Tunisia - Hammamet,2009-03-29,
Reichardia tingitana,Plantae,Asteraceae,False sowthistle,,1,10.6018683314,36.412337925,Africa,Tunisia,TN,,Tunisia - Hammamet,2009-03-29,
Anagallis monelli,Plantae,PRIMULACEAE,Garden Pimpernel,,1,10.6018683314,36.412337925,Africa,Tunisia,TN,,Tunisia - Hammamet,2009-03-29,
Quercus coccifera,Plantae,FAGACEAE,Kermes Oak,,1,10.6018683314,36.412337925,Africa,Tunisia,TN,,Tunisia - Hammamet,2009-03-29,
Juniperus communis,Plantae,CUPRESSACEAE,Juniper,,1,10.6018683314,36.412337925,Africa,Tunisia,TN,,Tunisia - Hammamet,2009-03-29,
Erodium laciniatum,Plantae,GERANIACEAE,Cutleaf stork's bill,,1,10.6018683314,36.412337925,Africa,Tunisia,TN,,Tunisia - Hammamet,2009-03-29,
Rosmarinus officinalis,Plantae,Lamiaceae,Rosemary,,1,10.6018683314,36.412337925,Africa,Tunisia,TN,,Tunisia - Hammamet,2009-03-29,
Cytinus hypocistis,Plantae,CYTINACEAE,,,1,10.6018683314,36.412337925,Africa,Tunisia,TN,,Tunisia - Hammamet,2009-03-29,
Tetraclinis articulata,Plantae,CUPRESSACEAE,Sandarac,,1,10.6018683314,36.412337925,Africa,Tunisia,TN,,Tunisia - Hammamet,2009-03-29,
Centaurea spec.,Plantae,Asteraceae,,,1,10.60186833,36.41233793,Africa,Tunisia,TN,,Tunisia - Hammamet,2009-03-29,
Thymus spec.,Plantae,Lamiaceae,,,1,10.6018683314,36.412337925,Africa,Tunisia,TN,,Tunisia - Hammamet,2009-03-29,
Ricinus communis,Plantae,EUPHORBIACEAE,Castor-oil-plant,,1,10.6018683314,36.412337925,Africa,Tunisia,TN,,Tunisia - Hammamet,2009-03-29,
Euphorbia segetalis,Plantae,EUPHORBIACEAE,Corn Spurge,,1,10.6018683314,36.412337925,Africa,Tunisia,TN,,Tunisia - Hammamet,2009-03-29,
Cynoglossum creticum,Plantae,BORAGINACEAE,Blue Hound's-tongue,,1,10.6018683314,36.412337925,Africa,Tunisia,TN,,Tunisia - Hammamet,2009-03-29,
Retama raetam,Plantae,Fabaceae,,,1,10.60186833,36.41233793,Africa,Tunisia,TN,,Tunisia - Hammamet,2009-03-29,
Lobularia maritima,Plantae,Brassicaceae,Sweet Alison,,1,10.6018683314,36.412337925,Africa,Tunisia,TN,,Tunisia - Hammamet,2009-03-29,
Sherardia arvensis,Plantae,RUBIACEAE,Field Madder,,1,10.6018683314,36.412337925,Africa,Tunisia,TN,,Tunisia - Hammamet,2009-03-29,
Plantago afra,Plantae,PLANTAGINACEAE,Glandular Plantain,,1,10.6018683314,36.412337925,Africa,Tunisia,TN,,Tunisia - Hammamet,2009-03-29,
Silene colorata,Plantae,CARYOPHYLLACEAE,,,1,10.6018683314,36.412337925,Africa,Tunisia,TN,,Tunisia - Hammamet,2009-03-29,
Lanius excubitor algeriensis,Animalia,SHRIKES_LANIIDAE,Dark Desert Grey Shrike,,1,10.596218061783,35.893563122831,Africa,Tunisia,TN,,Tunisia / Tunesie,2011-11-26,11:24
Lanius excubitor algeriensis,Animalia,SHRIKES_LANIIDAE,Dark Desert Grey Shrike,,1,10.15205890952,34.391047629362,Africa,Tunisia,TN,,Tunisia / Tunesie,2011-11-23,11:05
Phoenicopterus roseus,Animalia,FLAMINGOS_PHOENICOPTERIDAE,Greater Flamingo,,5,10.138272649497,34.380809329527,Africa,Tunisia,TN,,Tunisia / Tunesie,2011-11-23,11:06
Lanius excubitor algeriensis,Animalia,SHRIKES_LANIIDAE,Dark Desert Grey Shrike,,1,10.580702569315,35.913916671873,Africa,Tunisia,TN,,Tunisia / Tunesie,2011-11-21,13:13
Passer hispaniolensis,Animalia,OLD_WORLD_SPARROWS_PASSERIDAE,Spanish Sparrow,,10,10.580785515662,35.913809852502,Africa,Tunisia,TN,,Tunisia / Tunesie,2011-11-21,13:13
Sturnus unicolor,Animalia,STARLINGS_STURNIDAE,Spotless Starling,,10,10.580846232054,35.913975286397,Africa,Tunisia,TN,,Tunisia / Tunesie,2011-11-21,13:15
Lanius excubitor algeriensis,Animalia,SHRIKES_LANIIDAE,Dark Desert Grey Shrike,,1,10.580702569315,35.913916671873,Africa,Tunisia,TN,,Tunisia / Tunesie,2011-11-21,13:13
Sturnus unicolor,Animalia,STARLINGS_STURNIDAE,Spotless Starling,,10,10.580846232054,35.913975286397,Africa,Tunisia,TN,,Tunisia / Tunesie,2011-11-21,13:15
Danaus chrysippus,Animalia,BRUSHFOOTED_BUTTERFLIES_NYMPHALIDAE,African Monarch,,1,10.5963134766,35.8919149093,Africa,Tunisia,TN,,Tunisia - Sousse,2011-11-09,
Sturnus unicolor,Animalia,STARLINGS_STURNIDAE,Spotless Starling,,50,10.6055831909,35.8702174751,Africa,Tunisia,TN,,Tunisia - Sousse,2011-11-09,
Sturnus unicolor,Animalia,STARLINGS_STURNIDAE,Spotless Starling,,30,10.6139731407,35.8633488598,Africa,Tunisia,TN,,Tunisia - Sousse,2011-11-08,
Sturnus unicolor,Animalia,STARLINGS_STURNIDAE,Spotless Starling,,25,10.6132435799,35.8630358454,Africa,Tunisia,TN,,Tunisia - Sousse,2011-11-06,
Upupa epops,Animalia,HOOPOES_UPUPIDAE,Eurasian Hoopoe,,1,11.1143875122,33.5083352118,Africa,Tunisia,TN,,Tunisia - Zarzis,2009-11-18,
Falco biarmicus,Animalia,CARACAS_AND_FALCONS_FALCONIDAE,Lanner Falcon,,1,10.4855918884,33.3478787782,Africa,Tunisia,TN,,Tunisia - P19 - Médenine-Foum Tataouine,2009-11-09,
Charadrius morinellus,Animalia,PLOVERS_CHARADRIIDAE,Eurasian Dotterel,,1,10.1261329651,33.4663157155,Africa,Tunisia,TN,,Tunisia / Tunesie,2009-11-11,
Himantopus himantopus,Animalia,STILTS_AND_AVOCETS_RECURVIROSTRIDAE,Black-winged Stilt,,1,11.1183571815,33.5013572356,Africa,Tunisia,TN,,Tunisia - Zarzis,2009-11-18,
Ammomanes deserti,Animalia,LARKS_ALAUDIDAE,Desert Lark,,1,9.86595869064,33.5347390735,Africa,Tunisia,TN,,Tunisia - Matmata area,2009-11-09,
Corvus corax,Animalia,CROWS_AND_JAYS_CORVIDAE,Northern Raven,,1,10.9254097939,33.6934927248,Africa,Tunisia,TN,,Tunisia - Golfe de Boughrara,2009-11-09,
Grus grus,Animalia,CRANES_GRUIDAE,Common Crane,,1,10.9254097939,33.6934927248,Africa,Tunisia,TN,,Tunisia - Golfe de Boughrara,2009-11-09,
Burhinus oedicnemus,Animalia,THICKKNEES_BURHINIDAE,Eurasian Stone-curlew,,1,9.51057672501,33.2557333449,Africa,Tunisia,TN,,Tunisia / Tunesie,2009-11-11,
Oenanthe moesta,Animalia,OLD_WORLD_FLYCATCHERS_MUSCICAPIDAE,Red-rumped Wheatear,,1,9.51057672501,33.2557333449,Africa,Tunisia,TN,,Tunisia / Tunesie,2009-11-11,
Ammomanes cinctura,Animalia,LARKS_ALAUDIDAE,Bar-tailed Lark,,1,9.51057672501,33.2557333449,Africa,Tunisia,TN,,Tunisia / Tunesie,2009-11-11,
Alaemon alaudipes,Animalia,LARKS_ALAUDIDAE,Greater Hoopoe-Lark,,1,9.51057672501,33.2557333449,Africa,Tunisia,TN,,Tunisia / Tunesie,2009-11-11,
Oenanthe deserti,Animalia,OLD_WORLD_FLYCATCHERS_MUSCICAPIDAE,Desert Wheatear,,1,9.51057672501,33.2557333449,Africa,Tunisia,TN,,Tunisia / Tunesie,2009-11-11,
Argya fulva,Animalia,Leiothrichidae,Fulvous Babbler,,1,11.307528019,32.7221269868,Africa,Tunisia,TN,,Tunisia / Tunesie,2009-11-18,
Sturnus unicolor,Animalia,STARLINGS_STURNIDAE,Spotless Starling,,1,10.9856468439,33.8524080451,Africa,Tunisia,TN,,Tunisia - Djerba,2009-11-07,
Phoenicurus ochruros,Animalia,OLD_WORLD_FLYCATCHERS_MUSCICAPIDAE,Black Redstart,,1,10.9856468439,33.8524080451,Africa,Tunisia,TN,,Tunisia - Djerba,2009-11-07,
Streptopelia decaocto,Animalia,PIGEONS_AND_DOVES_COLUMBIDAE,Eurasian Collared Dove,,1,10.9856468439,33.8524080451,Africa,Tunisia,TN,,Tunisia - Djerba,2009-11-07,
Sturnus vulgaris,Animalia,STARLINGS_STURNIDAE,Common Starling,,1,10.9856468439,33.8524080451,Africa,Tunisia,TN,,Tunisia - Djerba,2009-11-07,
Columba livia domestica,Animalia,PIGEONS_AND_DOVES_COLUMBIDAE,Feral Pigeon,,1,10.9856468439,33.8524080451,Africa,Tunisia,TN,,Tunisia - Djerba,2009-11-07,
Spilopelia senegalensis,Animalia,PIGEONS_AND_DOVES_COLUMBIDAE,Laughing Dove,,1,10.9856468439,33.8524080451,Africa,Tunisia,TN,,Tunisia - Djerba,2009-11-07,
Larus fuscus,Animalia,GULLS_TERNS_AND_SKIMMERS_LARIDAE,Lesser Black-backed Gull,,1,10.9856468439,33.8524080451,Africa,Tunisia,TN,,Tunisia - Djerba,2009-11-12,
Charadrius dubius,Animalia,PLOVERS_CHARADRIIDAE,Little Ringed Plover,,1,8.71610641479,33.4638118877,Africa,Tunisia,TN,,Tunisia / Tunesie,2009-11-12,
Cisticola juncidis,Animalia,CISTICOLAS_AND_ALLIES_CISTICOLIDAE,Zitting Cisticola,,1,8.71610641479,33.4638118877,Africa,Tunisia,TN,,Tunisia / Tunesie,2009-11-12,
Circus aeruginosus,Animalia,HAWKS_AND_EAGLES_ACCIPITRIDAE,Western Marsh Harrier,,1,8.71610641479,33.4638118877,Africa,Tunisia,TN,,Tunisia / Tunesie,2009-11-12,
Buteo rufinus,Animalia,HAWKS_AND_EAGLES_ACCIPITRIDAE,Long-legged Buzzard,,1,11.2369537354,33.1479000406,Africa,Tunisia,TN,,Tunisia / Tunesie,2009-11-18,
Motacilla alba,Animalia,PIPITS_EN_WAGTAILS_MOTACILLIDAE,White Wagtail,,1,11.2369537354,33.1479000406,Africa,Tunisia,TN,,Tunisia / Tunesie,2009-11-18,
Anas platyrhynchos,Animalia,DUCKS_GEESE_AND_SWANS_ANATIDAE,Mallard,,1,11.2369537354,33.1479000406,Africa,Tunisia,TN,,Tunisia / Tunesie,2009-11-18,
Alauda arvensis,Animalia,LARKS_ALAUDIDAE,Eurasian Skylark,,1,11.2369537354,33.1479000406,Africa,Tunisia,TN,,Tunisia / Tunesie,2009-11-18,
Chroicocephalus ridibundus,Animalia,GULLS_TERNS_AND_SKIMMERS_LARIDAE,Black-headed Gull,,1,11.2369537354,33.1479000406,Africa,Tunisia,TN,,Tunisia / Tunesie,2009-11-18,
Tadorna tadorna,Animalia,DUCKS_GEESE_AND_SWANS_ANATIDAE,Common Shelduck,,1,11.2369537354,33.1479000406,Africa,Tunisia,TN,,Tunisia / Tunesie,2009-11-18,
Anas crecca,Animalia,DUCKS_GEESE_AND_SWANS_ANATIDAE,Eurasian Teal,,1,8.79323601723,33.4259279176,Africa,Tunisia,TN,,Tunisia / Tunesie,2009-11-12,
Anas acuta,Animalia,DUCKS_GEESE_AND_SWANS_ANATIDAE,Northern Pintail,,1,8.79323601723,33.4259279176,Africa,Tunisia,TN,,Tunisia / Tunesie,2009-11-12,
Marmaronetta angustirostris,Animalia,DUCKS_GEESE_AND_SWANS_ANATIDAE,Marbled Duck,,1,8.79323601723,33.4259279176,Africa,Tunisia,TN,,Tunisia / Tunesie,2009-11-12,
Mareca strepera,Animalia,DUCKS_GEESE_AND_SWANS_ANATIDAE,Gadwall,,1,8.79323601721,33.4259223954,Africa,Tunisia,TN,,Tunisia / Tunesie,2009-11-12,
Tadorna ferruginea,Animalia,DUCKS_GEESE_AND_SWANS_ANATIDAE,Ruddy Shelduck,,1,8.79323601721,33.4259223954,Africa,Tunisia,TN,,Tunisia / Tunesie,2009-11-12,
Sylvia deserticola,Animalia,OLD_WORLD_WARBLERS_SYLVIIDAE,Tristram's Warbler,,1,8.79323601721,33.4259223954,Africa,Tunisia,TN,,Tunisia / Tunesie,2009-11-12,
Gallinago gallinago,Animalia,SANDPIPERS_AND_ALLIES_SCOLOPACIDAE,Common Snipe,,1,8.79323601721,33.4259223954,Africa,Tunisia,TN,,Tunisia / Tunesie,2009-11-12,
Lanius excubitor algeriensis,Animalia,SHRIKES_LANIIDAE,Dark Desert Grey Shrike,,1,10.8564126491,33.8889303287,Africa,Tunisia,TN,,Tunisia - Djerba - Houmt Souk,2009-11-16,
Numenius arquata,Animalia,SANDPIPERS_AND_ALLIES_SCOLOPACIDAE,Eurasian Curlew,,1,10.8564126491,33.8889303287,Africa,Tunisia,TN,,Tunisia - Djerba - Houmt Souk,2009-11-16,
Tringa totanus,Animalia,SANDPIPERS_AND_ALLIES_SCOLOPACIDAE,Common Redshank,,1,10.8564126491,33.8889303287,Africa,Tunisia,TN,,Tunisia - Djerba - Houmt Souk,2009-11-16,
Phylloscopus collybita,Animalia,LEAF_WARBLERS_AND_ALLIES_PHYLLOSCOPIDAE,Common Chiffchaff,,1,10.8564126491,33.8889303287,Africa,Tunisia,TN,,Tunisia - Djerba - Houmt Souk,2009-11-16,
Passer hispaniolensis,Animalia,OLD_WORLD_SPARROWS_PASSERIDAE,Spanish Sparrow,,1,10.8564126491,33.8889303287,Africa,Tunisia,TN,,Tunisia - Djerba - Houmt Souk,2009-11-16,
Saxicola rubicola,Animalia,OLD_WORLD_FLYCATCHERS_MUSCICAPIDAE,European Stonechat,,1,10.8564126491,33.8889303287,Africa,Tunisia,TN,,Tunisia - Djerba - Houmt Souk,2009-11-16,
Actitis hypoleucos,Animalia,SANDPIPERS_AND_ALLIES_SCOLOPACIDAE,Common Sandpiper,,1,10.8564126491,33.8889303287,Africa,Tunisia,TN,,Tunisia - Djerba - Houmt Souk,2009-11-16,
Sylvia melanocephala,Animalia,OLD_WORLD_WARBLERS_SYLVIIDAE,Sardinian Warbler,,1,10.8564126491,33.8889303287,Africa,Tunisia,TN,,Tunisia - Djerba - Houmt Souk,2009-11-16,
Egretta garzetta,Animalia,HERONS_ARDEIDAE,Little Egret,,1,10.8564126491,33.8889303287,Africa,Tunisia,TN,,Tunisia - Djerba - Houmt Souk,2009-11-16,
Alcedo atthis,Animalia,KINGFISHERS_ALCEDINIDAE,Common Kingfisher,,1,10.8564126491,33.8889303287,Africa,Tunisia,TN,,Tunisia - Djerba - Houmt Souk,2009-11-16,
Anthus pratensis,Animalia,PIPITS_EN_WAGTAILS_MOTACILLIDAE,Meadow Pipit,,1,10.8564126491,33.8889303287,Africa,Tunisia,TN,,Tunisia - Djerba - Houmt Souk,2009-11-16,
Sylvia communis,Animalia,OLD_WORLD_WARBLERS_SYLVIIDAE,Common Whitethroat,,1,10.8564126491,33.8889303287,Africa,Tunisia,TN,,Tunisia - Djerba - Houmt Souk,2009-11-16,
Pluvialis apricaria,Animalia,PLOVERS_CHARADRIIDAE,European Golden Plover,,1,10.8564126491,33.8889303287,Africa,Tunisia,TN,,Tunisia - Djerba - Houmt Souk,2009-11-16,
Ardea alba,Animalia,HERONS_ARDEIDAE,Great Egret,,1,10.7438993454,33.7183429478,Africa,Tunisia,TN,,Tunisia - Golfe de Boughrara,2009-11-09,
Podiceps nigricollis,Animalia,GREBES_PODICIPEDIDAE,Black-necked Grebe,,1,10.7438993454,33.7183429478,Africa,Tunisia,TN,,Tunisia - Golfe de Boughrara,2009-11-09,
Podiceps cristatus,Animalia,GREBES_PODICIPEDIDAE,Great Crested Grebe,,1,10.7438993454,33.7183429478,Africa,Tunisia,TN,,Tunisia - Golfe de Boughrara,2009-11-09,
Fulica atra,Animalia,RAILS_RALLIDAE,Eurasian Coot,,1,10.7438993454,33.7183429478,Africa,Tunisia,TN,,Tunisia - Golfe de Boughrara,2009-11-09,
Ichthyaetus melanocephalus,Animalia,GULLS_TERNS_AND_SKIMMERS_LARIDAE,Mediterranean Gull,,1,10.9125351906,33.9034400018,Africa,Tunisia,TN,,Tunisia - Djerba - Ras Rmel,2009-11-14,
Pluvialis squatarola,Animalia,PLOVERS_CHARADRIIDAE,Grey Plover,,1,10.9125351906,33.9034400018,Africa,Tunisia,TN,,Tunisia - Djerba - Ras Rmel,2009-11-14,
Falco tinnunculus,Animalia,CARACAS_AND_FALCONS_FALCONIDAE,Common Kestrel,,1,10.9125351906,33.9034400018,Africa,Tunisia,TN,,Tunisia - Djerba - Ras Rmel,2009-11-14,
Charadrius alexandrinus,Animalia,PLOVERS_CHARADRIIDAE,Kentish Plover,,1,10.9125351906,33.9034400018,Africa,Tunisia,TN,,Tunisia - Djerba - Ras Rmel,2009-11-14,
Arenaria interpres,Animalia,SANDPIPERS_AND_ALLIES_SCOLOPACIDAE,Ruddy Turnstone,,1,10.9125351906,33.9034400018,Africa,Tunisia,TN,,Tunisia - Djerba - Ras Rmel,2009-11-14,
Haematopus ostralegus,Animalia,OYSTERCATCHERS_HAEMATOPODIDAE,Eurasian Oystercatcher,,1,10.9125351906,33.9034400018,Africa,Tunisia,TN,,Tunisia - Djerba - Ras Rmel,2009-11-14,
Hydroprogne caspia,Animalia,GULLS_TERNS_AND_SKIMMERS_LARIDAE,Caspian Tern,,1,10.9125351906,33.9034400018,Africa,Tunisia,TN,,Tunisia - Djerba - Ras Rmel,2009-11-14,
Platalea leucorodia,Animalia,IBISSES_AND_SPOONBILLS_THRESKIORNITHIDAE,Eurasian Spoonbill,,1,10.9125351906,33.9034400018,Africa,Tunisia,TN,,Tunisia - Djerba - Ras Rmel,2009-11-14,
Thalasseus sandvicensis,Animalia,GULLS_TERNS_AND_SKIMMERS_LARIDAE,Sandwich Tern,,1,10.9125351906,33.9034400018,Africa,Tunisia,TN,,Tunisia - Djerba - Ras Rmel,2009-11-14,
Tringa nebularia,Animalia,SANDPIPERS_AND_ALLIES_SCOLOPACIDAE,Common Greenshank,,1,10.9125351906,33.9034400018,Africa,Tunisia,TN,,Tunisia - Djerba - Ras Rmel,2009-11-14,
Phoenicopterus roseus,Animalia,FLAMINGOS_PHOENICOPTERIDAE,Greater Flamingo,,1,10.9125351906,33.9034400018,Africa,Tunisia,TN,,Tunisia - Djerba - Ras Rmel,2009-11-14,
Chroicocephalus genei,Animalia,GULLS_TERNS_AND_SKIMMERS_LARIDAE,Slender-billed Gull,,1,10.9125351906,33.9034400018,Africa,Tunisia,TN,,Tunisia - Djerba - Ras Rmel,2009-11-14,
Calidris alba,Animalia,SANDPIPERS_AND_ALLIES_SCOLOPACIDAE,Sanderling,,1,10.9125351906,33.9034400018,Africa,Tunisia,TN,,Tunisia - Djerba - Ras Rmel,2009-11-14,
Calidris alpina,Animalia,SANDPIPERS_AND_ALLIES_SCOLOPACIDAE,Dunlin,,1,10.9125351906,33.9034400018,Africa,Tunisia,TN,,Tunisia - Djerba - Ras Rmel,2009-11-14,
Charadrius hiaticula,Animalia,PLOVERS_CHARADRIIDAE,Common Ringed Plover,,1,10.9125351906,33.9034400018,Africa,Tunisia,TN,,Tunisia - Djerba - Ras Rmel,2009-11-14,
Ardea cinerea,Animalia,HERONS_ARDEIDAE,Grey Heron,,1,10.9125351906,33.9034400018,Africa,Tunisia,TN,,Tunisia - Djerba - Ras Rmel,2009-11-14,
Sylvia atricapilla,Animalia,OLD_WORLD_WARBLERS_SYLVIIDAE,Eurasian Blackcap,,1,10.1269993186,33.4661009127,Africa,Tunisia,TN,,Tunisia / Tunesie,2009-11-19,
Oenanthe leucura,Animalia,OLD_WORLD_FLYCATCHERS_MUSCICAPIDAE,Black Wheatear,,1,10.1269993186,33.4661009127,Africa,Tunisia,TN,,Tunisia / Tunesie,2009-11-19,
Turdus philomelos,Animalia,THRUSHES_TURDIDAE,Song Thrush,,1,10.1269993186,33.4661009127,Africa,Tunisia,TN,,Tunisia / Tunesie,2009-11-19,
Fringilla coelebs,Animalia,FINCHES_FRINGILLIDAE,Common Chaffinch,,1,10.1269993186,33.4661009127,Africa,Tunisia,TN,,Tunisia / Tunesie,2009-11-19,
Athene noctua glaux,Animalia,OWLS_STRIGIDAE,Little Owl ssp glaux,,1,10.1269993186,33.4661009127,Africa,Tunisia,TN,,Tunisia / Tunesie,2009-11-19,
Aquila chrysaetos,Animalia,HAWKS_AND_EAGLES_ACCIPITRIDAE,Golden Eagle,,1,10.1269993186,33.4661009127,Africa,Tunisia,TN,,Tunisia / Tunesie,2009-11-19,
Oenanthe lugens,Animalia,OLD_WORLD_FLYCATCHERS_MUSCICAPIDAE,Mourning Wheatear,,1,10.1269993186,33.4661009127,Africa,Tunisia,TN,,Tunisia / Tunesie,2009-11-19,
Petronia petronia,Animalia,OLD_WORLD_SPARROWS_PASSERIDAE,Rock Sparrow,,1,10.1269993186,33.4661009127,Africa,Tunisia,TN,,Tunisia / Tunesie,2009-11-19,
Erithacus rubecula,Animalia,OLD_WORLD_FLYCATCHERS_MUSCICAPIDAE,European Robin,,1,10.1269993186,33.4661009127,Africa,Tunisia,TN,,Tunisia / Tunesie,2009-11-19,
Linaria cannabina,Animalia,FINCHES_FRINGILLIDAE,Common Linnet,,1,10.1269993186,33.4661009127,Africa,Tunisia,TN,,Tunisia / Tunesie,2009-11-19,
Emberiza sahari,Animalia,BUNTINGS_EMBERIZIDAE,House Bunting,,1,10.1269993186,33.4661009127,Africa,Tunisia,TN,,Tunisia / Tunesie,2009-11-19,
Chloris chloris,Animalia,FINCHES_FRINGILLIDAE,European Greenfinch,,1,10.1269993186,33.4661009127,Africa,Tunisia,TN,,Tunisia / Tunesie,2009-11-19,
Phoenicurus phoenicurus,Animalia,OLD_WORLD_FLYCATCHERS_MUSCICAPIDAE,Common Redstart,,1,10.1269993186,33.4661009127,Africa,Tunisia,TN,,Tunisia / Tunesie,2009-11-19,
Serinus serinus,Animalia,FINCHES_FRINGILLIDAE,European Serin,,1,10.1269993186,33.4661009127,Africa,Tunisia,TN,,Tunisia / Tunesie,2009-11-19,
Phoenicurus moussieri,Animalia,OLD_WORLD_FLYCATCHERS_MUSCICAPIDAE,Moussier's Redstart,,1,10.1269993186,33.4661009127,Africa,Tunisia,TN,,Tunisia / Tunesie,2009-11-19,
Monticola solitarius,Animalia,OLD_WORLD_FLYCATCHERS_MUSCICAPIDAE,Blue Rock Thrush,,1,10.1269993186,33.4661009127,Africa,Tunisia,TN,,Tunisia / Tunesie,2009-11-19,
Fringilla coelebs spodiogenys,Animalia,FINCHES_FRINGILLIDAE,Tunisian Chaffinch,,1,10.1269993186,33.4661009127,Africa,Tunisia,TN,,Tunisia / Tunesie,2009-11-19,
Phalacrocorax carbo,Animalia,CORMORANTS_PHALACROCORACIDAE,Great Cormorant,,1,10.8697164059,33.8803520187,Africa,Tunisia,TN,,Tunisia - Djerba - Houmt Souk,2009-11-17,
Charadrius alexandrinus,Animalia,PLOVERS_CHARADRIIDAE,Kentish Plover,,1,8.06705474853,34.1487871638,Africa,Tunisia,TN,,Tunisia - A16 - Chebika-Hammad-al-Jarid,1997-05-08,
Oenanthe halophila,Animalia,OLD_WORLD_FLYCATCHERS_MUSCICAPIDAE,,,1,10.8453512191,33.800480491,Africa,Tunisia,TN,,Tunisia - Djerba,1997-05-11,
Fringilla coelebs spodiogenys,Animalia,FINCHES_FRINGILLIDAE,Tunisian Chaffinch,,1,10.5952334404,36.4053872906,Africa,Tunisia,TN,,Tunisia - Hammamet,2008-03-29,
Calidris alpina,Animalia,SANDPIPERS_AND_ALLIES_SCOLOPACIDAE,Dunlin,,1,10.9345293045,33.8746557271,Africa,Tunisia,TN,,Tunisia - Djerba - Ras Rmel,2010-10-21,
Ardea cinerea,Animalia,HERONS_ARDEIDAE,Grey Heron,,60,10.9345293045,33.8746557271,Africa,Tunisia,TN,,Tunisia - Djerba - Ras Rmel,2010-10-21,
Tringa nebularia,Animalia,SANDPIPERS_AND_ALLIES_SCOLOPACIDAE,Common Greenshank,,18,10.9283494949,33.8742994179,Africa,Tunisia,TN,,Tunisia - Djerba - Ras Rmel,2010-10-21,
Pluvialis squatarola,Animalia,PLOVERS_CHARADRIIDAE,Grey Plover,,5,10.9283494949,33.8742994179,Africa,Tunisia,TN,,Tunisia - Djerba - Ras Rmel,2010-10-21,
Platalea leucorodia,Animalia,IBISSES_AND_SPOONBILLS_THRESKIORNITHIDAE,Eurasian Spoonbill,,23,10.9283494949,33.8742994179,Africa,Tunisia,TN,,Tunisia - Djerba - Ras Rmel,2010-10-21,
Charadrius alexandrinus,Animalia,PLOVERS_CHARADRIIDAE,Kentish Plover,,1,10.9399795532,33.8743350489,Africa,Tunisia,TN,,Tunisia - Djerba - Ras Rmel,2010-10-21,
Phoenicopterus roseus,Animalia,FLAMINGOS_PHOENICOPTERIDAE,Greater Flamingo,,33,10.9349155426,33.8788600635,Africa,Tunisia,TN,,Tunisia - Djerba - Ras Rmel,2010-10-21,
Egretta garzetta,Animalia,HERONS_ARDEIDAE,Little Egret,,50,10.9383058548,33.8765441411,Africa,Tunisia,TN,,Tunisia - Djerba - Ras Rmel,2010-10-21,
Tringa totanus,Animalia,SANDPIPERS_AND_ALLIES_SCOLOPACIDAE,Common Redshank,,99,10.9383058548,33.8765441411,Africa,Tunisia,TN,,Tunisia - Djerba - Ras Rmel,2010-10-21,
Numenius arquata,Animalia,SANDPIPERS_AND_ALLIES_SCOLOPACIDAE,Eurasian Curlew,,250,10.9383058548,33.8765441411,Africa,Tunisia,TN,,Tunisia - Djerba - Ras Rmel,2010-10-21,
Hydroprogne caspia,Animalia,GULLS_TERNS_AND_SKIMMERS_LARIDAE,Caspian Tern,,45,10.9383058548,33.8765441411,Africa,Tunisia,TN,,Tunisia - Djerba - Ras Rmel,2010-10-21,
Streptopelia decaocto,Animalia,PIGEONS_AND_DOVES_COLUMBIDAE,Eurasian Collared Dove,,2,10.9845471382,33.8559474825,Africa,Tunisia,TN,,Tunisia - Djerba,2010-10-21,
Falco tinnunculus,Animalia,CARACAS_AND_FALCONS_FALCONIDAE,Common Kestrel,,1,10.986816287,33.8564597866,Africa,Tunisia,TN,,Tunisia - Djerba,2010-10-19,
Sturnus unicolor,Animalia,STARLINGS_STURNIDAE,Spotless Starling,,4,10.9847939014,33.85588066,Africa,Tunisia,TN,,Tunisia - Djerba,2010-10-19,
Spilopelia senegalensis,Animalia,PIGEONS_AND_DOVES_COLUMBIDAE,Laughing Dove,,4,10.9856253862,33.8562103171,Africa,Tunisia,TN,,Tunisia - Djerba,2010-10-19,
Camelus dromedarius,Animalia,CAMELS_AND_LLAMAS_CAMELIDAE,Dromedary,,2,10.2392578125,34.4069096565,Africa,Tunisia,TN,,Tunisia / Tunesie,1997-05-12,
Emberiza sahari,Animalia,BUNTINGS_EMBERIZIDAE,House Bunting,,2,9.02423858643,33.457262361,Africa,Tunisia,TN,,Tunisia - Douz,1993-08-03,
Argya fulva,Animalia,Leiothrichidae,Fulvous Babbler,,1,9.01599884033,33.4311930186,Africa,Tunisia,TN,,Tunisia - Douz,1993-08-03,
Trithemis annulata,Animalia,SKIMMERS_LIBELLULIDAE,Violet Dropwing,,1,9.0266418457,33.4471089023,Africa,Tunisia,TN,,Tunisia - Douz,2009-11-09,12:28
Trithemis kirbyi,Animalia,SKIMMERS_LIBELLULIDAE,Orange-winged Dropwing,,1,8.11746954918,33.9143837769,Africa,Tunisia,TN,,Tunisia - Tozeur,2009-11-11,10:29
Leptotes pirithous,Animalia,GOSSAMERWINGED_BUTTERFLIES_LYCAENIDAE,Lang’s Short-tailed Blue,,1,8.58605289424,34.6290034352,Africa,Tunisia,TN,,Tunisia / Tunesie,2009-03-31,17:07
Euchloe charlonia,Animalia,WHITES_PIERIDAE,Greenish Black-tip,,1,9.44052886683,34.4111395144,Africa,Tunisia,TN,,Tunisia - Bou Hedma NP,2009-03-31,
Emberiza sahari,Animalia,BUNTINGS_EMBERIZIDAE,House Bunting,,10,8.16558837891,33.9687238723,Africa,Tunisia,TN,,Tunisia - Tozeur,1979-04-17,
Lanius excubitor algeriensis,Animalia,SHRIKES_LANIIDAE,Dark Desert Grey Shrike,,12,10.2365112305,34.4321345903,Africa,Tunisia,TN,,Tunisia / Tunesie,1979-04-16,
Cygnus olor,Animalia,DUCKS_GEESE_AND_SWANS_ANATIDAE,Mute Swan,,1,11.231803894,33.291259035,Africa,Tunisia,TN,,Tunisia - Baheiret Bibane,1998-12-17,14:00
Sylvia melanocephala,Animalia,OLD_WORLD_WARBLERS_SYLVIIDAE,Sardinian Warbler,,3,10.6106686592,36.3961465327,Africa,Tunisia,TN,,Tunisia - Hammamet,2007-10-17,
Neophron percnopterus,Animalia,HAWKS_AND_EAGLES_ACCIPITRIDAE,Egyptian Vulture,,1,10.1223778725,36.3663558321,Africa,Tunisia,TN,,Tunisia / Tunesie,2001-04-07,
Burhinus oedicnemus,Animalia,THICKKNEES_BURHINIDAE,Eurasian Stone-curlew,,9,10.4782962799,36.7268463082,Africa,Tunisia,TN,,Tunisia / Tunesie,2001-04-05,
Elanus caeruleus,Animalia,HAWKS_AND_EAGLES_ACCIPITRIDAE,Black-winged Kite,,2,10.4782962799,36.7268463082,Africa,Tunisia,TN,,Tunisia / Tunesie,2001-04-05,
Lanius excubitor algeriensis,Animalia,SHRIKES_LANIIDAE,Dark Desert Grey Shrike,,1,10.2195167542,35.8690907186,Africa,Tunisia,TN,,Tunisia / Tunesie,2001-04-09,
Sylvia cantillans,Animalia,OLD_WORLD_WARBLERS_SYLVIIDAE,Subalpine Warbler,,4,10.3069353104,36.3691981134,Africa,Tunisia,TN,,Tunisia / Tunesie,2001-04-10,
Oenanthe hispanica,Animalia,OLD_WORLD_FLYCATCHERS_MUSCICAPIDAE,Western Black-eared Wheatear,,2,10.3069353104,36.3691981134,Africa,Tunisia,TN,,Tunisia / Tunesie,2001-04-10,
Upupa epops,Animalia,HOOPOES_UPUPIDAE,Eurasian Hoopoe,,1,10.3069353104,36.3691981134,Africa,Tunisia,TN,,Tunisia / Tunesie,2001-04-10,
Lanius excubitor algeriensis,Animalia,SHRIKES_LANIIDAE,Dark Desert Grey Shrike,,1,10.3369545937,36.3524107354,Africa,Tunisia,TN,,Tunisia / Tunesie,2001-04-10,
Upupa epops,Animalia,HOOPOES_UPUPIDAE,Eurasian Hoopoe,,2,10.3369545937,36.3524107354,Africa,Tunisia,TN,,Tunisia / Tunesie,2001-04-10,
Gelochelidon nilotica,Animalia,GULLS_TERNS_AND_SKIMMERS_LARIDAE,Gull-billed Tern,,1,10.3369545937,36.3524107354,Africa,Tunisia,TN,,Tunisia / Tunesie,2001-04-10,
Tringa stagnatilis,Animalia,SANDPIPERS_AND_ALLIES_SCOLOPACIDAE,Marsh Sandpiper,,10,10.3369545937,36.3524107354,Africa,Tunisia,TN,,Tunisia / Tunesie,2001-04-10,
Lanius excubitor algeriensis,Animalia,SHRIKES_LANIIDAE,Dark Desert Grey Shrike,,2,10.3372979164,36.3520564594,Africa,Tunisia,TN,,Tunisia / Tunesie,2001-04-07,
Gelochelidon nilotica,Animalia,GULLS_TERNS_AND_SKIMMERS_LARIDAE,Gull-billed Tern,,4,10.3372979164,36.3520564594,Africa,Tunisia,TN,,Tunisia / Tunesie,2001-04-07,
Tringa stagnatilis,Animalia,SANDPIPERS_AND_ALLIES_SCOLOPACIDAE,Marsh Sandpiper,,15,10.3372979164,36.3520564594,Africa,Tunisia,TN,,Tunisia / Tunesie,2001-04-07,
Glareola pratincola,Animalia,COURSERS_AND_PRATINCOLES_GLAREOLIDAE,Collared Pratincole,,100,10.3372979164,36.3520564594,Africa,Tunisia,TN,,Tunisia / Tunesie,2001-04-07,
Ardeola ralloides,Animalia,HERONS_ARDEIDAE,Squacco Heron,,1,10.9220409393,36.7418502964,Africa,Tunisia,TN,,Tunisia / Tunesie,2001-04-10,
Emberiza calandra,Animalia,BUNTINGS_EMBERIZIDAE,Corn Bunting,,1,10.9032440186,36.6365197638,Africa,Tunisia,TN,,Tunisia - Lagune de Korba,2001-04-08,
Chroicocephalus genei,Animalia,GULLS_TERNS_AND_SKIMMERS_LARIDAE,Slender-billed Gull,,150,10.9042525291,36.6338164219,Africa,Tunisia,TN,,Tunisia - Lagune de Korba,2001-04-08,
Tringa stagnatilis,Animalia,SANDPIPERS_AND_ALLIES_SCOLOPACIDAE,Marsh Sandpiper,,10,10.9042525291,36.6338164219,Africa,Tunisia,TN,,Tunisia - Lagune de Korba,2001-04-08,
Glareola pratincola,Animalia,COURSERS_AND_PRATINCOLES_GLAREOLIDAE,Collared Pratincole,,3,10.9042525291,36.6338164219,Africa,Tunisia,TN,,Tunisia - Lagune de Korba,2001-04-08,
Spilopelia senegalensis,Animalia,PIGEONS_AND_DOVES_COLUMBIDAE,Laughing Dove,,1,10.5781656504,36.4017473539,Africa,Tunisia,TN,,Tunisia / Tunesie,2001-04-09,
Spilopelia senegalensis,Animalia,PIGEONS_AND_DOVES_COLUMBIDAE,Laughing Dove,,2,10.5781656504,36.4017473539,Africa,Tunisia,TN,,Tunisia / Tunesie,2001-04-08,
Spilopelia senegalensis,Animalia,PIGEONS_AND_DOVES_COLUMBIDAE,Laughing Dove,,2,10.5781656504,36.4017473539,Africa,Tunisia,TN,,Tunisia / Tunesie,2001-04-07,
Spilopelia senegalensis,Animalia,PIGEONS_AND_DOVES_COLUMBIDAE,Laughing Dove,,4,10.5781656504,36.4017473539,Africa,Tunisia,TN,,Tunisia / Tunesie,2001-04-05,
Spilopelia senegalensis,Animalia,PIGEONS_AND_DOVES_COLUMBIDAE,Laughing Dove,,10,10.5877947807,36.4037032427,Africa,Tunisia,TN,,Tunisia / Tunesie,2001-04-04,
Puffinus mauretanicus,Animalia,PETRELS_AND_SHEARWATERS_PROCELLARIIDAE,Balearic Shearwater,,57,10.5793619156,36.3975374924,Africa,Tunisia,TN,,Tunisia / Tunesie,2001-04-09,
Puffinus mauretanicus,Animalia,PETRELS_AND_SHEARWATERS_PROCELLARIIDAE,Balearic Shearwater,,43,10.5793619156,36.3975374924,Africa,Tunisia,TN,,Tunisia / Tunesie,2001-04-07,
Puffinus mauretanicus,Animalia,PETRELS_AND_SHEARWATERS_PROCELLARIIDAE,Balearic Shearwater,,5,10.5793619156,36.3975374924,Africa,Tunisia,TN,,Tunisia / Tunesie,2001-04-06,
Puffinus mauretanicus,Animalia,PETRELS_AND_SHEARWATERS_PROCELLARIIDAE,Balearic Shearwater,,1,10.5793619156,36.3975374924,Africa,Tunisia,TN,,Tunisia / Tunesie,2001-04-05,
Phoenicopterus roseus,Animalia,FLAMINGOS_PHOENICOPTERIDAE,Greater Flamingo,,300,10.8050537109,35.7668692415,Africa,Tunisia,TN,,Tunisia - Monastir,2004-04-03,
Lanius excubitor algeriensis,Animalia,SHRIKES_LANIIDAE,Dark Desert Grey Shrike,,2,10.52667027,35.98148742,Africa,Tunisia,TN,,Tunisia / Tunesie,2009-10-30,09:31
Enallagma deserti,Animalia,POND_DAMSELS_COENAGRIONIDAE,Desert Bluet,,290,8.68447780609,35.5461422446,Africa,Tunisia,TN,,Tunisia / Tunesie,2009-05-21,
Coenagrion caerulescens,Animalia,POND_DAMSELS_COENAGRIONIDAE,Mediterranean Bluet,,16,8.68447780609,35.5461422446,Africa,Tunisia,TN,,Tunisia / Tunesie,2009-05-21,
Sympetrum fonscolombii,Animalia,SKIMMERS_LIBELLULIDAE,Red-veined Darter,,40,9.7528553009,35.5593226936,Africa,Tunisia,TN,,Tunisia / Tunesie,2009-06-01,
Streptopelia decaocto,Animalia,PIGEONS_AND_DOVES_COLUMBIDAE,Eurasian Collared Dove,,10,10.9959411621,33.8271513471,Africa,Tunisia,TN,,Tunisia / Tunesie,2009-08-01,
Spilopelia senegalensis,Animalia,PIGEONS_AND_DOVES_COLUMBIDAE,Laughing Dove,,15,10.9918212891,33.802049594,Africa,Tunisia,TN,,Tunisia / Tunesie,2009-08-01,
Gomphus lucasii,Animalia,CLUBTAILS_GOMPHIDAE,Algerian Clubtail,,2,9.110455513,36.9037664677,Africa,Tunisia,TN,,Tunisia / Tunesie,2009-05-24,
Calopteryx exul,Animalia,BROADWINGED_DAMSELS_CALOPTERYGIDAE,Glittering demoiselle,,7,9.11,36.9,Africa,Tunisia,TN,,Tunisia / Tunesie,2009-05-24,
Onychogomphus costae,Animalia,CLUBTAILS_GOMPHIDAE,Faded pincertail,,1,9.08515691757,36.9694895957,Africa,Tunisia,TN,,Tunisia / Tunesie,2009-05-24,
Gomphus lucasii,Animalia,CLUBTAILS_GOMPHIDAE,Algerian Clubtail,,3,9.08515691757,36.9694895957,Africa,Tunisia,TN,,Tunisia / Tunesie,2009-05-24,
Gomphus lucasii,Animalia,CLUBTAILS_GOMPHIDAE,Algerian Clubtail,,16,9.01711463928,36.9641062732,Africa,Tunisia,TN,,Tunisia / Tunesie,2009-05-24,
Gomphus lucasii,Animalia,CLUBTAILS_GOMPHIDAE,Algerian Clubtail,,10,9.01383161545,36.9656321581,Africa,Tunisia,TN,,Tunisia / Tunesie,2009-05-24,
Anax ephippiger,Animalia,DARNERS_AESHNIDAE,Vagrant Emperor,,4,9.01346683502,36.9664208057,Africa,Tunisia,TN,,Tunisia / Tunesie,2009-05-24,
Anax ephippiger,Animalia,DARNERS_AESHNIDAE,Vagrant Emperor,,2,9.01713609695,36.9640548384,Africa,Tunisia,TN,,Tunisia / Tunesie,2009-05-24,
Chalcolestes viridis,Animalia,SPREADWINGS_LESTIDAE,Western Willow Spreadwing,,10,9.01788711548,36.9641234182,Africa,Tunisia,TN,,Tunisia / Tunesie,2009-05-24,
Onychogomphus costae,Animalia,CLUBTAILS_GOMPHIDAE,Faded pincertail,,3,9.01374578476,36.9668151264,Africa,Tunisia,TN,,Tunisia / Tunesie,2009-05-24,
Onychogomphus costae,Animalia,CLUBTAILS_GOMPHIDAE,Faded pincertail,,1,9.01580572128,36.9644663162,Africa,Tunisia,TN,,Tunisia / Tunesie,2009-05-24,
Erythromma lindenii,Animalia,POND_DAMSELS_COENAGRIONIDAE,Blue-eye,,6,8.75900030136,35.2389245836,Africa,Tunisia,TN,,Tunisia / Tunesie,2009-05-21,
Erythromma lindenii,Animalia,POND_DAMSELS_COENAGRIONIDAE,Blue-eye,,5,8.75123262405,35.2447604052,Africa,Tunisia,TN,,Tunisia / Tunesie,2009-05-21,
Oenanthe leucura,Animalia,OLD_WORLD_FLYCATCHERS_MUSCICAPIDAE,Black Wheatear,,2,8.75974059105,35.2421404711,Africa,Tunisia,TN,,Tunisia / Tunesie,2009-05-21,
Bufotes viridis,Animalia,Bufonidae,Green Toad,,1,8.76050233841,35.2397482835,Africa,Tunisia,TN,,Tunisia / Tunesie,2009-05-21,
Gomphus lucasii,Animalia,CLUBTAILS_GOMPHIDAE,Algerian Clubtail,,15,8.68696689606,36.6231312667,Africa,Tunisia,TN,,Tunisia / Tunesie,2009-05-22,
Erythromma lindenii,Animalia,POND_DAMSELS_COENAGRIONIDAE,Blue-eye,,10,8.68696689606,36.6231312667,Africa,Tunisia,TN,,Tunisia / Tunesie,2009-05-22,
Natrix maura,Animalia,Colubridae,Viperine Snake,,1,8.70216429234,36.6423092454,Africa,Tunisia,TN,,Tunisia / Tunesie,2009-05-22,
Pernis apivorus,Animalia,HAWKS_AND_EAGLES_ACCIPITRIDAE,European Honey Buzzard,,5,9.2199754715,36.4239414262,Africa,Tunisia,TN,,Tunisia / Tunesie,2009-05-22,
Phoenicurus moussieri,Animalia,OLD_WORLD_FLYCATCHERS_MUSCICAPIDAE,Moussier's Redstart,,3,9.21832323074,36.4218177007,Africa,Tunisia,TN,,Tunisia / Tunesie,2009-05-22,
Coenagrion mercuriale,Animalia,POND_DAMSELS_COENAGRIONIDAE,Mercury Bluet,,2,9.2,36.4,Africa,Tunisia,TN,,Tunisia / Tunesie,2009-05-22,
Sympetrum sinaiticum,Animalia,SKIMMERS_LIBELLULIDAE,Desert Darter,,1,9.75392818451,35.5605446122,Africa,Tunisia,TN,,Tunisia / Tunesie,2009-05-27,
Sympetrum striolatum,Animalia,SKIMMERS_LIBELLULIDAE,Common Darter,,5,9.75392818451,35.5605446122,Africa,Tunisia,TN,,Tunisia / Tunesie,2009-05-27,
Sympetrum fonscolombii,Animalia,SKIMMERS_LIBELLULIDAE,Red-veined Darter,,50,9.75392818451,35.5605446122,Africa,Tunisia,TN,,Tunisia / Tunesie,2009-05-27,
Gomphus lucasii,Animalia,CLUBTAILS_GOMPHIDAE,Algerian Clubtail,,1,9.75442171097,35.5595321666,Africa,Tunisia,TN,,Tunisia / Tunesie,2009-05-27,
Sympecma fusca,Animalia,SPREADWINGS_LESTIDAE,Common Winter Damsel,,10,9.75442171097,35.5595321666,Africa,Tunisia,TN,,Tunisia / Tunesie,2009-05-27,
Lanius excubitor,Animalia,SHRIKES_LANIIDAE,Great Grey Shrike,,1,9.7536277771,35.5602304063,Africa,Tunisia,TN,,Tunisia / Tunesie,2009-05-27,
Papilio saharae,Animalia,SWALLOWTAILS_PAPILIONIDAE,Desert Swallowtail,,1,8.31630706787,34.4773931805,Africa,Tunisia,TN,,Tunisia / Tunesie,2009-05-27,
Bufotes viridis,Animalia,Bufonidae,Green Toad,,2,8.31585645676,34.4778265507,Africa,Tunisia,TN,,Tunisia / Tunesie,2009-05-27,
Platycnemis subdilatata,Animalia,WHITELEGGED_DAMSELFLIES_PLATYCNEMIDIDAE,Barbary Featherleg,,10,7.91108429432,34.3758075874,Africa,Tunisia,TN,,Tunisia / Tunesie,2009-05-28,
Selysiothemis nigra,Animalia,SKIMMERS_LIBELLULIDAE,Black Pennant,,10,8.78835439682,33.7960713922,Africa,Tunisia,TN,,Tunisia / Tunesie,2009-05-30,
Diplacodes lefebvrii,Animalia,SKIMMERS_LIBELLULIDAE,Black Percher,,50,8.78835439682,33.7960713922,Africa,Tunisia,TN,,Tunisia / Tunesie,2009-05-30,
Ischnura fountaineae,Animalia,POND_DAMSELS_COENAGRIONIDAE,Oasis Bluetail,,50,8.78835439682,33.7960713922,Africa,Tunisia,TN,,Tunisia / Tunesie,2009-05-30,
Orthetrum chrysostigma,Animalia,SKIMMERS_LIBELLULIDAE,Epaulet Skimmer,,5,8.14177036285,33.91316398,Africa,Tunisia,TN,,Tunisia / Tunesie,2009-05-30,
Sympetrum sinaiticum,Animalia,SKIMMERS_LIBELLULIDAE,Desert Darter,,1,8.14177036285,33.91316398,Africa,Tunisia,TN,,Tunisia / Tunesie,2009-05-30,
Trithemis kirbyi,Animalia,SKIMMERS_LIBELLULIDAE,Orange-winged Dropwing,,10,8.14177036285,33.91316398,Africa,Tunisia,TN,,Tunisia / Tunesie,2009-05-30,
Sympetrum sinaiticum,Animalia,SKIMMERS_LIBELLULIDAE,Desert Darter,,2,8.10720205307,33.9754136345,Africa,Tunisia,TN,,Tunisia / Tunesie,2009-05-29,
Trithemis kirbyi,Animalia,SKIMMERS_LIBELLULIDAE,Orange-winged Dropwing,,6,8.10720205307,33.9754136345,Africa,Tunisia,TN,,Tunisia / Tunesie,2009-05-29,
Orthetrum chrysostigma,Animalia,SKIMMERS_LIBELLULIDAE,Epaulet Skimmer,,6,8.10720205307,33.9754136345,Africa,Tunisia,TN,,Tunisia / Tunesie,2009-05-29,
Lanius excubitor elegans,Animalia,SHRIKES_LANIIDAE,Desert Grey Shrike,,1,7.87651062012,33.8618632944,Africa,Tunisia,TN,,Tunisia / Tunesie,2009-05-29,
Hyles livornica,Animalia,Sphingidae,Striped Hawk-moth,,1,7.90702342987,33.8760453188,Africa,Tunisia,TN,,Tunisia / Tunesie,2009-05-29,
Lanius excubitor elegans,Animalia,SHRIKES_LANIIDAE,Desert Grey Shrike,,1,7.90702342987,33.8760453188,Africa,Tunisia,TN,,Tunisia / Tunesie,2009-05-29,
Danaus chrysippus,Animalia,BRUSHFOOTED_BUTTERFLIES_NYMPHALIDAE,African Monarch,,2,7.90702342987,33.8760453188,Africa,Tunisia,TN,,Tunisia / Tunesie,2009-05-29,
Falco naumanni,Animalia,CARACAS_AND_FALCONS_FALCONIDAE,Lesser Kestrel,,3,10.7020568848,35.2913653055,Africa,Tunisia,TN,,Tunisia / Tunesie,2006-05-21,
Falco naumanni,Animalia,CARACAS_AND_FALCONS_FALCONIDAE,Lesser Kestrel,,1,10.6349372864,35.8288275253,Africa,Tunisia,TN,,Tunisia - Sousse,2006-05-16,
Puffinus mauretanicus,Animalia,PETRELS_AND_SHEARWATERS_PROCELLARIIDAE,Balearic Shearwater,,20,8.76022338867,36.9618533957,Africa,Tunisia,TN,,Tunisia / Tunesie,1984-05-16,
Crocothemis erythraea,Animalia,SKIMMERS_LIBELLULIDAE,Broad Scarlet,,1,8.83135557175,33.4977271235,Africa,Tunisia,TN,,Tunisia / Tunesie,2009-05-31,
Ischnura fountaineae,Animalia,POND_DAMSELS_COENAGRIONIDAE,Oasis Bluetail,,16,8.83135557175,33.4977271235,Africa,Tunisia,TN,,Tunisia / Tunesie,2009-05-31,
Diplacodes lefebvrii,Animalia,SKIMMERS_LIBELLULIDAE,Black Percher,,100,8.79524230957,33.4285044711,Africa,Tunisia,TN,,Tunisia / Tunesie,2009-05-31,
Crocothemis erythraea,Animalia,SKIMMERS_LIBELLULIDAE,Broad Scarlet,,20,8.79524230957,33.4285044711,Africa,Tunisia,TN,,Tunisia / Tunesie,2009-05-31,
Orthetrum trinacria,Animalia,SKIMMERS_LIBELLULIDAE,Long Skimmer,,10,8.79524230957,33.4285044711,Africa,Tunisia,TN,,Tunisia / Tunesie,2009-05-31,
Anax parthenope,Animalia,DARNERS_AESHNIDAE,Lesser Emperor,,14,8.79524230957,33.4285044711,Africa,Tunisia,TN,,Tunisia / Tunesie,2009-05-31,
Ischnura fountaineae,Animalia,POND_DAMSELS_COENAGRIONIDAE,Oasis Bluetail,,200,8.79524230957,33.4285044711,Africa,Tunisia,TN,,Tunisia / Tunesie,2009-05-31,
Marmaronetta angustirostris,Animalia,DUCKS_GEESE_AND_SWANS_ANATIDAE,Marbled Duck,,20,8.79389047623,33.431208539,Africa,Tunisia,TN,,Tunisia / Tunesie,2009-05-31,
Cisticola juncidis,Animalia,CISTICOLAS_AND_ALLIES_CISTICOLIDAE,Zitting Cisticola,,1,8.79389047623,33.431208539,Africa,Tunisia,TN,,Tunisia / Tunesie,2009-05-31,
Circus aeruginosus,Animalia,HAWKS_AND_EAGLES_ACCIPITRIDAE,Western Marsh Harrier,,1,8.79389047623,33.431208539,Africa,Tunisia,TN,,Tunisia / Tunesie,2009-05-31,
Puffinus mauretanicus,Animalia,PETRELS_AND_SHEARWATERS_PROCELLARIIDAE,Balearic Shearwater,,50,11.07421875,37.0525467576,Africa,Tunisia,TN,,Tunisia / Tunesie,1984-05-09,
Tarentola mauritanica,Animalia,PHYLLODACTYLIDAE,Moorish Gecko,,1,10.5833959579,36.401937332,Africa,Tunisia,TN,,Tunisia / Tunesie,2009-05-24,
Genetta genetta,Animalia,CIVETS_VIVERRIDAE,Common Genet,,2,9.39266682,36.70792593,Africa,Tunisia,TN,,Tunisia / Tunesie,2009-05-25,
Paragomphus genei,Animalia,CLUBTAILS_GOMPHIDAE,Green Hooktail,,1,7.94757843018,34.3973314862,Africa,Tunisia,TN,,Tunisia / Tunesie,2009-05-28,
Paragomphus genei,Animalia,CLUBTAILS_GOMPHIDAE,Green Hooktail,,2,7.94987440109,34.3951182595,Africa,Tunisia,TN,,Tunisia / Tunesie,2009-05-28,
Orthetrum coerulescens,Animalia,SKIMMERS_LIBELLULIDAE,Keeled Skimmer,,2,9.75534439087,35.5589735705,Africa,Tunisia,TN,,Tunisia / Tunesie,2009-05-20,
Puffinus mauretanicus,Animalia,PETRELS_AND_SHEARWATERS_PROCELLARIIDAE,Balearic Shearwater,,20,10.8270263672,36.482698954,Africa,Tunisia,TN,,Tunisia / Tunesie,1984-04-28,
Paragomphus genei,Animalia,CLUBTAILS_GOMPHIDAE,Green Hooktail,,1,9.98254358768,34.1085178246,Africa,Tunisia,TN,,Tunisia / Tunesie,2009-06-01,
Orthetrum nitidinerve,Animalia,SKIMMERS_LIBELLULIDAE,Yellow-veined skimmer,,50,9.98254358768,34.1085178246,Africa,Tunisia,TN,,Tunisia / Tunesie,2009-06-01,
Enallagma deserti,Animalia,POND_DAMSELS_COENAGRIONIDAE,Desert Bluet,,10,9.27080869675,35.2748441465,Africa,Tunisia,TN,,Tunisia / Tunesie,2009-05-20,
Enallagma deserti,Animalia,POND_DAMSELS_COENAGRIONIDAE,Desert Bluet,,15,9.26040172577,35.2686425884,Africa,Tunisia,TN,,Tunisia / Tunesie,2009-06-02,
Paragomphus genei,Animalia,CLUBTAILS_GOMPHIDAE,Green Hooktail,,3,9.26068067551,35.268800261,Africa,Tunisia,TN,,Tunisia / Tunesie,2009-06-02,
Sympetrum sinaiticum,Animalia,SKIMMERS_LIBELLULIDAE,Desert Darter,,3,9.75397109985,35.5598114632,Africa,Tunisia,TN,,Tunisia / Tunesie,2009-06-01,
Crocothemis erythraea,Animalia,SKIMMERS_LIBELLULIDAE,Broad Scarlet,,8,10.1248240471,35.7430987974,Africa,Tunisia,TN,,Tunisia / Tunesie,2009-05-20,
Sympecma fusca,Animalia,SPREADWINGS_LESTIDAE,Common Winter Damsel,,2,9.75276947021,35.5580309308,Africa,Tunisia,TN,,Tunisia / Tunesie,2009-05-20,
Sympetrum fonscolombii,Animalia,SKIMMERS_LIBELLULIDAE,Red-veined Darter,,40,9.75276947021,35.5580309308,Africa,Tunisia,TN,,Tunisia / Tunesie,2009-05-20,
Anax parthenope,Animalia,DARNERS_AESHNIDAE,Lesser Emperor,,15,9.75276947021,35.5580309308,Africa,Tunisia,TN,,Tunisia / Tunesie,2009-05-20,
Marmaronetta angustirostris,Animalia,DUCKS_GEESE_AND_SWANS_ANATIDAE,Marbled Duck,,4,9.75276947021,35.5580309308,Africa,Tunisia,TN,,Tunisia / Tunesie,2009-05-20,
Caprimulgus aegyptius,Animalia,NIGHTJARS_CAPRIMULGIDAE,Egyptian Nightjar,,1,10.2256965637,35.6742758887,Africa,Tunisia,TN,,Tunisia / Tunesie,2009-06-02,
Passer hispaniolensis,Animalia,OLD_WORLD_SPARROWS_PASSERIDAE,Spanish Sparrow,,30,10.6915462015,35.7829640436,Africa,Tunisia,TN,,Tunisia - Sousse,1989-10-18,
Phoenicopterus roseus,Animalia,FLAMINGOS_PHOENICOPTERIDAE,Greater Flamingo,,1,10.900765,36.63960167,Africa,Tunisia,TN,,Tunisia - Lagune de Korba,2009-04-02,09:55
Phoenicopterus roseus,Animalia,FLAMINGOS_PHOENICOPTERIDAE,Greater Flamingo,,112,10.90795667,36.63801667,Africa,Tunisia,TN,,Tunisia - Lagune de Korba,2009-04-04,11:54
Puffinus mauretanicus,Animalia,PETRELS_AND_SHEARWATERS_PROCELLARIIDAE,Balearic Shearwater,,51,10.8819580078,36.5909979992,Africa,Tunisia,TN,,Tunisia - Lagune de Korba,2009-04-04,08:57
Marmaronetta angustirostris,Animalia,DUCKS_GEESE_AND_SWANS_ANATIDAE,Marbled Duck,,1,10.89766333,36.62372,Africa,Tunisia,TN,,Tunisia - Lagune de Korba,2009-04-04,11:11
Struthio camelus camelus,Animalia,OSTRICHES_STRUTHIONIDAE,Common Ostrich ssp camelus,,3,9.62891578674,34.4567574396,Africa,Tunisia,TN,,Tunisia - Bou Hedma NP,2009-03-31,10:32
Sylvia melanocephala,Animalia,OLD_WORLD_WARBLERS_SYLVIIDAE,Sardinian Warbler,,1,10.61445833,36.396715,Africa,Tunisia,TN,,Tunisia - Hammamet,2009-04-04,07:25
Fringilla coelebs spodiogenys,Animalia,FINCHES_FRINGILLIDAE,Tunisian Chaffinch,,1,10.602825,36.40362,Africa,Tunisia,TN,,Tunisia - Hammamet,2009-04-03,08:01
Passer hispaniolensis,Animalia,OLD_WORLD_SPARROWS_PASSERIDAE,Spanish Sparrow,,1,10.602705,36.40383167,Africa,Tunisia,TN,,Tunisia - Hammamet,2009-04-03,07:51
Puffinus mauretanicus,Animalia,PETRELS_AND_SHEARWATERS_PROCELLARIIDAE,Balearic Shearwater,,1,10.6015,36.402965,Africa,Tunisia,TN,,Tunisia - Hammamet,2009-04-02,18:45
Fringilla coelebs spodiogenys,Animalia,FINCHES_FRINGILLIDAE,Tunisian Chaffinch,,1,10.592425,36.40938667,Africa,Tunisia,TN,,Tunisia - Hammamet,2009-04-02,07:50
Sylvia melanocephala,Animalia,OLD_WORLD_WARBLERS_SYLVIIDAE,Sardinian Warbler,,1,10.60170333,36.403935,Africa,Tunisia,TN,,Tunisia - Hammamet,2009-04-02,07:17
Passer hispaniolensis,Animalia,OLD_WORLD_SPARROWS_PASSERIDAE,Spanish Sparrow,,1,10.60272667,36.40403333,Africa,Tunisia,TN,,Tunisia - Hammamet,2009-04-02,07:15
Emberiza sahari,Animalia,BUNTINGS_EMBERIZIDAE,House Bunting,,2,9.12064667,35.23801667,Africa,Tunisia,TN,,Tunisia / Tunesie,2009-04-01,15:06
Leptotes pirithous,Animalia,GOSSAMERWINGED_BUTTERFLIES_LYCAENIDAE,Lang’s Short-tailed Blue,,11,8.66782333,35.18064333,Africa,Tunisia,TN,,Tunisia / Tunesie,2009-04-01,12:54
Anthocharis belia,Animalia,WHITES_PIERIDAE,Moroccan Orange-tip,,1,8.66717833,35.18187167,Africa,Tunisia,TN,,Tunisia / Tunesie,2009-04-01,12:47
Lasiommata megera,Animalia,BRUSHFOOTED_BUTTERFLIES_NYMPHALIDAE,Wall Brown,,1,8.66773,35.178935,Africa,Tunisia,TN,,Tunisia / Tunesie,2009-04-01,12:18
Sus scrofa,Animalia,PIGS_SUIDAE,Wild Boar,,9,8.66773,35.178935,Africa,Tunisia,TN,,Tunisia / Tunesie,2009-04-01,12:17
Phoenicurus moussieri,Animalia,OLD_WORLD_FLYCATCHERS_MUSCICAPIDAE,Moussier's Redstart,,1,8.67687667,35.203455,Africa,Tunisia,TN,,Tunisia / Tunesie,2009-04-01,10:58
Oenanthe leucura riggenbachi,Animalia,OLD_WORLD_FLYCATCHERS_MUSCICAPIDAE,Black Wheatear ssp riggenbachi,,1,8.794045,35.17043333,Africa,Tunisia,TN,,Tunisia / Tunesie,2009-04-01,07:32
Bucanetes githagineus zedlitzi,Animalia,FINCHES_FRINGILLIDAE,Trumpeter Finch ssp zedlitzi,,1,8.59051,34.62776167,Africa,Tunisia,TN,,Tunisia / Tunesie,2009-03-31,16:40
Elanus caeruleus,Animalia,HAWKS_AND_EAGLES_ACCIPITRIDAE,Black-winged Kite,,1,8.590355,34.627965,Africa,Tunisia,TN,,Tunisia / Tunesie,2009-03-31,16:31
Vanessa cardui,Animalia,BRUSHFOOTED_BUTTERFLIES_NYMPHALIDAE,Painted Lady,,1,9.44318833,34.40388333,Africa,Tunisia,TN,,Tunisia / Tunesie,2009-03-31,12:15
Lanius excubitor elegans,Animalia,SHRIKES_LANIIDAE,Desert Grey Shrike,,1,9.85108667,34.52106333,Africa,Tunisia,TN,,Tunisia / Tunesie,2009-03-31,09:12
Athene noctua saharae,Animalia,OWLS_STRIGIDAE,Little Owl ssp saharae,,1,9.8864929239674,34.485357757051,Africa,Tunisia,TN,,Tunisia - Sidi Bou Zid,2009-03-31,08:49
Oenanthe deserti homochroa,Animalia,OLD_WORLD_FLYCATCHERS_MUSCICAPIDAE,Desert Wheatear ssp homochroa,,1,10.16348167,35.82291,Africa,Tunisia,TN,,Tunisia / Tunesie,2009-03-30,15:54
Pieris rapae,Animalia,WHITES_PIERIDAE,Small White,,1,10.60272667,36.403795,Africa,Tunisia,TN,,Tunisia - Hammamet,2009-03-30,10:35
Puffinus mauretanicus,Animalia,PETRELS_AND_SHEARWATERS_PROCELLARIIDAE,Balearic Shearwater,,11,10.601495,36.40295667,Africa,Tunisia,TN,,Tunisia - Hammamet,2009-03-30,10:06
Cecropis daurica rufula,Animalia,SWALLOWS_HIRUNDINIDAE,Red-rumped Swallow ssp rufula,,2,10.57104167,36.41482833,Africa,Tunisia,TN,,Tunisia / Tunesie,2009-03-30,08:59
Sylvia melanocephala,Animalia,OLD_WORLD_WARBLERS_SYLVIIDAE,Sardinian Warbler,,1,10.59940833,36.4048,Africa,Tunisia,TN,,Tunisia - Hammamet,2009-03-30,07:40
Passer hispaniolensis,Animalia,OLD_WORLD_SPARROWS_PASSERIDAE,Spanish Sparrow,,1,10.601635,36.404115,Africa,Tunisia,TN,,Tunisia - Hammamet,2009-03-30,07:37
Chloris chloris voousi,Animalia,FINCHES_FRINGILLIDAE,European Greenfinch ssp voousi,,1,10.60280333,36.40410333,Africa,Tunisia,TN,,Tunisia - Hammamet,2009-03-30,07:34
Turdus merula mauritanicus,Animalia,THRUSHES_TURDIDAE,Common Blackbird ssp mauritanicus,,1,10.60280333,36.40410333,Africa,Tunisia,TN,,Tunisia - Hammamet,2009-03-30,07:33
Puffinus mauretanicus,Animalia,PETRELS_AND_SHEARWATERS_PROCELLARIIDAE,Balearic Shearwater,,51,10.61172833,36.394455,Africa,Tunisia,TN,,Tunisia - Hammamet,2009-03-29,13:55
Passer hispaniolensis,Animalia,OLD_WORLD_SPARROWS_PASSERIDAE,Spanish Sparrow,,1,10.60653833,36.419705,Africa,Tunisia,TN,,Tunisia - Hammamet,2009-03-29,08:31
Fringilla coelebs spodiogenys,Animalia,FINCHES_FRINGILLIDAE,Tunisian Chaffinch,,1,10.59927167,36.40701,Africa,Tunisia,TN,,Tunisia - Hammamet,2009-03-29,07:37
Sylvia melanocephala,Animalia,OLD_WORLD_WARBLERS_SYLVIIDAE,Sardinian Warbler,,1,10.60021333,36.40527167,Africa,Tunisia,TN,,Tunisia - Hammamet,2009-03-29,07:32
Lanius excubitor,Animalia,SHRIKES_LANIIDAE,Great Grey Shrike,,1,11.049499511719,33.811102288647,Africa,Tunisia,TN,,Tunisia / Tunesie,2008-08-06,17:00
Chroicocephalus genei,Animalia,GULLS_TERNS_AND_SKIMMERS_LARIDAE,Slender-billed Gull,,1,10.56884765625,34.63320791138,Africa,Tunisia,TN,,Tunisia / Tunesie,1997-05-12,
Sylvia melanocephala,Animalia,OLD_WORLD_WARBLERS_SYLVIIDAE,Sardinian Warbler,,1,9.5615614215446,34.111249169111,Africa,Tunisia,TN,,Tunisia / Tunesie,1997-05-08,
Spilopelia senegalensis,Animalia,PIGEONS_AND_DOVES_COLUMBIDAE,Laughing Dove,,1,9.5615614215446,34.111249169111,Africa,Tunisia,TN,,Tunisia / Tunesie,1997-05-08,
Lanius excubitor algeriensis,Animalia,SHRIKES_LANIIDAE,Dark Desert Grey Shrike,,1,9.0225219726562,33.462379817844,Africa,Tunisia,TN,,Tunisia / Tunesie,1997-05-11,
Galerida cristata,Animalia,LARKS_ALAUDIDAE,Crested Lark,,1,8.5679626464844,34.947865083096,Africa,Tunisia,TN,,Tunisia - P15 - Thélepte-Gafsa,1997-05-08,
Lanius excubitor algeriensis,Animalia,SHRIKES_LANIIDAE,Dark Desert Grey Shrike,,4,10.469642601879812,35.95691354853026,Africa,Tunisia,TN,,Tunisia - Sidi Bou Ali,2004-03-31,
Lanius excubitor,Animalia,SHRIKES_LANIIDAE,Great Grey Shrike,,5,10.838261746148541,35.75993160734305,Africa,Tunisia,TN,,Tunisia - Monastir,2008-05-03,
Sylvia melanocephala,Animalia,OLD_WORLD_WARBLERS_SYLVIIDAE,Sardinian Warbler,,6,10.61452415064305,36.40095886586766,Africa,Tunisia,TN,,Tunisia - Hammamet,2008-05-03,
Lanius excubitor algeriensis,Animalia,SHRIKES_LANIIDAE,Dark Desert Grey Shrike,,2,10.318724513686458,36.887106058746845,Africa,Tunisia,TN,,Tunisia - Carthago,2005-02-21,
Falco naumanni,Animalia,CARACAS_AND_FALCONS_FALCONIDAE,Lesser Kestrel,,1,10.318724513686458,36.887106058746845,Africa,Tunisia,TN,,Tunisia - Carthago,2005-02-21,
Cyanistes teneriffae ultramarinus,Animalia,TITS_PARIDAE,Ultramarine Blue Tit,,1,10.630587139951524,35.817349005224436,Africa,Tunisia,TN,,Tunisia - Sousse,1991-05-22,
Glebionis segetum,Plantae,Asteraceae,Corn Marigold,,1,10.870312,33.878361,Africa,Tunisia,TN,,Tunisia - Djerba - Houmt Souk,2020-03-03,15:45
Acacia saligna,Plantae,Fabaceae,Orange wattle,,1,10.865945,33.881514,Africa,Tunisia,TN,,Tunisia - Djerba - Houmt Souk,2020-03-03,14:17
Leucaena leucocephala,Plantae,Fabaceae,Wild Tamarind,,1,10.865945,33.881514,Africa,Tunisia,TN,,Tunisia - Djerba - Houmt Souk,2020-03-03,14:16
Tringa nebularia,Animalia,SANDPIPERS_AND_ALLIES_SCOLOPACIDAE,Common Greenshank,,1,10.865945,33.881514,Africa,Tunisia,TN,,Tunisia - Djerba - Houmt Souk,2020-03-03,14:06
Phoenix dactylifera,Plantae,Arecaceae,Date Palm,,1,10.864671,33.881626,Africa,Tunisia,TN,,Tunisia - Djerba - Houmt Souk,2020-03-03,13:32
Reichardia tingitana,Plantae,Asteraceae,False sowthistle,,1,10.864671,33.881626,Africa,Tunisia,TN,,Tunisia - Djerba - Houmt Souk,2020-03-03,13:19
Mesembryanthemum crystallinum,Plantae,AIZOACEAE,Common Ice-plant,,1,10.864671,33.881626,Africa,Tunisia,TN,,Tunisia - Djerba - Houmt Souk,2020-03-03,13:16
Pontia daplidice/edusa,Animalia,WHITES_PIERIDAE,,,1,10.864671,33.881626,Africa,Tunisia,TN,,Tunisia - Djerba - Houmt Souk,2020-03-03,12:55
Amaranthaceae spec.,Plantae,AMARANTHACEAE,,,1,10.864695,33.881746,Africa,Tunisia,TN,,Tunisia - Djerba - Houmt Souk,2020-03-03,11:03
Echium spec.,Plantae,BORAGINACEAE,,,1,10.864695,33.881746,Africa,Tunisia,TN,,Tunisia - Djerba - Houmt Souk,2020-03-03,10:58
Caryophyllaceae spec.,Plantae,CARYOPHYLLACEAE,,,1,10.864695,33.881746,Africa,Tunisia,TN,,Tunisia - Djerba - Houmt Souk,2020-03-03,10:43
Zygophyllum spec.,Plantae,ZYGOPHYLLACEAE,,,1,10.865157,33.881461,Africa,Tunisia,TN,,Tunisia - Djerba - Houmt Souk,2020-03-03,10:24
Mesembryanthemum crystallinum,Plantae,AIZOACEAE,Common Ice-plant,,1,10.865157,33.881461,Africa,Tunisia,TN,,Tunisia - Djerba - Houmt Souk,2020-03-03,10:22
Cakile maritima,Plantae,Brassicaceae,Sea Rocket,,1,10.865157,33.881461,Africa,Tunisia,TN,,Tunisia - Djerba - Houmt Souk,2020-03-03,10:17
Cakile maritima,Plantae,Brassicaceae,Sea Rocket,,1,10.865157,33.881461,Africa,Tunisia,TN,,Tunisia - Djerba - Houmt Souk,2020-03-03,10:16
Bougainvillea spec.,Plantae,NYCTAGINACEAE,,,1,10.865157,33.881461,Africa,Tunisia,TN,,Tunisia - Djerba - Houmt Souk,2020-03-03,10:15
Bougainvillea spec.,Plantae,NYCTAGINACEAE,,,1,10.865157,33.881461,Africa,Tunisia,TN,,Tunisia - Djerba - Houmt Souk,2020-03-03,10:12
Nerium oleander,Plantae,APOCYNACEAE,Rose bay,,1,10.865157,33.881461,Africa,Tunisia,TN,,Tunisia - Djerba - Houmt Souk,2020-03-03,10:11
Erodium spec.,Plantae,GERANIACEAE,,,1,10.865157,33.881461,Africa,Tunisia,TN,,Tunisia - Djerba - Houmt Souk,2020-03-03,10:10
Nerium oleander,Plantae,APOCYNACEAE,Rose bay,,1,10.865613,33.881238,Africa,Tunisia,TN,,Tunisia - Djerba - Houmt Souk,2020-03-03,10:02
Myoporum laetum,Plantae,SCROPHULARIACEAE,Ngaio tree,,1,10.865613,33.881238,Africa,Tunisia,TN,,Tunisia - Djerba - Houmt Souk,2020-03-03,10:02
Larus michahellis,Animalia,GULLS_TERNS_AND_SKIMMERS_LARIDAE,Yellow-legged Gull,,1,10.865613,33.881238,Africa,Tunisia,TN,,Tunisia - Djerba - Houmt Souk,2020-03-03,09:58
Lanius excubitor,Animalia,SHRIKES_LANIIDAE,Great Grey Shrike,,1,10.865613,33.881238,Africa,Tunisia,TN,,Tunisia - Djerba - Houmt Souk,2020-03-03,09:56
Agave spec.,Plantae,ASPARAGACEAE,,,1,10.865613,33.881238,Africa,Tunisia,TN,,Tunisia - Djerba - Houmt Souk,2020-03-03,09:48
Caryophyllaceae spec.,Plantae,CARYOPHYLLACEAE,,,1,10.865613,33.881238,Africa,Tunisia,TN,,Tunisia - Djerba - Houmt Souk,2020-03-03,09:47
Actitis hypoleucos,Animalia,SANDPIPERS_AND_ALLIES_SCOLOPACIDAE,Common Sandpiper,,1,10.865613,33.881238,Africa,Tunisia,TN,,Tunisia - Djerba - Houmt Souk,2020-03-03,09:41
Chroicocephalus genei,Animalia,GULLS_TERNS_AND_SKIMMERS_LARIDAE,Slender-billed Gull,,1,10.865613,33.881238,Africa,Tunisia,TN,,Tunisia - Djerba - Houmt Souk,2020-03-03,09:41
Larus michahellis,Animalia,GULLS_TERNS_AND_SKIMMERS_LARIDAE,Yellow-legged Gull,,1,10.865613,33.881238,Africa,Tunisia,TN,,Tunisia - Djerba - Houmt Souk,2020-03-03,09:40
Caryophyllaceae spec.,Plantae,CARYOPHYLLACEAE,,,1,10.865613,33.881238,Africa,Tunisia,TN,,Tunisia - Djerba - Houmt Souk,2020-03-03,09:39
Amaranthaceae spec.,Plantae,AMARANTHACEAE,,,1,10.865613,33.881238,Africa,Tunisia,TN,,Tunisia - Djerba - Houmt Souk,2020-03-03,09:39
Agave spec.,Plantae,ASPARAGACEAE,,,1,10.865613,33.881238,Africa,Tunisia,TN,,Tunisia - Djerba - Houmt Souk,2020-03-03,09:32
Lanius excubitor,Animalia,SHRIKES_LANIIDAE,Great Grey Shrike,,1,10.865613,33.881238,Africa,Tunisia,TN,,Tunisia - Djerba - Houmt Souk,2020-03-03,09:31
Chroicocephalus genei,Animalia,GULLS_TERNS_AND_SKIMMERS_LARIDAE,Slender-billed Gull,,1,10.864733,33.881675,Africa,Tunisia,TN,,Tunisia - Djerba - Houmt Souk,2020-03-03,07:28
Chroicocephalus genei,Animalia,GULLS_TERNS_AND_SKIMMERS_LARIDAE,Slender-billed Gull,,1,10.864733,33.881675,Africa,Tunisia,TN,,Tunisia - Djerba - Houmt Souk,2020-03-03,07:28
Acontia lucida,Animalia,Noctuidae,Pale Shoulder,,1,10.870419,33.878263,Africa,Tunisia,TN,,Tunisia - Djerba - Houmt Souk,2020-03-02,21:15
Tringa nebularia,Animalia,SANDPIPERS_AND_ALLIES_SCOLOPACIDAE,Common Greenshank,,1,10.9193954467773,33.9009437561035,Africa,Tunisia,TN,,Tunisia - Djerba - Ras Rmel,2020-03-06,10:16
Testudo graeca,Animalia,Testudinidae,Greek Tortoise,,1,10.53,36.43,Africa,Tunisia,TN,,Tunisia - Hammamet,2007-12-07,
Tarentola mauritanica,Animalia,PHYLLODACTYLIDAE,Moorish Gecko,,1,10.5350119656,36.4331376417,Africa,Tunisia,TN,,Tunisia - Hammamet,2007-12-07,
Athene noctua,Animalia,OWLS_STRIGIDAE,Little Owl,,1,9.9455471678,33.5529615713,Africa,Tunisia,TN,,Tunisia - Matmata area,2007-12-06,
Puffinus yelkouan,Animalia,PETRELS_AND_SHEARWATERS_PROCELLARIIDAE,Yelkouan Shearwater,,1,11.03027344,37.05517711,Africa,Tunisia,TN,,Tunisia - Cap Bon,2019-05-07,10:00
Calonectris diomedea,Animalia,PETRELS_AND_SHEARWATERS_PROCELLARIIDAE,Scopoli's Shearwater,,1,11.03027344,37.05517711,Africa,Tunisia,TN,,Tunisia - Cap Bon,2019-05-07,10:00
Rhodometra sacraria,Animalia,Geometridae,Vestal,,1,10.282,33.63,Africa,Tunisia,TN,,Tunisia - Gabès,2019-05-15,09:10
Danaus chrysippus,Animalia,BRUSHFOOTED_BUTTERFLIES_NYMPHALIDAE,African Monarch,,1,10.282,33.63,Africa,Tunisia,TN,,Tunisia - Gabès,2019-05-15,
Pieris rapae,Animalia,WHITES_PIERIDAE,Small White,,1,10.282,33.63,Africa,Tunisia,TN,,Tunisia - Gabès,2019-05-15,
Oxythyrea pantherina,Animalia,Scarabaeidae,,,1,9.97,33.257,Africa,Tunisia,TN,,Tunisia - Médenine,2019-05-14,12:00
Galerida cristata,Animalia,LARKS_ALAUDIDAE,Crested Lark,,1,9.97,33.257,Africa,Tunisia,TN,,Tunisia - Médenine,2019-05-14,12:00
Canis lupaster,Animalia,DOGS_CANIDAE,African Golden Wolf,,1,9.9702,33.5694,Africa,Tunisia,TN,,Tunisia - Matmata area,2019-05-13,17:01
Caretta caretta,Animalia,Cheloniidae,Loggerhead,,1,10.1644,33.8415,Africa,Tunisia,TN,,Tunisia - Gabès,2019-05-13,15:00
Ciconia nigra,Animalia,STORKS_CICONIIDAE,Black Stork,,5,11.038,37.0691,Africa,Tunisia,TN,,Tunisia - Cap Bon,2019-05-06,11:23
Oxyura leucocephala,Animalia,DUCKS_GEESE_AND_SWANS_ANATIDAE,White-headed Duck,,11,10.93707573,36.85995033,Africa,Tunisia,TN,,Tunisia - Presqu'île du Cap Bon,2019-05-06,15:31
Falco biarmicus,Animalia,CARACAS_AND_FALCONS_FALCONIDAE,Lanner Falcon,,1,10.039560461739864,36.354747772216825,Africa,Tunisia,TN,,Tunisia - Zaghouan,2003-10-23,
Lycaena phlaeas,Animalia,GOSSAMERWINGED_BUTTERFLIES_LYCAENIDAE,Small Copper,,1,10.61316513,36.39432462,Africa,Tunisia,TN,,Tunisia - Hammamet,2018-10-15,13:00
Duponchelia fovealis,Animalia,Crambidae,,,1,10.55874478,36.38974743,Africa,Tunisia,TN,,Tunisia - Hammamet,2018-10-16,09:30
Thysanoplusia daubei,Animalia,Noctuidae,,,1,10.55871259,36.38970425,Africa,Tunisia,TN,,Tunisia - Hammamet,2018-10-04,12:40
Agrotis ipsilon,Animalia,Noctuidae,Dark Sword-grass,,1,10.55871259,36.38970425,Africa,Tunisia,TN,,Tunisia - Hammamet,2018-10-22,12:20
Apis mellifera,Animalia,Apidae,Western Honey Bee,,1,10.55798303,36.39151794,Africa,Tunisia,TN,,Tunisia - Hammamet,2018-10-17,11:40
Vanessa atalanta,Animalia,BRUSHFOOTED_BUTTERFLIES_NYMPHALIDAE,Red Admiral,,1,10.55801522,36.39151794,Africa,Tunisia,TN,,Tunisia - Hammamet,2018-10-17,12:00
Palpita vitrealis,Animalia,Crambidae,,,1,10.55975698,36.38858997,Africa,Tunisia,TN,,Tunisia - Hammamet,2018-10-16,12:00
Spilopelia senegalensis,Animalia,PIGEONS_AND_DOVES_COLUMBIDAE,Laughing Dove,,1,10.55600893,36.39146612,Africa,Tunisia,TN,,Tunisia - Hammamet,2018-10-13,16:10
Lanius excubitor algeriensis,Animalia,SHRIKES_LANIIDAE,Dark Desert Grey Shrike,,1,10.5559982,36.39144021,Africa,Tunisia,TN,,Tunisia - Hammamet,2018-10-13,16:00
Oxyura leucocephala,Animalia,DUCKS_GEESE_AND_SWANS_ANATIDAE,White-headed Duck,,40,10.45303344,36.41927491,Africa,Tunisia,TN,,Tunisia - Presqu'île du Cap Bon,2003-10-21,
Ciconia nigra,Animalia,STORKS_CICONIIDAE,Black Stork,,1,10.49835204,36.72868535,Africa,Tunisia,TN,,Tunisia - Marais de Soliman,1979-05-01,
Chlidonias leucopterus,Animalia,GULLS_TERNS_AND_SKIMMERS_LARIDAE,White-winged Tern,,1,10.49835204,36.72868535,Africa,Tunisia,TN,,Tunisia - Marais de Soliman,1979-05-01,
Anthus cervinus,Animalia,PIPITS_EN_WAGTAILS_MOTACILLIDAE,Red-throated Pipit,,1,10.49835204,36.72868535,Africa,Tunisia,TN,,Tunisia - Marais de Soliman,1979-05-01,
Tringa glareola,Animalia,SANDPIPERS_AND_ALLIES_SCOLOPACIDAE,Wood Sandpiper,,1,10.49835204,36.72868535,Africa,Tunisia,TN,,Tunisia - Marais de Soliman,1979-04-29,
Calidris temminckii,Animalia,SANDPIPERS_AND_ALLIES_SCOLOPACIDAE,Temminck's Stint,,1,10.49835204,36.72868535,Africa,Tunisia,TN,,Tunisia - Marais de Soliman,1979-04-29,
Emberiza sahari,Animalia,BUNTINGS_EMBERIZIDAE,House Bunting,,1,8.13011168,33.91646897,Africa,Tunisia,TN,,Tunisia - Tozeur,1979-03-18,
Pica mauritanica,Animalia,CROWS_AND_JAYS_CORVIDAE,Maghreb Magpie,,1,10.57456969,35.89654107,Africa,Tunisia,TN,,Tunisia - Sousse,1979-02-14,
Calidris ferruginea,Animalia,SANDPIPERS_AND_ALLIES_SCOLOPACIDAE,Curlew Sandpiper,,1,10.42854308,36.13550866,Africa,Tunisia,TN,,Tunisia - Sousse,1978-04-24,
Streptopelia turtur,Animalia,PIGEONS_AND_DOVES_COLUMBIDAE,European Turtle Dove,,1000,10.62423705,36.6404535,Africa,Tunisia,TN,,Tunisia - Presqu'île du Cap Bon,1978-04-22,
Glareola pratincola,Animalia,COURSERS_AND_PRATINCOLES_GLAREOLIDAE,Collared Pratincole,,1,10.41343689,36.12355716,Africa,Tunisia,TN,,Tunisia - Sousse,1978-04-18,
Tringa glareola,Animalia,SANDPIPERS_AND_ALLIES_SCOLOPACIDAE,Wood Sandpiper,,1,10.42098996,36.12656139,Africa,Tunisia,TN,,Tunisia - Sousse,1978-03-31,
Charadrius alexandrinus,Animalia,PLOVERS_CHARADRIIDAE,Kentish Plover,,1,10.40279388,36.1289462,Africa,Tunisia,TN,,Tunisia - Sousse,1977-12-20,
Calidris minuta,Animalia,SANDPIPERS_AND_ALLIES_SCOLOPACIDAE,Little Stint,,1,10.39215087,36.12025701,Africa,Tunisia,TN,,Tunisia - Sousse,1977-12-19,
Falco biarmicus,Animalia,CARACAS_AND_FALCONS_FALCONIDAE,Lanner Falcon,,1,10.30941009,35.91263319,Africa,Tunisia,TN,,Tunisia - Sousse,1977-12-04,
Turdus merula,Animalia,THRUSHES_TURDIDAE,Common Blackbird,,1,10.57769537,36.40612911,Africa,Tunisia,TN,,Tunisia - Hammamet,1977-11-15,
Calidris pugnax,Animalia,SANDPIPERS_AND_ALLIES_SCOLOPACIDAE,Ruff,,1,10.30008316,36.8277633,Africa,Tunisia,TN,,Tunisia - Tunis,1977-10-15,
Erithacus rubecula,Animalia,OLD_WORLD_FLYCATCHERS_MUSCICAPIDAE,European Robin,,1,10.57650089,36.40549243,Africa,Tunisia,TN,,Tunisia - Hammamet,1977-10-14,
Emberiza calandra,Animalia,BUNTINGS_EMBERIZIDAE,Corn Bunting,,1,9.33105463,36.09897367,Africa,Tunisia,TN,,Tunisia - Siliana,1977-10-03,
Sylvia melanocephala,Animalia,OLD_WORLD_WARBLERS_SYLVIIDAE,Sardinian Warbler,,1,10.57641506,36.40569967,Africa,Tunisia,TN,,Tunisia - Hammamet,1977-09-29,
Athene noctua,Animalia,OWLS_STRIGIDAE,Little Owl,,1,9.87167356,36.40632598,Africa,Tunisia,TN,,Tunisia - Zaghouan,1977-09-26,
Cyanistes teneriffae,Animalia,TITS_PARIDAE,African Blue Tit,,1,10.57647228,36.40570312,Africa,Tunisia,TN,,Tunisia - Hammamet,1977-09-25,
Upupa epops,Animalia,HOOPOES_UPUPIDAE,Eurasian Hoopoe,,1,10.41652679,36.12340002,Africa,Tunisia,TN,,Tunisia - Sousse,1977-09-21,
Motacilla alba,Animalia,PIPITS_EN_WAGTAILS_MOTACILLIDAE,White Wagtail,,1,9.11087033,36.67774458,Africa,Tunisia,TN,,Tunisia - Béja,1977-09-13,
Phoenicopterus roseus,Animalia,FLAMINGOS_PHOENICOPTERIDAE,Greater Flamingo,,1,10.25733946,36.81833674,Africa,Tunisia,TN,,Tunisia - Tunis,1977-09-13,
Motacilla flava iberiae,Animalia,PIPITS_EN_WAGTAILS_MOTACILLIDAE,Iberian Wagtail,,1,9.14428705,36.71129293,Africa,Tunisia,TN,,Tunisia - Béja,1977-09-13,
Buteo rufinus,Animalia,HAWKS_AND_EAGLES_ACCIPITRIDAE,Long-legged Buzzard,,1,9.3200683,36.19508187,Africa,Tunisia,TN,,Tunisia - Siliana,1977-09-13,
Neophron percnopterus,Animalia,HAWKS_AND_EAGLES_ACCIPITRIDAE,Egyptian Vulture,,1,9.04495236,35.81165112,Africa,Tunisia,TN,,Tunisia - Siliana,1977-09-12,
Spilopelia senegalensis,Animalia,PIGEONS_AND_DOVES_COLUMBIDAE,Laughing Dove,,1,10.57641506,36.40566513,Africa,Tunisia,TN,,Tunisia - Hammamet,1977-09-09,
Muscicapa striata,Animalia,OLD_WORLD_FLYCATCHERS_MUSCICAPIDAE,Spotted Flycatcher,,1,10.320582000000059,36.850423,Africa,Tunisia,TN,,Tunisia - Carthago,1977-09-09,
Passer domesticus,Animalia,OLD_WORLD_SPARROWS_PASSERIDAE,House Sparrow,,1,10.57682097,36.40577479,Africa,Tunisia,TN,,Tunisia - Hammamet,1977-09-09,
Serinus serinus,Animalia,FINCHES_FRINGILLIDAE,European Serin,,1,10.57640791,36.4057722,Africa,Tunisia,TN,,Tunisia - Hammamet,1977-09-09,
Pycnonotus barbatus,Animalia,BULBULS_PYCNONOTIDAE,Common Bulbul,,2,10.55833708,36.3895747,Africa,Tunisia,TN,,Tunisia - Hammamet,2018-10-20,16:00
Hydriris ornatalis,Animalia,Pyralidae,,,1,10.55858737,36.38968704,Africa,Tunisia,TN,,Tunisia - Hammamet,2018-10-03,18:00
Uresiphita gilvata,Animalia,Crambidae,,,1,10.55706069,36.39123253,Africa,Tunisia,TN,,Tunisia - Hammamet,2018-10-17,11:15
Thysanoplusia daubei,Animalia,Noctuidae,,,1,10.55667445,36.39112889,Africa,Tunisia,TN,,Tunisia - Hammamet,2018-10-15,12:00
Rhodometra sacraria,Animalia,Geometridae,Vestal,,1,10.55697486,36.39109434,Africa,Tunisia,TN,,Tunisia - Hammamet,2018-10-09,08:45
Lycaena phlaeas,Animalia,GOSSAMERWINGED_BUTTERFLIES_LYCAENIDAE,Small Copper,,1,10.54720424,36.37613465,Africa,Tunisia,TN,,Tunisia - Hammamet,2018-10-21,12:30
Danaus chrysippus,Animalia,BRUSHFOOTED_BUTTERFLIES_NYMPHALIDAE,African Monarch,,1,10.6150068,36.39454066,Africa,Tunisia,TN,,Tunisia - Hammamet,2018-10-15,15:15
Spoladea recurvalis,Animalia,Crambidae,,,1,10.55802595,36.39145748,Africa,Tunisia,TN,,Tunisia - Hammamet,2018-10-17,11:50
Emberiza sahari,Animalia,BUNTINGS_EMBERIZIDAE,House Bunting,,1,10.2458633,33.28418375,Africa,Tunisia,TN,,Tunisia - Médenine,2013-04-17,
Cacyreus marshalli,Animalia,GOSSAMERWINGED_BUTTERFLIES_LYCAENIDAE,Geranium Bronze,,1,10.55791866,36.39153521,Africa,Tunisia,TN,,Tunisia - Hammamet,2018-10-17,12:00
Charaxes jasius,Animalia,BRUSHFOOTED_BUTTERFLIES_NYMPHALIDAE,Two-tailed Pasha,,1,10.61454898,36.39586637,Africa,Tunisia,TN,,Tunisia - Hammamet,2018-10-15,15:50
Chalcides ocellatus,Animalia,Scincidae,Ocellated Skink,,1,10.55799376,36.39152658,Africa,Tunisia,TN,,Tunisia - Hammamet,2018-10-06,13:45
Sturnus unicolor,Animalia,STARLINGS_STURNIDAE,Spotless Starling,,12,10.51884913,36.37316849,Africa,Tunisia,TN,,Tunisia - Sousse,2018-11-14,
Sturnus unicolor,Animalia,STARLINGS_STURNIDAE,Spotless Starling,,1,10.55861127,36.43407149,Africa,Tunisia,TN,,Tunisia - Presqu'île du Cap Bon,2018-11-18,
Sturnus unicolor,Animalia,STARLINGS_STURNIDAE,Spotless Starling,,2,10.54710996,36.39635869,Africa,Tunisia,TN,,Tunisia - Hammamet,2018-11-18,
Sturnus unicolor,Animalia,STARLINGS_STURNIDAE,Spotless Starling,,2,10.53947103,36.39131512,Africa,Tunisia,TN,,Tunisia - Sousse,2018-11-18,
Emberiza sahari sahari,Animalia,BUNTINGS_EMBERIZIDAE,House Bunting ssp sahari,,2,10.20625028,33.75563334,Africa,Tunisia,TN,,Tunisia - Gabès,2018-11-18,
Chroicocephalus genei,Animalia,GULLS_TERNS_AND_SKIMMERS_LARIDAE,Slender-billed Gull,,1,10.78763008,33.89820447,Africa,Tunisia,TN,,Tunisia - Djerba,2018-11-17,10:20
Larus michahellis,Animalia,GULLS_TERNS_AND_SKIMMERS_LARIDAE,Yellow-legged Gull,,2,10.78634262,33.90247888,Africa,Tunisia,TN,,Tunisia - Djerba,2018-11-17,10:20
Larus michahellis,Animalia,GULLS_TERNS_AND_SKIMMERS_LARIDAE,Yellow-legged Gull,,1,10.82758427,33.89654807,Africa,Tunisia,TN,,Tunisia - Djerba,2018-11-17,10:00
Chroicocephalus genei,Animalia,GULLS_TERNS_AND_SKIMMERS_LARIDAE,Slender-billed Gull,,2,10.82758427,33.89654807,Africa,Tunisia,TN,,Tunisia - Djerba,2018-11-17,10:00
Lanius excubitor,Animalia,SHRIKES_LANIIDAE,Great Grey Shrike,,2,10.84061927,33.89152126,Africa,Tunisia,TN,,Tunisia - Djerba - Houmt Souk,2018-11-17,
Lanius excubitor,Animalia,SHRIKES_LANIIDAE,Great Grey Shrike,,1,10.84367752,33.89029624,Africa,Tunisia,TN,,Tunisia - Djerba - Houmt Souk,2018-11-17,
Larus michahellis,Animalia,GULLS_TERNS_AND_SKIMMERS_LARIDAE,Yellow-legged Gull,,1,10.8441925,33.89072373,Africa,Tunisia,TN,,Tunisia - Djerba - Houmt Souk,2018-11-17,
Chroicocephalus genei,Animalia,GULLS_TERNS_AND_SKIMMERS_LARIDAE,Slender-billed Gull,,3,10.8441925,33.89072373,Africa,Tunisia,TN,,Tunisia - Djerba - Houmt Souk,2018-11-17,
Actitis hypoleucos,Animalia,SANDPIPERS_AND_ALLIES_SCOLOPACIDAE,Common Sandpiper,,2,10.84388083,33.89038129,Africa,Tunisia,TN,,Tunisia - Djerba - Houmt Souk,2018-11-17,
Larus fuscus graellsii,Animalia,GULLS_TERNS_AND_SKIMMERS_LARIDAE,Lesser Black-backed Gull ssp graellsii,,1,10.89718169,33.87459827,Africa,Tunisia,TN,,Tunisia - Djerba - Ras Rmel,2018-11-17,09:00
Tringa nebularia,Animalia,SANDPIPERS_AND_ALLIES_SCOLOPACIDAE,Common Greenshank,,1,10.89718169,33.87459827,Africa,Tunisia,TN,,Tunisia - Djerba - Ras Rmel,2018-11-17,09:00
Chroicocephalus genei,Animalia,GULLS_TERNS_AND_SKIMMERS_LARIDAE,Slender-billed Gull,,60,10.89718169,33.87459827,Africa,Tunisia,TN,,Tunisia - Djerba - Ras Rmel,2018-11-17,09:00
Arenaria interpres,Animalia,SANDPIPERS_AND_ALLIES_SCOLOPACIDAE,Ruddy Turnstone,,10,10.89718169,33.87459827,Africa,Tunisia,TN,,Tunisia - Djerba - Ras Rmel,2018-11-17,09:00
Calidris alba,Animalia,SANDPIPERS_AND_ALLIES_SCOLOPACIDAE,Sanderling,,15,10.89718169,33.87459827,Africa,Tunisia,TN,,Tunisia - Djerba - Ras Rmel,2018-11-17,09:00
Calidris alba,Animalia,SANDPIPERS_AND_ALLIES_SCOLOPACIDAE,Sanderling,,3,10.92241591,33.87477643,Africa,Tunisia,TN,,Tunisia - Djerba - Ras Rmel,2018-11-17,08:30
Larus michahellis,Animalia,GULLS_TERNS_AND_SKIMMERS_LARIDAE,Yellow-legged Gull,,1,10.92264175,33.8754396,Africa,Tunisia,TN,,Tunisia - Djerba - Ras Rmel,2018-11-17,08:30
Lanius excubitor,Animalia,SHRIKES_LANIIDAE,Great Grey Shrike,,1,10.92215842,33.87442012,Africa,Tunisia,TN,,Tunisia - Djerba - Ras Rmel,2018-11-17,08:30
Tringa nebularia,Animalia,SANDPIPERS_AND_ALLIES_SCOLOPACIDAE,Common Greenshank,,3,10.92083368,33.87453792,Africa,Tunisia,TN,,Tunisia - Djerba - Ras Rmel,2018-11-17,08:30
Charadrius alexandrinus,Animalia,PLOVERS_CHARADRIIDAE,Kentish Plover,,3,10.92242154,33.87480515,Africa,Tunisia,TN,,Tunisia - Djerba - Ras Rmel,2018-11-17,08:30
Chroicocephalus genei,Animalia,GULLS_TERNS_AND_SKIMMERS_LARIDAE,Slender-billed Gull,,50,10.92630994,33.87603018,Africa,Tunisia,TN,,Tunisia - Djerba - Ras Rmel,2018-11-17,08:30
Chroicocephalus genei,Animalia,GULLS_TERNS_AND_SKIMMERS_LARIDAE,Slender-billed Gull,,55,10.91995847,33.87489,Africa,Tunisia,TN,,Tunisia - Djerba - Ras Rmel,2018-11-17,08:30
Lanius excubitor,Animalia,SHRIKES_LANIIDAE,Great Grey Shrike,,1,10.94701767,33.86888333,Africa,Tunisia,TN,,Tunisia - Djerba - Ras Rmel,2018-11-17,
Serinus serinus,Animalia,FINCHES_FRINGILLIDAE,European Serin,,1,10.55823348,36.3922519,Africa,Tunisia,TN,,Tunisia - Hammamet,2018-10-15,
Eyprepocnemis plorans,Animalia,SHORTHORNED_GRASSHOPPERS_ACRIDIDAE,,,1,10.391507996215521,35.91805458068848,Africa,Tunisia,TN,,Tunisia - Sousse,2010-11-19,
Timon pater,Animalia,Lacertidae,North-African Ocellated Lizard,,1,9.65139639,37.24510516,Africa,Tunisia,TN,,Tunisia - Bizerte,2017-05-16,
Corvus ruficollis,Animalia,CROWS_AND_JAYS_CORVIDAE,Brown-necked Raven,,2,8.70529175,33.35691456,Africa,Tunisia,TN,,Tunisia - Kebili,2018-01-02,
Oenanthe deserti,Animalia,OLD_WORLD_FLYCATCHERS_MUSCICAPIDAE,Desert Wheatear,,1,9.05410767,33.40823023,Africa,Tunisia,TN,,Tunisia - Douz,2018-01-02,
Alaemon alaudipes,Animalia,LARKS_ALAUDIDAE,Greater Hoopoe-Lark,,1,9.04483795,33.4039312,Africa,Tunisia,TN,,Tunisia - Douz,2018-01-02,
Phoenicurus moussieri,Animalia,OLD_WORLD_FLYCATCHERS_MUSCICAPIDAE,Moussier's Redstart,,1,9.67655182,33.88523743,Africa,Tunisia,TN,,Tunisia - P16 - El Hamma-Saidane,2018-01-01,
Corvus ruficollis,Animalia,CROWS_AND_JAYS_CORVIDAE,Brown-necked Raven,,2,9.70516204,33.91635025,Africa,Tunisia,TN,,Tunisia - Gabès,2017-12-31,
Emberiza sahari sahari,Animalia,BUNTINGS_EMBERIZIDAE,House Bunting ssp sahari,,1,9.766781854487128,33.802221298218,Africa,Tunisia,TN,,Tunisia - Gabès,2009-04-18,
Lanius excubitor algeriensis,Animalia,SHRIKES_LANIIDAE,Dark Desert Grey Shrike,,1,10.38928986,36.66662892,Africa,Tunisia,TN,,Tunisia - Ben Arous (Tunis Sud),1989-12-21,
Lanius excubitor algeriensis,Animalia,SHRIKES_LANIIDAE,Dark Desert Grey Shrike,,1,10.32225609,36.73929682,Africa,Tunisia,TN,,Tunisia - Ben Arous (Tunis Sud),1989-12-20,
Lanius excubitor algeriensis,Animalia,SHRIKES_LANIIDAE,Dark Desert Grey Shrike,,1,10.60798645,36.44448504,Africa,Tunisia,TN,,Tunisia - Presqu'île du Cap Bon,1989-12-17,
Xylocopa pubescens,Animalia,Apidae,,,1,10.636934783302323,35.82727767331838,Africa,Tunisia,TN,,Tunisia - Sousse,2010-11-19,
Chroicocephalus genei,Animalia,GULLS_TERNS_AND_SKIMMERS_LARIDAE,Slender-billed Gull,,30,10.921,33.8741,Africa,Tunisia,TN,,Tunisia - Djerba - Ras Rmel,2017-12-09,10:15
Calidris alba,Animalia,SANDPIPERS_AND_ALLIES_SCOLOPACIDAE,Sanderling,,21,10.9211,33.874,Africa,Tunisia,TN,,Tunisia - Djerba - Ras Rmel,2017-12-09,10:05
Arenaria interpres,Animalia,SANDPIPERS_AND_ALLIES_SCOLOPACIDAE,Ruddy Turnstone,,4,10.9211,33.874,Africa,Tunisia,TN,,Tunisia - Djerba - Ras Rmel,2017-12-09,10:04
Tringa nebularia,Animalia,SANDPIPERS_AND_ALLIES_SCOLOPACIDAE,Common Greenshank,,1,10.9211,33.874,Africa,Tunisia,TN,,Tunisia - Djerba - Ras Rmel,2017-12-09,10:04
Lanius excubitor elegans,Animalia,SHRIKES_LANIIDAE,Desert Grey Shrike,,1,10.9737,33.8601,Africa,Tunisia,TN,,Tunisia - Djerba,2017-12-09,08:28
Charadrius alexandrinus,Animalia,PLOVERS_CHARADRIIDAE,Kentish Plover,,1,10.9213,33.8743,Africa,Tunisia,TN,,Tunisia - Djerba - Ras Rmel,2017-12-03,11:25
Emberiza sahari,Animalia,BUNTINGS_EMBERIZIDAE,House Bunting,,2,9.02423858643,33.457262361,Africa,Tunisia,TN,,Tunisia - Douz,1993-08-03,
Argya fulva,Animalia,Leiothrichidae,Fulvous Babbler,,1,9.01599884033,33.4311930186,Africa,Tunisia,TN,,Tunisia - Douz,1993-08-03,
Spilopelia senegalensis,Animalia,PIGEONS_AND_DOVES_COLUMBIDAE,Laughing Dove,,5,9.8737125,37.2857737,Africa,Tunisia,TN,,Tunisia - Bizerte,2017-09-28,08:27
Ichthyaetus audouinii,Animalia,GULLS_TERNS_AND_SKIMMERS_LARIDAE,Audouin's Gull,,1,9.87602971,37.28798437,Africa,Tunisia,TN,,Tunisia - Bizerte,2017-09-12,
Evania appendigaster,Animalia,Evaniidae,,,1,10.636934783302323,35.82727767331838,Africa,Tunisia,TN,,Tunisia - Sousse,2010-11-25,16:00
Lanius excubitor algeriensis,Animalia,SHRIKES_LANIIDAE,Dark Desert Grey Shrike,,1,10.55570148,36.39073188,Africa,Tunisia,TN,,Tunisia - Hammamet,2017-07-22,10:33
Spilopelia senegalensis,Animalia,PIGEONS_AND_DOVES_COLUMBIDAE,Laughing Dove,,2,10.55753543,36.38936064,Africa,Tunisia,TN,,Tunisia - Hammamet,2017-07-22,10:52
Spilopelia senegalensis,Animalia,PIGEONS_AND_DOVES_COLUMBIDAE,Laughing Dove,,1,10.61068858,36.46669143,Africa,Tunisia,TN,,Tunisia - Presqu'île du Cap Bon,2017-07-22,16:55
Spilopelia senegalensis,Animalia,PIGEONS_AND_DOVES_COLUMBIDAE,Laughing Dove,,5,10.55590662,36.39559647,Africa,Tunisia,TN,,Tunisia - Hammamet,2017-07-23,07:23
Lanius excubitor algeriensis,Animalia,SHRIKES_LANIIDAE,Dark Desert Grey Shrike,,1,10.54897089,36.39983292,Africa,Tunisia,TN,,Tunisia - Hammamet,2017-07-23,07:57
Lanius excubitor algeriensis,Animalia,SHRIKES_LANIIDAE,Dark Desert Grey Shrike,,1,10.55609101,36.39570223,Africa,Tunisia,TN,,Tunisia - Hammamet,2017-07-23,08:15
Lanius excubitor algeriensis,Animalia,SHRIKES_LANIIDAE,Dark Desert Grey Shrike,,1,10.51630922,36.34242949,Africa,Tunisia,TN,,Tunisia - Sousse,2017-07-24,07:05
Spilopelia senegalensis,Animalia,PIGEONS_AND_DOVES_COLUMBIDAE,Laughing Dove,,1,10.53973949,36.40131519,Africa,Tunisia,TN,,Tunisia - Hammamet,2017-07-26,06:58
Pycnonotus barbatus,Animalia,BULBULS_PYCNONOTIDAE,Common Bulbul,,1,10.55757809,36.38925125,Africa,Tunisia,TN,,Tunisia - Hammamet,2017-07-27,11:02
Sturnus unicolor,Animalia,STARLINGS_STURNIDAE,Spotless Starling,,10,10.55757822,36.38925102,Africa,Tunisia,TN,,Tunisia - Hammamet,2017-07-27,11:03
Serinus serinus,Animalia,FINCHES_FRINGILLIDAE,European Serin,,1,10.55759758,36.38923412,Africa,Tunisia,TN,,Tunisia - Hammamet,2017-07-27,17:17
Lanius excubitor algeriensis,Animalia,SHRIKES_LANIIDAE,Dark Desert Grey Shrike,,1,10.42815206,36.18060011,Africa,Tunisia,TN,,Tunisia - Sousse,2017-07-28,06:42
Lanius excubitor algeriensis,Animalia,SHRIKES_LANIIDAE,Dark Desert Grey Shrike,,1,10.42577795,36.17364576,Africa,Tunisia,TN,,Tunisia - Sousse,2017-07-28,06:42
Lanius excubitor algeriensis,Animalia,SHRIKES_LANIIDAE,Dark Desert Grey Shrike,,1,10.40870235,36.13950635,Africa,Tunisia,TN,,Tunisia - Sousse,2017-07-28,06:44
Lanius excubitor,Animalia,SHRIKES_LANIIDAE,Great Grey Shrike,,1,8.342382,34.261607,Africa,Tunisia,TN,,Tunisia - P3 - Metlaoui-Tozeur,2003-12-29,
Timon pater,Animalia,Lacertidae,North-African Ocellated Lizard,,1,9.6509565,37.24582258,Africa,Tunisia,TN,,Tunisia - Bizerte,2017-05-16,
Timon pater,Animalia,Lacertidae,North-African Ocellated Lizard,,1,9.66758423,37.27271798,Africa,Tunisia,TN,,Tunisia - Bizerte,2017-05-16,12:01
Sympetrum fonscolombii,Animalia,SKIMMERS_LIBELLULIDAE,Red-veined Darter,,1,10.61582655,35.86116013,Africa,Tunisia,TN,,Tunisia - Sousse,2010-11-26,17:25
Vulpes vulpes,Animalia,DOGS_CANIDAE,Red Fox,,1,10.85,33.85,Africa,Tunisia,TN,,Tunisia - Djerba - Ras Rmel,2009-11-16,
Ctenodactylus gundi,Animalia,GUNDIS_CTENODACTYLIDAE,North African Gundi,,1,10.1261329651,33.4663157155,Africa,Tunisia,TN,,Tunisia / Tunesie,2009-11-11,
Ctenodactylus gundi,Animalia,GUNDIS_CTENODACTYLIDAE,North African Gundi,,1,10.1269993186,33.4661009127,Africa,Tunisia,TN,,Tunisia / Tunesie,2009-11-19,
Ctenodactylus gundi,Animalia,GUNDIS_CTENODACTYLIDAE,North African Gundi,,1,8.71610641479,33.4638118877,Africa,Tunisia,TN,,Tunisia / Tunesie,2009-11-12,
Tarentola mauritanica,Animalia,PHYLLODACTYLIDAE,Moorish Gecko,,1,10.636934783302323,35.82727767331838,Africa,Tunisia,TN,,Tunisia - Sousse,2014-08-01,18:00
Phoenicopterus roseus,Animalia,FLAMINGOS_PHOENICOPTERIDAE,Greater Flamingo,,100,10.757448576624,35.753695378376,Africa,Tunisia,TN,,Tunisia - Monastir,2006-05-04,
Lanius excubitor algeriensis,Animalia,SHRIKES_LANIIDAE,Dark Desert Grey Shrike,,5,10.411291694327,36.710083085582,Africa,Tunisia,TN,,Tunisia - Presqu'île du Cap Bon,2006-05-01,
Lanius excubitor algeriensis,Animalia,SHRIKES_LANIIDAE,Dark Desert Grey Shrike,,25,10.782454258604304,36.73915617515,Africa,Tunisia,TN,,Tunisia - Presqu'île du Cap Bon,2006-04-30,
Lanius excubitor algeriensis,Animalia,SHRIKES_LANIIDAE,Dark Desert Grey Shrike,,5,10.47197398846,36.728391378815,Africa,Tunisia,TN,,Tunisia - Marais de Soliman,2006-04-29,
Lanius excubitor algeriensis,Animalia,SHRIKES_LANIIDAE,Dark Desert Grey Shrike,,10,10.411405850609,36.71014329302,Africa,Tunisia,TN,,Tunisia - Presqu'île du Cap Bon,2006-04-28,
Citrullus colocynthis,Plantae,CUCURBITACEAE,Colocynth,,1,10.1485061637,35.7839532126,Africa,Tunisia,TN,,Tunisia - Kairouan,1982-10-12,
Sturnus unicolor,Animalia,STARLINGS_STURNIDAE,Spotless Starling,,60,10.5903958529234,35.9017021846182,Africa,Tunisia,TN,,Tunisia - Sousse,2015-06-28,17:30
Sturnus unicolor,Animalia,STARLINGS_STURNIDAE,Spotless Starling,,10,10.5865078233182,35.9015801874921,Africa,Tunisia,TN,,Tunisia - Sousse,2015-06-24,17:56
Streptopelia decaocto,Animalia,PIGEONS_AND_DOVES_COLUMBIDAE,Eurasian Collared Dove,,1,10.5872501246631,35.901820580475,Africa,Tunisia,TN,,Tunisia - Sousse,2015-06-24,18:01
Anacridium aegyptium,Animalia,SHORTHORNED_GRASSHOPPERS_ACRIDIDAE,Egyptian Grasshopper,,1,9.15349960327,34.2071883993,Africa,Tunisia,TN,,Tunisia - Gafsa,2010-05-26,
