scientificName,kingdom,family,vernacularName,previousIdentifications,individualCount,longitudeDecimal,latitudeDecimal,continent,country,countryCode,stateProvince,locality,eventDate,eventTime
Acontia trabealis,Animalia,Noctuidae,Spotted Sulphur,,1,33.946358718,46.4777511212,Europe,Ukraine,UA,,Ukraine - Chaplyns'kyi,2009-08-03,
Lycaena thersamon,Animalia,GOSSAMERWINGED_BUTTERFLIES_LYCAENIDAE,Lesser Fiery Copper,,1,34.7035570518,46.0853591332,Europe,Ukraine,UA,,Ukraine,2009-08-04,
Chazara persephone,Animalia,BRUSHFOOTED_BUTTERFLIES_NYMPHALIDAE,Great Steppe Grayling,,1,35.1988725439,44.9193791338,Europe,Ukraine,UA,,Ukraine - Sudats'ka,2009-08-05,
Hipparchia spec.,Animalia,BRUSHFOOTED_BUTTERFLIES_NYMPHALIDAE,,,1,35.1988725439,44.9193791338,Europe,Ukraine,UA,,Ukraine - Sudats'ka,2009-08-05,
Brintesia circe,Animalia,BRUSHFOOTED_BUTTERFLIES_NYMPHALIDAE,Great Banded Grayling,,1,35.15,44.9,Europe,Ukraine,UA,,Ukraine - Sudats'ka,2009-08-05,
Polyommatus ripartii,Animalia,GOSSAMERWINGED_BUTTERFLIES_LYCAENIDAE,Ripart's Anomalous Blue,,1,34.0470139757,44.4823397719,Europe,Ukraine,UA,,Ukraine - Bakhchysarais'kyi,2009-08-07,
Muschampia proto,Animalia,SKIPPERS_HESPERIIDAE,Sage Skipper,,1,34.0470139757,44.4823397719,Europe,Ukraine,UA,,Ukraine - Bakhchysarais'kyi,2009-08-07,
Polyommatus daphnis,Animalia,GOSSAMERWINGED_BUTTERFLIES_LYCAENIDAE,Meleager's Blue,,1,34.0470139757,44.4823397719,Europe,Ukraine,UA,,Ukraine - Bakhchysarais'kyi,2009-08-07,
Melanargia galathea,Animalia,BRUSHFOOTED_BUTTERFLIES_NYMPHALIDAE,Marbled White,,1,34.0470139757,44.4823397719,Europe,Ukraine,UA,,Ukraine - Bakhchysarais'kyi,2009-08-07,
Polyommatus damone,Animalia,GOSSAMERWINGED_BUTTERFLIES_LYCAENIDAE,,,1,34.04701398,44.48233977,Europe,Ukraine,UA,,Ukraine - Bakhchysarais'kyi,2009-08-07,
Speyeria aglaja,Animalia,BRUSHFOOTED_BUTTERFLIES_NYMPHALIDAE,Dark Green Fritillary,,1,34.0420603752,44.4925793096,Europe,Ukraine,UA,,Ukraine - Bakhchysarais'kyi,2009-08-07,
Plebejus argyrognomon,Animalia,GOSSAMERWINGED_BUTTERFLIES_LYCAENIDAE,Reverdin's Blue,,1,34.0,44.45,Europe,Ukraine,UA,,Ukraine - Bakhchysarais'kyi,2009-08-07,
Melitaea didyma,Animalia,BRUSHFOOTED_BUTTERFLIES_NYMPHALIDAE,Spotted Fritillary,,1,34.02489424,44.4960079,Europe,Ukraine,UA,,Ukraine - Bakhchysarais'kyi,2009-08-07,
Pseudochazara euxina,Animalia,BRUSHFOOTED_BUTTERFLIES_NYMPHALIDAE,,,1,34.066092968,44.4597526356,Europe,Ukraine,UA,,Ukraine - Yaltinskiy Gorno-Lesnoy Nature Zapovednik,2009-08-07,
Centaurea montana,Plantae,Asteraceae,Perennial Cornflower,,1,34.3693616241,44.7767780483,Europe,Ukraine,UA,,Ukraine - Simferopol's'kyi,2013-06-12,
Erythromma lindenii,Animalia,POND_DAMSELS_COENAGRIONIDAE,Blue-eye,,1,32.3854100704,46.5605090922,Europe,Ukraine,UA,,Ukraine - Dnipro River Delta Ramsar site,2013-06-14,
Selysiothemis nigra,Animalia,SKIMMERS_LIBELLULIDAE,Black Pennant,,1,35.086684227,45.6130617925,Europe,Ukraine,UA,,Ukraine - Eastern Syvash Ramsar site,2013-06-06,
Sympetrum sanguineum,Animalia,SKIMMERS_LIBELLULIDAE,Ruddy Darter,,1,26.307220452,51.131552893,Europe,Ukraine,UA,,Ukraine - Sarnens'kyi,2014-07-27,
Muscicapa striata,Animalia,OLD_WORLD_FLYCATCHERS_MUSCICAPIDAE,Spotted Flycatcher,,1,26.3137435843,51.1297143785,Europe,Ukraine,UA,,Ukraine - Sarnens'kyi,2014-07-27,
Motacilla alba,Animalia,PIPITS_EN_WAGTAILS_MOTACILLIDAE,White Wagtail,,1,26.3137435843,51.1297143785,Europe,Ukraine,UA,,Ukraine - Sarnens'kyi,2014-07-27,
Platycnemis pennipes,Animalia,WHITELEGGED_DAMSELFLIES_PLATYCNEMIDIDAE,Blue Featherleg,,1,26.307220452,51.131552893,Europe,Ukraine,UA,,Ukraine - Sarnens'kyi,2014-07-27,
Calopteryx splendens,Animalia,BROADWINGED_DAMSELS_CALOPTERYGIDAE,Banded Demoiselle,,1,26.307220452,51.131552893,Europe,Ukraine,UA,,Ukraine - Sarnens'kyi,2014-07-27,
Pieris brassicae,Animalia,WHITES_PIERIDAE,Large White,,1,24.07,49.845,Europe,Ukraine,UA,,Ukraine - Znesennia Regional Landscape Park,2014-08-09,
Ceratomegilla notata,Animalia,LADYBIRDS_LADYBUGS_OR_LADY_BEETLES_COCCINELLIDAE,,,1,24.193,49.949,Europe,Ukraine,UA,,Ukraine - Kamianka-Buz'kyi,2014-08-08,
Scopula immorata,Animalia,Geometridae,Lewes Wave,,1,24.193,49.949,Europe,Ukraine,UA,,Ukraine - Kamianka-Buz'kyi,2014-08-08,
Timandra comae,Animalia,Geometridae,Blood-vein,,1,26.307220452,51.131552893,Europe,Ukraine,UA,,Ukraine - Sarnens'kyi,2014-07-23,
Polyommatus icarus,Animalia,GOSSAMERWINGED_BUTTERFLIES_LYCAENIDAE,Common Blue,,1,26.307220452,51.131552893,Europe,Ukraine,UA,,Ukraine - Sarnens'kyi,2014-07-22,
Leptinotarsa decemlineata,Animalia,ROOTWORM_BEETLES_CHRYSOMELIDAE,Colorado Beetle,,99,26.307220452,51.131552893,Europe,Ukraine,UA,,Ukraine - Sarnens'kyi,2014-07-22,
Ciconia ciconia,Animalia,STORKS_CICONIIDAE,White Stork,,4,26.307220452,51.131552893,Europe,Ukraine,UA,,Ukraine - Sarnens'kyi,2014-07-22,
Pieris brassicae,Animalia,WHITES_PIERIDAE,Large White,,1,26.307220452,51.131552893,Europe,Ukraine,UA,,Ukraine - Sarnens'kyi,2014-07-22,
Maniola jurtina,Animalia,BRUSHFOOTED_BUTTERFLIES_NYMPHALIDAE,Meadow Brown,,6,24.1988483333,49.9562516667,Europe,Ukraine,UA,,Ukraine - Kamianka-Buz'kyi,2014-08-08,13:56
Sympetrum sanguineum,Animalia,SKIMMERS_LIBELLULIDAE,Ruddy Darter,,1,24.19844,49.95614,Europe,Ukraine,UA,,Ukraine - Kamianka-Buz'kyi,2014-08-08,14:00
Sympetrum sanguineum,Animalia,SKIMMERS_LIBELLULIDAE,Ruddy Darter,,1,24.198855,49.9562033333333,Europe,Ukraine,UA,,Ukraine - Kamianka-Buz'kyi,2014-08-08,14:05
Idaea aversata,Animalia,Geometridae,Riband Wave,,1,24.1928783333,49.94851,Europe,Ukraine,UA,,Ukraine - Kamianka-Buz'kyi,2014-08-08,14:32
Maniola jurtina,Animalia,BRUSHFOOTED_BUTTERFLIES_NYMPHALIDAE,Meadow Brown,,1,24.1929266666667,49.9485233333333,Europe,Ukraine,UA,,Ukraine - Kamianka-Buz'kyi,2014-08-08,14:33
Sympetrum sanguineum,Animalia,SKIMMERS_LIBELLULIDAE,Ruddy Darter,,1,24.1929266666667,49.9485233333333,Europe,Ukraine,UA,,Ukraine - Kamianka-Buz'kyi,2014-08-08,14:33
Pieris napi,Animalia,WHITES_PIERIDAE,Green-veined White,,10,24.1930866666667,49.9486983333333,Europe,Ukraine,UA,,Ukraine - Kamianka-Buz'kyi,2014-08-08,14:43
Coenonympha pamphilus,Animalia,BRUSHFOOTED_BUTTERFLIES_NYMPHALIDAE,Small Heath,,40,24.1932616667,49.94891,Europe,Ukraine,UA,,Ukraine - Kamianka-Buz'kyi,2014-08-08,14:49
Pieris rapae,Animalia,WHITES_PIERIDAE,Small White,,1,24.1914433333333,49.9493933333333,Europe,Ukraine,UA,,Ukraine - Kamianka-Buz'kyi,2014-08-08,15:09
Aeshna cyanea,Animalia,DARNERS_AESHNIDAE,Southern Hawker,,1,24.062715,49.8432466666667,Europe,Ukraine,UA,,Ukraine - L'vivs'ka,2014-08-09,11:35
Aglais io,Animalia,BRUSHFOOTED_BUTTERFLIES_NYMPHALIDAE,Peacock,,1,24.0703566666667,49.8454333333333,Europe,Ukraine,UA,,Ukraine - Znesennia Regional Landscape Park,2014-08-09,13:05
Maniola jurtina,Animalia,BRUSHFOOTED_BUTTERFLIES_NYMPHALIDAE,Meadow Brown,,1,24.0703566666667,49.8454333333333,Europe,Ukraine,UA,,Ukraine - Znesennia Regional Landscape Park,2014-08-09,13:06
Vanessa atalanta,Animalia,BRUSHFOOTED_BUTTERFLIES_NYMPHALIDAE,Red Admiral,,1,24.070555,49.8453,Europe,Ukraine,UA,,Ukraine - Znesennia Regional Landscape Park,2014-08-09,13:22
Maniola jurtina,Animalia,BRUSHFOOTED_BUTTERFLIES_NYMPHALIDAE,Meadow Brown,,7,24.0136316666667,49.81526,Europe,Ukraine,UA,,Ukraine - L'vivs'ka,2014-08-11,17:04
Cupido argiades,Animalia,GOSSAMERWINGED_BUTTERFLIES_LYCAENIDAE,Short-tailed Blue,,10,24.0,49.8,Europe,Ukraine,UA,,Ukraine - L'vivs'ka,2014-08-11,17:05
Aphantopus hyperantus,Animalia,BRUSHFOOTED_BUTTERFLIES_NYMPHALIDAE,Ringlet,,1,23.98734,49.85776,Europe,Ukraine,UA,,Ukraine - L'vivs'ka,2014-08-12,11:21
Maniola jurtina,Animalia,BRUSHFOOTED_BUTTERFLIES_NYMPHALIDAE,Meadow Brown,,2,23.98734,49.85776,Europe,Ukraine,UA,,Ukraine - L'vivs'ka,2014-08-12,11:21
Pieris napi,Animalia,WHITES_PIERIDAE,Green-veined White,,1,23.9874366666667,49.8576983333333,Europe,Ukraine,UA,,Ukraine - L'vivs'ka,2014-08-12,11:32
Sympetrum sanguineum,Animalia,SKIMMERS_LIBELLULIDAE,Ruddy Darter,,1,26.04,50.41,Europe,Ukraine,UA,,Ukraine - Dubens'kyi,2014-07-21,
Maniola jurtina,Animalia,BRUSHFOOTED_BUTTERFLIES_NYMPHALIDAE,Meadow Brown,,1,26.04,50.41,Europe,Ukraine,UA,,Ukraine - Dubens'kyi,2014-07-21,
Phoenicurus ochruros,Animalia,OLD_WORLD_FLYCATCHERS_MUSCICAPIDAE,Black Redstart,,1,26.307220452,51.131552893,Europe,Ukraine,UA,,Ukraine - Sarnens'kyi,2014-07-20,
Papilio machaon,Animalia,SWALLOWTAILS_PAPILIONIDAE,Swallowtail,,1,26.307220452,51.131552893,Europe,Ukraine,UA,,Ukraine - Sarnens'kyi,2014-07-20,
Maniola jurtina,Animalia,BRUSHFOOTED_BUTTERFLIES_NYMPHALIDAE,Meadow Brown,,1,26.307220452,51.131552893,Europe,Ukraine,UA,,Ukraine - Sarnens'kyi,2014-07-20,
Aglais io,Animalia,BRUSHFOOTED_BUTTERFLIES_NYMPHALIDAE,Peacock,,1,26.307220452,51.131552893,Europe,Ukraine,UA,,Ukraine - Sarnens'kyi,2014-07-20,
Columba livia domestica,Animalia,PIGEONS_AND_DOVES_COLUMBIDAE,Feral Pigeon,,1,30.5085468275,50.4489532619,Europe,Ukraine,UA,,Ukraine - Shevchenkivs'kyi,2014-07-23,
Polygonia c-album,Animalia,BRUSHFOOTED_BUTTERFLIES_NYMPHALIDAE,Comma Butterfly,,1,26.307220452,51.131552893,Europe,Ukraine,UA,,Ukraine - Sarnens'kyi,2014-07-27,
Pieris brassicae,Animalia,WHITES_PIERIDAE,Large White,,1,26.307220452,51.131552893,Europe,Ukraine,UA,,Ukraine - Sarnens'kyi,2014-07-21,
Phoenicurus ochruros,Animalia,OLD_WORLD_FLYCATCHERS_MUSCICAPIDAE,Black Redstart,,1,26.307220452,51.131552893,Europe,Ukraine,UA,,Ukraine - Sarnens'kyi,2014-07-21,
Ciconia ciconia,Animalia,STORKS_CICONIIDAE,White Stork,,1,26.307220452,51.131552893,Europe,Ukraine,UA,,Ukraine - Sarnens'kyi,2014-07-21,
Muscicapa striata,Animalia,OLD_WORLD_FLYCATCHERS_MUSCICAPIDAE,Spotted Flycatcher,,1,26.307220452,51.131552893,Europe,Ukraine,UA,,Ukraine - Sarnens'kyi,2014-07-21,
Hirundo rustica,Animalia,SWALLOWS_HIRUNDINIDAE,Barn Swallow,,1,26.307220452,51.131552893,Europe,Ukraine,UA,,Ukraine - Sarnens'kyi,2014-07-21,
Linaria cannabina,Animalia,FINCHES_FRINGILLIDAE,Common Linnet,,1,26.307220452,51.131552893,Europe,Ukraine,UA,,Ukraine - Sarnens'kyi,2014-07-22,
Motacilla alba,Animalia,PIPITS_EN_WAGTAILS_MOTACILLIDAE,White Wagtail,,1,26.307220452,51.131552893,Europe,Ukraine,UA,,Ukraine - Sarnens'kyi,2014-07-22,
Phoenicurus ochruros,Animalia,OLD_WORLD_FLYCATCHERS_MUSCICAPIDAE,Black Redstart,,1,26.307220452,51.131552893,Europe,Ukraine,UA,,Ukraine - Sarnens'kyi,2014-07-22,
Fringilla coelebs,Animalia,FINCHES_FRINGILLIDAE,Common Chaffinch,,1,26.307220452,51.131552893,Europe,Ukraine,UA,,Ukraine - Sarnens'kyi,2014-07-22,
Satyrium w-album,Animalia,GOSSAMERWINGED_BUTTERFLIES_LYCAENIDAE,White-letter Hairstreak,,1,26.04,50.41,Europe,Ukraine,UA,,Ukraine - Dubens'kyi,2014-07-21,
Araschnia levana,Animalia,BRUSHFOOTED_BUTTERFLIES_NYMPHALIDAE,Map Butterfly,,1,26.04,50.41,Europe,Ukraine,UA,,Ukraine - Dubens'kyi,2014-07-21,
Maniola jurtina,Animalia,BRUSHFOOTED_BUTTERFLIES_NYMPHALIDAE,Meadow Brown,,1,26.04,50.41,Europe,Ukraine,UA,,Ukraine - Dubens'kyi,2014-07-21,
Coenonympha pamphilus,Animalia,BRUSHFOOTED_BUTTERFLIES_NYMPHALIDAE,Small Heath,,1,26.04,50.41,Europe,Ukraine,UA,,Ukraine - Dubens'kyi,2014-07-21,
Cupido decoloratus,Animalia,GOSSAMERWINGED_BUTTERFLIES_LYCAENIDAE,Eastern Short-tailed Blue,,1,23.0161583333333,48.5444133333333,Europe,Ukraine,UA,,Ukraine - Svaliavs'kyi,2014-07-27,15:43
Fabriciana adippe,Animalia,BRUSHFOOTED_BUTTERFLIES_NYMPHALIDAE,High Brown Fritillary,,1,23.68186,48.6178716666667,Europe,Ukraine,UA,,Ukraine - Lake Synevyr Ramsar site,2014-07-28,13:31
Columba livia domestica,Animalia,PIGEONS_AND_DOVES_COLUMBIDAE,Feral Pigeon,,1,30.5734491348,50.4583236754,Europe,Ukraine,UA,,Ukraine - Dniprovs'kyi,2014-01-13,
Columba livia domestica,Animalia,PIGEONS_AND_DOVES_COLUMBIDAE,Feral Pigeon,,1,30.571668148,50.459607773,Europe,Ukraine,UA,,Ukraine - Dniprovs'kyi,2014-01-07,
Columba livia domestica,Animalia,PIGEONS_AND_DOVES_COLUMBIDAE,Feral Pigeon,,1,30.571668148,50.459607773,Europe,Ukraine,UA,,Ukraine - Dniprovs'kyi,2014-01-08,
Columba livia domestica,Animalia,PIGEONS_AND_DOVES_COLUMBIDAE,Feral Pigeon,,1,30.571668148,50.459607773,Europe,Ukraine,UA,,Ukraine - Dniprovs'kyi,2014-01-12,
Columba livia domestica,Animalia,PIGEONS_AND_DOVES_COLUMBIDAE,Feral Pigeon,,1,30.571668148,50.459607773,Europe,Ukraine,UA,,Ukraine - Dniprovs'kyi,2014-01-13,
Columba livia domestica,Animalia,PIGEONS_AND_DOVES_COLUMBIDAE,Feral Pigeon,,1,30.5632781982,50.4130027765,Europe,Ukraine,UA,,Ukraine - Pechers'kyi,2013-12-29,
Columba livia domestica,Animalia,PIGEONS_AND_DOVES_COLUMBIDAE,Feral Pigeon,,1,30.4602813721,50.4777180309,Europe,Ukraine,UA,,Ukraine - Shevchenkivs'kyi,2013-12-28,
Columba livia domestica,Animalia,PIGEONS_AND_DOVES_COLUMBIDAE,Feral Pigeon,,1,30.5055999756,50.4425291568,Europe,Ukraine,UA,,Ukraine - Shevchenkivs'kyi,2013-12-26,
Columba livia domestica,Animalia,PIGEONS_AND_DOVES_COLUMBIDAE,Feral Pigeon,,1,30.5631065369,50.4107055085,Europe,Ukraine,UA,,Ukraine - Pechers'kyi,2013-12-24,
Columba livia domestica,Animalia,PIGEONS_AND_DOVES_COLUMBIDAE,Feral Pigeon,,1,30.5142688751,50.3915025566,Europe,Ukraine,UA,,Ukraine - Holosiïvs'kyi,2013-12-22,
Columba livia domestica,Animalia,PIGEONS_AND_DOVES_COLUMBIDAE,Feral Pigeon,,1,30.5630207062,50.4153546259,Europe,Ukraine,UA,,Ukraine - Pechers'kyi,2013-12-23,
Columba livia domestica,Animalia,PIGEONS_AND_DOVES_COLUMBIDAE,Feral Pigeon,,1,30.5053853989,50.4424471646,Europe,Ukraine,UA,,Ukraine - Shevchenkivs'kyi,2013-12-19,
Columba livia domestica,Animalia,PIGEONS_AND_DOVES_COLUMBIDAE,Feral Pigeon,,1,30.5116081238,50.3819802601,Europe,Ukraine,UA,,Ukraine - Holosiïvs'kyi,2013-12-18,
Columba livia domestica,Animalia,PIGEONS_AND_DOVES_COLUMBIDAE,Feral Pigeon,,1,30.511264801,50.3911195127,Europe,Ukraine,UA,,Ukraine - Holosiïvs'kyi,2013-12-16,
Corvus frugilegus,Animalia,CROWS_AND_JAYS_CORVIDAE,Rook,,1,38.89038015160606,48.14614752312018,Europe,Ukraine,UA,,Ukraine - Briankivs'ka,2013-12-12,14:53
Corvus frugilegus,Animalia,CROWS_AND_JAYS_CORVIDAE,Rook,,1,38.812052859029556,48.14924262468531,Europe,Ukraine,UA,,Ukraine - Briankivs'ka,2013-12-12,13:21
Columba livia domestica,Animalia,PIGEONS_AND_DOVES_COLUMBIDAE,Feral Pigeon,,1,30.5292892456,50.4534055325,Europe,Ukraine,UA,,Ukraine - Shevchenkivs'kyi,2013-12-09,
Columba livia domestica,Animalia,PIGEONS_AND_DOVES_COLUMBIDAE,Feral Pigeon,,1,30.5049133301,50.4431850895,Europe,Ukraine,UA,,Ukraine - Shevchenkivs'kyi,2013-12-12,
Cupido decoloratus,Animalia,GOSSAMERWINGED_BUTTERFLIES_LYCAENIDAE,Eastern Short-tailed Blue,,1,23.018631,48.544845,Europe,Ukraine,UA,,Ukraine - Svaliavs'kyi,2013-07-21,10:11
Araschnia levana,Animalia,BRUSHFOOTED_BUTTERFLIES_NYMPHALIDAE,Map Butterfly,,1,23.009633,48.54913,Europe,Ukraine,UA,,Ukraine - Svaliavs'kyi,2013-07-22,15:11
Cupido decoloratus,Animalia,GOSSAMERWINGED_BUTTERFLIES_LYCAENIDAE,Eastern Short-tailed Blue,,1,23.013499,48.549625,Europe,Ukraine,UA,,Ukraine - Svaliavs'kyi,2013-07-23,17:35
Salamandra salamandra,Animalia,Salamandridae,Fire Salamander,,1,22.65,49.1,Europe,Ukraine,UA,,Ukraine - Forêts primaires de hêtres des Carpates World Heritage Site,2009-08-01,
Bielzia coerulans,Animalia,LIMACIDAE,Carpathian blue slug,,1,22.657871245901,49.143956999796,Europe,Ukraine,UA,,Ukraine - Forêts primaires de hêtres des Carpates World Heritage Site,2009-08-01,
Tursiops truncatus ponticus,Animalia,DOLPHINS_DELPHINIDAE,Black Sea Bottlenose Dolphin,,1,34.9149517715,44.8181129096,Europe,Ukraine,UA,,Ukraine - Noviy Svit State Zakaznik,2005-06-08,
Spermophilus pygmaeus,Animalia,SQUIRRELS_CHIPMUNKS_AND_PRAIRIEDOGS_SCIURIDAE,Little Ground Squirrel,,1,34.427837217227,45.779815545941,Europe,Ukraine,UA,,Ukraine - Crimea,2005-06-05,
Medicago falcata,Plantae,Fabaceae,Sickle Medick,,1,30.559718906879,50.430379093561,Europe,Ukraine,UA,,Ukraine - Pechers'kyi,2011-08-06,
Eryngium planum,Plantae,Apiaceae,Blue Eryngo,,1,30.571051239967,50.44065696565,Europe,Ukraine,UA,,Ukraine - Dniprovs'kyi,2011-08-04,
Aristolochia clematitis,Plantae,ARISTOLOCHIACEAE,Birthwort,,1,30.571051239967,50.44065696565,Europe,Ukraine,UA,,Ukraine - Dniprovs'kyi,2011-08-04,
Cystopteris fragilis,Plantae,CYSTOPTERIDACEAE,Brittle Bladder Fern,,1,24.019197821617,49.836536240114,Europe,Ukraine,UA,,Ukraine - L'vivs'ka,2011-08-02,
Portulaca oleracea,Plantae,PORTULACACEAE,Common Purslane,,1,24.002026319504,49.836987753831,Europe,Ukraine,UA,,Ukraine - L'vivs'ka,2011-08-02,
Columba livia domestica,Animalia,PIGEONS_AND_DOVES_COLUMBIDAE,Feral Pigeon,,1,30.527480263291416,50.45167401903351,Europe,Ukraine,UA,,Ukraine - Shevchenkivs'kyi,2012-11-29,07:46
Saga pedo,Animalia,KATYDIDS_TETTIGONIIDAE,Predatory Bush Cricket,,2,33.1622737803,45.4843165373,Europe,Ukraine,UA,,Ukraine - Chornomors'kyi,2010-07-29,
Saga pedo,Animalia,KATYDIDS_TETTIGONIIDAE,Predatory Bush Cricket,,4,35.1252645411,44.9058543504,Europe,Ukraine,UA,,Ukraine - Sudats'ka,2010-07-22,
Saga pedo,Animalia,KATYDIDS_TETTIGONIIDAE,Predatory Bush Cricket,,3,35.2037530795,44.9301181115,Europe,Ukraine,UA,,Ukraine - Sudats'ka,2010-07-23,
Corvus frugilegus,Animalia,CROWS_AND_JAYS_CORVIDAE,Rook,,1,38.8158710442,48.1378965421,Europe,Ukraine,UA,,Ukraine - Briankivs'ka,2012-02-16,12:30
Pelecanus crispus,Animalia,PELICANS_PELECANIDAE,Dalmatian Pelican,,1,29.763224051,45.4865487064,Europe,Ukraine,UA,,Ukraine - Danube Delta,2009-08-02,
Lanius collurio,Animalia,SHRIKES_LANIIDAE,Red-backed Shrike,,2,23.9945863939,49.5812967458,Europe,Ukraine,UA,,Ukraine - Mykolavs'kyi,2009-07-31,
Lanius collurio,Animalia,SHRIKES_LANIIDAE,Red-backed Shrike,,1,24.0162312984,49.5462218753,Europe,Ukraine,UA,,Ukraine - Mykolavs'kyi,2009-06-18,
Hyla arborea,Animalia,Hylidae,Common Tree Frog,,1,29.65,45.35,Europe,Ukraine,UA,,Ukraine - Danube Delta,2010-05-02,
Pelecanus onocrotalus,Animalia,PELICANS_PELECANIDAE,Great White Pelican,,80,28.917388916,45.4890202454,Europe,Ukraine,UA,,Ukraine - Izmal's'ka,2010-05-04,
Pelecanus onocrotalus,Animalia,PELICANS_PELECANIDAE,Great White Pelican,,560,28.917388916,45.4890202454,Europe,Ukraine,UA,,Ukraine - Izmal's'ka,2010-05-04,
Pelecanus onocrotalus,Animalia,PELICANS_PELECANIDAE,Great White Pelican,,30,29.5918893814,45.3939146323,Europe,Ukraine,UA,,Ukraine - Danube Delta,2010-05-03,
Pelecanus onocrotalus,Animalia,PELICANS_PELECANIDAE,Great White Pelican,,100,29.6316719055,45.5094747568,Europe,Ukraine,UA,,Ukraine - Danube Delta,2010-05-02,
Branta ruficollis,Animalia,DUCKS_GEESE_AND_SWANS_ANATIDAE,Red-breasted Goose,,1,29.9830627441,45.8518242552,Europe,Ukraine,UA,,Ukraine - Alibei Liman,1992-04-18,
Ichthyaetus melanocephalus,Animalia,GULLS_TERNS_AND_SKIMMERS_LARIDAE,Mediterranean Gull,,10,31.1778259277,46.6363623388,Europe,Ukraine,UA,,Ukraine - Tyligul Liman,1992-04-16,
Pelecanus crispus,Animalia,PELICANS_PELECANIDAE,Dalmatian Pelican,,1,29.7496032715,45.4902236576,Europe,Ukraine,UA,,Ukraine,2009-07-09,
Brachytron pratense,Animalia,DARNERS_AESHNIDAE,Hairy Hawker,,1,36.198577880859,49.921056602057,Europe,Ukraine,UA,,Ukraine,2006-06-07,
Aeshna mixta,Animalia,DARNERS_AESHNIDAE,Migrant Hawker,,1,36.284837722778,50.088097963663,Europe,Ukraine,UA,,Ukraine,2008-09-26,
Aeshna isoceles,Animalia,DARNERS_AESHNIDAE,Green-eyed Hawker,,1,37.124176025391,50.318065777846,Europe,Ukraine,UA,,Ukraine,2008-05-30,
Anax imperator,Animalia,DARNERS_AESHNIDAE,Blue Emperor,,1,36.207847595215,49.924814233712,Europe,Ukraine,UA,,Ukraine,2008-06-08,
Anax imperator,Animalia,DARNERS_AESHNIDAE,Blue Emperor,,1,36.09317779541,49.698060458823,Europe,Ukraine,UA,,Ukraine,2007-06-06,
Anax parthenope,Animalia,DARNERS_AESHNIDAE,Lesser Emperor,,1,35.145263671875,44.930536696751,Europe,Ukraine,UA,,Ukraine,2008-06-21,07:53
Coenonympha pamphilus,Animalia,BRUSHFOOTED_BUTTERFLIES_NYMPHALIDAE,Small Heath,,1,22.68723965,49.15625355,Europe,Ukraine,UA,,Ukraine - Forêts primaires de hêtres des Carpates World Heritage Site,2009-07-30,
Lycaena tityrus,Animalia,GOSSAMERWINGED_BUTTERFLIES_LYCAENIDAE,Sooty Copper,,1,22.65,49.15,Europe,Ukraine,UA,,Ukraine - Forêts primaires de hêtres des Carpates World Heritage Site,2009-07-30,
Boloria selene,Animalia,BRUSHFOOTED_BUTTERFLIES_NYMPHALIDAE,Small Pearl-bordered Fritillary,,1,22.65,49.15,Europe,Ukraine,UA,,Ukraine - Forêts primaires de hêtres des Carpates World Heritage Site,2009-07-30,
Ardea alba,Animalia,HERONS_ARDEIDAE,Great Egret,,1,29.6609325408936,45.2537384033203,Europe,Ukraine,UA,,Ukraine - Kiliis'kyi,2020-03-02,15:23
Motacilla alba,Animalia,PIPITS_EN_WAGTAILS_MOTACILLIDAE,White Wagtail,,2,30.47230504,50.62111142,Europe,Ukraine,UA,,Ukraine - Vyshhorods'kyi,2019-08-27,10:27
Ficedula parva,Animalia,OLD_WORLD_FLYCATCHERS_MUSCICAPIDAE,Red-breasted Flycatcher,,1,33.0235214233398,44.6048583984375,Europe,Ukraine,UA,,Ukraine - Crimea,2019-09-13,06:50
Phalacrocorax carbo,Animalia,CORMORANTS_PHALACROCORACIDAE,Great Cormorant,,1,30.49255371,46.10942153,Europe,Ukraine,UA,,Ukraine - Bilhorod-Dnistrovs'kyi,2019-08-31,09:44
Anser indicus,Animalia,DUCKS_GEESE_AND_SWANS_ANATIDAE,Bar-headed Goose,,1,30.23485184,48.76107407,Europe,Ukraine,UA,,Ukraine - Umans'ka,2019-08-29,11:42
Motacilla alba,Animalia,PIPITS_EN_WAGTAILS_MOTACILLIDAE,White Wagtail,,1,30.4786052703857,50.6173057556152,Europe,Ukraine,UA,,Ukraine - Vyshhorods'kyi,2019-08-27,11:25
Phoenicurus ochruros,Animalia,OLD_WORLD_FLYCATCHERS_MUSCICAPIDAE,Black Redstart,,1,30.554084777832,50.4382743835449,Europe,Ukraine,UA,,Ukraine - Pechers'kyi,2019-08-26,10:26
Buteo buteo,Animalia,HAWKS_AND_EAGLES_ACCIPITRIDAE,Common Buzzard,,1,36.35386276,50.10337067,Europe,Ukraine,UA,,Ukraine - Kharkivs'kyi,2019-08-25,10:15
Corvus cornix,Animalia,CROWS_AND_JAYS_CORVIDAE,Hooded Crow,,1,30.4611415863037,50.4062767028809,Europe,Ukraine,UA,,Ukraine - Solomians'kyi,2019-08-20,11:33
Hirundo rustica,Animalia,SWALLOWS_HIRUNDINIDAE,Barn Swallow,,10,22.6666259765625,49.1412696838379,Europe,Ukraine,UA,,Ukraine - Forêts primaires de hêtres des Carpates World Heritage Site,2019-07-29,18:33
Cervus elaphus,Animalia,DEER_CERVIDAE,Red Deer,,1,22.6860847473145,49.1536026000977,Europe,Ukraine,UA,,Ukraine - Forêts primaires de hêtres des Carpates World Heritage Site,2019-07-31,09:04
Corvus cornix,Animalia,CROWS_AND_JAYS_CORVIDAE,Hooded Crow,,1,30.5297107696533,50.4506797790527,Europe,Ukraine,UA,,Ukraine - Pechers'kyi,2019-07-27,18:36
Cervus elaphus,Animalia,DEER_CERVIDAE,Red Deer,,1,22.6860847473145,49.1536026000977,Europe,Ukraine,UA,,Ukraine - Forêts primaires de hêtres des Carpates World Heritage Site,2019-07-31,09:04
Hirundo rustica,Animalia,SWALLOWS_HIRUNDINIDAE,Barn Swallow,,10,22.6666259765625,49.1412696838379,Europe,Ukraine,UA,,Ukraine - Forêts primaires de hêtres des Carpates World Heritage Site,2019-07-29,18:33
Bombina variegata,Animalia,Bombinatoridae,Yellow-bellied Toad,,3,24.05,48.85,Europe,Ukraine,UA,,Ukraine - Rozhniativs'kyi,2019-07-25,11:07
Bufo bufo,Animalia,Bufonidae,Common Toad,,1,24.0785579681396,48.8710823059082,Europe,Ukraine,UA,,Ukraine - Rozhniativs'kyi,2019-07-25,11:22
Lacerta agilis,Animalia,Lacertidae,Sand Lizard,,1,23.75,49.9,Europe,Ukraine,UA,,Ukraine - Roztochchia Nature Zapovednik,2019-07-12,13:16
Anguis colchica,Animalia,Anguidae,Eastern Slow Worm,,1,23.7626876831055,49.9145088195801,Europe,Ukraine,UA,,Ukraine - Roztochchia Nature Zapovednik,2019-07-12,13:29
Pelobates fuscus,Animalia,Pelobatidae,Common Eurasian Spadefoot,,30,22.3339920043945,48.4267311096191,Europe,Ukraine,UA,,Ukraine - Uzhhorods'kyi,2019-06-25,20:28
Salamandra salamandra,Animalia,Salamandridae,Fire Salamander,,5,22.75,48.45,Europe,Ukraine,UA,,Ukraine - Mukachivs'kyi,2019-06-26,10:44
Anguis colchica,Animalia,Anguidae,Eastern Slow Worm,,1,23.7492504119873,49.9097785949707,Europe,Ukraine,UA,,Ukraine - Iavorivs'kyi,2019-07-12,13:51
Sericomyia bombiformis,Animalia,HOVER_FLIES_OR_FLOWER_FLIES_SYRPHIDAE,,,1,23.520445386321494,49.01950157561562,Europe,Ukraine,UA,,Ukraine - Skolivs'kyi,2019-07-07,13:47
Sericomyia bombiformis,Animalia,HOVER_FLIES_OR_FLOWER_FLIES_SYRPHIDAE,,,1,23.519550633531956,49.020718844200495,Europe,Ukraine,UA,,Ukraine - Skolivs'kyi,2019-07-07,12:51
Temnostoma vespiforme,Animalia,HOVER_FLIES_OR_FLOWER_FLIES_SYRPHIDAE,,,1,23.519882946740292,49.020598997606776,Europe,Ukraine,UA,,Ukraine - Skolivs'kyi,2019-07-07,12:36
Temnostoma apiforme,Animalia,HOVER_FLIES_OR_FLOWER_FLIES_SYRPHIDAE,,,1,23.520035643225892,49.020649247301314,Europe,Ukraine,UA,,Ukraine - Skolivs'kyi,2019-07-07,12:35
Muscardinus avellanarius,Animalia,DORMICE_GLIRIDAE,Hazel Dormouse,,1,23.51149696245939,49.025658726034386,Europe,Ukraine,UA,,Ukraine - Skolivs'kyi,2019-07-07,09:32
Bufo bufo,Animalia,Bufonidae,Common Toad,,200,23.2679538726807,48.4155578613281,Europe,Ukraine,UA,,Ukraine - Irshavs'kyi,2019-05-08,12:48
Pelophylax spec.,Animalia,Ranidae,Green Frog spec.,,1,23.2679653167725,48.4155807495117,Europe,Ukraine,UA,,Ukraine - Irshavs'kyi,2019-06-26,16:00
Rana spec.,Animalia,Ranidae,Frog (Rana) unknown,,1,23.2682304382324,48.4157257080078,Europe,Ukraine,UA,,Ukraine - Irshavs'kyi,2019-06-26,16:06
Verbascum blattaria,Plantae,SCROPHULARIACEAE,Moth Mullein,,1,24.02865931,49.65632137,Europe,Ukraine,UA,,Ukraine - Pustomytivs'kyi,2018-06-11,12:28
Heracleum mantegazzianum,Plantae,Apiaceae,Giant Hogweed,,1,23.99948803,49.65219201,Europe,Ukraine,UA,,Ukraine - Pustomytivs'kyi,2018-06-12,12:31
Stachys recta,Plantae,Lamiaceae,Yellow Woundwort,,1,23.96415018,49.66518328,Europe,Ukraine,UA,,Ukraine - Pustomytivs'kyi,2018-06-13,12:19
Sus scrofa,Animalia,PIGS_SUIDAE,Wild Boar,,1,23.7324028015137,49.9432716369629,Europe,Ukraine,UA,,Ukraine - Roztochchia Nature Zapovednik,2019-06-01,17:33
Corvus corax,Animalia,CROWS_AND_JAYS_CORVIDAE,Northern Raven,,1,23.0574904,48.6556516,Europe,Ukraine,UA,,Ukraine - Svaliavs'kyi,2019-03-28,11:17
Tilia cordata,Plantae,MALVACEAE,Small-leaved Lime,,1,23.6304397583008,49.9624862670899,Europe,Ukraine,UA,,Ukraine - Iavorivs'kyi,2019-06-01,09:33
Sanicula europaea,Plantae,Apiaceae,Sanicle,,1,23.6317863464355,49.9688568115234,Europe,Ukraine,UA,,Ukraine - Iavorivs'kyi,2019-06-01,09:57
Bufo bufo,Animalia,Bufonidae,Common Toad,,1,23.6312656402588,49.9688453674316,Europe,Ukraine,UA,,Ukraine - Iavorivs'kyi,2019-06-01,10:07
Rana dalmatina,Animalia,Ranidae,Agile frog,,1,23.25,48.4,Europe,Ukraine,UA,,Ukraine - Irshavs'kyi,2019-03-29,11:54
Natrix natrix,Animalia,Colubridae,European Grass Snake,,1,23.75,49.9,Europe,Ukraine,UA,,Ukraine - Roztochchia Nature Zapovednik,2019-05-31,18:22
Bufo bufo,Animalia,Bufonidae,Common Toad,,1,23.7604446411133,49.9140357971191,Europe,Ukraine,UA,,Ukraine - Roztochchia Nature Zapovednik,2019-05-31,18:22
Salamandra salamandra,Animalia,Salamandridae,Fire Salamander,,1,23.6,48.25,Europe,Ukraine,UA,,Ukraine - Tiachivs'kyi,2019-05-29,13:07
Pelobates fuscus,Animalia,Pelobatidae,Common Eurasian Spadefoot,,1,23.75,49.9,Europe,Ukraine,UA,,Ukraine - Iavorivs'kyi,2019-04-30,17:14
Bufo bufo,Animalia,Bufonidae,Common Toad,,1,23.2679538726807,48.4155578613281,Europe,Ukraine,UA,,Ukraine - Irshavs'kyi,2019-05-08,12:48
Turdus philomelos philomelos,Animalia,THRUSHES_TURDIDAE,Song Thrush ssp philomelos,,1,23.3637676239014,48.1244926452637,Europe,Ukraine,UA,,Ukraine - Khusts'kyi,2019-05-09,10:31
Rana dalmatina,Animalia,Ranidae,Agile frog,,1,23.35,48.1,Europe,Ukraine,UA,,Ukraine - Khusts'kyi,2019-05-09,10:33
Emberiza citrinella citrinella,Animalia,BUNTINGS_EMBERIZIDAE,Yellowhammer ssp citrinella,,1,23.4454917907715,48.074893951416,Europe,Ukraine,UA,,Ukraine - Tiachivs'kyi,2019-05-09,11:06
Anguis colchica,Animalia,Anguidae,Eastern Slow Worm,,1,23.7491474151611,49.9111709594727,Europe,Ukraine,UA,,Ukraine - Iavorivs'kyi,2019-05-27,11:17
Anguis colchica,Animalia,Anguidae,Eastern Slow Worm,,1,23.7490520477295,49.9089736938477,Europe,Ukraine,UA,,Ukraine - Iavorivs'kyi,2019-05-27,11:54
Anguis colchica,Animalia,Anguidae,Eastern Slow Worm,,1,23.7489357,49.90895844,Europe,Ukraine,UA,,Ukraine - Iavorivs'kyi,2019-05-27,11:57
Natrix natrix,Animalia,Colubridae,European Grass Snake,,1,23.75,49.9,Europe,Ukraine,UA,,Ukraine - Iavorivs'kyi,2019-05-27,11:08
Anguis colchica,Animalia,Anguidae,Eastern Slow Worm,,1,23.74926758,49.91101456,Europe,Ukraine,UA,,Ukraine - Iavorivs'kyi,2019-05-27,11:16
Bufo bufo,Animalia,Bufonidae,Common Toad,,1,23.7766361236572,49.9201126098633,Europe,Ukraine,UA,,Ukraine - Roztochchia Nature Zapovednik,2019-05-27,10:33
Bufo bufo,Animalia,Bufonidae,Common Toad,,1,23.769495010376,49.9161071777344,Europe,Ukraine,UA,,Ukraine - Roztochchia Nature Zapovednik,2019-05-27,10:44
Sturnus vulgaris,Animalia,STARLINGS_STURNIDAE,Common Starling,,1,30.8985710144043,50.3498001098633,Europe,Ukraine,UA,,Ukraine - Boryspil's'ka,2019-05-04,10:18
Corvus cornix,Animalia,CROWS_AND_JAYS_CORVIDAE,Hooded Crow,,2,30.5271701812744,50.4485626220703,Europe,Ukraine,UA,,Ukraine - Shevchenkivs'kyi,2019-04-09,08:21
Phoenicurus ochruros,Animalia,OLD_WORLD_FLYCATCHERS_MUSCICAPIDAE,Black Redstart,,1,30.5262126922607,50.4540405273438,Europe,Ukraine,UA,,Ukraine - Shevchenkivs'kyi,2019-04-09,09:14
Linaria spec.,Plantae,PLANTAGINACEAE,,,1,34.05468328,44.44698276,Europe,Ukraine,UA,,Ukraine - Yaltinskiy Gorno-Lesnoy Nature Zapovednik,2006-09-22,
Berberis vulgaris,Plantae,BERBERIDACEAE,Barberry,,1,34.05468328,44.44698276,Europe,Ukraine,UA,,Ukraine - Yaltinskiy Gorno-Lesnoy Nature Zapovednik,2006-09-22,
Geranium sanguineum,Plantae,GERANIACEAE,Bloody Crane's-bill,,1,24.0162494,49.64476284,Europe,Ukraine,UA,,Ukraine - Pustomytivs'kyi,2018-06-12,08:49
Cichorium intybus,Plantae,Asteraceae,Chicory,,1,24.01886724,49.64341507,Europe,Ukraine,UA,,Ukraine - Pustomytivs'kyi,2018-06-12,08:44
Apatura iris,Animalia,BRUSHFOOTED_BUTTERFLIES_NYMPHALIDAE,Purple Emperor,,2,24.0,49.6,Europe,Ukraine,UA,,Ukraine - Pustomytivs'kyi,2018-06-12,12:19
Geranium phaeum,Plantae,GERANIACEAE,Dusky Crane's-bill,,1,24.01742958,49.63449381,Europe,Ukraine,UA,,Ukraine - Pustomytivs'kyi,2018-06-12,12:17
Leonurus cardiaca,Plantae,Lamiaceae,Motherwort,,1,24.01654981,49.65377945,Europe,Ukraine,UA,,Ukraine - Pustomytivs'kyi,2018-06-11,16:19
Impatiens noli-tangere,Plantae,BALSAMINACEAE,Touch-me-not Balsam,,1,24.01682876,49.65468241,Europe,Ukraine,UA,,Ukraine - Pustomytivs'kyi,2018-06-11,11:19
Cichorium intybus,Plantae,Asteraceae,Chicory,,1,24.01233321,49.65403661,Europe,Ukraine,UA,,Ukraine - Pustomytivs'kyi,2018-06-11,10:14
Stachys palustris,Plantae,Lamiaceae,Marsh Woundwort,,4,24.01337408,49.6535294,Europe,Ukraine,UA,,Ukraine - Pustomytivs'kyi,2018-06-12,10:52
Sedum acre,Plantae,CRASSULACEAE,Biting Stonecrop,,1,24.01667487,49.6442419,Europe,Ukraine,UA,,Ukraine - Pustomytivs'kyi,2018-06-12,11:26
Centaurea cyanus,Plantae,Asteraceae,Cornflower,,1,23.98146283,49.65720377,Europe,Ukraine,UA,,Ukraine - Pustomytivs'kyi,2018-06-13,10:15
Saponaria officinalis,Plantae,CARYOPHYLLACEAE,Soapwort,,1,23.95979427,49.66339163,Europe,Ukraine,UA,,Ukraine - Pustomytivs'kyi,2018-06-13,14:18
Trifolium arvense,Plantae,Fabaceae,Hare's-foot Clover,,1,23.97029445,49.67609824,Europe,Ukraine,UA,,Ukraine - Pustomytivs'kyi,2018-06-13,11:21
Clinopodium vulgare,Plantae,Lamiaceae,Wild Basil,,1,23.9673866,49.6626695,Europe,Ukraine,UA,,Ukraine - Pustomytivs'kyi,2018-06-13,12:10
Melampyrum nemorosum,Plantae,OROBANCHACEAE,Wood Cow-wheat,,6,23.96562707,49.66244033,Europe,Ukraine,UA,,Ukraine - Pustomytivs'kyi,2018-06-13,12:17
Heracleum mantegazzianum,Plantae,Apiaceae,Giant Hogweed,,1,23.96102473,49.65701592,Europe,Ukraine,UA,,Ukraine - Mykolavs'kyi,2018-06-13,14:20
Consolida spec.,Plantae,RANUNCULACEAE,,,1,23.99737185,49.65016067,Europe,Ukraine,UA,,Ukraine - Pustomytivs'kyi,2018-06-13,15:51
Lycaena dispar,Animalia,GOSSAMERWINGED_BUTTERFLIES_LYCAENIDAE,Large Copper,,1,23.95,49.75,Europe,Ukraine,UA,,Ukraine - Pustomytivs'kyi,2018-06-15,11:39
Sambucus racemosa,Plantae,ADOXACEAE,Red-berried Elder,,1,24.0227152,49.66174586,Europe,Ukraine,UA,,Ukraine - Pustomytivs'kyi,2018-06-14,12:08
Verbascum nigrum,Plantae,SCROPHULARIACEAE,Dark Mullein,,1,24.02873777,49.6678637,Europe,Ukraine,UA,,Ukraine - Pustomytivs'kyi,2018-06-14,13:08
Stachys palustris,Plantae,Lamiaceae,Marsh Woundwort,,1,24.03511774,49.67135646,Europe,Ukraine,UA,,Ukraine - Pustomytivs'kyi,2018-06-14,13:43
Datura stramonium,Plantae,SOLANACEAE,Thorn-apple,,1,23.95179793,49.71523938,Europe,Ukraine,UA,,Ukraine - Pustomytivs'kyi,2018-06-15,08:49
Teucrium chamaedrys,Plantae,Lamiaceae,Wall Germander,,1,23.96542322,49.66239866,Europe,Ukraine,UA,,Ukraine - Pustomytivs'kyi,2018-06-13,12:13
Sturnus vulgaris,Animalia,STARLINGS_STURNIDAE,Common Starling,,1,30.8981609344482,50.3527717590332,Europe,Ukraine,UA,,Ukraine - Boryspil's'ka,2018-09-15,10:28
Erinaceus roumanicus,Animalia,HEDGEHOGS_ERINACEIDAE,Northern White-breasted Hedgehog,,1,24.0490010637597,51.202257725074,Europe,Ukraine,UA,,Ukraine - Liuboml's'ky,2018-05-02,13:24
Erinaceus roumanicus,Animalia,HEDGEHOGS_ERINACEIDAE,Northern White-breasted Hedgehog,,1,24.2270764780605,50.7776363094794,Europe,Ukraine,UA,,Ukraine - Ivanychivs'kyi,2018-05-03,12:02
Chroicocephalus ridibundus,Animalia,GULLS_TERNS_AND_SKIMMERS_LARIDAE,Black-headed Gull,,300,23.7289489260706,51.2830155070049,Europe,Ukraine,UA,,Ukraine - Liuboml's'ky,2018-05-02,10:45
Sturnus vulgaris,Animalia,STARLINGS_STURNIDAE,Common Starling,,40,30.912455166207,50.350647688156,Europe,Ukraine,UA,,Ukraine - Boryspil's'ka,2018-09-15,10:31
Roeseliana roeselii,Animalia,KATYDIDS_TETTIGONIIDAE,Roesel's Bush-cricket,,1,23.165828333333,48.68888,Europe,Ukraine,UA,,Ukraine - Volovets'kyi,2018-08-14,07:21
Saxicola rubetra,Animalia,OLD_WORLD_FLYCATCHERS_MUSCICAPIDAE,Whinchat,,1,23.289298333333,48.5953,Europe,Ukraine,UA,,Ukraine - Svaliavs'kyi,2018-08-15,06:44
Lycaena tityrus,Animalia,GOSSAMERWINGED_BUTTERFLIES_LYCAENIDAE,Sooty Copper,,1,23.2,48.55,Europe,Ukraine,UA,,Ukraine - Svaliavs'kyi,2018-08-15,15:01
Boloria dia,Animalia,BRUSHFOOTED_BUTTERFLIES_NYMPHALIDAE,Violet Fritillary,,1,23.245751666667,48.578086666667,Europe,Ukraine,UA,,Ukraine - Svaliavs'kyi,2018-08-15,15:21
Vanessa atalanta,Animalia,BRUSHFOOTED_BUTTERFLIES_NYMPHALIDAE,Red Admiral,,1,23.245235,48.57808,Europe,Ukraine,UA,,Ukraine - Svaliavs'kyi,2018-08-15,15:56
Lanius collurio,Animalia,SHRIKES_LANIIDAE,Red-backed Shrike,,1,23.22056,48.533243333333,Europe,Ukraine,UA,,Ukraine - Svaliavs'kyi,2018-08-16,09:44
Lycaena virgaureae,Animalia,GOSSAMERWINGED_BUTTERFLIES_LYCAENIDAE,Scarce Copper,,1,23.2,48.55,Europe,Ukraine,UA,,Ukraine - Svaliavs'kyi,2018-08-15,15:45
Araschnia levana,Animalia,BRUSHFOOTED_BUTTERFLIES_NYMPHALIDAE,Map Butterfly,,1,23.246098333333,48.578293333333,Europe,Ukraine,UA,,Ukraine - Svaliavs'kyi,2018-08-15,15:39
Buteo buteo,Animalia,HAWKS_AND_EAGLES_ACCIPITRIDAE,Common Buzzard,,1,23.245515,48.57808,Europe,Ukraine,UA,,Ukraine - Svaliavs'kyi,2018-08-15,15:28
Coenonympha glycerion,Animalia,BRUSHFOOTED_BUTTERFLIES_NYMPHALIDAE,Chestnut Heath,,1,23.2,48.55,Europe,Ukraine,UA,,Ukraine - Svaliavs'kyi,2018-08-15,15:27
Argynnis paphia,Animalia,BRUSHFOOTED_BUTTERFLIES_NYMPHALIDAE,Silver-washed Fritillary,,1,23.245431666667,48.578223333333,Europe,Ukraine,UA,,Ukraine - Svaliavs'kyi,2018-08-15,15:02
Araschnia levana,Animalia,BRUSHFOOTED_BUTTERFLIES_NYMPHALIDAE,Map Butterfly,,1,23.276598333333,48.581321666667,Europe,Ukraine,UA,,Ukraine - Svaliavs'kyi,2018-08-15,11:40
Muscicapa striata,Animalia,OLD_WORLD_FLYCATCHERS_MUSCICAPIDAE,Spotted Flycatcher,,1,23.276861666667,48.581403333333,Europe,Ukraine,UA,,Ukraine - Svaliavs'kyi,2018-08-15,11:36
Anthus pratensis,Animalia,PIPITS_EN_WAGTAILS_MOTACILLIDAE,Meadow Pipit,,1,23.21323,48.65678167,Europe,Ukraine,UA,,Ukraine - Mizhhirs'kyi,2018-08-14,13:15
Oenanthe oenanthe,Animalia,OLD_WORLD_FLYCATCHERS_MUSCICAPIDAE,Northern Wheatear,,1,23.168758333333,48.68375,Europe,Ukraine,UA,,Ukraine - Volovets'kyi,2018-08-14,08:40
Corvus corax,Animalia,CROWS_AND_JAYS_CORVIDAE,Northern Raven,,1,23.166045,48.68879,Europe,Ukraine,UA,,Ukraine - Volovets'kyi,2018-08-14,07:26
Corvus cornix,Animalia,CROWS_AND_JAYS_CORVIDAE,Hooded Crow,,1,30.5981,50.4533,Europe,Ukraine,UA,,Ukraine - Dniprovs'kyi,2015-09-23,08:24
Hesperia comma,Animalia,SKIPPERS_HESPERIIDAE,Silver-spotted Skipper,,1,23.14209,48.538361666667,Europe,Ukraine,UA,,Ukraine - Svaliavs'kyi,2018-08-16,16:46
Minois dryas,Animalia,BRUSHFOOTED_BUTTERFLIES_NYMPHALIDAE,Dryad,,1,23.12373,48.54241,Europe,Ukraine,UA,,Ukraine - Svaliavs'kyi,2018-08-16,
Neptis sappho,Animalia,BRUSHFOOTED_BUTTERFLIES_NYMPHALIDAE,Common Glider,,1,22.99359,48.55797,Europe,Ukraine,UA,,Ukraine - Svaliavs'kyi,2018-08-17,
Corvus cornix,Animalia,CROWS_AND_JAYS_CORVIDAE,Hooded Crow,,1,30.65491753,50.42969606,Europe,Ukraine,UA,,Ukraine - Dniprovs'kyi,2018-08-04,10:44
Motacilla alba,Animalia,PIPITS_EN_WAGTAILS_MOTACILLIDAE,White Wagtail,,1,28.66123541,50.98837685,Europe,Ukraine,UA,,Ukraine - Korostens'ka,2018-08-04,16:38
Passer domesticus,Animalia,OLD_WORLD_SPARROWS_PASSERIDAE,House Sparrow,,1,26.30673849,51.13260654,Europe,Ukraine,UA,,Ukraine - Sarnens'kyi,2018-08-06,20:16
Viscum album,Plantae,SANTALACEAE,Mistletoe,,1,26.31158739,51.12927887,Europe,Ukraine,UA,,Ukraine - Sarnens'kyi,2018-08-07,17:37
Carduelis carduelis,Animalia,FINCHES_FRINGILLIDAE,European Goldfinch,,1,26.31155358,51.12924282,Europe,Ukraine,UA,,Ukraine - Sarnens'kyi,2018-08-07,17:37
Motacilla alba,Animalia,PIPITS_EN_WAGTAILS_MOTACILLIDAE,White Wagtail,,1,26.31126562,51.12751626,Europe,Ukraine,UA,,Ukraine - Sarnens'kyi,2018-08-07,17:39
Maniola jurtina,Animalia,BRUSHFOOTED_BUTTERFLIES_NYMPHALIDAE,Meadow Brown,,1,26.30998944,51.12565484,Europe,Ukraine,UA,,Ukraine - Sarnens'kyi,2018-08-07,17:46
Calopteryx splendens,Animalia,BROADWINGED_DAMSELS_CALOPTERYGIDAE,Banded Demoiselle,,1,26.31171104,51.11976632,Europe,Ukraine,UA,,Ukraine - Sarnens'kyi,2018-08-07,18:01
Motacilla flava,Animalia,PIPITS_EN_WAGTAILS_MOTACILLIDAE,Western Yellow Wagtail,,4,26.31097355,51.11808108,Europe,Ukraine,UA,,Ukraine - Sarnens'kyi,2018-08-07,18:07
Sturnus vulgaris,Animalia,STARLINGS_STURNIDAE,Common Starling,,1,26.31090445,51.11795791,Europe,Ukraine,UA,,Ukraine - Sarnens'kyi,2018-08-07,18:08
Araschnia levana,Animalia,BRUSHFOOTED_BUTTERFLIES_NYMPHALIDAE,Map Butterfly,,1,26.31130349,51.12437177,Europe,Ukraine,UA,,Ukraine - Sarnens'kyi,2018-08-07,18:28
Ciconia ciconia,Animalia,STORKS_CICONIIDAE,White Stork,,1,26.31296837,51.12923434,Europe,Ukraine,UA,,Ukraine - Sarnens'kyi,2018-08-07,18:42
Gonepteryx rhamni,Animalia,WHITES_PIERIDAE,Brimstone,,1,26.39693723,51.12076051,Europe,Ukraine,UA,,Ukraine - Sarnens'kyi,2018-08-11,13:13
Lycopodium clavatum,Plantae,LYCOPODIACEAE,Stag's-horn Clubmoss,,1,26.39,51.12,Europe,Ukraine,UA,,Ukraine - Sarnens'kyi,2018-08-11,13:14
Lycaena phlaeas,Animalia,GOSSAMERWINGED_BUTTERFLIES_LYCAENIDAE,Small Copper,,1,26.295195,51.1288639,Europe,Ukraine,UA,,Ukraine - Sarnens'kyi,2018-08-12,16:16
Sagittaria sagittifolia,Plantae,ALISMATACEAE,Arrowhead,,1,26.2967563,51.1268211,Europe,Ukraine,UA,,Ukraine - Sarnens'kyi,2018-08-12,16:25
Prunella vulgaris,Plantae,Lamiaceae,Selfheal,,1,26.295195,51.1288639,Europe,Ukraine,UA,,Ukraine - Sarnens'kyi,2018-08-12,16:26
Araschnia levana,Animalia,BRUSHFOOTED_BUTTERFLIES_NYMPHALIDAE,Map Butterfly,,1,23.95846367,49.67228281,Europe,Ukraine,UA,,Ukraine - Pustomytivs'kyi,2018-06-13,13:19
Aglais io,Animalia,BRUSHFOOTED_BUTTERFLIES_NYMPHALIDAE,Peacock,,1,23.95846367,49.67228281,Europe,Ukraine,UA,,Ukraine - Pustomytivs'kyi,2018-06-13,12:05
Harmonia axyridis,Animalia,LADYBIRDS_LADYBUGS_OR_LADY_BEETLES_COCCINELLIDAE,Harlequin ladybird,,1,30.89681246,50.35392425,Europe,Ukraine,UA,,Ukraine - Boryspil's'ka,2018-04-30,17:26
Taraxacum officinale s.l. (incl. all sec.),Plantae,Asteraceae,Common Dandelion,,1,30.89681246,50.35392425,Europe,Ukraine,UA,,Ukraine - Boryspil's'ka,2018-04-30,17:25
Capsella bursa-pastoris,Plantae,Brassicaceae,Shepherd's-purse,,1,30.89681246,50.35392425,Europe,Ukraine,UA,,Ukraine - Boryspil's'ka,2018-04-30,17:24
Coccinella septempunctata,Animalia,LADYBIRDS_LADYBUGS_OR_LADY_BEETLES_COCCINELLIDAE,7-spot Ladybird,,1,30.89668916,50.35404453,Europe,Ukraine,UA,,Ukraine - Boryspil's'ka,2018-04-30,17:16
Glechoma hederacea,Plantae,Lamiaceae,Ground-ivy,,1,30.89668916,50.35404453,Europe,Ukraine,UA,,Ukraine - Boryspil's'ka,2018-04-30,17:15
Apatura metis,Animalia,BRUSHFOOTED_BUTTERFLIES_NYMPHALIDAE,Freyer's Purple Emperor,,2,24.02225733,49.64309292,Europe,Ukraine,UA,,Ukraine - Pustomytivs'kyi,2018-06-12,12:49
Echium vulgare,Plantae,BORAGINACEAE,Viper's-bugloss,,1,24.01843786,49.64380156,Europe,Ukraine,UA,,Ukraine - Pustomytivs'kyi,2018-06-12,08:01
Apatura iris,Animalia,BRUSHFOOTED_BUTTERFLIES_NYMPHALIDAE,Purple Emperor,,2,24.0,49.65,Europe,Ukraine,UA,,Ukraine - Pustomytivs'kyi,2018-06-11,15:11
Bombina variegata,Animalia,Bombinatoridae,Yellow-bellied Toad,,1,24.0,49.65,Europe,Ukraine,UA,,Ukraine - Pustomytivs'kyi,2018-06-11,13:23
Astragalus glycyphyllos,Plantae,Fabaceae,Wild Liquorice,,1,24.0279007,49.65432793,Europe,Ukraine,UA,,Ukraine - Pustomytivs'kyi,2018-06-11,12:09
Cyaniris semiargus,Animalia,GOSSAMERWINGED_BUTTERFLIES_LYCAENIDAE,Mazarine Blue,,2,24.0,49.65,Europe,Ukraine,UA,,Ukraine - Pustomytivs'kyi,2018-06-11,11:56
Boloria selene,Animalia,BRUSHFOOTED_BUTTERFLIES_NYMPHALIDAE,Small Pearl-bordered Fritillary,,3,24.0,49.65,Europe,Ukraine,UA,,Ukraine - Pustomytivs'kyi,2018-06-11,11:56
Sturnus vulgaris,Animalia,STARLINGS_STURNIDAE,Common Starling,,1,30.8992102168816,50.3526041613255,Europe,Ukraine,UA,,Ukraine - Boryspil's'ka,2018-06-04,10:28
Berteroa incana,Plantae,Brassicaceae,Hoary Alison,,1,30.89643957,50.34877083,Europe,Ukraine,UA,,Ukraine - Boryspil's'ka,2018-04-30,17:43
Brassica rapa,Plantae,Brassicaceae,Turnip,,1,30.89656463,50.34896271,Europe,Ukraine,UA,,Ukraine - Boryspil's'ka,2018-04-30,17:50
Sturnus vulgaris,Animalia,STARLINGS_STURNIDAE,Common Starling,,6,30.9012760914767,50.3500920539151,Europe,Ukraine,UA,,Ukraine - Boryspil's'ka,2018-05-15,20:10
Sturnus vulgaris,Animalia,STARLINGS_STURNIDAE,Common Starling,,40,30.9016574553494,50.3232091502467,Europe,Ukraine,UA,,Ukraine - Boryspil's'ka,2018-05-20,19:37
Melolontha melolontha,Animalia,Scarabaeidae,Cockchafer maybeetle,,1,30.8978502892367,50.3502318925193,Europe,Ukraine,UA,,Ukraine - Boryspil's'ka,2018-05-12,10:17
Dolichophis caspius,Animalia,Colubridae,Caspian Whip Snake,,1,30.19198615,46.2425029,Europe,Ukraine,UA,,Ukraine - Bilhorod-Dnistrovs'kyi,2018-05-11,12:41
Dolichophis caspius,Animalia,Colubridae,Caspian Whip Snake,,1,30.09475678,46.29295951,Europe,Ukraine,UA,,Ukraine - Bilhorod-Dnistrovs'kyi,2018-05-11,12:52
Crex crex,Animalia,RAILS_RALLIDAE,Corn Crake,,1,30.1,45.85,Europe,Ukraine,UA,,Ukraine - Tatarbunars'kyi,2018-05-10,19:16
Crex crex,Animalia,RAILS_RALLIDAE,Corn Crake,,1,30.1,45.8,Europe,Ukraine,UA,,Ukraine - Shagany-Alibei-Burnas Lakes System Ramsar site,2018-05-10,20:42
Crex crex,Animalia,RAILS_RALLIDAE,Corn Crake,,2,30.1,45.85,Europe,Ukraine,UA,,Ukraine - Tatarbunars'kyi,2018-05-10,20:55
Phalacrocorax carbo,Animalia,CORMORANTS_PHALACROCORACIDAE,Great Cormorant,,3,30.43051964,46.07368473,Europe,Ukraine,UA,,Ukraine - Bilhorod-Dnistrovs'kyi,2018-05-09,16:22
Melolontha melolontha,Animalia,Scarabaeidae,Cockchafer maybeetle,,4,30.8968124562013,50.3539242543542,Europe,Ukraine,UA,,Ukraine - Boryspil's'ka,2018-04-30,17:21
Capsella bursa-pastoris,Plantae,Brassicaceae,Shepherd's-purse,,1,30.8962953497974,50.3488228400413,Europe,Ukraine,UA,,Ukraine - Boryspil's'ka,2018-04-30,17:45
Motacilla cinerea,Animalia,PIPITS_EN_WAGTAILS_MOTACILLIDAE,Grey Wagtail,,1,22.6863,49.1549,Europe,Ukraine,UA,,Ukraine - Forêts primaires de hêtres des Carpates World Heritage Site,2018-04-05,09:42
Corvus cornix,Animalia,CROWS_AND_JAYS_CORVIDAE,Hooded Crow,,1,30.59208169,50.42228343,Europe,Ukraine,UA,,Ukraine - Dniprovs'kyi,2017-04-30,
Sturnus vulgaris,Animalia,STARLINGS_STURNIDAE,Common Starling,,1,30.8923007,50.3355958,Europe,Ukraine,UA,,Ukraine - Boryspil's'ka,2017-09-23,
Haliaeetus albicilla,Animalia,HAWKS_AND_EAGLES_ACCIPITRIDAE,White-tailed Eagle,,1,28.8911966666667,45.29735,Europe,Ukraine,UA,,Ukraine - Izmal's'ka,2018-02-01,12:17
Haliaeetus albicilla,Animalia,HAWKS_AND_EAGLES_ACCIPITRIDAE,White-tailed Eagle,,2,28.91931,45.27946,Europe,Ukraine,UA,,Ukraine - Izmal's'ka,2018-02-01,12:23
Phoenicurus ochruros,Animalia,OLD_WORLD_FLYCATCHERS_MUSCICAPIDAE,Black Redstart,,1,30.5132555,50.4508678,Europe,Ukraine,UA,,Ukraine - Shevchenkivs'kyi,2017-10-05,11:11
Muscicapa striata,Animalia,OLD_WORLD_FLYCATCHERS_MUSCICAPIDAE,Spotted Flycatcher,,1,30.56485265,50.42650979,Europe,Ukraine,UA,,Ukraine - Pechers'kyi,2017-08-26,
Linaria cannabina,Animalia,FINCHES_FRINGILLIDAE,Common Linnet,,1,26.29531859,51.13498556,Europe,Ukraine,UA,,Ukraine - Sarnens'kyi,2017-07-30,
Erynnis tages,Animalia,SKIPPERS_HESPERIIDAE,Dingy Skipper,,1,23.0,48.7,Europe,Ukraine,UA,,Ukraine - Volovets'kyi,2017-08-01,15:26
Tettigonia viridissima,Animalia,KATYDIDS_TETTIGONIIDAE,Great Green Bush Cricket,,1,23.00068249,48.55023649,Europe,Ukraine,UA,,Ukraine - Svaliavs'kyi,2017-08-02,
Pararge aegeria,Animalia,BRUSHFOOTED_BUTTERFLIES_NYMPHALIDAE,Speckled Wood,,1,23.02533388,48.54159521,Europe,Ukraine,UA,,Ukraine - Svaliavs'kyi,2017-08-02,16:46
Corvus cornix,Animalia,CROWS_AND_JAYS_CORVIDAE,Hooded Crow,,1,30.54376781,50.44832121,Europe,Ukraine,UA,,Ukraine - Pechers'kyi,2017-08-25,
Sturnus vulgaris,Animalia,STARLINGS_STURNIDAE,Common Starling,,100,30.8983,50.3531,Europe,Ukraine,UA,,Ukraine - Boryspil's'ka,2017-08-28,17:12
Linaria cannabina,Animalia,FINCHES_FRINGILLIDAE,Common Linnet,,1,23.0246973,48.54714496,Europe,Ukraine,UA,,Ukraine - Svaliavs'kyi,2017-08-03,17:14
Melitaea phoebe,Animalia,BRUSHFOOTED_BUTTERFLIES_NYMPHALIDAE,Knapweed Fritillary,,1,23.0,48.5,Europe,Ukraine,UA,,Ukraine - Svaliavs'kyi,2017-08-03,17:09
Sympetrum sanguineum,Animalia,SKIMMERS_LIBELLULIDAE,Ruddy Darter,,1,23.01722757,48.54432405,Europe,Ukraine,UA,,Ukraine - Svaliavs'kyi,2017-08-03,15:36
Sturnus vulgaris,Animalia,STARLINGS_STURNIDAE,Common Starling,,1,30.8988693,50.35053347,Europe,Ukraine,UA,,Ukraine - Boryspil's'ka,2017-08-25,19:46
Pernis apivorus,Animalia,HAWKS_AND_EAGLES_ACCIPITRIDAE,European Honey Buzzard,,1,22.93901377,48.6226766,Europe,Ukraine,UA,,Ukraine - Svaliavs'kyi,2017-08-05,11:18
Cupido argiades,Animalia,GOSSAMERWINGED_BUTTERFLIES_LYCAENIDAE,Short-tailed Blue,,1,23.0,48.5,Europe,Ukraine,UA,,Ukraine - Svaliavs'kyi,2017-08-06,18:03
Ophiogomphus cecilia,Animalia,CLUBTAILS_GOMPHIDAE,Green Snaketail,,1,26.30861344,51.12916334,Europe,Ukraine,UA,,Ukraine - Sarnens'kyi,2017-07-27,16:08
Trichius spec.,Animalia,Scarabaeidae,,,1,26.39827538,51.1209796,Europe,Ukraine,UA,,Ukraine - Sarnens'kyi,2017-07-27,11:39
Issoria lathonia,Animalia,BRUSHFOOTED_BUTTERFLIES_NYMPHALIDAE,Queen of Spain Fritillary,,1,26.39548374,51.12143946,Europe,Ukraine,UA,,Ukraine - Sarnens'kyi,2017-07-27,11:29
Coenonympha arcania,Animalia,BRUSHFOOTED_BUTTERFLIES_NYMPHALIDAE,Pearly Heath,,1,26.35,51.1,Europe,Ukraine,UA,,Ukraine - Sarnens'kyi,2017-07-27,13:20
Issoria lathonia,Animalia,BRUSHFOOTED_BUTTERFLIES_NYMPHALIDAE,Queen of Spain Fritillary,,1,26.36325551,51.13789566,Europe,Ukraine,UA,,Ukraine - Sarnens'kyi,2017-07-27,13:20
Celastrina argiolus,Animalia,GOSSAMERWINGED_BUTTERFLIES_LYCAENIDAE,Holly Blue,,1,26.3632383,51.13788483,Europe,Ukraine,UA,,Ukraine - Sarnens'kyi,2017-07-27,12:33
Lycaena phlaeas,Animalia,GOSSAMERWINGED_BUTTERFLIES_LYCAENIDAE,Small Copper,,1,26.3632383,51.13788483,Europe,Ukraine,UA,,Ukraine - Sarnens'kyi,2017-07-27,12:33
Viscum album,Plantae,SANTALACEAE,Mistletoe,,1,26.30944367,51.12394699,Europe,Ukraine,UA,,Ukraine - Sarnens'kyi,2017-07-26,13:15
Prunella vulgaris,Plantae,Lamiaceae,Selfheal,,1,26.30944367,51.12394699,Europe,Ukraine,UA,,Ukraine - Sarnens'kyi,2017-07-26,13:15
Leptinotarsa decemlineata,Animalia,ROOTWORM_BEETLES_CHRYSOMELIDAE,Colorado Beetle,,2,26.30583286,51.13338775,Europe,Ukraine,UA,,Ukraine - Sarnens'kyi,2017-07-25,13:09
Lycaena virgaureae,Animalia,GOSSAMERWINGED_BUTTERFLIES_LYCAENIDAE,Scarce Copper,,1,26.3,51.1,Europe,Ukraine,UA,,Ukraine - Sarnens'kyi,2017-07-25,13:05
Aromia moschata,Animalia,Cerambycidae,Musk beetle,,1,26.31133396,51.13103725,Europe,Ukraine,UA,,Ukraine - Sarnens'kyi,2017-07-25,12:52
Polyommatus icarus,Animalia,GOSSAMERWINGED_BUTTERFLIES_LYCAENIDAE,Common Blue,,1,26.31659694,51.13578165,Europe,Ukraine,UA,,Ukraine - Sarnens'kyi,2017-07-25,12:09
Pieris rapae,Animalia,WHITES_PIERIDAE,Small White,,1,30.65749521,50.4290125,Europe,Ukraine,UA,,Ukraine - Darnyts'kyi,2017-07-21,10:14
Habrosyne pyritoides,Animalia,Drepanidae,Buff Arches,,1,23.00068249,48.55023649,Europe,Ukraine,UA,,Ukraine - Svaliavs'kyi,2017-08-01,22:28
Ochropleura plecta,Animalia,Noctuidae,Flame Shoulder,,1,23.0007945,48.5500983,Europe,Ukraine,UA,,Ukraine - Svaliavs'kyi,2017-08-01,22:53
Pararge aegeria,Animalia,BRUSHFOOTED_BUTTERFLIES_NYMPHALIDAE,Speckled Wood,,1,22.99864069,48.55015225,Europe,Ukraine,UA,,Ukraine - Svaliavs'kyi,2017-08-02,10:20
Delichon urbicum,Animalia,SWALLOWS_HIRUNDINIDAE,Common House Martin,,1,22.98790474,48.55083577,Europe,Ukraine,UA,,Ukraine - Svaliavs'kyi,2017-08-02,10:37
Ciconia ciconia,Animalia,STORKS_CICONIIDAE,White Stork,,4,22.98479217,48.5510277,Europe,Ukraine,UA,,Ukraine - Svaliavs'kyi,2017-08-02,11:07
Lycaena dispar,Animalia,GOSSAMERWINGED_BUTTERFLIES_LYCAENIDAE,Large Copper,,1,23.0,48.5,Europe,Ukraine,UA,,Ukraine - Svaliavs'kyi,2017-08-02,15:49
Araschnia levana,Animalia,BRUSHFOOTED_BUTTERFLIES_NYMPHALIDAE,Map Butterfly,,1,23.01713755,48.54430315,Europe,Ukraine,UA,,Ukraine - Svaliavs'kyi,2017-08-02,16:02
Mecostethus parapleurus,Animalia,SHORTHORNED_GRASSHOPPERS_ACRIDIDAE,,,1,23.01898123,48.54472415,Europe,Ukraine,UA,,Ukraine - Svaliavs'kyi,2017-08-02,16:06
Lanius collurio,Animalia,SHRIKES_LANIIDAE,Red-backed Shrike,,1,23.02074248,48.54352475,Europe,Ukraine,UA,,Ukraine - Svaliavs'kyi,2017-08-02,16:15
Saxicola rubicola,Animalia,OLD_WORLD_FLYCATCHERS_MUSCICAPIDAE,European Stonechat,,1,23.02074259,48.54352471,Europe,Ukraine,UA,,Ukraine - Svaliavs'kyi,2017-08-02,16:15
Iphiclides podalirius,Animalia,SWALLOWTAILS_PAPILIONIDAE,Scarce Swallowtail,,1,23.0,48.5,Europe,Ukraine,UA,,Ukraine - Svaliavs'kyi,2017-08-02,16:46
Corvus corax,Animalia,CROWS_AND_JAYS_CORVIDAE,Northern Raven,,4,23.02784419,48.53610981,Europe,Ukraine,UA,,Ukraine - Svaliavs'kyi,2017-08-02,17:36
Ochlodes sylvanus,Animalia,SKIPPERS_HESPERIIDAE,Large Skipper,,1,23.01692548,48.54410527,Europe,Ukraine,UA,,Ukraine - Svaliavs'kyi,2017-08-02,18:17
Aphantopus hyperantus,Animalia,BRUSHFOOTED_BUTTERFLIES_NYMPHALIDAE,Ringlet,,1,23.01829337,48.54388105,Europe,Ukraine,UA,,Ukraine - Svaliavs'kyi,2017-08-03,15:17
Cupido argiades,Animalia,GOSSAMERWINGED_BUTTERFLIES_LYCAENIDAE,Short-tailed Blue,,3,23.0,48.5,Europe,Ukraine,UA,,Ukraine - Svaliavs'kyi,2017-08-03,15:19
Araschnia levana,Animalia,BRUSHFOOTED_BUTTERFLIES_NYMPHALIDAE,Map Butterfly,,1,23.01706974,48.5442847,Europe,Ukraine,UA,,Ukraine - Svaliavs'kyi,2017-08-03,15:34
Ochlodes sylvanus,Animalia,SKIPPERS_HESPERIIDAE,Large Skipper,,1,23.01722757,48.54432405,Europe,Ukraine,UA,,Ukraine - Svaliavs'kyi,2017-08-03,15:36
Coenonympha glycerion,Animalia,BRUSHFOOTED_BUTTERFLIES_NYMPHALIDAE,Chestnut Heath,,1,23.0,48.5,Europe,Ukraine,UA,,Ukraine - Svaliavs'kyi,2017-08-03,16:22
Daucus carota,Plantae,Apiaceae,Wild Carrot,,1,23.02509012,48.54251555,Europe,Ukraine,UA,,Ukraine - Svaliavs'kyi,2017-08-03,16:43
Minois dryas,Animalia,BRUSHFOOTED_BUTTERFLIES_NYMPHALIDAE,Dryad,,7,23.03411231,48.54059913,Europe,Ukraine,UA,,Ukraine - Svaliavs'kyi,2017-08-03,17:09
Vanessa atalanta,Animalia,BRUSHFOOTED_BUTTERFLIES_NYMPHALIDAE,Red Admiral,,1,22.93901377,48.6226766,Europe,Ukraine,UA,,Ukraine - Svaliavs'kyi,2017-08-05,11:18
Cupido argiades,Animalia,GOSSAMERWINGED_BUTTERFLIES_LYCAENIDAE,Short-tailed Blue,,2,22.95,48.55,Europe,Ukraine,UA,,Ukraine - Svaliavs'kyi,2017-08-05,16:46
Apatura ilia,Animalia,BRUSHFOOTED_BUTTERFLIES_NYMPHALIDAE,Lesser Purple Emperor,,1,22.95,48.55,Europe,Ukraine,UA,,Ukraine - Svaliavs'kyi,2017-08-05,16:52
Libellula depressa,Animalia,SKIMMERS_LIBELLULIDAE,Broad-bodied Chaser,,1,22.97930489,48.55353003,Europe,Ukraine,UA,,Ukraine - Svaliavs'kyi,2017-08-05,16:57
Lycaena dispar,Animalia,GOSSAMERWINGED_BUTTERFLIES_LYCAENIDAE,Large Copper,,1,22.95,48.55,Europe,Ukraine,UA,,Ukraine - Svaliavs'kyi,2017-08-05,17:09
Ochlodes sylvanus,Animalia,SKIPPERS_HESPERIIDAE,Large Skipper,,1,22.98057241,48.55390337,Europe,Ukraine,UA,,Ukraine - Svaliavs'kyi,2017-08-05,17:20
Phoenicurus ochruros,Animalia,OLD_WORLD_FLYCATCHERS_MUSCICAPIDAE,Black Redstart,,2,22.99747733,48.5500754,Europe,Ukraine,UA,,Ukraine - Svaliavs'kyi,2017-08-05,18:26
Phoenicurus ochruros,Animalia,OLD_WORLD_FLYCATCHERS_MUSCICAPIDAE,Black Redstart,,2,23.01439299,48.54690166,Europe,Ukraine,UA,,Ukraine - Svaliavs'kyi,2017-08-06,17:25
Corvus corax,Animalia,CROWS_AND_JAYS_CORVIDAE,Northern Raven,,32,23.01672965,48.54419436,Europe,Ukraine,UA,,Ukraine - Svaliavs'kyi,2017-08-06,17:36
Diacrisia sannio,Animalia,EREBIDAE,Clouded Buff,,1,23.01808214,48.54394582,Europe,Ukraine,UA,,Ukraine - Svaliavs'kyi,2017-08-06,17:41
Buteo buteo,Animalia,HAWKS_AND_EAGLES_ACCIPITRIDAE,Common Buzzard,,1,23.01812293,48.54408562,Europe,Ukraine,UA,,Ukraine - Svaliavs'kyi,2017-08-06,17:59
Hesperia comma,Animalia,SKIPPERS_HESPERIIDAE,Silver-spotted Skipper,,1,23.01819738,48.54399136,Europe,Ukraine,UA,,Ukraine - Svaliavs'kyi,2017-08-06,18:03
Leptidea spec.,Animalia,WHITES_PIERIDAE,,,1,23.01704479,48.54428453,Europe,Ukraine,UA,,Ukraine - Svaliavs'kyi,2017-08-06,18:27
Hipparchia semele,Animalia,BRUSHFOOTED_BUTTERFLIES_NYMPHALIDAE,Grayling,,1,26.39409032,51.12179269,Europe,Ukraine,UA,,Ukraine - Sarnens'kyi,2017-07-27,10:50
Sympetrum sanguineum,Animalia,SKIMMERS_LIBELLULIDAE,Ruddy Darter,,1,26.39226974,51.1216222,Europe,Ukraine,UA,,Ukraine - Sarnens'kyi,2017-07-27,11:04
Lycaena virgaureae,Animalia,GOSSAMERWINGED_BUTTERFLIES_LYCAENIDAE,Scarce Copper,,1,26.35,51.1,Europe,Ukraine,UA,,Ukraine - Sarnens'kyi,2017-07-27,11:29
Lycopodium clavatum,Plantae,LYCOPODIACEAE,Stag's-horn Clubmoss,,1,26.39,51.12,Europe,Ukraine,UA,,Ukraine - Sarnens'kyi,2017-07-27,11:39
Hipparchia semele,Animalia,BRUSHFOOTED_BUTTERFLIES_NYMPHALIDAE,Grayling,,1,26.36319327,51.13785558,Europe,Ukraine,UA,,Ukraine - Sarnens'kyi,2017-07-27,12:32
Papilio machaon,Animalia,SWALLOWTAILS_PAPILIONIDAE,Swallowtail,,3,26.3632383,51.13788483,Europe,Ukraine,UA,,Ukraine - Sarnens'kyi,2017-07-27,12:33
Aglais io,Animalia,BRUSHFOOTED_BUTTERFLIES_NYMPHALIDAE,Peacock,,1,26.36315831,51.13781367,Europe,Ukraine,UA,,Ukraine - Sarnens'kyi,2017-07-27,12:38
Gonepteryx rhamni,Animalia,WHITES_PIERIDAE,Brimstone,,1,26.36325551,51.13789566,Europe,Ukraine,UA,,Ukraine - Sarnens'kyi,2017-07-27,13:20
Calopteryx splendens,Animalia,BROADWINGED_DAMSELS_CALOPTERYGIDAE,Banded Demoiselle,,14,26.30861344,51.12916334,Europe,Ukraine,UA,,Ukraine - Sarnens'kyi,2017-07-27,16:08
Motacilla alba,Animalia,PIPITS_EN_WAGTAILS_MOTACILLIDAE,White Wagtail,,1,26.3074999,51.12810709,Europe,Ukraine,UA,,Ukraine - Sarnens'kyi,2017-07-27,16:22
Polyommatus icarus,Animalia,GOSSAMERWINGED_BUTTERFLIES_LYCAENIDAE,Common Blue,,1,26.31048418,51.12519567,Europe,Ukraine,UA,,Ukraine - Sarnens'kyi,2017-07-27,16:44
Viscum album,Plantae,SANTALACEAE,Mistletoe,,1,26.31134835,51.12436182,Europe,Ukraine,UA,,Ukraine - Sarnens'kyi,2017-07-27,16:51
Polyommatus icarus,Animalia,GOSSAMERWINGED_BUTTERFLIES_LYCAENIDAE,Common Blue,,1,26.31102749,51.12286782,Europe,Ukraine,UA,,Ukraine - Sarnens'kyi,2017-07-27,16:57
Muscicapa striata,Animalia,OLD_WORLD_FLYCATCHERS_MUSCICAPIDAE,Spotted Flycatcher,,1,26.31101869,51.12284139,Europe,Ukraine,UA,,Ukraine - Sarnens'kyi,2017-07-27,16:59
Merops apiaster,Animalia,BEEEATERS_MEROPIDAE,European Bee-eater,,7,26.31095477,51.11738753,Europe,Ukraine,UA,,Ukraine - Sarnens'kyi,2017-07-27,17:18
Carduelis carduelis,Animalia,FINCHES_FRINGILLIDAE,European Goldfinch,,1,26.3110255,51.11727579,Europe,Ukraine,UA,,Ukraine - Sarnens'kyi,2017-07-27,17:20
Hirundo rustica,Animalia,SWALLOWS_HIRUNDINIDAE,Barn Swallow,,1,26.31107477,51.11748456,Europe,Ukraine,UA,,Ukraine - Sarnens'kyi,2017-07-27,17:25
Oedipoda caerulescens,Animalia,SHORTHORNED_GRASSHOPPERS_ACRIDIDAE,Blue Winged Grasshopper,,1,26.39452787,51.12041016,Europe,Ukraine,UA,,Ukraine - Sarnens'kyi,2017-07-29,15:54
Issoria lathonia,Animalia,BRUSHFOOTED_BUTTERFLIES_NYMPHALIDAE,Queen of Spain Fritillary,,1,26.3946668,51.12058009,Europe,Ukraine,UA,,Ukraine - Sarnens'kyi,2017-07-29,15:57
Coenonympha pamphilus,Animalia,BRUSHFOOTED_BUTTERFLIES_NYMPHALIDAE,Small Heath,,1,26.39475223,51.12074655,Europe,Ukraine,UA,,Ukraine - Sarnens'kyi,2017-07-29,15:59
Lycaena phlaeas,Animalia,GOSSAMERWINGED_BUTTERFLIES_LYCAENIDAE,Small Copper,,1,26.39535608,51.12144699,Europe,Ukraine,UA,,Ukraine - Sarnens'kyi,2017-07-29,16:05
Coenonympha arcania,Animalia,BRUSHFOOTED_BUTTERFLIES_NYMPHALIDAE,Pearly Heath,,1,26.35,51.1,Europe,Ukraine,UA,,Ukraine - Sarnens'kyi,2017-07-29,16:21
Lycaena tityrus,Animalia,GOSSAMERWINGED_BUTTERFLIES_LYCAENIDAE,Sooty Copper,,3,26.35,51.1,Europe,Ukraine,UA,,Ukraine - Sarnens'kyi,2017-07-29,16:46
Gonepteryx rhamni,Animalia,WHITES_PIERIDAE,Brimstone,,1,26.36428425,51.13886117,Europe,Ukraine,UA,,Ukraine - Sarnens'kyi,2017-07-29,17:21
Trichius spec.,Animalia,Scarabaeidae,,,1,26.36487085,51.13974316,Europe,Ukraine,UA,,Ukraine - Sarnens'kyi,2017-07-29,17:30
Pontia edusa,Animalia,WHITES_PIERIDAE,Eastern Bath White,,1,25.46618032,50.21485287,Europe,Ukraine,UA,,Ukraine - Radyvylivs'kyi,2017-07-31,12:25
Viscum album,Plantae,SANTALACEAE,Mistletoe,,1,25.46618541,50.21484888,Europe,Ukraine,UA,,Ukraine - Radyvylivs'kyi,2017-07-31,12:25
Circus aeruginosus,Animalia,HAWKS_AND_EAGLES_ACCIPITRIDAE,Western Marsh Harrier,,1,25.46626086,50.21481489,Europe,Ukraine,UA,,Ukraine - Radyvylivs'kyi,2017-07-31,12:36
Erebia spec.,Animalia,BRUSHFOOTED_BUTTERFLIES_NYMPHALIDAE,,,1,23.53010146,49.05246885,Europe,Ukraine,UA,,Ukraine - Skolivs'kyi,2017-08-01,13:06
Araschnia levana,Animalia,BRUSHFOOTED_BUTTERFLIES_NYMPHALIDAE,Map Butterfly,,1,23.53007231,49.05248888,Europe,Ukraine,UA,,Ukraine - Skolivs'kyi,2017-08-01,13:07
Euplagia quadripunctaria,Animalia,EREBIDAE,Jersey Tiger,,1,23.04497722,48.7305539,Europe,Ukraine,UA,,Ukraine - Volovets'kyi,2017-08-01,14:54
Dipsacus laciniatus,Plantae,CAPRIFOLIACEAE,Cut-leaved Teasel,,1,23.04493516,48.73058717,Europe,Ukraine,UA,,Ukraine - Volovets'kyi,2017-08-01,15:04
Araschnia levana,Animalia,BRUSHFOOTED_BUTTERFLIES_NYMPHALIDAE,Map Butterfly,,1,23.04486327,48.73062112,Europe,Ukraine,UA,,Ukraine - Volovets'kyi,2017-08-01,15:05
Fabriciana adippe,Animalia,BRUSHFOOTED_BUTTERFLIES_NYMPHALIDAE,High Brown Fritillary,,1,23.04492992,48.73055626,Europe,Ukraine,UA,,Ukraine - Volovets'kyi,2017-08-01,15:07
Coenonympha pamphilus,Animalia,BRUSHFOOTED_BUTTERFLIES_NYMPHALIDAE,Small Heath,,2,23.04362988,48.73173051,Europe,Ukraine,UA,,Ukraine - Volovets'kyi,2017-08-01,15:17
Iphiclides podalirius,Animalia,SWALLOWTAILS_PAPILIONIDAE,Scarce Swallowtail,,1,23.0,48.7,Europe,Ukraine,UA,,Ukraine - Volovets'kyi,2017-08-01,15:26
Onychogomphus forcipatus,Animalia,CLUBTAILS_GOMPHIDAE,Small pincertail,,1,23.04512127,48.73027866,Europe,Ukraine,UA,,Ukraine - Volovets'kyi,2017-08-01,15:27
Motacilla alba,Animalia,PIPITS_EN_WAGTAILS_MOTACILLIDAE,White Wagtail,,3,28.61411821,51.00342128,Europe,Ukraine,UA,,Ukraine - Korostens'kyi,2017-07-17,12:47
Passer montanus,Animalia,OLD_WORLD_SPARROWS_PASSERIDAE,Eurasian Tree Sparrow,,15,30.6547535,50.4302407,Europe,Ukraine,UA,,Ukraine - Dniprovs'kyi,2017-07-18,11:31
Corvus cornix,Animalia,CROWS_AND_JAYS_CORVIDAE,Hooded Crow,,2,30.53019438,50.45516827,Europe,Ukraine,UA,,Ukraine - Shevchenkivs'kyi,2017-07-18,16:43
Pontia edusa,Animalia,WHITES_PIERIDAE,Eastern Bath White,,1,30.65246896,50.42969039,Europe,Ukraine,UA,,Ukraine - Dniprovs'kyi,2017-07-19,12:52
Phoenicurus ochruros,Animalia,OLD_WORLD_FLYCATCHERS_MUSCICAPIDAE,Black Redstart,,1,30.65722903,50.42893198,Europe,Ukraine,UA,,Ukraine - Darnyts'kyi,2017-07-19,17:05
Pieris napi,Animalia,WHITES_PIERIDAE,Green-veined White,,1,30.5413895,50.45678816,Europe,Ukraine,UA,,Ukraine - Dniprovs'kyi,2017-07-20,14:02
Oedipoda caerulescens,Animalia,SHORTHORNED_GRASSHOPPERS_ACRIDIDAE,Blue Winged Grasshopper,,1,30.54200493,50.4568048,Europe,Ukraine,UA,,Ukraine - Dniprovs'kyi,2017-07-20,14:09
Passer montanus,Animalia,OLD_WORLD_SPARROWS_PASSERIDAE,Eurasian Tree Sparrow,,1,30.54605585,50.45456058,Europe,Ukraine,UA,,Ukraine - Dniprovs'kyi,2017-07-20,14:37
Corvus cornix,Animalia,CROWS_AND_JAYS_CORVIDAE,Hooded Crow,,6,30.54716248,50.45527963,Europe,Ukraine,UA,,Ukraine - Dniprovs'kyi,2017-07-20,15:08
Harmonia axyridis f. spectabilis,Animalia,LADYBIRDS_LADYBUGS_OR_LADY_BEETLES_COCCINELLIDAE,,,1,30.51982436,50.45456472,Europe,Ukraine,UA,,Ukraine - Shevchenkivs'kyi,2017-07-21,17:26
Sturnus vulgaris,Animalia,STARLINGS_STURNIDAE,Common Starling,,16,30.89600999,50.35143636,Europe,Ukraine,UA,,Ukraine - Boryspil's'ka,2017-07-22,13:41
Ischnura elegans,Animalia,POND_DAMSELS_COENAGRIONIDAE,Common Bluetail,,2,30.63983424,50.42091421,Europe,Ukraine,UA,,Ukraine - Darnyts'kyi,2017-07-23,16:41
Harmonia axyridis,Animalia,LADYBIRDS_LADYBUGS_OR_LADY_BEETLES_COCCINELLIDAE,Harlequin ladybird,,1,30.63974584,50.42092671,Europe,Ukraine,UA,,Ukraine - Darnyts'kyi,2017-07-23,16:47
Sterna hirundo,Animalia,GULLS_TERNS_AND_SKIMMERS_LARIDAE,Common Tern,,5,30.63978347,50.4208791,Europe,Ukraine,UA,,Ukraine - Darnyts'kyi,2017-07-23,16:49
Corvus cornix,Animalia,CROWS_AND_JAYS_CORVIDAE,Hooded Crow,,51,30.63980752,50.42088796,Europe,Ukraine,UA,,Ukraine - Darnyts'kyi,2017-07-23,16:51
Fulica atra,Animalia,RAILS_RALLIDAE,Eurasian Coot,,7,30.63815825,50.41832151,Europe,Ukraine,UA,,Ukraine - Darnyts'kyi,2017-07-23,19:06
Ciconia ciconia,Animalia,STORKS_CICONIIDAE,White Stork,,61,29.88350362,50.657576,Europe,Ukraine,UA,,Ukraine - Borodians'kyi,2017-07-24,12:32
Lanius collurio,Animalia,SHRIKES_LANIIDAE,Red-backed Shrike,,2,29.8834728,50.65760673,Europe,Ukraine,UA,,Ukraine - Borodians'kyi,2017-07-24,12:40
Clanga pomarina,Animalia,HAWKS_AND_EAGLES_ACCIPITRIDAE,Lesser Spotted Eagle,,1,29.30954298,50.80562784,Europe,Ukraine,UA,,Ukraine - Malyns'kyi,2017-07-24,13:18
Lycaena tityrus,Animalia,GOSSAMERWINGED_BUTTERFLIES_LYCAENIDAE,Sooty Copper,,1,29.3,50.8,Europe,Ukraine,UA,,Ukraine - Malyns'kyi,2017-07-24,13:22
Pontia edusa,Animalia,WHITES_PIERIDAE,Eastern Bath White,,1,29.30971275,50.80570751,Europe,Ukraine,UA,,Ukraine - Malyns'kyi,2017-07-24,13:28
Carduelis carduelis,Animalia,FINCHES_FRINGILLIDAE,European Goldfinch,,1,26.31033432,51.13828679,Europe,Ukraine,UA,,Ukraine - Sarnens'kyi,2017-07-25,11:10
Orthetrum cancellatum,Animalia,SKIMMERS_LIBELLULIDAE,Black-tailed Skimmer,,4,26.3205523,51.13904337,Europe,Ukraine,UA,,Ukraine - Sarnens'kyi,2017-07-25,11:37
Calopteryx splendens,Animalia,BROADWINGED_DAMSELS_CALOPTERYGIDAE,Banded Demoiselle,,2,26.32019378,51.13869789,Europe,Ukraine,UA,,Ukraine - Sarnens'kyi,2017-07-25,11:44
Maniola jurtina,Animalia,BRUSHFOOTED_BUTTERFLIES_NYMPHALIDAE,Meadow Brown,,1,26.31752432,51.13670247,Europe,Ukraine,UA,,Ukraine - Sarnens'kyi,2017-07-25,12:05
Polyommatus icarus,Animalia,GOSSAMERWINGED_BUTTERFLIES_LYCAENIDAE,Common Blue,,1,26.31659694,51.13578165,Europe,Ukraine,UA,,Ukraine - Sarnens'kyi,2017-07-25,12:09
Platycnemis pennipes,Animalia,WHITELEGGED_DAMSELFLIES_PLATYCNEMIDIDAE,Blue Featherleg,,1,26.31659686,51.13578153,Europe,Ukraine,UA,,Ukraine - Sarnens'kyi,2017-07-25,12:09
Veronica spicata,Plantae,PLANTAGINACEAE,Spiked Speedwell,,1,26.31539256,51.13398651,Europe,Ukraine,UA,,Ukraine - Sarnens'kyi,2017-07-25,12:13
Lycaena phlaeas,Animalia,GOSSAMERWINGED_BUTTERFLIES_LYCAENIDAE,Small Copper,,1,26.31419796,51.13279261,Europe,Ukraine,UA,,Ukraine - Sarnens'kyi,2017-07-25,12:29
Leonurus cardiaca,Plantae,Lamiaceae,Motherwort,,1,26.31408256,51.13270111,Europe,Ukraine,UA,,Ukraine - Sarnens'kyi,2017-07-25,12:32
Ischnura elegans,Animalia,POND_DAMSELS_COENAGRIONIDAE,Common Bluetail,,1,26.31257638,51.13189566,Europe,Ukraine,UA,,Ukraine - Sarnens'kyi,2017-07-25,12:41
Polygonia c-album,Animalia,BRUSHFOOTED_BUTTERFLIES_NYMPHALIDAE,Comma Butterfly,,1,26.31156484,51.13118636,Europe,Ukraine,UA,,Ukraine - Sarnens'kyi,2017-07-25,12:48
Gonepteryx rhamni,Animalia,WHITES_PIERIDAE,Brimstone,,1,26.31133396,51.13103725,Europe,Ukraine,UA,,Ukraine - Sarnens'kyi,2017-07-25,12:52
Lycaena virgaureae,Animalia,GOSSAMERWINGED_BUTTERFLIES_LYCAENIDAE,Scarce Copper,,1,26.3,51.1,Europe,Ukraine,UA,,Ukraine - Sarnens'kyi,2017-07-25,13:05
Sympetrum sanguineum,Animalia,SKIMMERS_LIBELLULIDAE,Ruddy Darter,,1,26.31025994,51.13052309,Europe,Ukraine,UA,,Ukraine - Sarnens'kyi,2017-07-25,13:06
Araschnia levana,Animalia,BRUSHFOOTED_BUTTERFLIES_NYMPHALIDAE,Map Butterfly,,1,26.30964149,51.13062205,Europe,Ukraine,UA,,Ukraine - Sarnens'kyi,2017-07-25,13:09
Serinus serinus,Animalia,FINCHES_FRINGILLIDAE,European Serin,,1,26.30693188,51.13090271,Europe,Ukraine,UA,,Ukraine - Sarnens'kyi,2017-07-26,12:14
Gonocerus acuteangulatus,Animalia,Coreidae,Box bug,,1,26.30674054,51.12933509,Europe,Ukraine,UA,,Ukraine - Sarnens'kyi,2017-07-26,12:21
Ardea alba,Animalia,HERONS_ARDEIDAE,Great Egret,,2,26.30653311,51.12865941,Europe,Ukraine,UA,,Ukraine - Sarnens'kyi,2017-07-26,12:28
Sagittaria sagittifolia,Plantae,ALISMATACEAE,Arrowhead,,1,26.30632344,51.12765833,Europe,Ukraine,UA,,Ukraine - Sarnens'kyi,2017-07-26,12:38
Calopteryx splendens,Animalia,BROADWINGED_DAMSELS_CALOPTERYGIDAE,Banded Demoiselle,,1,26.30620117,51.12757243,Europe,Ukraine,UA,,Ukraine - Sarnens'kyi,2017-07-26,12:45
Lanius collurio,Animalia,SHRIKES_LANIIDAE,Red-backed Shrike,,1,26.30567584,51.12688254,Europe,Ukraine,UA,,Ukraine - Sarnens'kyi,2017-07-26,12:50
Coenonympha pamphilus,Animalia,BRUSHFOOTED_BUTTERFLIES_NYMPHALIDAE,Small Heath,,1,26.30587219,51.12693303,Europe,Ukraine,UA,,Ukraine - Sarnens'kyi,2017-07-26,12:53
Ciconia ciconia,Animalia,STORKS_CICONIIDAE,White Stork,,1,26.30524371,51.12620007,Europe,Ukraine,UA,,Ukraine - Sarnens'kyi,2017-07-26,12:58
Butomus umbellatus,Plantae,BUTOMACEAE,Flowering-rush,,1,26.30944367,51.12394699,Europe,Ukraine,UA,,Ukraine - Sarnens'kyi,2017-07-26,13:15
Chloris chloris,Animalia,FINCHES_FRINGILLIDAE,European Greenfinch,,1,26.31009405,51.12291412,Europe,Ukraine,UA,,Ukraine - Sarnens'kyi,2017-07-26,13:25
Merops apiaster,Animalia,BEEEATERS_MEROPIDAE,European Bee-eater,,15,26.31031582,51.11871654,Europe,Ukraine,UA,,Ukraine - Sarnens'kyi,2017-07-26,13:54
Falco subbuteo,Animalia,CARACAS_AND_FALCONS_FALCONIDAE,Eurasian Hobby,,1,26.31023018,51.11864803,Europe,Ukraine,UA,,Ukraine - Sarnens'kyi,2017-07-26,13:57
Motacilla flava,Animalia,PIPITS_EN_WAGTAILS_MOTACILLIDAE,Western Yellow Wagtail,,2,26.30995975,51.11884278,Europe,Ukraine,UA,,Ukraine - Sarnens'kyi,2017-07-26,14:06
Chloris chloris,Animalia,FINCHES_FRINGILLIDAE,European Greenfinch,,1,26.309969,51.11885021,Europe,Ukraine,UA,,Ukraine - Sarnens'kyi,2017-07-26,14:07
Lestes sponsa,Animalia,SPREADWINGS_LESTIDAE,Common Spreadwing,,1,26.30649576,51.12776084,Europe,Ukraine,UA,,Ukraine - Sarnens'kyi,2017-07-26,14:40
Platycnemis pennipes,Animalia,WHITELEGGED_DAMSELFLIES_PLATYCNEMIDIDAE,Blue Featherleg,,2,26.30497047,51.12909458,Europe,Ukraine,UA,,Ukraine - Sarnens'kyi,2017-07-26,14:45
Fringilla coelebs,Animalia,FINCHES_FRINGILLIDAE,Common Chaffinch,,1,26.30567925,51.12976438,Europe,Ukraine,UA,,Ukraine - Sarnens'kyi,2017-07-26,14:50
Cyanistes caeruleus,Animalia,TITS_PARIDAE,Eurasian Blue Tit,,1,26.30568168,51.12976516,Europe,Ukraine,UA,,Ukraine - Sarnens'kyi,2017-07-26,14:50
Chlidonias hybrida,Animalia,GULLS_TERNS_AND_SKIMMERS_LARIDAE,Whiskered Tern,,2,28.4695367263647,45.278067643665,Europe,Ukraine,UA,,Ukraine - Reniis'kyi,2017-04-30,09:37
Chlidonias hybrida,Animalia,GULLS_TERNS_AND_SKIMMERS_LARIDAE,Whiskered Tern,,1,28.4709357061667,45.2771820866767,Europe,Ukraine,UA,,Ukraine - Reniis'kyi,2017-05-07,09:56
Chlidonias hybrida,Animalia,GULLS_TERNS_AND_SKIMMERS_LARIDAE,Whiskered Tern,,5,28.4622613493739,45.2807453345687,Europe,Ukraine,UA,,Ukraine - Reniis'kyi,2017-05-07,10:11
Tadorna ferruginea,Animalia,DUCKS_GEESE_AND_SWANS_ANATIDAE,Ruddy Shelduck,,2,28.4728866980349,45.2763802945044,Europe,Ukraine,UA,,Ukraine - Reniis'kyi,2017-05-07,15:47
Chlidonias hybrida,Animalia,GULLS_TERNS_AND_SKIMMERS_LARIDAE,Whiskered Tern,,5,28.4832604337205,45.2727384775036,Europe,Ukraine,UA,,Ukraine - Reniis'kyi,2017-05-15,09:08
Chlidonias hybrida,Animalia,GULLS_TERNS_AND_SKIMMERS_LARIDAE,Whiskered Tern,,2,28.4751501351501,45.2755359402871,Europe,Ukraine,UA,,Ukraine - Reniis'kyi,2017-05-16,18:39
Chlidonias hybrida,Animalia,GULLS_TERNS_AND_SKIMMERS_LARIDAE,Whiskered Tern,,3,28.4687276511264,45.2780981032282,Europe,Ukraine,UA,,Ukraine - Reniis'kyi,2017-05-16,18:52
Chlidonias hybrida,Animalia,GULLS_TERNS_AND_SKIMMERS_LARIDAE,Whiskered Tern,,23,28.4628364061171,45.2804886170749,Europe,Ukraine,UA,,Ukraine - Reniis'kyi,2017-05-16,18:58
Chlidonias hybrida,Animalia,GULLS_TERNS_AND_SKIMMERS_LARIDAE,Whiskered Tern,,4,28.4841980292449,45.2725977652391,Europe,Ukraine,UA,,Ukraine - Reniis'kyi,2017-05-20,09:04
Chlidonias hybrida,Animalia,GULLS_TERNS_AND_SKIMMERS_LARIDAE,Whiskered Tern,,1,28.4681628980081,45.2783213057521,Europe,Ukraine,UA,,Ukraine - Reniis'kyi,2017-05-20,09:25
Chlidonias hybrida,Animalia,GULLS_TERNS_AND_SKIMMERS_LARIDAE,Whiskered Tern,,5,28.4644805731496,45.2798289072852,Europe,Ukraine,UA,,Ukraine - Reniis'kyi,2017-05-20,09:41
Chlidonias hybrida,Animalia,GULLS_TERNS_AND_SKIMMERS_LARIDAE,Whiskered Tern,,2,28.461368769274,45.2810780683855,Europe,Ukraine,UA,,Ukraine - Reniis'kyi,2017-05-20,09:47
Chlidonias hybrida,Animalia,GULLS_TERNS_AND_SKIMMERS_LARIDAE,Whiskered Tern,,2,28.4497955968855,45.282872232099,Europe,Ukraine,UA,,Ukraine - Reniis'kyi,2017-05-20,09:57
Chlidonias hybrida,Animalia,GULLS_TERNS_AND_SKIMMERS_LARIDAE,Whiskered Tern,,2,28.4811178384205,45.2733616451766,Europe,Ukraine,UA,,Ukraine - Reniis'kyi,2017-05-28,09:01
Chlidonias hybrida,Animalia,GULLS_TERNS_AND_SKIMMERS_LARIDAE,Whiskered Tern,,2,28.468853772892,45.2780437028415,Europe,Ukraine,UA,,Ukraine - Reniis'kyi,2017-05-28,09:15
Chlidonias hybrida,Animalia,GULLS_TERNS_AND_SKIMMERS_LARIDAE,Whiskered Tern,,15,28.4688773716074,45.2780645003628,Europe,Ukraine,UA,,Ukraine - Reniis'kyi,2017-05-28,09:15
Chlidonias hybrida,Animalia,GULLS_TERNS_AND_SKIMMERS_LARIDAE,Whiskered Tern,,3,28.4632671131401,45.280272364611,Europe,Ukraine,UA,,Ukraine - Reniis'kyi,2017-05-28,09:27
Emberiza calandra,Animalia,BUNTINGS_EMBERIZIDAE,Corn Bunting,,1,28.4566625992516,45.2823113422579,Europe,Ukraine,UA,,Ukraine - Reniis'kyi,2017-05-28,09:45
Emberiza calandra,Animalia,BUNTINGS_EMBERIZIDAE,Corn Bunting,,1,28.4550246569327,45.2827220103237,Europe,Ukraine,UA,,Ukraine - Reniis'kyi,2017-05-28,09:46
Chlidonias hybrida,Animalia,GULLS_TERNS_AND_SKIMMERS_LARIDAE,Whiskered Tern,,1,28.4506735933604,45.2831026350857,Europe,Ukraine,UA,,Ukraine - Reniis'kyi,2017-05-28,09:57
Chlidonias hybrida,Animalia,GULLS_TERNS_AND_SKIMMERS_LARIDAE,Whiskered Tern,,2,28.4476591804175,45.2825713382161,Europe,Ukraine,UA,,Ukraine - Reniis'kyi,2017-05-28,10:06
Chlidonias hybrida,Animalia,GULLS_TERNS_AND_SKIMMERS_LARIDAE,Whiskered Tern,,4,28.4829219569695,45.2728377612739,Europe,Ukraine,UA,,Ukraine - Reniis'kyi,2017-06-06,08:02
Chlidonias hybrida,Animalia,GULLS_TERNS_AND_SKIMMERS_LARIDAE,Whiskered Tern,,4,28.4626252741027,45.2806315274132,Europe,Ukraine,UA,,Ukraine - Reniis'kyi,2017-06-06,08:44
Coracias garrulus,Animalia,ROLLERS_CORACIIDAE,European Roller,,1,28.3671349881382,45.3067554839111,Europe,Ukraine,UA,,Ukraine - Reniis'kyi,2017-06-06,09:52
Chlidonias hybrida,Animalia,GULLS_TERNS_AND_SKIMMERS_LARIDAE,Whiskered Tern,,1,28.4834240369877,45.2726774707734,Europe,Ukraine,UA,,Ukraine - Reniis'kyi,2017-06-24,06:17
Chlidonias hybrida,Animalia,GULLS_TERNS_AND_SKIMMERS_LARIDAE,Whiskered Tern,,4,28.470187137648,45.277612343117,Europe,Ukraine,UA,,Ukraine - Reniis'kyi,2017-06-24,06:27
Chlidonias hybrida,Animalia,GULLS_TERNS_AND_SKIMMERS_LARIDAE,Whiskered Tern,,10,28.4687023540329,45.2780842481485,Europe,Ukraine,UA,,Ukraine - Reniis'kyi,2017-06-24,06:31
Chlidonias hybrida,Animalia,GULLS_TERNS_AND_SKIMMERS_LARIDAE,Whiskered Tern,,2,28.4501185579726,45.2829458635793,Europe,Ukraine,UA,,Ukraine - Reniis'kyi,2017-06-24,06:47
Chlidonias hybrida,Animalia,GULLS_TERNS_AND_SKIMMERS_LARIDAE,Whiskered Tern,,1,28.4811582063791,45.2733222663964,Europe,Ukraine,UA,,Ukraine - Reniis'kyi,2017-07-02,07:33
Chlidonias hybrida,Animalia,GULLS_TERNS_AND_SKIMMERS_LARIDAE,Whiskered Tern,,2,28.4730814120739,45.2763141667546,Europe,Ukraine,UA,,Ukraine - Reniis'kyi,2017-07-02,07:50
Chlidonias hybrida,Animalia,GULLS_TERNS_AND_SKIMMERS_LARIDAE,Whiskered Tern,,5,28.4687800885904,45.278014219988,Europe,Ukraine,UA,,Ukraine - Reniis'kyi,2017-07-02,07:58
Chlidonias hybrida,Animalia,GULLS_TERNS_AND_SKIMMERS_LARIDAE,Whiskered Tern,,6,28.4864619470842,45.2726018321877,Europe,Ukraine,UA,,Ukraine - Reniis'kyi,2017-07-16,08:19
Chlidonias hybrida,Animalia,GULLS_TERNS_AND_SKIMMERS_LARIDAE,Whiskered Tern,,2,28.4780255270084,45.2745036534315,Europe,Ukraine,UA,,Ukraine - Reniis'kyi,2017-07-16,08:29
Chlidonias hybrida,Animalia,GULLS_TERNS_AND_SKIMMERS_LARIDAE,Whiskered Tern,,3,28.4684558443771,45.2782426568182,Europe,Ukraine,UA,,Ukraine - Reniis'kyi,2017-07-16,08:46
Chlidonias hybrida,Animalia,GULLS_TERNS_AND_SKIMMERS_LARIDAE,Whiskered Tern,,3,28.4457643953235,45.2822358369069,Europe,Ukraine,UA,,Ukraine - Reniis'kyi,2017-07-16,08:58
Chlidonias hybrida,Animalia,GULLS_TERNS_AND_SKIMMERS_LARIDAE,Whiskered Tern,,1,28.4775548092121,45.2746762774742,Europe,Ukraine,UA,,Ukraine - Reniis'kyi,2017-07-23,09:10
Chlidonias hybrida,Animalia,GULLS_TERNS_AND_SKIMMERS_LARIDAE,Whiskered Tern,,1,28.4770559341139,45.2748094272448,Europe,Ukraine,UA,,Ukraine - Reniis'kyi,2017-07-23,09:10
Chlidonias hybrida,Animalia,GULLS_TERNS_AND_SKIMMERS_LARIDAE,Whiskered Tern,,1,28.46769686248,45.2785298939677,Europe,Ukraine,UA,,Ukraine - Reniis'kyi,2017-07-23,09:18
Egretta garzetta,Animalia,HERONS_ARDEIDAE,Little Egret,,1,28.7666533333333,45.26228,Europe,Ukraine,UA,,Ukraine - Izmal's'ka,2017-07-11,14:20
Sturnus vulgaris,Animalia,STARLINGS_STURNIDAE,Common Starling,,1,30.8961,50.3517,Europe,Ukraine,UA,,Ukraine - Boryspil's'ka,2017-07-10,18:10
Securigera varia,Plantae,Fabaceae,Crown Vetch,,1,24.05555617,49.83062628,Europe,Ukraine,UA,,Ukraine - L'vivs'ka,2017-06-21,14:42
Galinsoga spec.,Plantae,Asteraceae,,,1,24.05671857,49.83485449,Europe,Ukraine,UA,,Ukraine - L'vivs'ka,2017-06-21,14:29
Lysimachia nummularia,Plantae,PRIMULACEAE,Creeping-Jenny,,1,24.11123883,49.82025806,Europe,Ukraine,UA,,Ukraine - L'vivs'ka,2017-06-21,13:43
Chroicocephalus genei,Animalia,GULLS_TERNS_AND_SKIMMERS_LARIDAE,Slender-billed Gull,,10,30.7595033333333,46.5856216666667,Europe,Ukraine,UA,,Ukraine - Kominternivs'kyi,2017-07-03,15:56
Datura stramonium,Plantae,SOLANACEAE,Thorn-apple,,2,30.70491359,46.4501877,Europe,Ukraine,UA,,Ukraine - Odes'ka,2017-06-24,12:40
Medicago falcata,Plantae,Fabaceae,Sickle Medick,,1,30.75385183,46.59414064,Europe,Ukraine,UA,,Ukraine - Biliavs'kyi,2017-06-24,12:33
Verbascum spec.,Plantae,SCROPHULARIACEAE,,,1,30.74346632,46.58895019,Europe,Ukraine,UA,,Ukraine - Biliavs'kyi,2017-06-24,11:29
Plantago spec.,Plantae,PLANTAGINACEAE,Plantain,,1,30.76204799,46.58555913,Europe,Ukraine,UA,,Ukraine - Kominternivs'kyi,2017-06-24,10:37
Apium graveolens,Plantae,Apiaceae,Wild Celery,,1,30.76007389,46.56957077,Europe,Ukraine,UA,,Ukraine - Odessa,2017-06-24,09:23
Cynanchum acutum,Plantae,APOCYNACEAE,,,1,30.74709937,46.56186967,Europe,Ukraine,UA,,Ukraine - Odessa,2017-06-24,08:42
Linaria genistifolia,Plantae,PLANTAGINACEAE,Broomleaf toadflax,,1,30.74709937,46.56186967,Europe,Ukraine,UA,,Ukraine - Odessa,2017-06-24,08:48
Lepidium latifolium,Plantae,Brassicaceae,Dittander,,1,30.73945306,46.54487101,Europe,Ukraine,UA,,Ukraine - Odessa,2017-06-24,07:35
Trifolium fragiferum,Plantae,Fabaceae,Strawberry Clover,,1,30.72829507,46.52401354,Europe,Ukraine,UA,,Ukraine - Odessa,2017-06-24,07:00
Erodium cicutarium,Plantae,GERANIACEAE,Common Stork's-bill,,1,30.72675012,46.52436787,Europe,Ukraine,UA,,Ukraine - Odessa,2017-06-24,06:54
Cichorium intybus,Plantae,Asteraceae,Chicory,,1,30.72675012,46.52436787,Europe,Ukraine,UA,,Ukraine - Odessa,2017-06-24,06:52
Trifolium fragiferum,Plantae,Fabaceae,Strawberry Clover,,1,30.72464358,46.52026348,Europe,Ukraine,UA,,Ukraine - Odessa,2017-06-24,06:43
Morus nigra,Plantae,MORACEAE,Black Mulberry,,1,30.76269172,46.47305399,Europe,Ukraine,UA,,Ukraine - Odes'ka,2017-06-23,17:23
Lycium barbarum,Plantae,SOLANACEAE,Duke of Argyll's Teaplant,,1,30.76269172,46.47305399,Europe,Ukraine,UA,,Ukraine - Odes'ka,2017-06-23,17:18
Zygophyllum fabago,Plantae,ZYGOPHYLLACEAE,Syrian Bean-caper,,1,30.76269172,46.47305399,Europe,Ukraine,UA,,Ukraine - Odes'ka,2017-06-23,17:01
Heliotropium spec.,Plantae,BORAGINACEAE,,,1,30.75561069,46.47147274,Europe,Ukraine,UA,,Ukraine - Odes'ka,2017-06-23,17:01
Chroicocephalus genei,Animalia,GULLS_TERNS_AND_SKIMMERS_LARIDAE,Slender-billed Gull,,39,30.75360775,46.58949119,Europe,Ukraine,UA,,Ukraine - Biliavs'kyi,2017-06-24,
Argynnis pandora,Animalia,BRUSHFOOTED_BUTTERFLIES_NYMPHALIDAE,Cardinal,,2,30.72612852,46.45293699,Europe,Ukraine,UA,,Ukraine - Odes'ka,2017-06-23,12:32
Lactuca serriola,Plantae,Asteraceae,Prickly Lettuce,,1,30.51225554,50.3785388,Europe,Ukraine,UA,,Ukraine - Holosiïvs'kyi,2017-06-22,14:22
Nymphalis xanthomelas,Animalia,BRUSHFOOTED_BUTTERFLIES_NYMPHALIDAE,Yellow-legged Tortoiseshell,,3,30.49946677,50.38115233,Europe,Ukraine,UA,,Ukraine - Holosiïvs'kyi,2017-06-22,14:39
Lucanus cervus,Animalia,STAG_BEETLES_LUCANIDAE,Stag Beetle,,3,30.45,50.35,Europe,Ukraine,UA,,Ukraine - Holosiïvs'kyi,2017-06-22,14:39
Leonurus cardiaca,Plantae,Lamiaceae,Motherwort,,1,30.51257741,50.37848406,Europe,Ukraine,UA,,Ukraine - Holosiïvs'kyi,2017-06-22,14:23
Cannabis sativa,Plantae,CANNABACEAE,Hemp,,1,30.53060621,50.39806769,Europe,Ukraine,UA,,Ukraine - Holosiïvs'kyi,2017-06-22,12:35
Artemisia absinthium,Plantae,Asteraceae,Wormwood,,1,30.54199956,50.40074918,Europe,Ukraine,UA,,Ukraine - Holosiïvs'kyi,2017-06-22,12:12
Sambucus ebulus,Plantae,ADOXACEAE,Dwarf Elder,,1,24.11087774,49.81402073,Europe,Ukraine,UA,,Ukraine - L'vivs'ka,2017-06-21,13:09
Euonymus europaeus,Plantae,CELASTRACEAE,Spindle,,1,24.11087774,49.81402073,Europe,Ukraine,UA,,Ukraine - L'vivs'ka,2017-06-21,12:57
Geranium phaeum,Plantae,GERANIACEAE,Dusky Crane's-bill,,1,24.11087774,49.81402073,Europe,Ukraine,UA,,Ukraine - L'vivs'ka,2017-06-21,12:56
Lamium maculatum,Plantae,Lamiaceae,Spotted Dead-nettle,,1,24.11087774,49.81402073,Europe,Ukraine,UA,,Ukraine - L'vivs'ka,2017-06-21,12:50
Impatiens noli-tangere,Plantae,BALSAMINACEAE,Touch-me-not Balsam,,1,24.11087774,49.81402073,Europe,Ukraine,UA,,Ukraine - L'vivs'ka,2017-06-21,12:17
Melampyrum nemorosum,Plantae,OROBANCHACEAE,Wood Cow-wheat,,2,24.11087774,49.81402073,Europe,Ukraine,UA,,Ukraine - L'vivs'ka,2017-06-21,12:07
Melica uniflora,Plantae,Poaceae,Wood Melick,,1,24.11087774,49.81402073,Europe,Ukraine,UA,,Ukraine - L'vivs'ka,2017-06-21,11:52
Campanula spec.,Plantae,CAMPANULACEAE,,,1,24.11087774,49.81402073,Europe,Ukraine,UA,,Ukraine - L'vivs'ka,2017-06-21,11:51
Euphorbia amygdaloides,Plantae,EUPHORBIACEAE,Wood Spurge,,1,24.10423458,49.81084838,Europe,Ukraine,UA,,Ukraine - L'vivs'ka,2017-06-21,11:15
Platanthera chlorantha,Plantae,ORCHIDACEAE,Greater Butterfly-orchid,,1,24.1,49.8,Europe,Ukraine,UA,,Ukraine - L'vivs'ka,2017-06-21,11:14
Lamium orvala,Plantae,Lamiaceae,Balm-leaved Archangel,,1,24.10423458,49.81084838,Europe,Ukraine,UA,,Ukraine - L'vivs'ka,2017-06-21,11:10
Asarum europaeum,Plantae,ARISTOLOCHIACEAE,European Wild Ginger,,1,24.08487841,49.8087449,Europe,Ukraine,UA,,Ukraine - L'vivs'ka,2017-06-21,10:39
Impatiens parviflora,Plantae,BALSAMINACEAE,Small Balsam,,1,24.08144519,49.80982499,Europe,Ukraine,UA,,Ukraine - L'vivs'ka,2017-06-21,10:24
Centaurea cyanus,Plantae,Asteraceae,Cornflower,,1,23.97133917,49.73851436,Europe,Ukraine,UA,,Ukraine - Pustomytivs'kyi,2017-06-20,14:43
Lupinus polyphyllus,Plantae,Fabaceae,Garden Lupin,,1,23.97133917,49.73851436,Europe,Ukraine,UA,,Ukraine - Pustomytivs'kyi,2017-06-20,14:33
Consolida spec.,Plantae,RANUNCULACEAE,,,1,23.96936506,49.7412878,Europe,Ukraine,UA,,Ukraine - Pustomytivs'kyi,2017-06-20,14:15
Rhinanthus spec.,Plantae,OROBANCHACEAE,,,1,23.95424411,49.74015114,Europe,Ukraine,UA,,Ukraine - Pustomytivs'kyi,2017-06-20,13:58
Libellula fulva,Animalia,SKIMMERS_LIBELLULIDAE,Scarce Chaser,,1,23.95302773,49.73979103,Europe,Ukraine,UA,,Ukraine - Pustomytivs'kyi,2017-06-20,13:46
Trifolium hybridum,Plantae,Fabaceae,Alsike Clover,,1,23.9745149,49.79218,Europe,Ukraine,UA,,Ukraine - Pustomytivs'kyi,2017-06-20,10:32
Trifolium medium,Plantae,Fabaceae,Zigzag Clover,,1,23.9745149,49.79218,Europe,Ukraine,UA,,Ukraine - Pustomytivs'kyi,2017-06-20,10:20
Hypericum spec.,Plantae,Hypericaceae,,,1,23.9745149,49.79218,Europe,Ukraine,UA,,Ukraine - Pustomytivs'kyi,2017-06-20,10:20
Lycaena dispar,Animalia,GOSSAMERWINGED_BUTTERFLIES_LYCAENIDAE,Large Copper,,1,23.95,49.8,Europe,Ukraine,UA,,Ukraine - Pustomytivs'kyi,2017-06-20,09:44
Lupinus polyphyllus,Plantae,Fabaceae,Garden Lupin,,1,23.96475837,49.80212533,Europe,Ukraine,UA,,Ukraine - Pustomytivs'kyi,2017-06-20,09:37
Campanula patula,Plantae,CAMPANULACEAE,Spreading Bellflower,,1,23.96701109,49.8001867,Europe,Ukraine,UA,,Ukraine - Pustomytivs'kyi,2017-06-20,09:03
Motacilla flava,Animalia,PIPITS_EN_WAGTAILS_MOTACILLIDAE,Western Yellow Wagtail,,5,23.96701109,49.8001867,Europe,Ukraine,UA,,Ukraine - Pustomytivs'kyi,2017-06-20,09:12
Sciurus vulgaris,Animalia,SQUIRRELS_CHIPMUNKS_AND_PRAIRIEDOGS_SCIURIDAE,Eurasian Red Squirrel,,1,24.02734302,49.82211997,Europe,Ukraine,UA,,Ukraine - L'vivs'ka,2017-06-19,14:58
Laspeyria flexula,Animalia,EREBIDAE,Beautiful Hook-tip,,1,22.83123943,48.10766103,Europe,Ukraine,UA,,Ukraine - Vynohradivs'kyi,2017-06-17,22:08
Abraxas grossulariata,Animalia,Geometridae,Magpie,,1,22.83123943,48.10766103,Europe,Ukraine,UA,,Ukraine - Vynohradivs'kyi,2017-06-17,22:08
Hydropsyche contubernalis,Animalia,HYDROPSYCHIDAE,,,1,22.83118196,48.10706167,Europe,Ukraine,UA,,Ukraine - Vynohradivs'kyi,2017-06-14,22:25
Agapetus laniger,Animalia,GLOSSOSOMATIDAE,,,1,22.83118196,48.10706167,Europe,Ukraine,UA,,Ukraine - Vynohradivs'kyi,2017-06-14,22:25
Ceraclea dissimilis,Animalia,LEPTOCERIDAE,,,1,22.83118196,48.10706167,Europe,Ukraine,UA,,Ukraine - Vynohradivs'kyi,2017-06-14,22:25
Ecdyonurus insignis,Animalia,HEPTAGENIIDAE,,,1,22.83013026,48.11067624,Europe,Ukraine,UA,,Ukraine - Transcarpathia,2017-06-15,13:37
Potamanthus luteus,Animalia,POTAMANTHIDAE,,,20,22.83008614,48.11067693,Europe,Ukraine,UA,,Ukraine - Transcarpathia,2017-06-15,13:37
Ecdyonurus insignis,Animalia,HEPTAGENIIDAE,,,1,22.82798769,48.11397448,Europe,Ukraine,UA,,Ukraine - Transcarpathia,2017-06-15,14:10
Heptagenia coerulans,Animalia,HEPTAGENIIDAE,,,3,22.82789938,48.11396163,Europe,Ukraine,UA,,Ukraine - Transcarpathia,2017-06-15,14:10
Oligoneuriella spec.,Animalia,OLIGONEURIIDAE,,,1,22.82322918,48.11740806,Europe,Ukraine,UA,,Ukraine - Vynohradivs'kyi,2017-06-15,14:34
Charadrius dubius,Animalia,PLOVERS_CHARADRIIDAE,Little Ringed Plover,,1,22.81493966,48.11743722,Europe,Ukraine,UA,,Ukraine - Vynohradivs'kyi,2017-06-15,15:32
Ciconia nigra,Animalia,STORKS_CICONIIDAE,Black Stork,,1,22.81821788,48.11834959,Europe,Ukraine,UA,,Ukraine - Vynohradivs'kyi,2017-06-15,16:31
Ciconia nigra,Animalia,STORKS_CICONIIDAE,Black Stork,,1,22.81416842,48.11693798,Europe,Ukraine,UA,,Ukraine - Vynohradivs'kyi,2017-06-15,16:15
Gomphus vulgatissimus,Animalia,CLUBTAILS_GOMPHIDAE,Common Clubtail,,1,22.82318194,48.11747495,Europe,Ukraine,UA,,Ukraine - Vynohradivs'kyi,2017-06-15,14:35
Aphelocheirus aestivalis,Animalia,APHELOCHEIRIDAE,Saucer Bug,,1,22.8276683,48.11436462,Europe,Ukraine,UA,,Ukraine - Vynohradivs'kyi,2017-06-15,14:21
Platycnemis pennipes,Animalia,WHITELEGGED_DAMSELFLIES_PLATYCNEMIDIDAE,Blue Featherleg,,12,22.83000892,48.11103446,Europe,Ukraine,UA,,Ukraine - Transcarpathia,2017-06-15,13:47
Oligoneuriella spec.,Animalia,OLIGONEURIIDAE,,,1,22.82318194,48.11747495,Europe,Ukraine,UA,,Ukraine - Vynohradivs'kyi,2017-06-15,14:35
Barbus barbus,Animalia,CARPS_CYPRINIDAE,Barbel,,1,22.81459482,48.11717972,Europe,Ukraine,UA,,Ukraine - Vynohradivs'kyi,2017-06-15,15:35
Charadrius dubius,Animalia,PLOVERS_CHARADRIIDAE,Little Ringed Plover,,1,22.81416842,48.11693798,Europe,Ukraine,UA,,Ukraine - Vynohradivs'kyi,2017-06-15,15:42
Setodes punctatus,Animalia,LEPTOCERIDAE,,,1,22.83118196,48.10706167,Europe,Ukraine,UA,,Ukraine - Vynohradivs'kyi,2017-06-14,22:25
Procloeon pulchrum,Animalia,BAETIDAE,,,2,22.83125382,48.10701834,Europe,Ukraine,UA,,Ukraine - Vynohradivs'kyi,2017-06-14,21:06
Potamanthus luteus,Animalia,POTAMANTHIDAE,,,40,22.83123431,48.10726671,Europe,Ukraine,UA,,Ukraine - Vynohradivs'kyi,2017-06-14,15:01
Procloeon bifidum,Animalia,BAETIDAE,,,5,22.83124009,48.10727784,Europe,Ukraine,UA,,Ukraine - Vynohradivs'kyi,2017-06-14,15:02
Trachea atriplicis,Animalia,Noctuidae,Orache Moth,,1,22.83120632,48.10642535,Europe,Ukraine,UA,,Ukraine - Vynohradivs'kyi,2017-06-14,21:33
Abraxas grossulariata,Animalia,Geometridae,Magpie,,2,22.83125616,48.10704462,Europe,Ukraine,UA,,Ukraine - Vynohradivs'kyi,2017-06-14,22:25
Ephemera lineata,Animalia,EPHEMERIDAE,,,1,22.83130421,48.10705584,Europe,Ukraine,UA,,Ukraine - Vynohradivs'kyi,2017-06-14,23:01
Ephemera lineata,Animalia,EPHEMERIDAE,,,3,22.83130421,48.10705584,Europe,Ukraine,UA,,Ukraine - Vynohradivs'kyi,2017-06-14,23:01
Laspeyria flexula,Animalia,EREBIDAE,Beautiful Hook-tip,,1,22.83127583,48.10765243,Europe,Ukraine,UA,,Ukraine - Vynohradivs'kyi,2017-06-14,21:33
Xanthoperla apicalis,Animalia,CHLOROPERLIDAE,,,1,22.83128349,48.10762004,Europe,Ukraine,UA,,Ukraine - Vynohradivs'kyi,2017-06-14,21:48
Abraxas grossulariata,Animalia,Geometridae,Magpie,,1,22.83118201,48.1070617,Europe,Ukraine,UA,,Ukraine - Vynohradivs'kyi,2017-06-14,22:24
Thyatira batis,Animalia,Drepanidae,Peach Blossom,,1,22.83118196,48.10706167,Europe,Ukraine,UA,,Ukraine - Vynohradivs'kyi,2017-06-14,22:25
Ephemera lineata,Animalia,EPHEMERIDAE,,,4,22.83126724,48.1070529,Europe,Ukraine,UA,,Ukraine - Vynohradivs'kyi,2017-06-14,22:32
Coracias garrulus,Animalia,ROLLERS_CORACIIDAE,European Roller,,1,28.9645516666667,45.322135,Europe,Ukraine,UA,,Ukraine - Izmal's'ka,2017-06-08,10:06
Coracias garrulus,Animalia,ROLLERS_CORACIIDAE,European Roller,,1,29.00293,45.338015,Europe,Ukraine,UA,,Ukraine - Izmal's'ka,2017-06-08,13:22
Sturnus vulgaris,Animalia,STARLINGS_STURNIDAE,Common Starling,,4,30.89704525,50.34988305,Europe,Ukraine,UA,,Ukraine - Boryspil's'ka,2017-05-26,09:02
Corvus cornix,Animalia,CROWS_AND_JAYS_CORVIDAE,Hooded Crow,,1,30.5268,50.4598,Europe,Ukraine,UA,,Ukraine - Podil's'kyi,2017-05-18,18:12
Phoenicurus ochruros,Animalia,OLD_WORLD_FLYCATCHERS_MUSCICAPIDAE,Black Redstart,,1,30.5144,50.4533,Europe,Ukraine,UA,,Ukraine - Shevchenkivs'kyi,2017-05-17,16:43
Corvus cornix,Animalia,CROWS_AND_JAYS_CORVIDAE,Hooded Crow,,6,30.5139,50.4536,Europe,Ukraine,UA,,Ukraine - Shevchenkivs'kyi,2017-05-17,16:31
Columba livia domestica,Animalia,PIGEONS_AND_DOVES_COLUMBIDAE,Feral Pigeon,,10,30.4434,50.4122,Europe,Ukraine,UA,,Ukraine - Solomians'kyi,2016-10-30,10:39
Corvus cornix,Animalia,CROWS_AND_JAYS_CORVIDAE,Hooded Crow,,5,30.5281,50.4416,Europe,Ukraine,UA,,Ukraine - Pechers'kyi,2016-02-22,14:31
Corvus cornix,Animalia,CROWS_AND_JAYS_CORVIDAE,Hooded Crow,,1,30.5140724,50.45717189,Europe,Ukraine,UA,,Ukraine - Shevchenkivs'kyi,2017-05-10,17:25
Corvus cornix,Animalia,CROWS_AND_JAYS_CORVIDAE,Hooded Crow,,1,30.51267758,50.44902209,Europe,Ukraine,UA,,Ukraine - Shevchenkivs'kyi,2017-05-08,10:40
Corvus cornix,Animalia,CROWS_AND_JAYS_CORVIDAE,Hooded Crow,,20,30.55844867,50.43080323,Europe,Ukraine,UA,,Ukraine - Pechers'kyi,2016-11-26,14:38
Corvus cornix,Animalia,CROWS_AND_JAYS_CORVIDAE,Hooded Crow,,1,30.4502,50.4537,Europe,Ukraine,UA,,Ukraine - Shevchenkivs'kyi,2016-11-22,09:17
Protoschinia scutosa,Animalia,Noctuidae,,,1,34.72858428,50.89230707,Europe,Ukraine,UA,,Ukraine - Sumy,2016-08-16,
Buteo buteo,Animalia,HAWKS_AND_EAGLES_ACCIPITRIDAE,Common Buzzard,,1,34.726526640588,50.887322290083,Europe,Ukraine,UA,,Ukraine - Sumy,2016-08-16,
Eryngium campestre,Plantae,Apiaceae,Field Eryngo,,1,34.726526640588,50.887322290083,Europe,Ukraine,UA,,Ukraine - Sumy,2016-08-16,
Verbascum nigrum,Plantae,SCROPHULARIACEAE,Dark Mullein,,1,34.722348403302,50.887309294726,Europe,Ukraine,UA,,Ukraine - Sumy,2016-08-16,
Phoenicurus ochruros,Animalia,OLD_WORLD_FLYCATCHERS_MUSCICAPIDAE,Black Redstart,,1,34.722348403302,50.887309294726,Europe,Ukraine,UA,,Ukraine - Sumy,2016-08-16,
Solanum nigrum,Plantae,SOLANACEAE,Black Nightshade,,1,34.722348403302,50.887309294726,Europe,Ukraine,UA,,Ukraine - Sumy,2016-08-16,
Erigeron annuus,Plantae,Asteraceae,Tall Fleabane,,1,34.722348403302,50.887309294726,Europe,Ukraine,UA,,Ukraine - Sumy,2016-08-16,
Stachys annua,Plantae,Lamiaceae,Annual Woundwort,,1,34.722348403302,50.887309294726,Europe,Ukraine,UA,,Ukraine - Sumy,2016-08-16,
Ambrosia psilostachya,Plantae,Asteraceae,Perennial Ragweed,,1,34.722348403302,50.887309294726,Europe,Ukraine,UA,,Ukraine - Sumy,2016-08-16,
Motacilla alba,Animalia,PIPITS_EN_WAGTAILS_MOTACILLIDAE,White Wagtail,,1,34.722348403302,50.887309294726,Europe,Ukraine,UA,,Ukraine - Sumy,2016-08-16,
Trifolium repens,Plantae,Fabaceae,White Clover,,1,34.722348403302,50.887309294726,Europe,Ukraine,UA,,Ukraine - Sumy,2016-08-16,
Cichorium intybus,Plantae,Asteraceae,Chicory,,1,34.722348403302,50.887309294726,Europe,Ukraine,UA,,Ukraine - Sumy,2016-08-16,
Linaria vulgaris,Plantae,PLANTAGINACEAE,Common Toadflax,,1,34.722348403302,50.887309294726,Europe,Ukraine,UA,,Ukraine - Sumy,2016-08-16,
Acer negundo,Plantae,SAPINDACEAE,Ash-leaved Maple,,1,34.722348403302,50.887309294726,Europe,Ukraine,UA,,Ukraine - Sumy,2016-08-16,
Vanessa atalanta,Animalia,BRUSHFOOTED_BUTTERFLIES_NYMPHALIDAE,Red Admiral,,1,34.722348403302,50.887309294726,Europe,Ukraine,UA,,Ukraine - Sumy,2016-08-16,
Galium mollugo,Plantae,RUBIACEAE,Hedge-bedstraw,,1,34.722348403302,50.887309294726,Europe,Ukraine,UA,,Ukraine - Sumy,2016-08-16,
Streptopelia decaocto,Animalia,PIGEONS_AND_DOVES_COLUMBIDAE,Eurasian Collared Dove,,1,34.722348403302,50.887309294726,Europe,Ukraine,UA,,Ukraine - Sumy,2016-08-16,
Certhia familiaris,Animalia,TREECREEPERS_CERTHIIDAE,Eurasian Treecreeper,,1,34.722348403302,50.887309294726,Europe,Ukraine,UA,,Ukraine - Sumy,2016-08-16,
Chelidonium majus,Plantae,PAPAVERACEAE,Greater Celandine,,1,34.722348403302,50.887309294726,Europe,Ukraine,UA,,Ukraine - Sumy,2016-08-16,
Ballota nigra subsp. meridionalis,Plantae,Lamiaceae,,,1,34.722348403302,50.887309294726,Europe,Ukraine,UA,,Ukraine - Sumy,2016-08-16,
Cirsium vulgare,Plantae,Asteraceae,Spear Thistle,,1,34.722348403302,50.887309294726,Europe,Ukraine,UA,,Ukraine - Sumy,2016-08-16,
Echium vulgare,Plantae,BORAGINACEAE,Viper's-bugloss,,1,34.722348403302,50.887309294726,Europe,Ukraine,UA,,Ukraine - Sumy,2016-08-16,
Medicago falcata,Plantae,Fabaceae,Sickle Medick,,1,34.722348403302,50.887309294726,Europe,Ukraine,UA,,Ukraine - Sumy,2016-08-16,
Matricaria discoidea,Plantae,Asteraceae,Pineapple Weed,,1,34.722348403302,50.887309294726,Europe,Ukraine,UA,,Ukraine - Sumy,2016-08-16,
Plantago media,Plantae,PLANTAGINACEAE,Hoary Plantain,,1,34.722348403302,50.887309294726,Europe,Ukraine,UA,,Ukraine - Sumy,2016-08-16,
Trifolium pratense,Plantae,Fabaceae,Red Clover,,1,34.722348403302,50.887309294726,Europe,Ukraine,UA,,Ukraine - Sumy,2016-08-16,
Rumex obtusifolius,Plantae,POLYGONACEAE,Broad-leaved Dock,,1,34.722348403302,50.887309294726,Europe,Ukraine,UA,,Ukraine - Sumy,2016-08-16,
Potentilla recta,Plantae,ROSACEAE,Sulphur Cinquefoil,,1,34.722348403302,50.887309294726,Europe,Ukraine,UA,,Ukraine - Sumy,2016-08-16,
Portulaca oleracea,Plantae,PORTULACACEAE,Common Purslane,,1,34.722348403302,50.887309294726,Europe,Ukraine,UA,,Ukraine - Sumy,2016-08-16,
Daucus carota,Plantae,Apiaceae,Wild Carrot,,1,34.722348403302,50.887309294726,Europe,Ukraine,UA,,Ukraine - Sumy,2016-08-16,
Pastinaca sativa,Plantae,Apiaceae,Wild Parsnip,,1,34.722348403302,50.887309294726,Europe,Ukraine,UA,,Ukraine - Sumy,2016-08-16,
Amaranthus retroflexus,Plantae,AMARANTHACEAE,Common Amaranth,,1,34.722348403302,50.887309294726,Europe,Ukraine,UA,,Ukraine - Sumy,2016-08-16,
Amaranthus retroflexus,Plantae,AMARANTHACEAE,Common Amaranth,,1,34.722348403302,50.887309294726,Europe,Ukraine,UA,,Ukraine - Sumy,2016-08-16,
Amaranthus retroflexus,Plantae,AMARANTHACEAE,Common Amaranth,,1,34.722348403302,50.887309294726,Europe,Ukraine,UA,,Ukraine - Sumy,2016-08-16,
Saxicola rubetra,Animalia,OLD_WORLD_FLYCATCHERS_MUSCICAPIDAE,Whinchat,,1,34.722348403302,50.887309294726,Europe,Ukraine,UA,,Ukraine - Sumy,2016-08-16,
Pilosella officinarum,Plantae,Asteraceae,Mouse-ear Hawkweed,,1,34.722348403302,50.887309294726,Europe,Ukraine,UA,,Ukraine - Sumy,2016-08-16,
Rumex palustris,Plantae,POLYGONACEAE,Marsh Dock,,1,34.722348403302,50.887309294726,Europe,Ukraine,UA,,Ukraine - Sumy,2016-08-16,
Stachys palustris,Plantae,Lamiaceae,Marsh Woundwort,,1,34.722348403302,50.887309294726,Europe,Ukraine,UA,,Ukraine - Sumy,2016-08-16,
Verbascum lychnitis,Plantae,SCROPHULARIACEAE,White Mullein,,1,34.722348403302,50.887309294726,Europe,Ukraine,UA,,Ukraine - Sumy,2016-08-16,
Chenopodium album,Plantae,AMARANTHACEAE,Lamb's Quarters,,1,34.722348403302,50.887309294726,Europe,Ukraine,UA,,Ukraine - Sumy,2016-08-16,
Sagina procumbens,Plantae,CARYOPHYLLACEAE,Procumbent Pearlwort,,1,34.722348403302,50.887309294726,Europe,Ukraine,UA,,Ukraine - Sumy,2016-08-16,
Xanthium orientale + Xanthium strumarium,Plantae,Asteraceae,,,1,34.722348403302,50.887309294726,Europe,Ukraine,UA,,Ukraine - Sumy,2016-08-16,
Solidago gigantea,Plantae,Asteraceae,Early Goldenrod,,1,34.722348403302,50.887309294726,Europe,Ukraine,UA,,Ukraine - Sumy,2016-08-16,
Rumex crispus,Plantae,POLYGONACEAE,Curled Dock,,1,34.722348403302,50.887309294726,Europe,Ukraine,UA,,Ukraine - Sumy,2016-08-16,
Setaria verticillata,Plantae,Poaceae,Rough Bristle-grass,,1,34.722348403302,50.887309294726,Europe,Ukraine,UA,,Ukraine - Sumy,2016-08-16,
Eupatorium cannabinum,Plantae,Asteraceae,Hemp-agrimony,,1,34.722348403302,50.887309294726,Europe,Ukraine,UA,,Ukraine - Sumy,2016-08-16,
Lactuca serriola,Plantae,Asteraceae,Prickly Lettuce,,1,34.722348403302,50.887309294726,Europe,Ukraine,UA,,Ukraine - Sumy,2016-08-16,
Geranium nodosum,Plantae,GERANIACEAE,Kontted Crane's-bill,,1,34.722348403302,50.887309294726,Europe,Ukraine,UA,,Ukraine - Sumy,2016-08-16,
Centaurea jacea,Plantae,Asteraceae,Brown Knapweed,,1,34.722348403302,50.887309294726,Europe,Ukraine,UA,,Ukraine - Sumy,2016-08-16,
Pulicaria vulgaris,Plantae,Asteraceae,Small Fleabane,,1,34.722348403302,50.887309294726,Europe,Ukraine,UA,,Ukraine - Sumy,2016-08-16,
Jacobaea vulgaris,Plantae,Asteraceae,Common Ragwort,,1,34.722348403302,50.887309294726,Europe,Ukraine,UA,,Ukraine - Sumy,2016-08-16,
Iva xanthiifolia,Plantae,Asteraceae,Cocklebur-leaved Iva,,1,34.722348403302,50.887309294726,Europe,Ukraine,UA,,Ukraine - Sumy,2016-08-16,
Upupa epops,Animalia,HOOPOES_UPUPIDAE,Eurasian Hoopoe,,1,34.722348403302,50.887309294726,Europe,Ukraine,UA,,Ukraine - Sumy,2016-08-16,
Mentha longifolia,Plantae,Lamiaceae,Horsemint,,1,34.722348403302,50.887309294726,Europe,Ukraine,UA,,Ukraine - Sumy,2016-08-16,
Euphorbia esula,Plantae,EUPHORBIACEAE,Leafy Spurge,,1,34.722348403302,50.887309294726,Europe,Ukraine,UA,,Ukraine - Sumy,2016-08-16,
Digitaria sanguinalis,Plantae,Poaceae,Hairy Finger-grass,,1,34.722348403302,50.887309294726,Europe,Ukraine,UA,,Ukraine - Sumy,2016-08-16,
Galinsoga quadriradiata,Plantae,Asteraceae,Shaggy Soldier,,1,34.722348403302,50.887309294726,Europe,Ukraine,UA,,Ukraine - Sumy,2016-08-16,
Arctium lappa,Plantae,Asteraceae,Greater Burdock,,1,34.722348403302,50.887309294726,Europe,Ukraine,UA,,Ukraine - Sumy,2016-08-16,
Urtica dioica,Plantae,URTICACEAE,Common Nettle,,1,34.722348403302,50.887309294726,Europe,Ukraine,UA,,Ukraine - Sumy,2016-08-16,
Setaria viridis,Plantae,Poaceae,Green Bristle-grass,,1,34.722348403302,50.887309294726,Europe,Ukraine,UA,,Ukraine - Sumy,2016-08-16,
Berteroa incana,Plantae,Brassicaceae,Hoary Alison,,1,34.722348403302,50.887309294726,Europe,Ukraine,UA,,Ukraine - Sumy,2016-08-16,
Lanius collurio,Animalia,SHRIKES_LANIIDAE,Red-backed Shrike,,1,34.722348403302,50.887309294726,Europe,Ukraine,UA,,Ukraine - Sumy,2016-08-16,
Gypsophila muralis,Plantae,CARYOPHYLLACEAE,Annual Gypsophila,,1,34.722348403302,50.887309294726,Europe,Ukraine,UA,,Ukraine - Sumy,2016-08-16,
Polygonum aviculare,Plantae,POLYGONACEAE,Knotgrass,,1,34.722348403302,50.887309294726,Europe,Ukraine,UA,,Ukraine - Sumy,2016-08-16,
Erysimum cheiranthoides,Plantae,Brassicaceae,Treacle Mustard,,1,34.722348403302,50.887309294726,Europe,Ukraine,UA,,Ukraine - Sumy,2016-08-16,
Lotus corniculatus,Plantae,Fabaceae,Common Bird's-foot-trefoil,,1,34.722348403302,50.887309294726,Europe,Ukraine,UA,,Ukraine - Sumy,2016-08-16,
Sonchus oleraceus,Plantae,Asteraceae,Smooth Sow-thistle,,1,34.722348403302,50.887309294726,Europe,Ukraine,UA,,Ukraine - Sumy,2016-08-16,
Prunella vulgaris,Plantae,Lamiaceae,Selfheal,,1,34.722348403302,50.887309294726,Europe,Ukraine,UA,,Ukraine - Sumy,2016-08-16,
Agrimonia eupatoria,Plantae,ROSACEAE,Agrimony,,1,34.722348403302,50.887309294726,Europe,Ukraine,UA,,Ukraine - Sumy,2016-08-16,
Setaria pumila,Plantae,Poaceae,Yellow Bristle-grass,,1,34.722348403302,50.887309294726,Europe,Ukraine,UA,,Ukraine - Sumy,2016-08-16,
Galium verum,Plantae,RUBIACEAE,Lady's Bedstraw,,1,34.722348403302,50.887309294726,Europe,Ukraine,UA,,Ukraine - Sumy,2016-08-16,
Echinochloa crus-galli,Plantae,Poaceae,Cockspur,,1,34.722348403302,50.887309294726,Europe,Ukraine,UA,,Ukraine - Sumy,2016-08-16,
Picris hieracioides,Plantae,Asteraceae,Hawkweed Oxtongue,,1,34.722348403302,50.887309294726,Europe,Ukraine,UA,,Ukraine - Sumy,2016-08-16,
Achillea millefolium,Plantae,Asteraceae,Yarrow,,1,34.722348403302,50.887309294726,Europe,Ukraine,UA,,Ukraine - Sumy,2016-08-16,
Datura stramonium,Plantae,SOLANACEAE,Thorn-apple,,1,34.722348403302,50.887309294726,Europe,Ukraine,UA,,Ukraine - Sumy,2016-08-16,
Erigeron canadensis,Plantae,Asteraceae,Canadian Fleabane,,1,34.722348403302,50.887309294726,Europe,Ukraine,UA,,Ukraine - Sumy,2016-08-16,
Buteo buteo,Animalia,HAWKS_AND_EAGLES_ACCIPITRIDAE,Common Buzzard,,1,34.722348403302,50.887309294726,Europe,Ukraine,UA,,Ukraine - Sumy,2016-08-16,
Salvia nemorosa,Plantae,Lamiaceae,Balkan Clary,,1,34.722348403302,50.887309294726,Europe,Ukraine,UA,,Ukraine - Sumy,2016-08-16,
Eristalis tenax,Animalia,HOVER_FLIES_OR_FLOWER_FLIES_SYRPHIDAE,Drone Fly,,1,34.7223484,50.88730929,Europe,Ukraine,UA,,Ukraine - Sumy,2016-08-16,
Clinopodium vulgare,Plantae,Lamiaceae,Wild Basil,,1,34.722348403302,50.887309294726,Europe,Ukraine,UA,,Ukraine - Sumy,2016-08-16,
Corvus cornix,Animalia,CROWS_AND_JAYS_CORVIDAE,Hooded Crow,,1,34.722348403302,50.887309294726,Europe,Ukraine,UA,,Ukraine - Sumy,2016-08-16,
Lycium barbarum,Plantae,SOLANACEAE,Duke of Argyll's Teaplant,,1,34.722348403302,50.887309294726,Europe,Ukraine,UA,,Ukraine - Sumy,2016-08-16,
Ardea cinerea,Animalia,HERONS_ARDEIDAE,Grey Heron,,1,34.722348403302,50.887309294726,Europe,Ukraine,UA,,Ukraine - Sumy,2016-08-16,
Artemisia vulgaris,Plantae,Asteraceae,Mugwort,,1,34.722348403302,50.887309294726,Europe,Ukraine,UA,,Ukraine - Sumy,2016-08-16,
Astragalus cicer,Plantae,Fabaceae,Chick-pea Milk-vetch,,1,34.722348403302,50.887309294726,Europe,Ukraine,UA,,Ukraine - Sumy,2016-08-16,
Silene latifolia subsp. alba,Plantae,CARYOPHYLLACEAE,,,1,34.722348403302,50.887309294726,Europe,Ukraine,UA,,Ukraine - Sumy,2016-08-16,
Atriplex tatarica,Plantae,AMARANTHACEAE,Tatarian orach,,1,34.722348403302,50.887309294726,Europe,Ukraine,UA,,Ukraine - Sumy,2016-08-16,
Convolvulus arvensis,Plantae,CONVOLVULACEAE,Field Bindweed,,1,34.722348403302,50.887309294726,Europe,Ukraine,UA,,Ukraine - Sumy,2016-08-16,
Cirsium arvense,Plantae,Asteraceae,Creeping Thistle,,1,34.722348403302,50.887309294726,Europe,Ukraine,UA,,Ukraine - Sumy,2016-08-16,
Hirundo rustica,Animalia,SWALLOWS_HIRUNDINIDAE,Barn Swallow,,1,26.306326389094,51.132658282623,Europe,Ukraine,UA,,Ukraine - Sarnens'kyi,2016-08-12,
Timandra comae,Animalia,Geometridae,Blood-vein,,2,26.306326389094,51.132658282623,Europe,Ukraine,UA,,Ukraine - Sarnens'kyi,2016-08-07,22:00
Phoenicurus ochruros,Animalia,OLD_WORLD_FLYCATCHERS_MUSCICAPIDAE,Black Redstart,,1,23.816013335309,51.191061771112,Europe,Ukraine,UA,,Ukraine - Liuboml's'ky,2016-08-06,14:15
Corvus cornix,Animalia,CROWS_AND_JAYS_CORVIDAE,Hooded Crow,,2,30.5259,50.4516,Europe,Ukraine,UA,,Ukraine - Shevchenkivs'kyi,2016-08-12,17:19
Corvus cornix,Animalia,CROWS_AND_JAYS_CORVIDAE,Hooded Crow,,3,30.5559,50.4318,Europe,Ukraine,UA,,Ukraine - Pechers'kyi,2016-08-12,15:07
Corvus cornix,Animalia,CROWS_AND_JAYS_CORVIDAE,Hooded Crow,,1,30.6195,50.3959,Europe,Ukraine,UA,,Ukraine - Darnyts'kyi,2016-08-12,14:52
Sturnus vulgaris,Animalia,STARLINGS_STURNIDAE,Common Starling,,25,30.8966,50.3629,Europe,Ukraine,UA,,Ukraine - Boryspil's'ka,2016-08-12,14:35
Sturnus vulgaris,Animalia,STARLINGS_STURNIDAE,Common Starling,,50,30.9002,50.3529,Europe,Ukraine,UA,,Ukraine - Boryspil's'ka,2016-08-12,12:11
Motacilla alba,Animalia,PIPITS_EN_WAGTAILS_MOTACILLIDAE,White Wagtail,,1,26.32047311,51.13904087,Europe,Ukraine,UA,,Ukraine - Sarnens'kyi,2016-08-14,17:39
Passer domesticus,Animalia,OLD_WORLD_SPARROWS_PASSERIDAE,House Sparrow,,1,26.31634635,51.14007357,Europe,Ukraine,UA,,Ukraine - Sarnens'kyi,2016-08-14,17:22
Fringilla coelebs,Animalia,FINCHES_FRINGILLIDAE,Common Chaffinch,,3,26.31884565,51.13970767,Europe,Ukraine,UA,,Ukraine - Sarnens'kyi,2016-08-14,17:26
Carduelis carduelis,Animalia,FINCHES_FRINGILLIDAE,European Goldfinch,,1,26.31885025,51.13970688,Europe,Ukraine,UA,,Ukraine - Sarnens'kyi,2016-08-14,17:26
Sturnus vulgaris,Animalia,STARLINGS_STURNIDAE,Common Starling,,1,26.31980947,51.13972109,Europe,Ukraine,UA,,Ukraine - Sarnens'kyi,2016-08-14,17:31
Hirundo rustica,Animalia,SWALLOWS_HIRUNDINIDAE,Barn Swallow,,4,26.31981234,51.13972167,Europe,Ukraine,UA,,Ukraine - Sarnens'kyi,2016-08-14,17:31
Motacilla flava,Animalia,PIPITS_EN_WAGTAILS_MOTACILLIDAE,Western Yellow Wagtail,,1,26.32047311,51.13904087,Europe,Ukraine,UA,,Ukraine - Sarnens'kyi,2016-08-14,17:39
Acrocephalus schoenobaenus,Animalia,Acrocephalidae,Sedge Warbler,,1,26.3204272,51.13900959,Europe,Ukraine,UA,,Ukraine - Sarnens'kyi,2016-08-14,17:41
Passer domesticus,Animalia,OLD_WORLD_SPARROWS_PASSERIDAE,House Sparrow,,1,26.30941289,51.13060939,Europe,Ukraine,UA,,Ukraine - Sarnens'kyi,2016-08-07,08:17
Corvus frugilegus,Animalia,CROWS_AND_JAYS_CORVIDAE,Rook,,1,26.26948606,50.6296865,Europe,Ukraine,UA,,Ukraine - Rivnens'ka,2016-08-07,09:29
Carduelis carduelis,Animalia,FINCHES_FRINGILLIDAE,European Goldfinch,,1,26.31309519,51.12867801,Europe,Ukraine,UA,,Ukraine - Sarnens'kyi,2016-08-07,15:55
Motacilla alba,Animalia,PIPITS_EN_WAGTAILS_MOTACILLIDAE,White Wagtail,,1,26.31365186,51.12817019,Europe,Ukraine,UA,,Ukraine - Sarnens'kyi,2016-08-07,15:58
Hirundo rustica,Animalia,SWALLOWS_HIRUNDINIDAE,Barn Swallow,,1,26.31725282,51.12586094,Europe,Ukraine,UA,,Ukraine - Sarnens'kyi,2016-08-07,16:07
Ciconia ciconia,Animalia,STORKS_CICONIIDAE,White Stork,,1,26.31731798,51.12560279,Europe,Ukraine,UA,,Ukraine - Sarnens'kyi,2016-08-07,16:10
Coenonympha pamphilus,Animalia,BRUSHFOOTED_BUTTERFLIES_NYMPHALIDAE,Small Heath,,1,26.31632337,51.126181,Europe,Ukraine,UA,,Ukraine - Sarnens'kyi,2016-08-07,16:14
Maniola jurtina,Animalia,BRUSHFOOTED_BUTTERFLIES_NYMPHALIDAE,Meadow Brown,,1,26.31632767,51.12618229,Europe,Ukraine,UA,,Ukraine - Sarnens'kyi,2016-08-07,16:15
Sympetrum meridionale,Animalia,SKIMMERS_LIBELLULIDAE,Southern Darter,,1,26.31644111,51.12636778,Europe,Ukraine,UA,,Ukraine - Sarnens'kyi,2016-08-07,16:20
Linaria cannabina,Animalia,FINCHES_FRINGILLIDAE,Common Linnet,,1,26.31352045,51.12822349,Europe,Ukraine,UA,,Ukraine - Sarnens'kyi,2016-08-07,16:38
Muscicapa striata,Animalia,OLD_WORLD_FLYCATCHERS_MUSCICAPIDAE,Spotted Flycatcher,,1,26.30651363,51.12872155,Europe,Ukraine,UA,,Ukraine - Sarnens'kyi,2016-08-07,17:23
Fringilla coelebs,Animalia,FINCHES_FRINGILLIDAE,Common Chaffinch,,1,26.30573502,51.12872275,Europe,Ukraine,UA,,Ukraine - Sarnens'kyi,2016-08-07,17:49
Viscum album,Plantae,SANTALACEAE,Mistletoe,,1,26.32427931,51.12133619,Europe,Ukraine,UA,,Ukraine - Sarnens'kyi,2016-08-08,18:12
Calopteryx splendens,Animalia,BROADWINGED_DAMSELS_CALOPTERYGIDAE,Banded Demoiselle,,1,26.31013566,51.13018197,Europe,Ukraine,UA,,Ukraine - Sarnens'kyi,2016-08-09,14:14
Gonepteryx rhamni,Animalia,WHITES_PIERIDAE,Brimstone,,1,26.3113049,51.13108864,Europe,Ukraine,UA,,Ukraine - Sarnens'kyi,2016-08-09,14:26
Platycnemis pennipes,Animalia,WHITELEGGED_DAMSELFLIES_PLATYCNEMIDIDAE,Blue Featherleg,,1,26.30978273,51.13046267,Europe,Ukraine,UA,,Ukraine - Sarnens'kyi,2016-08-09,17:42
Coenonympha pamphilus,Animalia,BRUSHFOOTED_BUTTERFLIES_NYMPHALIDAE,Small Heath,,1,26.31044012,51.13068228,Europe,Ukraine,UA,,Ukraine - Sarnens'kyi,2016-08-09,17:56
Butomus umbellatus,Plantae,BUTOMACEAE,Flowering-rush,,1,26.31044802,51.13067674,Europe,Ukraine,UA,,Ukraine - Sarnens'kyi,2016-08-09,17:57
Oedipoda caerulescens,Animalia,SHORTHORNED_GRASSHOPPERS_ACRIDIDAE,Blue Winged Grasshopper,,1,26.30511692,51.13335283,Europe,Ukraine,UA,,Ukraine - Sarnens'kyi,2016-08-10,12:10
Carduelis carduelis,Animalia,FINCHES_FRINGILLIDAE,European Goldfinch,,2,26.30162302,51.1274476,Europe,Ukraine,UA,,Ukraine - Sarnens'kyi,2016-08-10,17:47
Cygnus olor,Animalia,DUCKS_GEESE_AND_SWANS_ANATIDAE,Mute Swan,,1,26.2957807,51.12287591,Europe,Ukraine,UA,,Ukraine - Sarnens'kyi,2016-08-10,18:11
Muscicapa striata,Animalia,OLD_WORLD_FLYCATCHERS_MUSCICAPIDAE,Spotted Flycatcher,,1,26.30268771,51.12808635,Europe,Ukraine,UA,,Ukraine - Sarnens'kyi,2016-08-10,18:31
Cyanistes caeruleus,Animalia,TITS_PARIDAE,Eurasian Blue Tit,,10,26.30341209,51.12995342,Europe,Ukraine,UA,,Ukraine - Sarnens'kyi,2016-08-10,18:42
Parus major,Animalia,TITS_PARIDAE,Great Tit,,1,26.3035632,51.13001383,Europe,Ukraine,UA,,Ukraine - Sarnens'kyi,2016-08-10,18:44
Phoenicurus ochruros,Animalia,OLD_WORLD_FLYCATCHERS_MUSCICAPIDAE,Black Redstart,,1,26.30118337,51.13632413,Europe,Ukraine,UA,,Ukraine - Sarnens'kyi,2016-08-11,18:13
Carduelis carduelis,Animalia,FINCHES_FRINGILLIDAE,European Goldfinch,,1,26.30212283,51.13715871,Europe,Ukraine,UA,,Ukraine - Sarnens'kyi,2016-08-11,18:23
Passer domesticus,Animalia,OLD_WORLD_SPARROWS_PASSERIDAE,House Sparrow,,25,26.30411762,51.13716531,Europe,Ukraine,UA,,Ukraine - Sarnens'kyi,2016-08-11,18:38
Pelecanus onocrotalus,Animalia,PELICANS_PELECANIDAE,Great White Pelican,,1,29.5618,45.3918,Europe,Ukraine,UA,,Ukraine - Kiliis'kyi,2016-05-16,06:43
Sturnus vulgaris,Animalia,STARLINGS_STURNIDAE,Common Starling,,3,30.897850748180314,50.33583159097501,Europe,Ukraine,UA,,Ukraine - Boryspil's'ka,2016-05-05,07:59
Sturnus vulgaris,Animalia,STARLINGS_STURNIDAE,Common Starling,,4,30.89832899159227,50.35293329391354,Europe,Ukraine,UA,,Ukraine - Boryspil's'ka,2016-04-27,19:07
Lynx lynx,Animalia,CATS_FELIDAE,Eurasian Lynx,,1,22.7,49.15,Europe,Ukraine,UA,,Ukraine - Forêts primaires de hêtres des Carpates World Heritage Site,2015-12-24,
Lutra lutra,Animalia,WEASELS_AND_RELATIVES_MUSTELIDAE,Eurasian Otter,,1,22.9,49.0,Europe,Ukraine,UA,,Ukraine - East Carpathians (UKR) UNESCO-MAB Biosphere Reserve,2016-03-22,19:19
Lanius excubitor,Animalia,SHRIKES_LANIIDAE,Great Grey Shrike,,1,22.9885,49.5259,Europe,Ukraine,UA,,Ukraine - Starosambirs'kyi,2016-03-22,15:26
Cervus elaphus,Animalia,DEER_CERVIDAE,Red Deer,,13,22.68,49.15,Europe,Ukraine,UA,,Ukraine - Forêts primaires de hêtres des Carpates World Heritage Site,2015-07-08,19:00
Corvus cornix,Animalia,CROWS_AND_JAYS_CORVIDAE,Hooded Crow,,30,30.51405668,50.45275073,Europe,Ukraine,UA,,Ukraine - Shevchenkivs'kyi,2015-10-22,15:07
Lanius collurio,Animalia,SHRIKES_LANIIDAE,Red-backed Shrike,,1,23.000555,48.5506366666667,Europe,Ukraine,UA,,Ukraine - Svaliavs'kyi,2015-07-25,17:17
Lanius collurio,Animalia,SHRIKES_LANIIDAE,Red-backed Shrike,,2,23.0006083333333,48.5503366666667,Europe,Ukraine,UA,,Ukraine - Svaliavs'kyi,2015-07-27,09:45
