scientificName,kingdom,family,vernacularName,previousIdentifications,individualCount,longitudeDecimal,latitudeDecimal,continent,country,countryCode,stateProvince,locality,eventDate,eventTime
Crocothemis servilia,Animalia,SKIMMERS_LIBELLULIDAE,Oriental Scarlet,,1,69.0849683285,40.5300997325,Asia,Uzbekistan,UZ,,Uzbekistan,2009-09-28,
Calopteryx samarcandica,Animalia,BROADWINGED_DAMSELS_CALOPTERYGIDAE,,,10,67.1279483985,39.2760893535,Asia,Uzbekistan,UZ,,Uzbekistan,2009-10-05,
Argynnis pandora,Animalia,BRUSHFOOTED_BUTTERFLIES_NYMPHALIDAE,Cardinal,,1,69.0889006804,40.5323078978,Asia,Uzbekistan,UZ,,Uzbekistan,2009-09-28,
Sympecma gobica,Animalia,SPREADWINGS_LESTIDAE,,,2,69.0918189238,40.5349865452,Asia,Uzbekistan,UZ,,Uzbekistan,2009-09-28,
Crocothemis servilia,Animalia,SKIMMERS_LIBELLULIDAE,Oriental Scarlet,,10,69.0918189238,40.5349865452,Asia,Uzbekistan,UZ,,Uzbekistan,2009-09-28,
Decticus verrucivorus,Animalia,KATYDIDS_TETTIGONIIDAE,Wart-Biter,,5,69.95,41.45,Asia,Uzbekistan,UZ,,Uzbekistan - Ugam-Chatkal NP,2009-09-27,
Sympetrum arenicolor,Animalia,SKIMMERS_LIBELLULIDAE,Sandy Darter,,1,69.0860948563,40.5308010252,Asia,Uzbekistan,UZ,,Uzbekistan,2009-09-28,
Acridotheres tristis,Animalia,STARLINGS_STURNIDAE,Common Myna,,1,64.4354404975329,39.828030173703866,Asia,Uzbekistan,UZ,,Uzbekistan - Buxoro Viloyati,2019-08-11,08:06
Acridotheres tristis,Animalia,STARLINGS_STURNIDAE,Common Myna,,2,64.43432461476367,39.79977544866483,Asia,Uzbekistan,UZ,,Uzbekistan - Buxoro Viloyati,2019-08-11,08:02
Acridotheres tristis,Animalia,STARLINGS_STURNIDAE,Common Myna,,3,64.53717702074398,39.802472912743504,Asia,Uzbekistan,UZ,,Uzbekistan - Buxoro Viloyati,2019-08-10,10:25
Spilopelia senegalensis,Animalia,PIGEONS_AND_DOVES_COLUMBIDAE,Laughing Dove,,5,64.42749187056249,39.77466269926097,Asia,Uzbekistan,UZ,,Uzbekistan - Buxoro Viloyati,2019-08-10,09:18
Spilopelia senegalensis,Animalia,PIGEONS_AND_DOVES_COLUMBIDAE,Laughing Dove,,1,64.39969645819104,39.77543876044431,Asia,Uzbekistan,UZ,,Uzbekistan - Buxoro Viloyati,2019-08-09,09:22
Acridotheres tristis,Animalia,STARLINGS_STURNIDAE,Common Myna,,1,64.43122991156919,39.77216570639116,Asia,Uzbekistan,UZ,,Uzbekistan - Buxoro Viloyati,2019-08-09,09:12
Spilopelia senegalensis,Animalia,PIGEONS_AND_DOVES_COLUMBIDAE,Laughing Dove,,5,64.42061148589889,39.77309350393691,Asia,Uzbekistan,UZ,,Uzbekistan - Buxoro Viloyati,2019-08-08,18:26
Passer montanus,Animalia,OLD_WORLD_SPARROWS_PASSERIDAE,Eurasian Tree Sparrow,,30,60.35794752655584,41.38049011122564,Asia,Uzbekistan,UZ,,Uzbekistan - Xorazm Viloyati,2019-08-07,17:24
Iduna pallida,Animalia,Acrocephalidae,Eastern Olivaceous Warbler,,1,60.36048489628393,41.37764571238437,Asia,Uzbekistan,UZ,,Uzbekistan - Xorazm Viloyati,2019-08-07,16:19
Passer montanus,Animalia,OLD_WORLD_SPARROWS_PASSERIDAE,Eurasian Tree Sparrow,,4,60.35766027873415,41.37764822695532,Asia,Uzbekistan,UZ,,Uzbekistan - Xorazm Viloyati,2019-08-07,10:53
Passer montanus,Animalia,OLD_WORLD_SPARROWS_PASSERIDAE,Eurasian Tree Sparrow,,5,69.23888415104638,41.33927859835451,Asia,Uzbekistan,UZ,,Uzbekistan - Toshkent Shahri,2019-08-06,12:48
Iduna pallida,Animalia,Acrocephalidae,Eastern Olivaceous Warbler,,1,60.35831463,41.38191779,Asia,Uzbekistan,UZ,,Uzbekistan - Xorazm Viloyati,2019-06-21,19:27
Spilopelia senegalensis,Animalia,PIGEONS_AND_DOVES_COLUMBIDAE,Laughing Dove,,1,64.41254248943382,39.776299630441834,Asia,Uzbekistan,UZ,,Uzbekistan - Buxoro Viloyati,2019-05-12,19:06
Acridotheres tristis,Animalia,STARLINGS_STURNIDAE,Common Myna,,1,64.538858333333,39.800163333333,Asia,Uzbekistan,UZ,,Uzbekistan,2018-04-30,08:42
Vespa orientalis,Animalia,Vespidae,Oriental Hornet,,5,64.40819986,39.77756022,Asia,Uzbekistan,UZ,,Uzbekistan,2017-07-29,10:46
Polistes bucharensis,Animalia,Vespidae,,,1,60.3565407,41.37827669,Asia,Uzbekistan,UZ,,Uzbekistan,2017-07-27,16:54
Merops persicus,Animalia,BEEEATERS_MEROPIDAE,Blue-cheeked Bee-eater,,10,62.68145538,40.58057037,Asia,Uzbekistan,UZ,,Uzbekistan,2017-07-28,13:09
Orthetrum brunneum,Animalia,SKIMMERS_LIBELLULIDAE,Southern Skimmer,,2,64.42537902,39.77330519,Asia,Uzbekistan,UZ,,Uzbekistan,2017-07-29,18:32
Crocothemis servilia,Animalia,SKIMMERS_LIBELLULIDAE,Oriental Scarlet,,1,64.42404382,39.77344424,Asia,Uzbekistan,UZ,,Uzbekistan,2017-07-29,18:38
Spilopelia senegalensis,Animalia,PIGEONS_AND_DOVES_COLUMBIDAE,Laughing Dove,,1,64.42059973,39.77317549,Asia,Uzbekistan,UZ,,Uzbekistan,2017-07-29,19:43
Passer montanus,Animalia,OLD_WORLD_SPARROWS_PASSERIDAE,Eurasian Tree Sparrow,,1,69.25929157,41.28631875,Asia,Uzbekistan,UZ,,Uzbekistan,2017-08-01,14:35
Crocothemis servilia,Animalia,SKIMMERS_LIBELLULIDAE,Oriental Scarlet,,15,69.2722327,41.28803113,Asia,Uzbekistan,UZ,,Uzbekistan,2017-08-01,14:59
Lycaena phlaeas,Animalia,GOSSAMERWINGED_BUTTERFLIES_LYCAENIDAE,Small Copper,,2,69.27219138,41.2882243,Asia,Uzbekistan,UZ,,Uzbekistan,2017-08-01,15:08
Orthetrum albistylum,Animalia,SKIMMERS_LIBELLULIDAE,White-tailed Skimmer,,2,60.36178775,41.38457854,Asia,Uzbekistan,UZ,,Uzbekistan,2017-07-26,17:51
Lampides boeticus,Animalia,GOSSAMERWINGED_BUTTERFLIES_LYCAENIDAE,Long-tailed Blue,,1,60.36178775,41.38457854,Asia,Uzbekistan,UZ,,Uzbekistan,2017-07-26,17:51
Lampides boeticus,Animalia,GOSSAMERWINGED_BUTTERFLIES_LYCAENIDAE,Long-tailed Blue,,6,60.36105286,41.38457655,Asia,Uzbekistan,UZ,,Uzbekistan,2017-07-27,08:08
Passer montanus,Animalia,OLD_WORLD_SPARROWS_PASSERIDAE,Eurasian Tree Sparrow,,1,60.36200622,41.37772993,Asia,Uzbekistan,UZ,,Uzbekistan,2017-07-27,12:38
Orthetrum albistylum,Animalia,SKIMMERS_LIBELLULIDAE,White-tailed Skimmer,,1,60.35622535,41.37866064,Asia,Uzbekistan,UZ,,Uzbekistan,2017-07-27,17:50
Crocothemis servilia,Animalia,SKIMMERS_LIBELLULIDAE,Oriental Scarlet,,1,61.55202582,41.2931664,Asia,Uzbekistan,UZ,,Uzbekistan,2017-07-28,10:41
Spilopelia senegalensis,Animalia,PIGEONS_AND_DOVES_COLUMBIDAE,Laughing Dove,,1,64.42174922,39.77333881,Asia,Uzbekistan,UZ,,Uzbekistan,2017-07-28,19:59
