scientificName,kingdom,family,vernacularName,previousIdentifications,individualCount,longitudeDecimal,latitudeDecimal,continent,country,countryCode,stateProvince,locality,eventDate,eventTime
Delphinus capensis,Animalia,DOLPHINS_DELPHINIDAE,Long-beaked Common Dolphin,,4,-64.402771,10.38307471,South America,Venezuela,VE,,Venezuela - Mochima NP,2011-11-26,
Falco femoralis,Animalia,CARACAS_AND_FALCONS_FALCONIDAE,Aplomado Falcon,,2,-67.9580796443128,10.2729142007634,South America,Venezuela,VE,,Venezuela - Montalbán,2014-07-27,16:29
Falco femoralis,Animalia,CARACAS_AND_FALCONS_FALCONIDAE,Aplomado Falcon,,1,-67.9580660853728,10.2729712785602,South America,Venezuela,VE,,Venezuela - Montalbán,2014-06-21,15:03
Buteogallus urubitinga,Animalia,HAWKS_AND_EAGLES_ACCIPITRIDAE,Great Black Hawk,,1,-67.9714320973,10.2460058394,South America,Venezuela,VE,,Venezuela - Valencia,2014-05-18,07:00
Gampsonyx swainsonii,Animalia,HAWKS_AND_EAGLES_ACCIPITRIDAE,Pearl Kite,,1,-67.9664142192,10.2421908073,South America,Venezuela,VE,,Venezuela - Valencia,2014-05-18,08:53
Buteogallus urubitinga,Animalia,HAWKS_AND_EAGLES_ACCIPITRIDAE,Great Black Hawk,,2,-67.9644486950271,10.2405854814916,South America,Venezuela,VE,,Venezuela - Valencia,2014-05-11,08:36
Buteogallus urubitinga,Animalia,HAWKS_AND_EAGLES_ACCIPITRIDAE,Great Black Hawk,,3,-67.9750151932,10.2697387596,South America,Venezuela,VE,,Venezuela - Montalbán,2014-03-30,15:00
Elanus leucurus,Animalia,HAWKS_AND_EAGLES_ACCIPITRIDAE,White-tailed Kite,,5,-67.9668036103,10.2480329198,South America,Venezuela,VE,,Venezuela - Valencia,2011-11-14,13:00
Harpagus bidentatus,Animalia,HAWKS_AND_EAGLES_ACCIPITRIDAE,Double-toothed Kite,,1,-67.9728265107,10.250228909,South America,Venezuela,VE,,Venezuela - Valencia,2014-03-09,11:00
Harpagus bidentatus,Animalia,HAWKS_AND_EAGLES_ACCIPITRIDAE,Double-toothed Kite,,1,-67.9745184816,10.2538290314,South America,Venezuela,VE,,Venezuela - Valencia,2014-03-04,03:00
Buteo brachyurus brachyurus,Animalia,HAWKS_AND_EAGLES_ACCIPITRIDAE,Short-tailed Hawk ssp brachyurus,,1,-67.9569330812,10.227339198,South America,Venezuela,VE,,Venezuela - Valencia,2014-01-10,05:00
Gampsonyx swainsonii,Animalia,HAWKS_AND_EAGLES_ACCIPITRIDAE,Pearl Kite,,2,-70.209524,11.63537,South America,Venezuela,VE,,Venezuela - Carirubana,2014-01-04,09:47
Falco sparverius,Animalia,CARACAS_AND_FALCONS_FALCONIDAE,American Kestrel,,1,-67.96135,10.267799,South America,Venezuela,VE,,Venezuela - Montalbán,2013-11-18,07:30
Cathartes aura ruficollis,Animalia,NEW_WORLD_VULTURES_CATHARTIDAE,Turkey Vulture ssp ruficollis,,1,-67.9623412527,10.2321907299,South America,Venezuela,VE,,Venezuela - Valencia,2013-11-10,
Falco femoralis,Animalia,CARACAS_AND_FALCONS_FALCONIDAE,Aplomado Falcon,,1,-67.9604239762,10.2685141506,South America,Venezuela,VE,,Venezuela - Montalbán,2013-11-12,
Hydrochoerus hydrochaeris,Animalia,CAVIES_CAVIIDAE,Capybara,,100,-69.4381427765,7.39515290714,South America,Venezuela,VE,,Venezuela - Autonomo Munoz,2006-01-06,
Hydrochoerus hydrochaeris,Animalia,CAVIES_CAVIIDAE,Capybara,,100,-69.326004982,7.42375120874,South America,Venezuela,VE,,Venezuela - Autonomo Munoz,2006-01-05,
Eunectes murinus,Animalia,Boidae,Anaconda,,1,-69.3328714371,7.42647475962,South America,Venezuela,VE,,Venezuela - Autonomo Munoz,2006-01-04,
Paroaria nigrogenis,Animalia,TANAGERS_AND_ALLIES_THRAUPIDAE,Masked Cardinal,,10,-69.330124855,7.42238942697,South America,Venezuela,VE,,Venezuela - Autonomo Munoz,2006-01-06,
Paroaria nigrogenis,Animalia,TANAGERS_AND_ALLIES_THRAUPIDAE,Masked Cardinal,,15,-69.330124855,7.42238942697,South America,Venezuela,VE,,Venezuela - Autonomo Munoz,2006-01-05,
Tachycineta albiventer,Animalia,SWALLOWS_HIRUNDINIDAE,White-winged Swallow,,30,-61.4173212647,6.22955508628,South America,Venezuela,VE,,Venezuela - Sifontes,2005-12-28,
Athene cunicularia,Animalia,OWLS_STRIGIDAE,Burrowing Owl,,8,-69.3369913101,7.42511298629,South America,Venezuela,VE,,Venezuela - Autonomo Munoz,2006-01-05,
Bubo virginianus nacurutu,Animalia,OWLS_STRIGIDAE,Great Horned Owl ssp nacurutu,,2,-69.3369913101,7.42511298629,South America,Venezuela,VE,,Venezuela - Autonomo Munoz,2006-01-05,
Bubo virginianus nacurutu,Animalia,OWLS_STRIGIDAE,Great Horned Owl ssp nacurutu,,2,-69.3369913101,7.42511298629,South America,Venezuela,VE,,Venezuela - Autonomo Munoz,2006-01-06,
Hoploxypterus cayanus,Animalia,PLOVERS_CHARADRIIDAE,Pied Plover,,2,-67.615628019,5.50807070197,South America,Venezuela,VE,,Venezuela - D. Atures,2005-12-30,
Milvago chimachima cordata,Animalia,CARACAS_AND_FALCONS_FALCONIDAE,Yellow-headed Caracara ssp cordata,,2,-69.3325388432,7.42511298629,South America,Venezuela,VE,,Venezuela - Autonomo Munoz,2006-01-05,
Caracara cheriway,Animalia,CARACAS_AND_FALCONS_FALCONIDAE,Northern Crested Caracara,,1,-67.6141259819,5.50768624713,South America,Venezuela,VE,,Venezuela - D. Atures,2005-12-30,
Harpia harpyja,Animalia,HAWKS_AND_EAGLES_ACCIPITRIDAE,Harpy Eagle,,1,-61.6081094742,7.88378697456,South America,Venezuela,VE,,Venezuela - Piar,2005-12-26,
Neochen jubata,Animalia,DUCKS_GEESE_AND_SWANS_ANATIDAE,Orinoco Goose,,210,-69.328134656,7.4295387342,South America,Venezuela,VE,,Venezuela - Autonomo Munoz,2006-01-05,
Neochen jubata,Animalia,DUCKS_GEESE_AND_SWANS_ANATIDAE,Orinoco Goose,,180,-69.328134656,7.4295387342,South America,Venezuela,VE,,Venezuela - Autonomo Munoz,2006-01-06,
Theristicus caudatus caudatus,Animalia,IBISSES_AND_SPOONBILLS_THRESKIORNITHIDAE,Buff-necked Ibis ssp caudatus,,3,-69.5278787613,7.36382883212,South America,Venezuela,VE,,Venezuela - Autonomo Munoz,2006-01-05,
Agamia agami,Animalia,HERONS_ARDEIDAE,Agami Heron,,1,-66.2718755007,5.03280693269,South America,Venezuela,VE,,Venezuela - D. Atures,2006-01-02,
Caracara cheriway,Animalia,CARACAS_AND_FALCONS_FALCONIDAE,Northern Crested Caracara,,1,-68.8952794957735,7.6789685754644,South America,Venezuela,VE,,Venezuela - Los Llanos,2002-03-25,
Leistes militaris,Animalia,ICTERIDS_ICTERIDAE,Red-breasted Blackbird,,1,-72.54832114111272,9.811323523305532,South America,Venezuela,VE,,Venezuela - Machiques de Perijá,2002-04-01,
Phacellodomus inornatus,Animalia,OVENBIRDS_FURNARIIDAE,Plain Thornbird,,1,-72.54832114111272,9.811323523305532,South America,Venezuela,VE,,Venezuela - Machiques de Perijá,2002-03-28,
Pelecanus occidentalis,Animalia,PELICANS_PELECANIDAE,Brown Pelican,,1,-67.003726959229,10.606619641865,South America,Venezuela,VE,,Venezuela - Vargas,2002-03-27,
Pyrocephalus obscurus,Animalia,TYRANT_FLYCATCHERS_TYRANNIDAE,Vermilion Flycatcher,,1,-68.8952794957735,7.6789685754644,South America,Venezuela,VE,,Venezuela - Los Llanos,2002-03-25,
Jacana jacana,Animalia,JACANAS_JACANIDAE,Wattled Jacana,,1,-68.8952794957735,7.6789685754644,South America,Venezuela,VE,,Venezuela - Los Llanos,2002-03-25,
Busarellus nigricollis,Animalia,HAWKS_AND_EAGLES_ACCIPITRIDAE,Black-collared Hawk,,1,-68.8952794957735,7.6789685754644,South America,Venezuela,VE,,Venezuela - Los Llanos,2002-03-25,
Platalea ajaja,Animalia,IBISSES_AND_SPOONBILLS_THRESKIORNITHIDAE,Roseate Spoonbill,,1,-68.8952794957735,7.6789685754644,South America,Venezuela,VE,,Venezuela - Los Llanos,2002-03-25,
Eudocimus ruber,Animalia,IBISSES_AND_SPOONBILLS_THRESKIORNITHIDAE,Scarlet Ibis,,1,-68.8952794957735,7.6789685754644,South America,Venezuela,VE,,Venezuela - Los Llanos,2002-03-25,
Anhinga anhinga,Animalia,ANHINGAS_ANHINGIDAE,Anhinga,,1,-68.8952794957735,7.6789685754644,South America,Venezuela,VE,,Venezuela - Los Llanos,2002-03-25,
Fregata magnificens,Animalia,FRIGATEBIRDS_FREGATTIDAE,Magnificent Frigatebird,,1,-68.228702545166,10.74696931846,South America,Venezuela,VE,,Venezuela - Morrocoy NP,2002-03-20,
Alouatta arctoidea,Animalia,SPIDER_MONKEYS_ATELIDAE,Ursine Howler Monkey,,4,-68.8952794957735,7.6789685754644,South America,Venezuela,VE,,Venezuela - Los Llanos,2004-10-31,
Alouatta arctoidea,Animalia,SPIDER_MONKEYS_ATELIDAE,Ursine Howler Monkey,,4,-68.8952794957735,7.6789685754644,South America,Venezuela,VE,,Venezuela - Los Llanos,2004-10-30,
Paroaria nigrogenis,Animalia,TANAGERS_AND_ALLIES_THRAUPIDAE,Masked Cardinal,,45,-68.8952794957735,7.6789685754644,South America,Venezuela,VE,,Venezuela - Los Llanos,2004-10-31,
Paroaria nigrogenis,Animalia,TANAGERS_AND_ALLIES_THRAUPIDAE,Masked Cardinal,,50,-68.8952794957735,7.6789685754644,South America,Venezuela,VE,,Venezuela - Los Llanos,2004-10-30,
Pyrocephalus obscurus,Animalia,TYRANT_FLYCATCHERS_TYRANNIDAE,Vermilion Flycatcher,,4,-68.8952794957735,7.6789685754644,South America,Venezuela,VE,,Venezuela - Los Llanos,2004-10-31,
Pyrocephalus obscurus,Animalia,TYRANT_FLYCATCHERS_TYRANNIDAE,Vermilion Flycatcher,,4,-68.8952794957735,7.6789685754644,South America,Venezuela,VE,,Venezuela - Los Llanos,2004-10-30,
Phacellodomus inornatus,Animalia,OVENBIRDS_FURNARIIDAE,Plain Thornbird,,20,-68.8952794957735,7.6789685754644,South America,Venezuela,VE,,Venezuela - Los Llanos,2004-10-30,
Cinclodes albidiventris,Animalia,OVENBIRDS_FURNARIIDAE,Chestnut-winged Cinclodes,,15,-71.291656494141,8.5443556564952,South America,Venezuela,VE,,Venezuela - Campo Elías,2004-11-06,
Colibri cyanotus cyanotus,Animalia,HUMMINGBIRDS_TROCHILIDAE,Lesser Violetear ssp cyanotus,,1,-71.28501861021114,8.484056023136342,South America,Venezuela,VE,,Venezuela - Campo Elías,2004-11-06,
Elanus leucurus,Animalia,HAWKS_AND_EAGLES_ACCIPITRIDAE,White-tailed Kite,,1,-66.999320990872,10.604864857499,South America,Venezuela,VE,,Venezuela - Vargas,1990-11-07,
Sula leucogaster,Animalia,GANNETS_AND_BOOBIES_SULIDAE,Brown Booby,,1,-64.341259002686,10.347132843004,South America,Venezuela,VE,,Venezuela - Mochima NP,2013-01-05,
Pelecanus occidentalis,Animalia,PELICANS_PELECANIDAE,Brown Pelican,,1,-64.341259002686,10.347132843004,South America,Venezuela,VE,,Venezuela - Mochima NP,2013-01-04,
Ara ararauna,Animalia,PARROTS_PSITTACIDAE,Blue-and-yellow Macaw,,2,-61.710222330246665,9.04126952066968,South America,Venezuela,VE,,Venezuela - Tucupita,2013-01-03,
Cochlearius cochlearius,Animalia,HERONS_ARDEIDAE,Boat-billed Heron,,1,-61.710222330246665,9.04126952066968,South America,Venezuela,VE,,Venezuela - Tucupita,2013-01-02,
Ramphastos vitellinus,Animalia,TOUCANS_BARBETS_RAMPHASTIDAE,Channel-billed Toucan,,2,-61.709858667014366,9.039646020746876,South America,Venezuela,VE,,Venezuela - Tucupita,2013-01-02,
Opisthocomus hoazin,Animalia,HOATZIN_OPISTHOCOMIDAE,Hoatzin,,1,-61.710222330246665,9.04126952066968,South America,Venezuela,VE,,Venezuela - Tucupita,2013-01-02,
Eurypyga helias,Animalia,SUNBITTERN_EURYPYGIDAE,Sunbittern,,1,-61.710222330246665,9.04126952066968,South America,Venezuela,VE,,Venezuela - Tucupita,2013-01-02,
Columbina squammata,Animalia,PIGEONS_AND_DOVES_COLUMBIDAE,Scaled Dove,,2,-63.769228556477195,7.84657352144292,South America,Venezuela,VE,,Venezuela - Heres,2012-12-28,
Jacana jacana,Animalia,JACANAS_JACANIDAE,Wattled Jacana,,2,-67.514419555664,6.5138613490003,South America,Venezuela,VE,,Venezuela - Cinaruco-Capanaparo NP,2012-12-26,
Pandion haliaetus,Animalia,OSPREY_PANDIONIDAE,Western Osprey,,1,-67.425842285156,6.5281876136953,South America,Venezuela,VE,,Venezuela - Cinaruco-Capanaparo NP,2012-12-26,
Rynchops niger,Animalia,GULLS_TERNS_AND_SKIMMERS_LARIDAE,Black Skimmer,,1,-67.425842285156,6.5281876136953,South America,Venezuela,VE,,Venezuela - Cinaruco-Capanaparo NP,2012-12-26,
Charadrius collaris,Animalia,PLOVERS_CHARADRIIDAE,Collared Plover,,2,-67.425842285156,6.5281876136953,South America,Venezuela,VE,,Venezuela - Cinaruco-Capanaparo NP,2012-12-26,
Hoploxypterus cayanus,Animalia,PLOVERS_CHARADRIIDAE,Pied Plover,,1,-67.425842285156,6.5281876136953,South America,Venezuela,VE,,Venezuela - Cinaruco-Capanaparo NP,2012-12-26,
Vanellus chilensis,Animalia,PLOVERS_CHARADRIIDAE,Southern Lapwing,,1,-67.425842285156,6.5281876136953,South America,Venezuela,VE,,Venezuela - Cinaruco-Capanaparo NP,2012-12-26,
Syrigma sibilatrix,Animalia,HERONS_ARDEIDAE,Whistling Heron,,2,-67.392883300781,6.5363738666805,South America,Venezuela,VE,,Venezuela - Cinaruco-Capanaparo NP,2012-12-26,
Paroaria nigrogenis,Animalia,TANAGERS_AND_ALLIES_THRAUPIDAE,Masked Cardinal,,1,-67.392883300781,6.5363738666805,South America,Venezuela,VE,,Venezuela - Cinaruco-Capanaparo NP,2012-12-26,
Opisthocomus hoazin,Animalia,HOATZIN_OPISTHOCOMIDAE,Hoatzin,,4,-67.392883300781,6.5363738666805,South America,Venezuela,VE,,Venezuela - Cinaruco-Capanaparo NP,2012-12-26,
Anhinga anhinga,Animalia,ANHINGAS_ANHINGIDAE,Anhinga,,1,-67.392883300781,6.5363738666805,South America,Venezuela,VE,,Venezuela - Cinaruco-Capanaparo NP,2012-12-26,
Megaceryle torquata,Animalia,KINGFISHERS_ALCEDINIDAE,Ringed Kingfisher,,1,-67.392883300781,6.5363738666805,South America,Venezuela,VE,,Venezuela - Cinaruco-Capanaparo NP,2012-12-26,
Milvago chimachima,Animalia,CARACAS_AND_FALCONS_FALCONIDAE,Yellow-headed Caracara,,1,-67.343444824219,6.582760097408,South America,Venezuela,VE,,Venezuela - Cinaruco-Capanaparo NP,2012-12-26,
Thraupis episcopus,Animalia,TANAGERS_AND_ALLIES_THRAUPIDAE,Blue-grey Tanager,,2,-67.343444824219,6.582760097408,South America,Venezuela,VE,,Venezuela - Cinaruco-Capanaparo NP,2012-12-26,
Tigrisoma lineatum,Animalia,HERONS_ARDEIDAE,Rufescent Tiger Heron,,1,-67.629776000977,7.5864535512823,South America,Venezuela,VE,,Venezuela - Autonomo San Fernando,2012-12-25,
Jabiru mycteria,Animalia,STORKS_CICONIIDAE,Jabiru,,1,-68.351440429688,7.8490975894821,South America,Venezuela,VE,,Venezuela - Autonomo Achaguas,2012-12-25,
Hoploxypterus cayanus,Animalia,PLOVERS_CHARADRIIDAE,Pied Plover,,1,-68.351440429688,7.8490975894821,South America,Venezuela,VE,,Venezuela - Autonomo Achaguas,2012-12-25,
Himantopus mexicanus,Animalia,STILTS_AND_AVOCETS_RECURVIROSTRIDAE,Black-necked Stilt,,9,-68.351440429688,7.8490975894821,South America,Venezuela,VE,,Venezuela - Autonomo Achaguas,2012-12-25,
Egretta caerulea,Animalia,HERONS_ARDEIDAE,Little Blue Heron,,1,-68.35144043,7.84909759,South America,Venezuela,VE,,Venezuela - Autonomo Achaguas,2012-12-25,
Rynchops niger,Animalia,GULLS_TERNS_AND_SKIMMERS_LARIDAE,Black Skimmer,,1,-68.351440429688,7.8490975894821,South America,Venezuela,VE,,Venezuela - Autonomo Achaguas,2012-12-25,
Mycteria americana,Animalia,STORKS_CICONIIDAE,Wood Stork,,20,-68.351440429688,7.8490975894821,South America,Venezuela,VE,,Venezuela - Autonomo Achaguas,2012-12-25,
Cathartes aura,Animalia,NEW_WORLD_VULTURES_CATHARTIDAE,Turkey Vulture,,1,-68.351440429688,7.8490975894821,South America,Venezuela,VE,,Venezuela - Autonomo Achaguas,2012-12-25,
Fluvicola pica,Animalia,TYRANT_FLYCATCHERS_TYRANNIDAE,Pied Water Tyrant,,1,-68.351440429688,7.8490975894821,South America,Venezuela,VE,,Venezuela - Autonomo Achaguas,2012-12-25,
Chloroceryle americana,Animalia,KINGFISHERS_ALCEDINIDAE,Green Kingfisher,,1,-68.351440429688,7.8490975894821,South America,Venezuela,VE,,Venezuela - Autonomo Achaguas,2012-12-25,
Eudocimus ruber,Animalia,IBISSES_AND_SPOONBILLS_THRESKIORNITHIDAE,Scarlet Ibis,,12,-68.580093383789,7.9436363233622,South America,Venezuela,VE,,Venezuela - Autonomo Achaguas,2012-12-25,
Dendrocygna viduata,Animalia,DUCKS_GEESE_AND_SWANS_ANATIDAE,White-faced Whistling Duck,,12,-68.580093383789,7.9436363233622,South America,Venezuela,VE,,Venezuela - Autonomo Achaguas,2012-12-25,
Caracara cheriway,Animalia,CARACAS_AND_FALCONS_FALCONIDAE,Northern Crested Caracara,,1,-68.4818830171781,7.10116352262672,South America,Venezuela,VE,,Venezuela - Autonomo Achaguas,2012-12-25,
Megaceryle torquata,Animalia,KINGFISHERS_ALCEDINIDAE,Ringed Kingfisher,,1,-68.4818830171781,7.10116352262672,South America,Venezuela,VE,,Venezuela - Autonomo Achaguas,2012-12-25,
Anhinga anhinga,Animalia,ANHINGAS_ANHINGIDAE,Anhinga,,1,-69.32459503004637,7.591071522886918,South America,Venezuela,VE,,Venezuela - Autonomo Munoz,2012-12-25,
Platalea ajaja,Animalia,IBISSES_AND_SPOONBILLS_THRESKIORNITHIDAE,Roseate Spoonbill,,1,-69.32744703865878,7.5991910227551225,South America,Venezuela,VE,,Venezuela - Autonomo Munoz,2012-12-25,
Ardea cocoi,Animalia,HERONS_ARDEIDAE,Cocoi Heron,,1,-69.32459503004637,7.591071522886918,South America,Venezuela,VE,,Venezuela - Autonomo Munoz,2012-12-25,
Ciconia maguari,Animalia,STORKS_CICONIIDAE,Maguari Stork,,1,-69.32744703865878,7.5991910227551225,South America,Venezuela,VE,,Venezuela - Autonomo Munoz,2012-12-25,
Milvago chimachima,Animalia,CARACAS_AND_FALCONS_FALCONIDAE,Yellow-headed Caracara,,1,-69.32459503004637,7.591071522886918,South America,Venezuela,VE,,Venezuela - Autonomo Munoz,2012-12-25,
Eudocimus ruber,Animalia,IBISSES_AND_SPOONBILLS_THRESKIORNITHIDAE,Scarlet Ibis,,15,-69.35188293457,8.1605166271737,South America,Venezuela,VE,,Venezuela - Sosa,2012-12-24,
Bubulcus ibis,Animalia,HERONS_ARDEIDAE,Western Cattle Egret,,20,-69.25971825781424,8.241873022639375,South America,Venezuela,VE,,Venezuela - Sosa,2012-12-24,
Jacana jacana,Animalia,JACANAS_JACANIDAE,Wattled Jacana,,1,-69.25971825781424,8.241873022639375,South America,Venezuela,VE,,Venezuela - Sosa,2012-12-24,
Cyanocorax yncas,Animalia,CROWS_AND_JAYS_CORVIDAE,Inca Jay,,3,-71.201877593994,8.5378199894483,South America,Venezuela,VE,,Venezuela - Campo Elías,2012-12-22,
Falco sparverius,Animalia,CARACAS_AND_FALCONS_FALCONIDAE,American Kestrel,,2,-71.196899414062,8.5245785547807,South America,Venezuela,VE,,Venezuela - Campo Elías,2012-12-21,
Coragyps atratus,Animalia,NEW_WORLD_VULTURES_CATHARTIDAE,Black Vulture,,1,-71.196899414062,8.5245785547807,South America,Venezuela,VE,,Venezuela - Campo Elías,2012-12-21,
Zonotrichia capensis,Animalia,PASSERELLIDAE,Rufous-collared Sparrow,,1,-71.196899414062,8.5245785547807,South America,Venezuela,VE,,Venezuela - Campo Elías,2012-12-21,
Fregata magnificens,Animalia,FRIGATEBIRDS_FREGATTIDAE,Magnificent Frigatebird,,1,-67.605582475662,10.510313352579,South America,Venezuela,VE,,Venezuela - Henri Pittier NP,2012-12-18,
Thraupis episcopus,Animalia,TANAGERS_AND_ALLIES_THRAUPIDAE,Blue-grey Tanager,,15,-67.602074146271,10.508825964164,South America,Venezuela,VE,,Venezuela - Mario Briceño Iragorry,2012-12-17,
Melanerpes rubricapillus,Animalia,WOODPECKERS_PICIDAE,Red-crowned Woodpecker,,1,-67.602074146271,10.508825964164,South America,Venezuela,VE,,Venezuela - Mario Briceño Iragorry,2012-12-17,
Fregata magnificens,Animalia,FRIGATEBIRDS_FREGATTIDAE,Magnificent Frigatebird,,1,-67.540855407715,10.51633667496,South America,Venezuela,VE,,Venezuela - Girardot,2012-12-17,
Tangara punctata,Animalia,TANAGERS_AND_ALLIES_THRAUPIDAE,Spotted Tanager,,1,-67.68367767334,10.349370359268,South America,Venezuela,VE,,Venezuela - Diego Ibarra,2000-12-01,
Phacellodomus inornatus,Animalia,OVENBIRDS_FURNARIIDAE,Plain Thornbird,,6,-67.636642456055,10.260195130098,South America,Venezuela,VE,,Venezuela - Diego Ibarra,2000-12-06,
Aulacorhynchus sulcatus,Animalia,TOUCANS_BARBETS_RAMPHASTIDAE,Groove-billed Toucanet,,1,-67.684101462364,10.350124989693,South America,Venezuela,VE,,Venezuela - Diego Ibarra,2000-12-02,
Milvago chimachima,Animalia,CARACAS_AND_FALCONS_FALCONIDAE,Yellow-headed Caracara,,2,-67.739102840424,10.491926197295,South America,Venezuela,VE,,Venezuela - Mario Briceño Iragorry,2000-12-01,
Saltator maximus,Animalia,TANAGERS_AND_ALLIES_THRAUPIDAE,Buff-throated Saltator,,2,-67.684332132339,10.349771421818,South America,Venezuela,VE,,Venezuela - Diego Ibarra,2000-12-01,
Tangara gyrola,Animalia,TANAGERS_AND_ALLIES_THRAUPIDAE,Bay-headed Tanager,,2,-67.684332132339,10.349771421818,South America,Venezuela,VE,,Venezuela - Diego Ibarra,2000-11-30,
Anisognathus somptuosus flavinucha,Animalia,TANAGERS_AND_ALLIES_THRAUPIDAE,Blue-winged Mountain Tanager ssp flavinucha,,6,-67.684578895569,10.349766144682,South America,Venezuela,VE,,Venezuela - Diego Ibarra,2000-11-30,
Falco femoralis,Animalia,CARACAS_AND_FALCONS_FALCONIDAE,Aplomado Falcon,,2,-64.11050456664191,8.711441521246758,South America,Venezuela,VE,,Venezuela - Simón Rodríguez,2011-05-08,10:48
Falco femoralis,Animalia,CARACAS_AND_FALCONS_FALCONIDAE,Aplomado Falcon,,3,-67.96128,10.267918,South America,Venezuela,VE,,Venezuela - Montalbán,2012-02-28,14:17
Falco sparverius,Animalia,CARACAS_AND_FALCONS_FALCONIDAE,American Kestrel,,1,-67.960194,10.27335,South America,Venezuela,VE,,Venezuela - Montalbán,2013-01-28,20:04
Elanus leucurus,Animalia,HAWKS_AND_EAGLES_ACCIPITRIDAE,White-tailed Kite,,3,-67.967116423,10.2485924762,South America,Venezuela,VE,,Venezuela - Valencia,2011-03-01,07:56
Thraupis episcopus,Animalia,TANAGERS_AND_ALLIES_THRAUPIDAE,Blue-grey Tanager,,4,-67.684643268585,10.349483817804,South America,Venezuela,VE,,Venezuela - Diego Ibarra,2000-11-30,
Thraupis palmarum,Animalia,TANAGERS_AND_ALLIES_THRAUPIDAE,Palm Tanager,,4,-67.684643268585,10.349483817804,South America,Venezuela,VE,,Venezuela - Diego Ibarra,2000-11-30,
Tangara punctata,Animalia,TANAGERS_AND_ALLIES_THRAUPIDAE,Spotted Tanager,,3,-67.684643268585,10.349483817804,South America,Venezuela,VE,,Venezuela - Diego Ibarra,2000-11-30,
Thraupis episcopus,Animalia,TANAGERS_AND_ALLIES_THRAUPIDAE,Blue-grey Tanager,,4,-67.684643268585,10.349483817804,South America,Venezuela,VE,,Venezuela - Diego Ibarra,2000-11-30,
Thraupis palmarum,Animalia,TANAGERS_AND_ALLIES_THRAUPIDAE,Palm Tanager,,4,-67.684643268585,10.349483817804,South America,Venezuela,VE,,Venezuela - Diego Ibarra,2000-11-30,
Paroaria nigrogenis,Animalia,TANAGERS_AND_ALLIES_THRAUPIDAE,Masked Cardinal,,1,-69.32459503004637,7.591071522886918,South America,Venezuela,VE,,Venezuela - Autonomo Munoz,2010-02-01,
Pyrocephalus obscurus,Animalia,TYRANT_FLYCATCHERS_TYRANNIDAE,Vermilion Flycatcher,,1,-69.32459503004637,7.591071522886918,South America,Venezuela,VE,,Venezuela - Autonomo Munoz,2010-02-01,
Tyto furcata,Animalia,BARN_OWLS_TYTONIDAE,American Barn Owl,,1,-69.32459503004637,7.591071522886918,South America,Venezuela,VE,,Venezuela - Autonomo Munoz,2010-02-01,
Alouatta arctoidea,Animalia,SPIDER_MONKEYS_ATELIDAE,Ursine Howler Monkey,,1,-69.32459503004637,7.591071522886918,South America,Venezuela,VE,,Venezuela - Autonomo Munoz,2010-02-01,
Leucophaeus atricilla,Animalia,GULLS_TERNS_AND_SKIMMERS_LARIDAE,Laughing Gull,,50,-66.6489860415,11.8919895493,South America,Venezuela,VE,,Venezuela - National Park Archipielago de Los Roques NP,1995-05-06,
Pelecanus occidentalis,Animalia,PELICANS_PELECANIDAE,Brown Pelican,,15,-63.8392326235,11.1048497206,South America,Venezuela,VE,,Venezuela - Isla de Margarita,1995-05-03,
Coragyps atratus,Animalia,NEW_WORLD_VULTURES_CATHARTIDAE,Black Vulture,,100,-63.8437601924,11.117461936,South America,Venezuela,VE,,Venezuela - Isla de Margarita,1995-05-05,
Caracara cheriway,Animalia,CARACAS_AND_FALCONS_FALCONIDAE,Northern Crested Caracara,,1,-63.8399621844,11.104112763,South America,Venezuela,VE,,Venezuela - Antolín del Campo,1995-05-03,
Thraupis palmarum,Animalia,TANAGERS_AND_ALLIES_THRAUPIDAE,Palm Tanager,,1,-70.5370330811,8.82655449738,South America,Venezuela,VE,,Venezuela - Bolívar,2011-11-14,
Phaethon aethereus,Animalia,TROPICBIRDS_PHAETHONTIDAE,Red-billed Tropicbird,,1,-64.3675071001,10.3946597404,South America,Venezuela,VE,,Venezuela - Mochima NP,2011-11-26,
Sula dactylatra,Animalia,GANNETS_AND_BOOBIES_SULIDAE,Masked Booby,,1,-64.4076758623,10.372624806,South America,Venezuela,VE,,Venezuela - Mochima NP,2011-11-26,
Sula leucogaster,Animalia,GANNETS_AND_BOOBIES_SULIDAE,Brown Booby,,30,-64.4081908464,10.3716116682,South America,Venezuela,VE,,Venezuela - Mochima NP,2011-11-26,
Pelecanus occidentalis,Animalia,PELICANS_PELECANIDAE,Brown Pelican,,1,-64.3437427282,10.3827032373,South America,Venezuela,VE,,Venezuela - Mochima NP,2011-11-26,
Podilymbus podiceps,Animalia,GREBES_PODICIPEDIDAE,Pied-billed Grebe,,2,-63.6010551453,10.3516331887,South America,Venezuela,VE,,Venezuela - Ribero,2011-11-25,
Tachycineta albiventer,Animalia,SWALLOWS_HIRUNDINIDAE,White-winged Swallow,,1,-63.6010551453,10.3516331887,South America,Venezuela,VE,,Venezuela - Ribero,2011-11-25,
Tangara guttata,Animalia,TANAGERS_AND_ALLIES_THRAUPIDAE,Speckled Tanager,,1,-63.5385704041,10.1815210413,South America,Venezuela,VE,,Venezuela - Cueva Guacharo NP,2011-11-25,
Tringa solitaria,Animalia,SANDPIPERS_AND_ALLIES_SCOLOPACIDAE,Solitary Sandpiper,,1,-63.0631536564,9.39387997349,South America,Venezuela,VE,,Venezuela - Maturín,2011-11-23,
Columbina talpacoti,Animalia,PIGEONS_AND_DOVES_COLUMBIDAE,Ruddy Ground Dove,,1,-63.0631536564,9.39387997349,South America,Venezuela,VE,,Venezuela - Maturín,2011-11-23,
Jacana jacana,Animalia,JACANAS_JACANIDAE,Wattled Jacana,,1,-63.0631536564,9.39387997349,South America,Venezuela,VE,,Venezuela - Maturín,2011-11-23,
Actitis macularius,Animalia,SANDPIPERS_AND_ALLIES_SCOLOPACIDAE,Spotted Sandpiper,,1,-63.0631536564,9.39387997349,South America,Venezuela,VE,,Venezuela - Maturín,2011-11-23,
Ara ararauna,Animalia,PARROTS_PSITTACIDAE,Blue-and-yellow Macaw,,2,-62.6423257908,9.56852979898,South America,Venezuela,VE,,Venezuela - Maturín,2011-11-23,
Crotophaga major,Animalia,CUCKOOS_AND_COUCALS_CUCULIDAE,Greater Ani,,1,-62.642840775,9.55955820441,South America,Venezuela,VE,,Venezuela - Maturín,2011-11-23,
Opisthocomus hoazin,Animalia,HOATZIN_OPISTHOCOMIDAE,Hoatzin,,3,-62.642840775,9.55955820441,South America,Venezuela,VE,,Venezuela - Maturín,2011-11-23,
Cebus olivaceus,Animalia,NEW_WORLD_MONKEYS_CEBIDAE,Guianan Weeper Capuchin,,1,-62.6434850693,9.5570787994,South America,Venezuela,VE,,Venezuela - Maturín,2011-11-23,
Cochlearius cochlearius,Animalia,HERONS_ARDEIDAE,Boat-billed Heron,,1,-62.6439273767,9.55701251299,South America,Venezuela,VE,,Venezuela - Maturín,2011-11-22,
Ramphastos vitellinus,Animalia,TOUCANS_BARBETS_RAMPHASTIDAE,Channel-billed Toucan,,1,-62.6439273767,9.55701251299,South America,Venezuela,VE,,Venezuela - Maturín,2011-11-22,
Eurypyga helias,Animalia,SUNBITTERN_EURYPYGIDAE,Sunbittern,,1,-62.6439273767,9.55701251299,South America,Venezuela,VE,,Venezuela - Maturín,2011-11-22,
Eudocimus ruber,Animalia,IBISSES_AND_SPOONBILLS_THRESKIORNITHIDAE,Scarlet Ibis,,2,-62.6439273767,9.55701251299,South America,Venezuela,VE,,Venezuela - Maturín,2011-11-22,
Ara ararauna,Animalia,PARROTS_PSITTACIDAE,Blue-and-yellow Macaw,,3,-62.6674449854,9.56412215118,South America,Venezuela,VE,,Venezuela - Maturín,2011-11-22,
Sicalis flaveola,Animalia,TANAGERS_AND_ALLIES_THRAUPIDAE,Saffron Finch,,1,-63.4784591608,8.0947693841,South America,Venezuela,VE,,Venezuela - Heres,2011-11-22,
Tachornis squamata,Animalia,SWIFTS_APODIDAE,Neotropical Palm Swift,,10,-62.8516376428,6.23827121723,South America,Venezuela,VE,,Venezuela - Canaima NP,2011-11-20,
Iguana iguana,Animalia,Iguanidae,Common Green Iguana,,1,-62.8515708447,6.23826071509,South America,Venezuela,VE,,Venezuela - Canaima NP,2011-11-19,
Burhinus bistriatus,Animalia,THICKKNEES_BURHINIDAE,Double-striped Thick-knee,,2,-67.6430434753,6.99775519397,South America,Venezuela,VE,,Venezuela - Cinaruco-Capanaparo NP,2011-11-16,
Paroaria nigrogenis,Animalia,TANAGERS_AND_ALLIES_THRAUPIDAE,Masked Cardinal,,1,-67.5624847412,7.02150519647,South America,Venezuela,VE,,Venezuela - Autonomo Pedro Camejo,2011-11-16,
Inia geoffrensis,Animalia,INIIDAE,Amazon River Dolphin,,1,-67.5152778625,7.02559415389,South America,Venezuela,VE,,Venezuela - Autonomo Pedro Camejo,2011-11-16,
Charadrius collaris,Animalia,PLOVERS_CHARADRIIDAE,Collared Plover,,1,-67.5152778625,7.02559415389,South America,Venezuela,VE,,Venezuela - Autonomo Pedro Camejo,2011-11-16,
Hoploxypterus cayanus,Animalia,PLOVERS_CHARADRIIDAE,Pied Plover,,1,-67.5152778625,7.02559415389,South America,Venezuela,VE,,Venezuela - Autonomo Pedro Camejo,2011-11-16,
Fluvicola pica,Animalia,TYRANT_FLYCATCHERS_TYRANNIDAE,Pied Water Tyrant,,1,-67.5152778625,7.02559415389,South America,Venezuela,VE,,Venezuela - Autonomo Pedro Camejo,2011-11-16,
Chloroceryle amazona,Animalia,KINGFISHERS_ALCEDINIDAE,Amazon Kingfisher,,1,-67.5162715484,7.03856005365,South America,Venezuela,VE,,Venezuela - Autonomo Pedro Camejo,2011-11-16,
Leistes militaris,Animalia,ICTERIDS_ICTERIDAE,Red-breasted Blackbird,,1,-67.6692163201,7.19523994905,South America,Venezuela,VE,,Venezuela - Autonomo Pedro Camejo,2011-11-15,
Pyrocephalus obscurus,Animalia,TYRANT_FLYCATCHERS_TYRANNIDAE,Vermilion Flycatcher,,1,-67.6692163201,7.19523994905,South America,Venezuela,VE,,Venezuela - Autonomo Pedro Camejo,2011-11-15,
Tyrannus savana,Animalia,TYRANT_FLYCATCHERS_TYRANNIDAE,Fork-tailed Flycatcher,,1,-67.6692163201,7.19523994905,South America,Venezuela,VE,,Venezuela - Autonomo Pedro Camejo,2011-11-15,
Dendrocygna autumnalis,Animalia,DUCKS_GEESE_AND_SWANS_ANATIDAE,Black-bellied Whistling Duck,,16,-69.2707525941,7.58352560457,South America,Venezuela,VE,,Venezuela - Autonomo Munoz,2011-11-15,
Dendrocygna viduata,Animalia,DUCKS_GEESE_AND_SWANS_ANATIDAE,White-faced Whistling Duck,,100,-69.2707525941,7.58352560457,South America,Venezuela,VE,,Venezuela - Autonomo Munoz,2011-11-15,
Eudocimus ruber,Animalia,IBISSES_AND_SPOONBILLS_THRESKIORNITHIDAE,Scarlet Ibis,,8,-69.2734991761,7.59118273397,South America,Venezuela,VE,,Venezuela - Autonomo Munoz,2011-11-15,
Caracara cheriway,Animalia,CARACAS_AND_FALCONS_FALCONIDAE,Northern Crested Caracara,,2,-69.2734991761,7.59118273397,South America,Venezuela,VE,,Venezuela - Autonomo Munoz,2011-11-15,
Rynchops niger,Animalia,GULLS_TERNS_AND_SKIMMERS_LARIDAE,Black Skimmer,,20,-69.2734991761,7.59118273397,South America,Venezuela,VE,,Venezuela - Autonomo Munoz,2011-11-15,
Tringa flavipes,Animalia,SANDPIPERS_AND_ALLIES_SCOLOPACIDAE,Lesser Yellowlegs,,2,-69.2734991761,7.59118273397,South America,Venezuela,VE,,Venezuela - Autonomo Munoz,2011-11-15,
Himantopus mexicanus,Animalia,STILTS_AND_AVOCETS_RECURVIROSTRIDAE,Black-necked Stilt,,20,-69.2734991761,7.59118273397,South America,Venezuela,VE,,Venezuela - Autonomo Munoz,2011-11-15,
Butorides striata,Animalia,HERONS_ARDEIDAE,Striated Heron,,1,-69.2583017799,7.5600482099,South America,Venezuela,VE,,Venezuela - Autonomo Munoz,2011-11-15,
Pyrocephalus obscurus,Animalia,TYRANT_FLYCATCHERS_TYRANNIDAE,Vermilion Flycatcher,,2,-65.3006787253,10.0814543422,South America,Venezuela,VE,,Venezuela - Laguna Unare,1987-02-19,
Ciconia maguari,Animalia,STORKS_CICONIIDAE,Maguari Stork,,1,-69.350295451,7.96700928589,South America,Venezuela,VE,,Venezuela - Autonomo Munoz,2011-11-15,
Aramus guarauna,Animalia,LIMPKIN_ARAMIDAE,Limpkin,,1,-69.350295451,7.96700928589,South America,Venezuela,VE,,Venezuela - Autonomo Munoz,2011-11-15,
Phaetusa simplex,Animalia,GULLS_TERNS_AND_SKIMMERS_LARIDAE,Large-billed Tern,,1,-69.350295451,7.96700928589,South America,Venezuela,VE,,Venezuela - Autonomo Munoz,2011-11-15,
Jabiru mycteria,Animalia,STORKS_CICONIIDAE,Jabiru,,1,-69.350295451,7.96700928589,South America,Venezuela,VE,,Venezuela - Autonomo Munoz,2011-11-15,
Thraupis glaucocolpa,Animalia,TANAGERS_AND_ALLIES_THRAUPIDAE,Glaucous Tanager,,1,-69.3350873259,8.04665393676,South America,Venezuela,VE,,Venezuela - Autonomo Munoz,2011-11-15,
Thraupis episcopus,Animalia,TANAGERS_AND_ALLIES_THRAUPIDAE,Blue-grey Tanager,,4,-69.3350873259,8.04665393676,South America,Venezuela,VE,,Venezuela - Autonomo Munoz,2011-11-15,
Tyrannus melancholicus,Animalia,TYRANT_FLYCATCHERS_TYRANNIDAE,Tropical Kingbird,,1,-69.3350873259,8.04665393676,South America,Venezuela,VE,,Venezuela - Autonomo Munoz,2011-11-15,
Mycteria americana,Animalia,STORKS_CICONIIDAE,Wood Stork,,1,-69.3350873259,8.04665393676,South America,Venezuela,VE,,Venezuela - Autonomo Munoz,2011-11-15,
Alouatta arctoidea,Animalia,SPIDER_MONKEYS_ATELIDAE,Ursine Howler Monkey,,6,-69.4493865967,8.25158503478,South America,Venezuela,VE,,Venezuela - Sosa,2011-11-14,
Tangara cyanicollis,Animalia,TANAGERS_AND_ALLIES_THRAUPIDAE,Blue-necked Tanager,,1,-70.5559158325,8.83995490187,South America,Venezuela,VE,,Venezuela - Bolívar,2011-11-14,
Saltator maximus,Animalia,TANAGERS_AND_ALLIES_THRAUPIDAE,Buff-throated Saltator,,1,-70.5559158325,8.83995490187,South America,Venezuela,VE,,Venezuela - Bolívar,2011-11-14,
Odocoileus virginianus,Animalia,DEER_CERVIDAE,White-tailed Deer,,2,-70.803580869,8.80983226381,South America,Venezuela,VE,,Venezuela - Rangel,2011-11-14,
Alouatta macconnelli,Animalia,SPIDER_MONKEYS_ATELIDAE,Guianan Red Howler Monkey,,3,-61.31629181,6.28196312,South America,Venezuela,VE,,Venezuela - Sifontes,1987-02-18,
Alouatta macconnelli,Animalia,SPIDER_MONKEYS_ATELIDAE,Guianan Red Howler Monkey,,10,-61.3911171,6.02972058,South America,Venezuela,VE,,Venezuela - Sifontes,1987-02-15,
Pyrocephalus obscurus,Animalia,TYRANT_FLYCATCHERS_TYRANNIDAE,Vermilion Flycatcher,,2,-63.6155437671,8.23234294281,South America,Venezuela,VE,,Venezuela - Independencia,1987-02-13,
Pyrocephalus obscurus,Animalia,TYRANT_FLYCATCHERS_TYRANNIDAE,Vermilion Flycatcher,,1,-68.3154669683,10.9317784082,South America,Venezuela,VE,,Venezuela - Monseñor Iturriza,1987-02-09,
Atlapetes meridae,Animalia,PASSERELLIDAE,Merida Brushfinch,,3,-70.6599457813,8.66903633255,South America,Venezuela,VE,,Venezuela - Sierra Nevada NP,1987-02-06,
Atlapetes meridae,Animalia,PASSERELLIDAE,Merida Brushfinch,,1,-71.0575984693,8.55965522036,South America,Venezuela,VE,,Venezuela - Libertador,1987-02-05,
Diglossa gloriosa,Animalia,TANAGERS_AND_ALLIES_THRAUPIDAE,Merida Flowerpiercer,,1,-71.0808590055,8.46251700976,South America,Venezuela,VE,,Venezuela - Libertador,2011-11-11,
Zonotrichia capensis,Animalia,PASSERELLIDAE,Rufous-collared Sparrow,,1,-71.1606815457,8.46302638659,South America,Venezuela,VE,,Venezuela - Libertador,2011-11-11,
Sayornis nigricans,Animalia,TYRANT_FLYCATCHERS_TYRANNIDAE,Black Phoebe,,2,-71.3598033786,8.57025636634,South America,Venezuela,VE,,Venezuela - Campo Elías,2011-11-10,
Milvago chimachima,Animalia,CARACAS_AND_FALCONS_FALCONIDAE,Yellow-headed Caracara,,1,-71.1562907696,8.58875277127,South America,Venezuela,VE,,Venezuela - Merida,2011-11-10,
Zonotrichia capensis,Animalia,PASSERELLIDAE,Rufous-collared Sparrow,,1,-71.1562907696,8.58875277127,South America,Venezuela,VE,,Venezuela - Merida,2011-11-10,
Coragyps atratus,Animalia,NEW_WORLD_VULTURES_CATHARTIDAE,Black Vulture,,20,-71.1562907696,8.58875277127,South America,Venezuela,VE,,Venezuela - Merida,2011-11-10,
Coereba flaveola,Animalia,TANAGERS_AND_ALLIES_THRAUPIDAE,Bananaquit,,1,-67.604777813,10.5110306721,South America,Venezuela,VE,,Venezuela - Henri Pittier NP,2011-11-08,
Thraupis episcopus,Animalia,TANAGERS_AND_ALLIES_THRAUPIDAE,Blue-grey Tanager,,1,-67.6066660881,10.5096619618,South America,Venezuela,VE,,Venezuela - Henri Pittier NP,2011-11-07,
Columbina squammata,Animalia,PIGEONS_AND_DOVES_COLUMBIDAE,Scaled Dove,,4,-67.6066660881,10.5096619618,South America,Venezuela,VE,,Venezuela - Henri Pittier NP,2011-11-07,
Pelecanus occidentalis,Animalia,PELICANS_PELECANIDAE,Brown Pelican,,10,-67.6059955359,10.5104135665,South America,Venezuela,VE,,Venezuela - Henri Pittier NP,2011-11-06,
Fregata magnificens,Animalia,FRIGATEBIRDS_FREGATTIDAE,Magnificent Frigatebird,,20,-67.6059955359,10.5104135665,South America,Venezuela,VE,,Venezuela - Henri Pittier NP,2011-11-06,
Alouatta arctoidea,Animalia,SPIDER_MONKEYS_ATELIDAE,Ursine Howler Monkey,,10,-65.36752803984007,9.873689021380727,South America,Venezuela,VE,,Venezuela - Bruzual,1987-02-01,
Paroaria nigrogenis,Animalia,TANAGERS_AND_ALLIES_THRAUPIDAE,Masked Cardinal,,30,-68.8952794957735,7.6789685754644,South America,Venezuela,VE,,Venezuela - Los Llanos,1987-01-31,
Pyrocephalus obscurus,Animalia,TYRANT_FLYCATCHERS_TYRANNIDAE,Vermilion Flycatcher,,2,-68.8952794957735,7.6789685754644,South America,Venezuela,VE,,Venezuela - Los Llanos,1987-01-31,
Paroaria nigrogenis,Animalia,TANAGERS_AND_ALLIES_THRAUPIDAE,Masked Cardinal,,15,-68.8952794957735,7.6789685754644,South America,Venezuela,VE,,Venezuela - Los Llanos,1987-01-30,
Colibri cyanotus cyanotus,Animalia,HUMMINGBIRDS_TROCHILIDAE,Lesser Violetear ssp cyanotus,,2,-67.6208496094,10.5146151226,South America,Venezuela,VE,,Venezuela - Henri Pittier NP,1987-01-28,
Alouatta arctoidea,Animalia,SPIDER_MONKEYS_ATELIDAE,Ursine Howler Monkey,,1,-67.5947202688529,10.452696483811,South America,Venezuela,VE,,Venezuela - Henri Pittier NP,1987-01-26,
Fregata magnificens,Animalia,FRIGATEBIRDS_FREGATTIDAE,Magnificent Frigatebird,,1,-63.8058471679,10.9344500766,South America,Venezuela,VE,,Venezuela - Isla de Margarita,1993-09-21,
Fregata magnificens,Animalia,FRIGATEBIRDS_FREGATTIDAE,Magnificent Frigatebird,,1,-63.8058471679,10.9344500766,South America,Venezuela,VE,,Venezuela - Isla de Margarita,1993-09-19,
Fregata magnificens,Animalia,FRIGATEBIRDS_FREGATTIDAE,Magnificent Frigatebird,,1,-63.8058471679,10.9344500766,South America,Venezuela,VE,,Venezuela - Isla de Margarita,1993-09-14,
Fregata magnificens,Animalia,FRIGATEBIRDS_FREGATTIDAE,Magnificent Frigatebird,,1,-63.8058471679,10.9344500766,South America,Venezuela,VE,,Venezuela - Isla de Margarita,1993-09-13,
Fregata magnificens,Animalia,FRIGATEBIRDS_FREGATTIDAE,Magnificent Frigatebird,,1,-63.8058471679,10.9344500766,South America,Venezuela,VE,,Venezuela - Isla de Margarita,1993-09-12,
Fregata magnificens,Animalia,FRIGATEBIRDS_FREGATTIDAE,Magnificent Frigatebird,,1,-63.8058471679,10.9344500766,South America,Venezuela,VE,,Venezuela - Isla de Margarita,1993-09-11,
Macrothemis imitans,Animalia,SKIMMERS_LIBELLULIDAE,Ivory-striped Sylph,,1,-66.8333,6.6667,South America,Venezuela,VE,,Venezuela - Cedeño,1972-01-24,
Cebus olivaceus,Animalia,NEW_WORLD_MONKEYS_CEBIDAE,Guianan Weeper Capuchin,,4,-67.5990982056,10.4136398209,South America,Venezuela,VE,,Venezuela - Mario Briceño Iragorry,2009-10-01,
Alouatta arctoidea,Animalia,SPIDER_MONKEYS_ATELIDAE,Ursine Howler Monkey,,4,-69.6176147461,8.34060524278,South America,Venezuela,VE,,Venezuela - Obispos,1999-02-23,
Alouatta arctoidea,Animalia,SPIDER_MONKEYS_ATELIDAE,Ursine Howler Monkey,,1,-67.6029809701,10.4083882864,South America,Venezuela,VE,,Venezuela - Mario Briceño Iragorry,1999-02-16,
Inia geoffrensis,Animalia,INIIDAE,Amazon River Dolphin,,5,-66.8339538574,4.07523390139,South America,Venezuela,VE,,Venezuela - D. Atabapo,2002-02-07,
Coereba flaveola,Animalia,TANAGERS_AND_ALLIES_THRAUPIDAE,Bananaquit,,10,-60.5019664764,11.2990807097,South America,Venezuela,VE,,Venezuela,2009-07-12,
Leptotila verreauxi,Animalia,PIGEONS_AND_DOVES_COLUMBIDAE,White-tipped Dove,,1,-60.5019664764,11.2990807097,South America,Venezuela,VE,,Venezuela,2009-07-12,
Leucophaeus atricilla,Animalia,GULLS_TERNS_AND_SKIMMERS_LARIDAE,Laughing Gull,,20,-60.5019664764,11.2990807097,South America,Venezuela,VE,,Venezuela,2009-07-12,
Onychoprion anaethetus,Animalia,GULLS_TERNS_AND_SKIMMERS_LARIDAE,Bridled Tern,,20,-60.5019664764,11.2990807097,South America,Venezuela,VE,,Venezuela,2009-07-12,
Phaethon aethereus,Animalia,TROPICBIRDS_PHAETHONTIDAE,Red-billed Tropicbird,,40,-60.5019664764,11.2990807097,South America,Venezuela,VE,,Venezuela,2009-07-12,
Hydropsalis cayennensis,Animalia,NIGHTJARS_CAPRIMULGIDAE,White-tailed Nightjar,,1,-60.5019664764,11.2990807097,South America,Venezuela,VE,,Venezuela,2009-07-12,
Onychoprion anaethetus,Animalia,GULLS_TERNS_AND_SKIMMERS_LARIDAE,Bridled Tern,,20,-60.5019664764,11.2990807097,South America,Venezuela,VE,,Venezuela,2009-07-12,
Dendrobates leucomelas,Animalia,Dendrobatidae,Yellow-banded Poison Frog,,4,-61.439666748,6.04906437757,South America,Venezuela,VE,,Venezuela,2009-09-13,
Dendrobates leucomelas,Animalia,Dendrobatidae,Yellow-banded Poison Frog,,3,-62.4380493164,5.75263960285,South America,Venezuela,VE,,Venezuela,2009-09-25,
Dendrobates leucomelas,Animalia,Dendrobatidae,Yellow-banded Poison Frog,,2,-62.4380493164,5.75263960285,South America,Venezuela,VE,,Venezuela,2009-09-24,
Ardea alba egretta,Animalia,HERONS_ARDEIDAE,American Great Egret,,1,-67.7731990814,10.488149469,South America,Venezuela,VE,,Venezuela - Henri Pittier NP,2009-11-01,
Atlapetes meridae,Animalia,PASSERELLIDAE,Merida Brushfinch,,1,-70.9497070312,8.2332371112727,South America,Venezuela,VE,,Venezuela - Antonio José de Sucre,2006-08-01,
Eupsittula pertinax venezuelae,Animalia,PARROTS_PSITTACIDAE,Brown-throated Parakeet ssp venezuelae,,1,-68.1591796875,8.38543101557,South America,Venezuela,VE,,Venezuela - Los Llanos,2006-08-01,
Paroaria nigrogenis,Animalia,TANAGERS_AND_ALLIES_THRAUPIDAE,Masked Cardinal,,1,-67.6048851013,10.5112732945,South America,Venezuela,VE,,Venezuela - Henri Pittier NP,2009-10-01,
Pteroglossus aracari,Animalia,TOUCANS_BARBETS_RAMPHASTIDAE,Black-necked Aracari,,2,-62.8548431396,6.24209754503,South America,Venezuela,VE,,Venezuela,2009-09-28,
Ramphastos tucanus,Animalia,TOUCANS_BARBETS_RAMPHASTIDAE,White-throated Toucan,,2,-62.8548431396,6.24209754503,South America,Venezuela,VE,,Venezuela,2009-09-28,
Charadrius semipalmatus,Animalia,PLOVERS_CHARADRIIDAE,Semipalmated Plover,,1,-67.6055288315,10.5103555479,South America,Venezuela,VE,,Venezuela - Henri Pittier NP,2009-10-01,
Leucophaeus atricilla,Animalia,GULLS_TERNS_AND_SKIMMERS_LARIDAE,Laughing Gull,,10,-67.6055288315,10.5103555479,South America,Venezuela,VE,,Venezuela - Henri Pittier NP,2009-10-01,
Hirundinea ferruginea,Animalia,TYRANT_FLYCATCHERS_TYRANNIDAE,Cliff Flycatcher,,1,-61.438293457,5.94936318382,South America,Venezuela,VE,,Venezuela,2009-09-13,
Caracara cheriway,Animalia,CARACAS_AND_FALCONS_FALCONIDAE,Northern Crested Caracara,,1,-61.6690063477,5.64878567985,South America,Venezuela,VE,,Venezuela,2009-09-14,
Phaethon aethereus,Animalia,TROPICBIRDS_PHAETHONTIDAE,Red-billed Tropicbird,,1,-60.5079960823,11.3053037472,South America,Venezuela,VE,,Venezuela,2007-12-15,
Columbina talpacoti,Animalia,PIGEONS_AND_DOVES_COLUMBIDAE,Ruddy Ground Dove,,4,-67.7708816528,10.4867991191,South America,Venezuela,VE,,Venezuela - Henri Pittier NP,2009-10-01,
Pelecanus occidentalis,Animalia,PELICANS_PELECANIDAE,Brown Pelican,,20,-67.7708816528,10.4867991191,South America,Venezuela,VE,,Venezuela - Henri Pittier NP,2009-10-01,
Tangara gyrola,Animalia,TANAGERS_AND_ALLIES_THRAUPIDAE,Bay-headed Tanager,,1,-67.7708816528,10.4867991191,South America,Venezuela,VE,,Venezuela - Henri Pittier NP,2009-10-01,
Iguana iguana,Animalia,Iguanidae,Common Green Iguana,,4,-67.7708816528,10.4867991191,South America,Venezuela,VE,,Venezuela - Henri Pittier NP,2009-09-30,
Pelecanus occidentalis,Animalia,PELICANS_PELECANIDAE,Brown Pelican,,15,-67.7708816528,10.4867991191,South America,Venezuela,VE,,Venezuela - Henri Pittier NP,2009-09-30,
Dacnis cayana,Animalia,TANAGERS_AND_ALLIES_THRAUPIDAE,Blue Dacnis,,2,-62.4883460999,6.09327530809,South America,Venezuela,VE,,Venezuela,2009-09-25,
Spinus magellanicus,Animalia,FINCHES_FRINGILLIDAE,Hooded Siskin,,1,-62.403717041,5.78406535773,South America,Venezuela,VE,,Venezuela,2009-09-23,
Schistochlamys melanopis,Animalia,TANAGERS_AND_ALLIES_THRAUPIDAE,Black-faced Tanager,,1,-62.2499084473,5.72394500549,South America,Venezuela,VE,,Venezuela,2009-09-21,
Calliphlox amethystina,Animalia,HUMMINGBIRDS_TROCHILIDAE,Amethyst Woodstar,,3,-62.1826171875,5.70618096097,South America,Venezuela,VE,,Venezuela,2009-09-20,
Schistochlamys melanopis,Animalia,TANAGERS_AND_ALLIES_THRAUPIDAE,Black-faced Tanager,,3,-62.1826171875,5.70618096097,South America,Venezuela,VE,,Venezuela,2009-09-20,
Ramphastos tucanus,Animalia,TOUCANS_BARBETS_RAMPHASTIDAE,White-throated Toucan,,2,-62.1208190918,5.73760927957,South America,Venezuela,VE,,Venezuela,2009-09-20,
Corapipo gutturalis,Animalia,MANAKINS_PIPRIDAE,White-throated Manakin,,1,-62.1208190918,5.73760927957,South America,Venezuela,VE,,Venezuela,2009-09-20,
Ramphastos vitellinus,Animalia,TOUCANS_BARBETS_RAMPHASTIDAE,Channel-billed Toucan,,2,-62.1208190918,5.73760927957,South America,Venezuela,VE,,Venezuela,2009-09-20,
Selenidera piperivora,Animalia,TOUCANS_BARBETS_RAMPHASTIDAE,Guianan Toucanet,,1,-62.1208190918,5.73760927957,South America,Venezuela,VE,,Venezuela,2009-09-20,
Ramphastos vitellinus,Animalia,TOUCANS_BARBETS_RAMPHASTIDAE,Channel-billed Toucan,,1,-62.1084594727,5.74854046312,South America,Venezuela,VE,,Venezuela,2009-09-19,
Schistochlamys melanopis,Animalia,TANAGERS_AND_ALLIES_THRAUPIDAE,Black-faced Tanager,,3,-62.1084594727,5.74854046312,South America,Venezuela,VE,,Venezuela,2009-09-19,
Pithys albifrons,Animalia,ANTBIRDS_THAMNOPHILIDAE,White-plumed Antbird,,8,-61.69921875,6.68643125265,South America,Venezuela,VE,,Venezuela,2009-09-19,
Pionites melanocephalus,Animalia,PARROTS_PSITTACIDAE,Black-headed Parrot,,1,-62.1352386475,5.68568330276,South America,Venezuela,VE,,Venezuela,2009-09-18,
Lanio fulvus,Animalia,TANAGERS_AND_ALLIES_THRAUPIDAE,Fulvous Shrike-Tanager,,2,-62.1352386475,5.68568330276,South America,Venezuela,VE,,Venezuela,2009-09-18,
Schistochlamys melanopis,Animalia,TANAGERS_AND_ALLIES_THRAUPIDAE,Black-faced Tanager,,3,-62.1352386475,5.68568330276,South America,Venezuela,VE,,Venezuela,2009-09-18,
Sarcoramphus papa,Animalia,NEW_WORLD_VULTURES_CATHARTIDAE,King Vulture,,3,-61.57,6.05,South America,Venezuela,VE,,Venezuela,2009-08-08,14:50
Tangara cayana,Animalia,TANAGERS_AND_ALLIES_THRAUPIDAE,Burnished-buff Tanager,,4,-61.8850421906,5.65852278147,South America,Venezuela,VE,,Venezuela,2009-09-16,
Brachygalba lugubris,Animalia,JACAMARS_GALBULIDAE,Brown Jacamar,,2,-61.8850421906,5.65852278147,South America,Venezuela,VE,,Venezuela,2009-09-16,
Calidris melanotos,Animalia,SANDPIPERS_AND_ALLIES_SCOLOPACIDAE,Pectoral Sandpiper,,1,-61.1135101318,4.95140607818,South America,Venezuela,VE,,Venezuela,2009-09-14,
Milvago chimachima,Animalia,CARACAS_AND_FALCONS_FALCONIDAE,Yellow-headed Caracara,,2,-61.1135101318,4.95140607818,South America,Venezuela,VE,,Venezuela,2009-09-14,
Ara militaris,Animalia,PARROTS_PSITTACIDAE,Military Macaw,,5,-66.48,10.08,South America,Venezuela,VE,,Venezuela,1999-02-28,
Paroaria nigrogenis,Animalia,TANAGERS_AND_ALLIES_THRAUPIDAE,Masked Cardinal,,3,-65.98,10.32,South America,Venezuela,VE,,Venezuela,1999-02-27,
Phacellodomus inornatus,Animalia,OVENBIRDS_FURNARIIDAE,Plain Thornbird,,5,-66.48,10.08,South America,Venezuela,VE,,Venezuela,1999-02-26,
Paroaria nigrogenis,Animalia,TANAGERS_AND_ALLIES_THRAUPIDAE,Masked Cardinal,,15,-66.48,10.08,South America,Venezuela,VE,,Venezuela,1999-02-26,
Paroaria nigrogenis,Animalia,TANAGERS_AND_ALLIES_THRAUPIDAE,Masked Cardinal,,25,-68.2,7.77,South America,Venezuela,VE,,Venezuela - Los Llanos,1999-02-25,
Phacellodomus inornatus,Animalia,OVENBIRDS_FURNARIIDAE,Plain Thornbird,,4,-62.46,8.58,South America,Venezuela,VE,,Venezuela,1999-02-24,
Paroaria nigrogenis,Animalia,TANAGERS_AND_ALLIES_THRAUPIDAE,Masked Cardinal,,25,-62.46,8.58,South America,Venezuela,VE,,Venezuela,1999-02-24,
Paroaria nigrogenis,Animalia,TANAGERS_AND_ALLIES_THRAUPIDAE,Masked Cardinal,,10,-69.61,8.34,South America,Venezuela,VE,,Venezuela - Los Llanos,1999-02-23,
Cinclodes albidiventris,Animalia,OVENBIRDS_FURNARIIDAE,Chestnut-winged Cinclodes,,10,-71.01,8.57,South America,Venezuela,VE,,Venezuela,1999-02-22,
Piranga lutea,Animalia,GROSBEAKS_SALTATORS_ALLIES_CARDINALIDAE,Tooth-billed Tanager,,2,-71.01,8.57,South America,Venezuela,VE,,Venezuela,1999-02-22,
Atlapetes meridae,Animalia,PASSERELLIDAE,Merida Brushfinch,,1,-71.07,8.65,South America,Venezuela,VE,,Venezuela,1999-02-20,
Piranga lutea,Animalia,GROSBEAKS_SALTATORS_ALLIES_CARDINALIDAE,Tooth-billed Tanager,,1,-70.5,8.83,South America,Venezuela,VE,,Venezuela - Valle Santa Domingo,1999-02-19,
Milvago chimachima,Animalia,CARACAS_AND_FALCONS_FALCONIDAE,Yellow-headed Caracara,,1,-67.73,10.42,South America,Venezuela,VE,,Venezuela - Henri Pittier NP,1999-02-17,
Turdus albicollis,Animalia,THRUSHES_TURDIDAE,White-necked Thrush,,1,-67.73,10.42,South America,Venezuela,VE,,Venezuela - Henri Pittier NP,1999-02-17,
Saltator maximus,Animalia,TANAGERS_AND_ALLIES_THRAUPIDAE,Buff-throated Saltator,,5,-67.73,10.42,South America,Venezuela,VE,,Venezuela - Henri Pittier NP,1999-02-17,
Piranga lutea,Animalia,GROSBEAKS_SALTATORS_ALLIES_CARDINALIDAE,Tooth-billed Tanager,,4,-67.73,10.42,South America,Venezuela,VE,,Venezuela - Henri Pittier NP,1999-02-17,
Thraupis episcopus,Animalia,TANAGERS_AND_ALLIES_THRAUPIDAE,Blue-grey Tanager,,15,-67.73,10.42,South America,Venezuela,VE,,Venezuela - Henri Pittier NP,1999-02-17,
Tangara gyrola,Animalia,TANAGERS_AND_ALLIES_THRAUPIDAE,Bay-headed Tanager,,10,-67.73,10.42,South America,Venezuela,VE,,Venezuela - Henri Pittier NP,1999-02-17,
Tangara gyrola,Animalia,TANAGERS_AND_ALLIES_THRAUPIDAE,Bay-headed Tanager,,10,-67.73,10.42,South America,Venezuela,VE,,Venezuela - Henri Pittier NP,1999-02-16,
Aulacorhynchus sulcatus,Animalia,TOUCANS_BARBETS_RAMPHASTIDAE,Groove-billed Toucanet,,2,-67.73,10.42,South America,Venezuela,VE,,Venezuela - Henri Pittier NP,1999-02-16,
Thraupis episcopus,Animalia,TANAGERS_AND_ALLIES_THRAUPIDAE,Blue-grey Tanager,,2,-67.73,10.42,South America,Venezuela,VE,,Venezuela - Henri Pittier NP,1999-02-16,
Piranga lutea,Animalia,GROSBEAKS_SALTATORS_ALLIES_CARDINALIDAE,Tooth-billed Tanager,,1,-67.73,10.42,South America,Venezuela,VE,,Venezuela - Henri Pittier NP,1999-02-16,
Saltator maximus,Animalia,TANAGERS_AND_ALLIES_THRAUPIDAE,Buff-throated Saltator,,2,-67.73,10.42,South America,Venezuela,VE,,Venezuela - Henri Pittier NP,1999-02-16,
Arremon phaeopleurus,Animalia,PASSERELLIDAE,Caracas Brushfinch,,1,-67.73,10.42,South America,Venezuela,VE,,Venezuela - Henri Pittier NP,1999-02-16,
Piranga lutea,Animalia,GROSBEAKS_SALTATORS_ALLIES_CARDINALIDAE,Tooth-billed Tanager,,2,-67.2,10.55,South America,Venezuela,VE,,Venezuela,1999-02-15,
Iguana iguana,Animalia,Iguanidae,Common Green Iguana,,1,-67.6018166542,10.2519209364,South America,Venezuela,VE,,Venezuela,1999-11-10,
Amazona barbadensis,Animalia,PARROTS_PSITTACIDAE,Yellow-shouldered Amazon,,1,-63.922576904297,10.989053568226,South America,Venezuela,VE,,Venezuela - Isla de Margarita,1993-09-22,
Fregata magnificens,Animalia,FRIGATEBIRDS_FREGATTIDAE,Magnificent Frigatebird,,1,-63.922576904297,10.989053568226,South America,Venezuela,VE,,Venezuela - Isla de Margarita,1993-09-20,
Icterus icterus,Animalia,ICTERIDS_ICTERIDAE,Venezuelan Troupial,,1,-63.912963867188,10.93849512512,South America,Venezuela,VE,,Venezuela - Isla de Margarita,1993-09-12,
Fregata magnificens,Animalia,FRIGATEBIRDS_FREGATTIDAE,Magnificent Frigatebird,,1,-63.858032226562,10.962764256387,South America,Venezuela,VE,,Venezuela - Isla de Margarita,1993-09-10,
Eudocimus ruber,Animalia,IBISSES_AND_SPOONBILLS_THRESKIORNITHIDAE,Scarlet Ibis,,1,-65.394648313522,10.129914230788,South America,Venezuela,VE,,Venezuela - Laguna Unare,1999-12-04,
Eudocimus ruber,Animalia,IBISSES_AND_SPOONBILLS_THRESKIORNITHIDAE,Scarlet Ibis,,1,-65.403327941895,10.132168770244,South America,Venezuela,VE,,Venezuela - Laguna Unare,1999-12-03,
Eudocimus ruber,Animalia,IBISSES_AND_SPOONBILLS_THRESKIORNITHIDAE,Scarlet Ibis,,1,-65.403113365173,10.132091319016,South America,Venezuela,VE,,Venezuela - Laguna Unare,1999-12-02,
Eudocimus ruber,Animalia,IBISSES_AND_SPOONBILLS_THRESKIORNITHIDAE,Scarlet Ibis,,1,-65.39852142334,10.130816893449,South America,Venezuela,VE,,Venezuela - Laguna Unare,1999-12-01,
Milvago chimachima cordata,Animalia,CARACAS_AND_FALCONS_FALCONIDAE,Yellow-headed Caracara ssp cordata,,1,-65.39852142334,10.130816893449,South America,Venezuela,VE,,Venezuela - Laguna Unare,1999-12-01,
Eudocimus ruber,Animalia,IBISSES_AND_SPOONBILLS_THRESKIORNITHIDAE,Scarlet Ibis,,101,-65.405495166779,10.132380000478,South America,Venezuela,VE,,Venezuela - Laguna Unare,1999-11-30,
Platalea ajaja,Animalia,IBISSES_AND_SPOONBILLS_THRESKIORNITHIDAE,Roseate Spoonbill,,1,-69.494705200195,7.591149909215,South America,Venezuela,VE,,Venezuela - Los Llanos,1999-11-22,
Tigrisoma lineatum,Animalia,HERONS_ARDEIDAE,Rufescent Tiger Heron,,1,-69.494705200195,7.591149909215,South America,Venezuela,VE,,Venezuela - Los Llanos,1999-11-22,
Ardea cocoi,Animalia,HERONS_ARDEIDAE,Cocoi Heron,,1,-69.494705200195,7.591149909215,South America,Venezuela,VE,,Venezuela - Los Llanos,1999-11-22,
Eunectes murinus,Animalia,Boidae,Anaconda,,1,-69.482688903809,7.5639239395027,South America,Venezuela,VE,,Venezuela - Los Llanos,1999-11-22,
Hydrochoerus hydrochaeris,Animalia,CAVIES_CAVIIDAE,Capybara,,2,-69.509468078613,7.4091572273413,South America,Venezuela,VE,,Venezuela - Los Llanos,1999-11-21,
Inia geoffrensis,Animalia,INIIDAE,Amazon River Dolphin,,2,-69.509468078613,7.4091572273413,South America,Venezuela,VE,,Venezuela - Los Llanos,1999-11-21,
Paroaria nigrogenis,Animalia,TANAGERS_AND_ALLIES_THRAUPIDAE,Masked Cardinal,,1,-69.482173919678,7.5651491445817,South America,Venezuela,VE,,Venezuela - Los Llanos,1999-11-21,
Phimosus infuscatus berlepschi,Animalia,IBISSES_AND_SPOONBILLS_THRESKIORNITHIDAE,Bare-faced Ibis ssp berlepschi,,11,-69.485263824463,7.5654894788527,South America,Venezuela,VE,,Venezuela - Los Llanos,1999-11-21,
Syrigma sibilatrix fostersmithi,Animalia,HERONS_ARDEIDAE,Whistling Heron ssp fostersmithi,,2,-69.482688903809,7.561915955619,South America,Venezuela,VE,,Venezuela - Los Llanos,1999-11-21,
Ara macao macao,Animalia,PARROTS_PSITTACIDAE,Scarlet Macaw ssp macao,,4,-69.504661560059,7.4091345306069,South America,Venezuela,VE,,Venezuela - Los Llanos,1999-11-21,
Tigrisoma lineatum,Animalia,HERONS_ARDEIDAE,Rufescent Tiger Heron,,1,-69.483890533447,7.5646386426719,South America,Venezuela,VE,,Venezuela - Los Llanos,1999-11-20,
Aulacorhynchus albivitta albivitta,Animalia,TOUCANS_BARBETS_RAMPHASTIDAE,White-throated Toucanet ssp albivitta,,1,-70.5578041077,8.82516354189,South America,Venezuela,VE,,Venezuela - Valle Santa Domingo,1999-11-18,
Atlapetes meridae,Animalia,PASSERELLIDAE,Merida Brushfinch,,1,-71.052017211914,8.6195841333775,South America,Venezuela,VE,,Venezuela - La Mucuy NP,1999-11-16,
Aulacorhynchus albivitta albivitta,Animalia,TOUCANS_BARBETS_RAMPHASTIDAE,White-throated Toucanet ssp albivitta,,1,-71.0520172119,8.61958413338,South America,Venezuela,VE,,Venezuela - La Mucuy NP,1999-11-16,
Sayornis nigricans angustirostris,Animalia,TYRANT_FLYCATCHERS_TYRANNIDAE,Black Phoebe ssp angustirostris,,1,-67.6084899902,10.4917278695,South America,Venezuela,VE,,Venezuela - Henri Pittier NP,1999-11-13,
Tangara guttata chrysophrys,Animalia,TANAGERS_AND_ALLIES_THRAUPIDAE,Speckled Tanager ssp chrysophrys,,1,-67.71148682,10.3769285,South America,Venezuela,VE,,Venezuela - Henri Pittier NP,1999-11-12,
Thraupis palmarum,Animalia,TANAGERS_AND_ALLIES_THRAUPIDAE,Palm Tanager,,1,-67.716293334961,10.37827932389,South America,Venezuela,VE,,Venezuela - Henri Pittier NP,1999-11-11,
Coereba flaveola luteola,Animalia,TANAGERS_AND_ALLIES_THRAUPIDAE,Bananaquit ssp luteola,,1,-67.71629333,10.37827932,South America,Venezuela,VE,,Venezuela - Henri Pittier NP,1999-11-11,
Campylorhamphus trochilirostris venezuelensis,Animalia,OVENBIRDS_FURNARIIDAE,Red-billed Scythebill ssp venezuelensis,,1,-67.5996780326,10.3971452552,South America,Venezuela,VE,,Venezuela - Mario Briceño Iragorry,1999-11-11,
Alouatta arctoidea,Animalia,SPIDER_MONKEYS_ATELIDAE,Ursine Howler Monkey,,11,-67.7142333984,10.3809809597,South America,Venezuela,VE,,Venezuela - Henri Pittier NP,1999-11-10,
Cebus olivaceus,Animalia,NEW_WORLD_MONKEYS_CEBIDAE,Guianan Weeper Capuchin,,11,-67.7142333984,10.3809809597,South America,Venezuela,VE,,Venezuela - Henri Pittier NP,1999-11-10,
Sciurus granatensis,Animalia,SQUIRRELS_CHIPMUNKS_AND_PRAIRIEDOGS_SCIURIDAE,Red-tailed Squirrel,,1,-67.714233398438,10.380980959718,South America,Venezuela,VE,,Venezuela - Henri Pittier NP,1999-11-10,
Bradypus variegatus,Animalia,THREETOED_SLOTHS_BRADYPODIDAE,Brown-throated Three-toed Sloth,,1,-67.713890075684,10.378605770387,South America,Venezuela,VE,,Venezuela - Henri Pittier NP,1999-11-10,
Tangara gyrola toddi,Animalia,TANAGERS_AND_ALLIES_THRAUPIDAE,Bay-headed Tanager ssp toddi,,1,-67.59657204,10.42505372,South America,Venezuela,VE,,Venezuela - Mario Briceño Iragorry,1999-11-10,
Tangara arthus arthus,Animalia,TANAGERS_AND_ALLIES_THRAUPIDAE,Golden Tanager ssp arthus,,1,-67.71492004,10.3769285,South America,Venezuela,VE,,Venezuela - Henri Pittier NP,1999-11-10,
Thraupis episcopus cana,Animalia,TANAGERS_AND_ALLIES_THRAUPIDAE,Blue-grey Tanager ssp cana,,1,-67.71492004,10.3769285,South America,Venezuela,VE,,Venezuela - Henri Pittier NP,1999-11-10,
Melanerpes rubricapillus,Animalia,WOODPECKERS_PICIDAE,Red-crowned Woodpecker,,1,-67.71354675293,10.377153631973,South America,Venezuela,VE,,Venezuela - Henri Pittier NP,1999-11-10,
Anisognathus somptuosus venezuelanus,Animalia,TANAGERS_AND_ALLIES_THRAUPIDAE,Blue-winged Mountain Tanager ssp venezuelanus,,1,-67.71217346,10.37760391,South America,Venezuela,VE,,Venezuela,1999-11-09,
Thraupis palmarum,Animalia,TANAGERS_AND_ALLIES_THRAUPIDAE,Palm Tanager,,1,-67.712173461914,10.377603911287,South America,Venezuela,VE,,Venezuela,1999-11-09,
Tachyphonus rufus,Animalia,TANAGERS_AND_ALLIES_THRAUPIDAE,White-lined Tanager,,1,-67.712173461914,10.377603911287,South America,Venezuela,VE,,Venezuela,1999-11-09,
Coereba flaveola luteola,Animalia,TANAGERS_AND_ALLIES_THRAUPIDAE,Bananaquit ssp luteola,,1,-67.71217346,10.37760391,South America,Venezuela,VE,,Venezuela,1999-11-09,
Pelecanus occidentalis carolinensis,Animalia,PELICANS_PELECANIDAE,Brown Pelican ssp carolinensis,,1,-66.871032714844,10.612896273562,South America,Venezuela,VE,,Venezuela - Avila NP,1999-11-08,
Thalasseus acuflavidus,Animalia,GULLS_TERNS_AND_SKIMMERS_LARIDAE,Cabot's Tern,,1,-64.04233497929926,11.02443220934292,South America,Venezuela,VE,,Venezuela - Isla de Margarita,2006-08-21,
Columbina squammata,Animalia,PIGEONS_AND_DOVES_COLUMBIDAE,Scaled Dove,,1,-63.84764671,11.11591702,South America,Venezuela,VE,,Venezuela - Antolín del Campo,2003-11-25,
Himantopus mexicanus,Animalia,STILTS_AND_AVOCETS_RECURVIROSTRIDAE,Black-necked Stilt,,250,-63.91891451,10.92883664,South America,Venezuela,VE,,Venezuela - García,2003-11-24,
Pelecanus occidentalis,Animalia,PELICANS_PELECANIDAE,Brown Pelican,,11,-63.73440685,11.19185541,South America,Venezuela,VE,,Venezuela - Antolín del Campo,2003-11-23,
Coereba flaveola,Animalia,TANAGERS_AND_ALLIES_THRAUPIDAE,Bananaquit,,2,-63.84610176,11.11126381,South America,Venezuela,VE,,Venezuela - Antolín del Campo,2003-11-23,
Coragyps atratus,Animalia,NEW_WORLD_VULTURES_CATHARTIDAE,Black Vulture,,300,-63.89742851,11.00708399,South America,Venezuela,VE,,Venezuela - Cerro El Copey NP,2003-11-22,
Ardea alba,Animalia,HERONS_ARDEIDAE,Great Egret,,1,-64.11307855585582,10.988750065500085,South America,Venezuela,VE,,Venezuela - Laguna de la Restinga NP,2003-11-21,
Butorides striata,Animalia,HERONS_ARDEIDAE,Striated Heron,,1,-64.11307855585582,10.988750065500085,South America,Venezuela,VE,,Venezuela - Laguna de la Restinga NP,2003-11-21,
Fregata magnificens,Animalia,FRIGATEBIRDS_FREGATTIDAE,Magnificent Frigatebird,,1,-63.84304018,11.12675809,South America,Venezuela,VE,,Venezuela - Antolín del Campo,2003-11-19,
Leucippus fallax,Animalia,HUMMINGBIRDS_TROCHILIDAE,Buffy Hummingbird,,1,-63.84304018,11.12675809,South America,Venezuela,VE,,Venezuela - Antolín del Campo,2003-11-19,
Pluvialis squatarola,Animalia,PLOVERS_CHARADRIIDAE,Grey Plover,,4,-63.84304018,11.12675809,South America,Venezuela,VE,,Venezuela - Antolín del Campo,2003-11-19,
Sula leucogaster,Animalia,GANNETS_AND_BOOBIES_SULIDAE,Brown Booby,,10,-63.85820206,11.14058614,South America,Venezuela,VE,,Venezuela - Antolín del Campo,2003-11-19,
Xylocopa spec.,Animalia,Apidae,Carpenter Bee unknown,,11,-63.84602301,11.11131413,South America,Venezuela,VE,,Venezuela - Antolín del Campo,2003-11-19,
Pelecanus occidentalis,Animalia,PELICANS_PELECANIDAE,Brown Pelican,,1,-63.84414182,11.11405953,South America,Venezuela,VE,,Venezuela - Antolín del Campo,2003-11-18,
Pelecanus occidentalis,Animalia,PELICANS_PELECANIDAE,Brown Pelican,,25,-63.84408109,11.1137776,South America,Venezuela,VE,,Venezuela - Antolín del Campo,2003-11-18,
Pelecanus occidentalis,Animalia,PELICANS_PELECANIDAE,Brown Pelican,,1,-64.41781998,10.30816373,South America,Venezuela,VE,,Venezuela - Mochima NP,2004-08-17,11:00
Hydrochoerus hydrochaeris,Animalia,CAVIES_CAVIIDAE,Capybara,,5,-69.48463351,7.97230397,South America,Venezuela,VE,,Venezuela - Autonomo Munoz,2004-08-06,07:45
Dendrocygna autumnalis,Animalia,DUCKS_GEESE_AND_SWANS_ANATIDAE,Black-bellied Whistling Duck,,4,-69.60639775,7.88586995,South America,Venezuela,VE,,Venezuela - Autonomo Munoz,2004-08-06,07:15
Opisthocomus hoazin,Animalia,HOATZIN_OPISTHOCOMIDAE,Hoatzin,,15,-69.47238922,8.03713345,South America,Venezuela,VE,,Venezuela - Autonomo Munoz,2004-08-05,14:00
Iguana iguana,Animalia,Iguanidae,Common Green Iguana,,1,-69.46689606,8.03033438,South America,Venezuela,VE,,Venezuela - Autonomo Munoz,2004-08-05,11:00
Dendrobates leucomelas,Animalia,Dendrobatidae,Yellow-banded Poison Frog,,2,-61.40041329,6.07958247,South America,Venezuela,VE,,Venezuela - Sifontes,2004-08-09,14:00
Inia geoffrensis,Animalia,INIIDAE,Amazon River Dolphin,,5,-69.4812566,8.00895907,South America,Venezuela,VE,,Venezuela - Autonomo Munoz,2004-08-05,10:00
Pelecanus occidentalis,Animalia,PELICANS_PELECANIDAE,Brown Pelican,,5,-67.60595614,10.51021446,South America,Venezuela,VE,,Venezuela - Henri Pittier NP,2004-07-27,17:45
Inia geoffrensis,Animalia,INIIDAE,Amazon River Dolphin,,5,-67.46429443,6.18868337,South America,Venezuela,VE,,Venezuela - Autonomo Pedro Camejo,2020-01-06,08:14
Rupicola peruvianus,Animalia,COTINGAS_COTINGIDAE,Andean Cock-of-the-rock,,1,-65.42503882316434,6.447638034820557,South America,Venezuela,VE,,Venezuela,2005-04-01,
Sicalis flaveola,Animalia,TANAGERS_AND_ALLIES_THRAUPIDAE,Saffron Finch,,10,-69.32994464,8.03363196,South America,Venezuela,VE,,Venezuela - Autonomo Munoz,1994-08-04,
Sicalis flaveola,Animalia,TANAGERS_AND_ALLIES_THRAUPIDAE,Saffron Finch,,50,-69.35540629,8.05453429,South America,Venezuela,VE,,Venezuela - Autonomo Munoz,1994-08-03,
Pelecanus occidentalis,Animalia,PELICANS_PELECANIDAE,Brown Pelican,,1000,-64.64386214,10.2153973,South America,Venezuela,VE,,Venezuela - Sotillo,2005-12-27,
Rhinella marina,Animalia,Bufonidae,Cane Toad,,1,-68.77258312,8.00193567,South America,Venezuela,VE,,Venezuela - Sosa,2012-12-25,
Cebus olivaceus,Animalia,NEW_WORLD_MONKEYS_CEBIDAE,Guianan Weeper Capuchin,,1,-61.13159182,8.60700182,South America,Venezuela,VE,,Venezuela,2013-01-03,
Hydrochoerus hydrochaeris,Animalia,CAVIES_CAVIIDAE,Capybara,,6,-65.83743981699021,6.726638022019731,South America,Venezuela,VE,,Venezuela - Cedeño,2012-12-25,
Ara macao,Animalia,PARROTS_PSITTACIDAE,Scarlet Macaw,,4,-70.06839752,7.99463475,South America,Venezuela,VE,,Venezuela - Pedraza,2005-12-20,
Mannophryne herminae,Animalia,Aromobatidae,Hermina's Poison Frog,,1,-67.583313,10.39995929,South America,Venezuela,VE,,Venezuela - Mario Briceño Iragorry,2011-11-07,
Pelecanus occidentalis,Animalia,PELICANS_PELECANIDAE,Brown Pelican,,6,-64.73098397,10.11396443,South America,Venezuela,VE,,Venezuela - Bolívar,1996-08-10,
Sicalis flaveola,Animalia,TANAGERS_AND_ALLIES_THRAUPIDAE,Saffron Finch,,7,-69.38094735,8.0514961,South America,Venezuela,VE,,Venezuela - Autonomo Munoz,1996-08-06,
Buteogallus urubitinga,Animalia,HAWKS_AND_EAGLES_ACCIPITRIDAE,Great Black Hawk,,1,-69.33287144,8.05820983,South America,Venezuela,VE,,Venezuela - Autonomo Munoz,1996-08-06,
Jacana jacana,Animalia,JACANAS_JACANIDAE,Wattled Jacana,,2,-65.51719308,9.91550478,South America,Venezuela,VE,,Venezuela - Bruzual,1996-08-05,
Caracara cheriway,Animalia,CARACAS_AND_FALCONS_FALCONIDAE,Northern Crested Caracara,,3,-65.51719308,9.91550478,South America,Venezuela,VE,,Venezuela - Bruzual,1996-08-05,
Bubulcus ibis,Animalia,HERONS_ARDEIDAE,Western Cattle Egret,,35,-65.51719308,9.91550478,South America,Venezuela,VE,,Venezuela - Bruzual,1996-08-05,
Ara macao,Animalia,PARROTS_PSITTACIDAE,Scarlet Macaw,,3,-62.81604767,6.26342757,South America,Venezuela,VE,,Venezuela - Canaima NP,1996-07-30,
Bucco tamatia,Animalia,PUFFBIRDS_BUCCONIDAE,Spotted Puffbird,,1,-62.84540176,6.21837754,South America,Venezuela,VE,,Venezuela - Canaima NP,1996-07-30,
Panthera onca,Animalia,CATS_FELIDAE,Jaguar,,1,-62.432384,10.60662,South America,Venezuela,VE,,Venezuela - Mariño,1999-07-29,
Chelonoidis carbonaria,Animalia,Testudinidae,Red-footed Tortoise,,1,-62.43238449,10.60661964,South America,Venezuela,VE,,Venezuela - Mariño,1999-07-29,
Iguana iguana,Animalia,Iguanidae,Common Green Iguana,,9,-64.60500598,10.29169646,South America,Venezuela,VE,,Venezuela - Isla,1999-07-17,
Inia geoffrensis,Animalia,INIIDAE,Amazon River Dolphin,,1,-69.52440262,8.00007449,South America,Venezuela,VE,,Venezuela - Autonomo Munoz,2005-12-21,
Jabiru mycteria,Animalia,STORKS_CICONIIDAE,Jabiru,,1,-70.06839752,7.99463475,South America,Venezuela,VE,,Venezuela - Pedraza,2005-12-20,
Iguana iguana,Animalia,Iguanidae,Common Green Iguana,,1,-68.8952794957735,7.6789685754644,South America,Venezuela,VE,,Venezuela - Los Llanos,2002-03-25,
Danaus plexippus,Animalia,BRUSHFOOTED_BUTTERFLIES_NYMPHALIDAE,American Monarch,,1,-65.42503882316434,6.447638034820557,South America,Venezuela,VE,,Venezuela,2002-03-15,
Paroaria nigrogenis,Animalia,TANAGERS_AND_ALLIES_THRAUPIDAE,Masked Cardinal,,1,-68.8952794957735,7.6789685754644,South America,Venezuela,VE,,Venezuela - Los Llanos,2002-03-25,
Sula dactylatra dactylatra,Animalia,GANNETS_AND_BOOBIES_SULIDAE,Masked Booby ssp dactylatra,,3,-64.3008666756576,15.1183237764046,South America,Venezuela,VE,,Venezuela - Caracas,2018-01-10,07:52
Opisthocomus hoazin,Animalia,HOATZIN_OPISTHOCOMIDAE,Hoatzin,,2,-62.22744151,8.63927142,South America,Venezuela,VE,,Venezuela - Sotillo,2013-01-03,
Cathartes aura,Animalia,NEW_WORLD_VULTURES_CATHARTIDAE,Turkey Vulture,,1,-62.22744151,8.63927142,South America,Venezuela,VE,,Venezuela - Sotillo,2013-01-02,
Cathartes aura,Animalia,NEW_WORLD_VULTURES_CATHARTIDAE,Turkey Vulture,,1,-62.31807914,5.69011085,South America,Venezuela,VE,,Venezuela - Gran Sabana,2012-12-30,
Alouatta arctoidea,Animalia,SPIDER_MONKEYS_ATELIDAE,Ursine Howler Monkey,,6,-69.51106668,7.35916834,South America,Venezuela,VE,,Venezuela - Autonomo Munoz,2006-01-06,
Alouatta arctoidea,Animalia,SPIDER_MONKEYS_ATELIDAE,Ursine Howler Monkey,,9,-69.33150887,7.42692159,South America,Venezuela,VE,,Venezuela - Autonomo Munoz,2006-01-06,
Pyrocephalus obscurus,Animalia,TYRANT_FLYCATCHERS_TYRANNIDAE,Vermilion Flycatcher,,5,-69.32670236,7.43611344,South America,Venezuela,VE,,Venezuela - Autonomo Munoz,2006-01-06,
Paroaria nigrogenis,Animalia,TANAGERS_AND_ALLIES_THRAUPIDAE,Masked Cardinal,,10,-69.33150887,7.43747518,South America,Venezuela,VE,,Venezuela - Autonomo Munoz,2006-01-06,
Athene cunicularia,Animalia,OWLS_STRIGIDAE,Burrowing Owl,,6,-69.39159036,7.4109205,South America,Venezuela,VE,,Venezuela - Autonomo Munoz,2006-01-06,
Bubo virginianus nacurutu,Animalia,OWLS_STRIGIDAE,Great Horned Owl ssp nacurutu,,2,-69.32876229,7.43543257,South America,Venezuela,VE,,Venezuela - Autonomo Munoz,2006-01-06,
Neochen jubata,Animalia,DUCKS_GEESE_AND_SWANS_ANATIDAE,Orinoco Goose,,180,-69.34077859,7.42113403,South America,Venezuela,VE,,Venezuela - Autonomo Munoz,2006-01-06,
Alouatta arctoidea,Animalia,SPIDER_MONKEYS_ATELIDAE,Ursine Howler Monkey,,7,-69.32876229,7.43236864,South America,Venezuela,VE,,Venezuela - Autonomo Munoz,2006-01-05,
Paroaria nigrogenis,Animalia,TANAGERS_AND_ALLIES_THRAUPIDAE,Masked Cardinal,,28,-69.32944894,7.43543257,South America,Venezuela,VE,,Venezuela - Autonomo Munoz,2006-01-05,
Pyrocephalus obscurus,Animalia,TYRANT_FLYCATCHERS_TYRANNIDAE,Vermilion Flycatcher,,8,-69.381634,7.41364413,South America,Venezuela,VE,,Venezuela - Autonomo Munoz,2006-01-05,
Bubo virginianus nacurutu,Animalia,OWLS_STRIGIDAE,Great Horned Owl ssp nacurutu,,2,-69.32684854,7.43095635,South America,Venezuela,VE,,Venezuela - Autonomo Munoz,2006-01-05,
Athene cunicularia,Animalia,OWLS_STRIGIDAE,Burrowing Owl,,8,-69.36263859,7.41920837,South America,Venezuela,VE,,Venezuela - Autonomo Munoz,2006-01-05,
Neochen jubata,Animalia,DUCKS_GEESE_AND_SWANS_ANATIDAE,Orinoco Goose,,210,-69.34495747,7.41699545,South America,Venezuela,VE,,Venezuela - Autonomo Munoz,2006-01-05,
Eunectes murinus,Animalia,Boidae,Anaconda,,1,-69.32704836,7.42792031,South America,Venezuela,VE,,Venezuela - Autonomo Munoz,2006-01-04,
Alouatta arctoidea,Animalia,SPIDER_MONKEYS_ATELIDAE,Ursine Howler Monkey,,12,-69.32078272,7.43169308,South America,Venezuela,VE,,Venezuela - Autonomo Munoz,2006-01-04,
Pyrocephalus obscurus,Animalia,TYRANT_FLYCATCHERS_TYRANNIDAE,Vermilion Flycatcher,,8,-69.41018879,7.39997262,South America,Venezuela,VE,,Venezuela - Autonomo Munoz,2006-01-04,
Pyrocephalus obscurus,Animalia,TYRANT_FLYCATCHERS_TYRANNIDAE,Vermilion Flycatcher,,2,-67.51230061,6.89324927,South America,Venezuela,VE,,Venezuela - Cinaruco-Capanaparo NP,2006-01-04,
Paroaria nigrogenis,Animalia,TANAGERS_AND_ALLIES_THRAUPIDAE,Masked Cardinal,,3,-67.51230061,6.89324927,South America,Venezuela,VE,,Venezuela - Cinaruco-Capanaparo NP,2006-01-04,
Agamia agami,Animalia,HERONS_ARDEIDAE,Agami Heron,,1,-66.21351063,5.07492489,South America,Venezuela,VE,,Venezuela - D. Atures,2006-01-02,
Hoploxypterus cayanus,Animalia,PLOVERS_CHARADRIIDAE,Pied Plover,,2,-67.61671498,5.50643944,South America,Venezuela,VE,,Venezuela - D. Atures,2005-12-30,
Caracara cheriway,Animalia,CARACAS_AND_FALCONS_FALCONIDAE,Northern Crested Caracara,,1,-67.61555627,5.50562781,South America,Venezuela,VE,,Venezuela - D. Atures,2005-12-30,
Tachycineta albiventer,Animalia,SWALLOWS_HIRUNDINIDAE,White-winged Swallow,,30,-61.42820835,6.17511564,South America,Venezuela,VE,,Venezuela - Sifontes,2005-12-28,
Trogon viridis,Animalia,TROGONS_TROGONIDAE,Green-backed Trogon,,2,-61.6808939,7.99438242,South America,Venezuela,VE,,Venezuela - Piar,2005-12-26,
Harpia harpyja,Animalia,HAWKS_AND_EAGLES_ACCIPITRIDAE,Harpy Eagle,,1,-61.60834551,7.88740029,South America,Venezuela,VE,,Venezuela - Piar,2005-12-26,
Buteo nitidus nitidus,Animalia,HAWKS_AND_EAGLES_ACCIPITRIDAE,Grey-lined Hawk ssp nitidus,,1,-61.68408304,8.03529027,South America,Venezuela,VE,,Venezuela - Piar,2005-12-26,
Buteo nitidus nitidus,Animalia,HAWKS_AND_EAGLES_ACCIPITRIDAE,Grey-lined Hawk ssp nitidus,,1,-62.03907877,8.00622333,South America,Venezuela,VE,,Venezuela - Piar,2005-12-25,
Opisthocomus hoazin,Animalia,HOATZIN_OPISTHOCOMIDAE,Hoatzin,,2,-60.88245392,8.65111725,South America,Venezuela,VE,,Venezuela,1997-05-18,12:00
Platalea ajaja,Animalia,IBISSES_AND_SPOONBILLS_THRESKIORNITHIDAE,Roseate Spoonbill,,3,-69.575155377388,7.5797295679123,South America,Venezuela,VE,,Venezuela - Autonomo Munoz,2000-10-28,15:20
Ardea cocoi,Animalia,HERONS_ARDEIDAE,Cocoi Heron,,2,-69.572910368443,7.5762851142428,South America,Venezuela,VE,,Venezuela - Autonomo Munoz,2000-10-28,15:20
Inia geoffrensis,Animalia,INIIDAE,Amazon River Dolphin,,2,-60.780084729195,9.0679382473637,South America,Venezuela,VE,,Venezuela,2000-10-11,10:30
Schiffornis olivacea,Animalia,Tityridae,Guianan Schiffornis,,1,-61.612472527195,4.5140454230099,South America,Venezuela,VE,,Venezuela - Gran Sabana,2016-04-16,
Colibri cyanotus kerdeli,Animalia,HUMMINGBIRDS_TROCHILIDAE,Lesser Violetear ssp kerdeli,,1,-63.561043292284,10.224255480422,South America,Venezuela,VE,,Venezuela - Caripe,2016-04-07,
Paroaria nigrogenis,Animalia,TANAGERS_AND_ALLIES_THRAUPIDAE,Masked Cardinal,,1,-70.052032526582,8.0163959341838,South America,Venezuela,VE,,Venezuela - Pedraza,2016-04-03,
Buteo nitidus nitidus,Animalia,HAWKS_AND_EAGLES_ACCIPITRIDAE,Grey-lined Hawk ssp nitidus,,1,-70.453752278845,8.7899412085398,South America,Venezuela,VE,,Venezuela - Bolívar,2016-04-03,
Piranga lutea faceta,Animalia,GROSBEAKS_SALTATORS_ALLIES_CARDINALIDAE,Tooth-billed Tanager ssp faceta,,1,-70.51504601,8.80787353,South America,Venezuela,VE,,Venezuela - Bolívar,2016-04-02,
Cinclodes albidiventris,Animalia,OVENBIRDS_FURNARIIDAE,Chestnut-winged Cinclodes,,2,-70.843178573996,8.803754586154,South America,Venezuela,VE,,Venezuela - Sierra de la Culata NP,2016-04-02,
Cinclodes albidiventris,Animalia,OVENBIRDS_FURNARIIDAE,Chestnut-winged Cinclodes,,1,-70.828126017004,8.8001868503451,South America,Venezuela,VE,,Venezuela - Rangel,2016-04-01,
Cebus brunneus,Animalia,NEW_WORLD_MONKEYS_CEBIDAE,Brown Weeper Capuchin,,5,-67.76201159,10.40534396,South America,Venezuela,VE,,Venezuela - Mario Briceño Iragorry,2016-03-30,
Phacellodomus inornatus,Animalia,OVENBIRDS_FURNARIIDAE,Plain Thornbird,,6,-68.327976465225,10.868705051433,South America,Venezuela,VE,,Venezuela - Silva,2007-09-09,
Buteo nitidus nitidus,Animalia,HAWKS_AND_EAGLES_ACCIPITRIDAE,Grey-lined Hawk ssp nitidus,,1,-68.253800813109,10.8545384693,South America,Venezuela,VE,,Venezuela - Morrocoy NP,2007-09-09,06:00
Buteo nitidus nitidus,Animalia,HAWKS_AND_EAGLES_ACCIPITRIDAE,Grey-lined Hawk ssp nitidus,,1,-67.636642456055,10.260195130098,South America,Venezuela,VE,,Venezuela - Diego Ibarra,2000-12-06,
Tangara cayana,Animalia,TANAGERS_AND_ALLIES_THRAUPIDAE,Burnished-buff Tanager,,1,-69.3358254437,8.04562786993,South America,Venezuela,VE,,Venezuela - Autonomo Munoz,2011-11-15,
Buteogallus urubitinga,Animalia,HAWKS_AND_EAGLES_ACCIPITRIDAE,Great Black Hawk,,1,-67.6051568989,10.5109737083,South America,Venezuela,VE,,Venezuela - Henri Pittier NP,2011-11-08,
Cinclodes albidiventris,Animalia,OVENBIRDS_FURNARIIDAE,Chestnut-winged Cinclodes,,1,-70.810916,8.845798,South America,Venezuela,VE,,Venezuela - Miranda,2005-07-10,
Cinclodes albidiventris,Animalia,OVENBIRDS_FURNARIIDAE,Chestnut-winged Cinclodes,,1,-70.8,8.8333333333,South America,Venezuela,VE,,Venezuela - Miranda,2005-07-10,
Pelecanus occidentalis,Animalia,PELICANS_PELECANIDAE,Brown Pelican,,1,-64.53170744390313,10.310974534000053,South America,Venezuela,VE,,Venezuela - Mochima NP,2013-01-04,
Pelecanus occidentalis,Animalia,PELICANS_PELECANIDAE,Brown Pelican,,1,-67.5654602121,10.5156053012,South America,Venezuela,VE,,Venezuela - Girardot,2012-12-17,
Pelecanus occidentalis,Animalia,PELICANS_PELECANIDAE,Brown Pelican,,1,-67.6123809849,10.488149469,South America,Venezuela,VE,,Venezuela - Mario Briceño Iragorry,2012-12-16,
Cathartes burrovianus,Animalia,NEW_WORLD_VULTURES_CATHARTIDAE,Lesser Yellow-headed Vulture,,1,-61.6918943077,9.18525484106,South America,Venezuela,VE,,Venezuela - Delta del Orinoco NP,2013-01-03,
Coragyps atratus,Animalia,NEW_WORLD_VULTURES_CATHARTIDAE,Black Vulture,,1,-64.53597384572626,10.309044563000072,South America,Venezuela,VE,,Venezuela - Mochima NP,2013-01-05,
Zonotrichia capensis,Animalia,PASSERELLIDAE,Rufous-collared Sparrow,,1,-70.94828130861862,8.52180000000007,South America,Venezuela,VE,,Venezuela - Sierra Nevada NP,2012-12-22,
Icterus icterus,Animalia,ICTERIDS_ICTERIDAE,Venezuelan Troupial,,1,-67.4468811974,6.45027513157,South America,Venezuela,VE,,Venezuela - Autonomo Pedro Camejo,2012-12-26,
Icterus nigrogularis,Animalia,ICTERIDS_ICTERIDAE,Yellow Oriole,,1,-67.4468811974,6.45027513157,South America,Venezuela,VE,,Venezuela - Autonomo Pedro Camejo,2012-12-26,
Chloroceryle amazona,Animalia,KINGFISHERS_ALCEDINIDAE,Amazon Kingfisher,,1,-67.3892029747,6.34109562221,South America,Venezuela,VE,,Venezuela - Autonomo Pedro Camejo,2012-12-26,
Jacana jacana,Animalia,JACANAS_JACANIDAE,Wattled Jacana,,1,-69.3585022073,7.60605542985,South America,Venezuela,VE,,Venezuela - Autonomo Munoz,2012-12-25,
Eurypyga helias,Animalia,SUNBITTERN_EURYPYGIDAE,Sunbittern,,1,-67.5146393292,6.37050810695,South America,Venezuela,VE,,Venezuela - Autonomo Pedro Camejo,2012-12-26,
Rostrhamus sociabilis,Animalia,HAWKS_AND_EAGLES_ACCIPITRIDAE,Snail Kite,,1,-69.2920280469,8.06210202568,South America,Venezuela,VE,,Venezuela - Autonomo Munoz,2012-12-25,
Milvago chimachima,Animalia,CARACAS_AND_FALCONS_FALCONIDAE,Yellow-headed Caracara,,1,-69.3994880584,8.09824514632,South America,Venezuela,VE,,Venezuela - Sosa,2012-12-24,
Phalacrocorax brasilianus,Animalia,CORMORANTS_PHALACROCORACIDAE,Neotropic Cormorant,,1,-67.6968201622,7.76482443865,South America,Venezuela,VE,,Venezuela - Autonomo Biruaca,2012-12-26,
Phalacrocorax brasilianus,Animalia,CORMORANTS_PHALACROCORACIDAE,Neotropic Cormorant,,1,-69.3289936065,8.0482581732,South America,Venezuela,VE,,Venezuela - Autonomo Munoz,2012-12-25,
Phalacrocorax brasilianus,Animalia,CORMORANTS_PHALACROCORACIDAE,Neotropic Cormorant,,1,-69.3398082733,8.09074859077,South America,Venezuela,VE,,Venezuela - Sosa,2012-12-24,
Egretta caerulea,Animalia,HERONS_ARDEIDAE,Little Blue Heron,,1,-69.3283069617,8.04672843558,South America,Venezuela,VE,,Venezuela - Autonomo Munoz,2012-12-25,
Ardea alba,Animalia,HERONS_ARDEIDAE,Great Egret,,1,-69.3283069617,8.04672843558,South America,Venezuela,VE,,Venezuela - Autonomo Munoz,2012-12-25,
Egretta thula,Animalia,HERONS_ARDEIDAE,Snowy Egret,,1,-69.3283069617,8.04672843558,South America,Venezuela,VE,,Venezuela - Autonomo Munoz,2012-12-25,
Bubulcus ibis,Animalia,HERONS_ARDEIDAE,Western Cattle Egret,,1,-69.3283069617,8.04672843558,South America,Venezuela,VE,,Venezuela - Autonomo Munoz,2012-12-25,
Eudocimus ruber,Animalia,IBISSES_AND_SPOONBILLS_THRESKIORNITHIDAE,Scarlet Ibis,,1,-69.3312217738,8.04871199494,South America,Venezuela,VE,,Venezuela - Autonomo Munoz,2012-12-25,
Dendrocygna autumnalis,Animalia,DUCKS_GEESE_AND_SWANS_ANATIDAE,Black-bellied Whistling Duck,,1,-69.3312217738,8.04871199494,South America,Venezuela,VE,,Venezuela - Autonomo Munoz,2012-12-25,
Thraupis episcopus,Animalia,TANAGERS_AND_ALLIES_THRAUPIDAE,Blue-grey Tanager,,1,-63.769722659000706,7.845935021266343,South America,Venezuela,VE,,Venezuela - Heres,2012-12-28,
Fulica americana,Animalia,RAILS_RALLIDAE,American Coot,,4,-69.4249516726,9.69653407836,South America,Venezuela,VE,,Venezuela - Yacambú NP,2007-09-11,
